{
"type": "FeatureCollection",
"name": "10",
"crs": { "type": "name", "properties": { "name": "urn:ogc:def:crs:OGC:1.3:CRS84" } },
"features": [
{ "type": "Feature", "properties": { "geoid": "10003002200", "county_name": "New Castle County", "place_name": null, "state_name": "Delaware", "state_abbr": "DE", "is_rural": false, "dci_score": 69.7, "dci_quintile": 3.0, "is_cra_lmi": true, "income_level": "L", "is_persistent_poverty": false, "is_tribal_overlap": false, "tribal_area_name": null, "aian_pct": 0.0044, "has_nmtc": false, "nmtc_projects": 0, "nmtc_total_usd": 0.0 }, "geometry": { "type": "Polygon", "coordinates": [ [ [ -75.566205, 39.745725 ], [ -75.564792, 39.747811 ], [ -75.559312, 39.745586 ], [ -75.560324, 39.744106 ], [ -75.560724, 39.743477 ], [ -75.561973, 39.741688 ], [ -75.564626, 39.742779 ], [ -75.565738, 39.743221 ], [ -75.567433, 39.743922 ], [ -75.566205, 39.745725 ] ] ] } },
{ "type": "Feature", "properties": { "geoid": "10001040900", "county_name": "Kent County", "place_name": null, "state_name": "Delaware", "state_abbr": "DE", "is_rural": true, "dci_score": 44.7, "dci_quintile": 5.0, "is_cra_lmi": false, "income_level": "U", "is_persistent_poverty": false, "is_tribal_overlap": false, "tribal_area_name": null, "aian_pct": 0.0, "has_nmtc": false, "nmtc_projects": 0, "nmtc_total_usd": 0.0 }, "geometry": { "type": "Polygon", "coordinates": [ [ [ -75.531291, 39.170898 ], [ -75.529962, 39.172948 ], [ -75.529871, 39.174467 ], [ -75.529561, 39.181 ], [ -75.518107, 39.16995 ], [ -75.517117, 39.168113 ], [ -75.516422, 39.164901 ], [ -75.515275, 39.163267 ], [ -75.517184, 39.162833 ], [ -75.519211, 39.163131 ], [ -75.528267, 39.161113 ], [ -75.53156, 39.169824 ], [ -75.531291, 39.170898 ] ] ] } },
{ "type": "Feature", "properties": { "geoid": "10001043300", "county_name": "Kent County", "place_name": null, "state_name": "Delaware", "state_abbr": "DE", "is_rural": true, "dci_score": 40.7, "dci_quintile": 5.0, "is_cra_lmi": false, "income_level": "U", "is_persistent_poverty": false, "is_tribal_overlap": true, "tribal_area_name": "Lenape Indian Tribe of Delaware SDTSA", "aian_pct": 0.0002, "has_nmtc": false, "nmtc_projects": 0, "nmtc_total_usd": 0.0 }, "geometry": { "type": "Polygon", "coordinates": [ [ [ -75.5712, 39.191052 ], [ -75.567312, 39.193393 ], [ -75.566246, 39.19374 ], [ -75.564214, 39.194429 ], [ -75.564148, 39.194504 ], [ -75.564044, 39.195402 ], [ -75.5649, 39.196743 ], [ -75.565239, 39.198401 ], [ -75.564924, 39.198894 ], [ -75.559177, 39.202321 ], [ -75.555891, 39.200037 ], [ -75.553692, 39.198473 ], [ -75.548462, 39.194718 ], [ -75.53093, 39.182114 ], [ -75.529561, 39.181 ], [ -75.529871, 39.174467 ], [ -75.529962, 39.172948 ], [ -75.531291, 39.170898 ], [ -75.53156, 39.169824 ], [ -75.528267, 39.161113 ], [ -75.53776, 39.159012 ], [ -75.542852, 39.158895 ], [ -75.546488, 39.16938 ], [ -75.5477, 39.172224 ], [ -75.553581, 39.176229 ], [ -75.554471, 39.176916 ], [ -75.556255, 39.178705 ], [ -75.560021, 39.182313 ], [ -75.5608, 39.184355 ], [ -75.562273, 39.184386 ], [ -75.567578, 39.18852 ], [ -75.569073, 39.189234 ], [ -75.5712, 39.191052 ] ] ] } },
{ "type": "Feature", "properties": { "geoid": "10003002600", "county_name": "New Castle County", "place_name": null, "state_name": "Delaware", "state_abbr": "DE", "is_rural": false, "dci_score": 69.7, "dci_quintile": 3.0, "is_cra_lmi": true, "income_level": "M", "is_persistent_poverty": false, "is_tribal_overlap": false, "tribal_area_name": null, "aian_pct": 0.0, "has_nmtc": false, "nmtc_projects": 0, "nmtc_total_usd": 0.0 }, "geometry": { "type": "Polygon", "coordinates": [ [ [ -75.573257, 39.735317 ], [ -75.572106, 39.737029 ], [ -75.572006, 39.737149 ], [ -75.570989, 39.738677 ], [ -75.567433, 39.743922 ], [ -75.565738, 39.743221 ], [ -75.564626, 39.742779 ], [ -75.561973, 39.741688 ], [ -75.561317, 39.741425 ], [ -75.559115, 39.740589 ], [ -75.565715, 39.737894 ], [ -75.569119, 39.736578 ], [ -75.573074, 39.735004 ], [ -75.573257, 39.735317 ] ] ] } },
{ "type": "Feature", "properties": { "geoid": "10003014705", "county_name": "New Castle County", "place_name": null, "state_name": "Delaware", "state_abbr": "DE", "is_rural": false, "dci_score": 51.4, "dci_quintile": 5.0, "is_cra_lmi": false, "income_level": "U", "is_persistent_poverty": false, "is_tribal_overlap": false, "tribal_area_name": null, "aian_pct": 0.0, "has_nmtc": false, "nmtc_projects": 0, "nmtc_total_usd": 0.0 }, "geometry": { "type": "Polygon", "coordinates": [ [ [ -75.736081, 39.661738 ], [ -75.728532, 39.66229 ], [ -75.726564, 39.662704 ], [ -75.719979, 39.665272 ], [ -75.716918, 39.666542 ], [ -75.716729, 39.666645 ], [ -75.71435, 39.66796 ], [ -75.712168, 39.669463 ], [ -75.705887, 39.673729 ], [ -75.703599, 39.674849 ], [ -75.698721, 39.677399 ], [ -75.698614, 39.677276 ], [ -75.696918, 39.671735 ], [ -75.696053, 39.66966 ], [ -75.696645, 39.660257 ], [ -75.696808, 39.65901 ], [ -75.696917, 39.658182 ], [ -75.701117, 39.655684 ], [ -75.703752, 39.654615 ], [ -75.706728, 39.653787 ], [ -75.732038, 39.648676 ], [ -75.732125, 39.648924 ], [ -75.733646, 39.65395 ], [ -75.735478, 39.66003 ], [ -75.736081, 39.661738 ] ] ] } },
{ "type": "Feature", "properties": { "geoid": "10003014404", "county_name": "New Castle County", "place_name": "Wilmington", "state_name": "Delaware", "state_abbr": "DE", "is_rural": false, "dci_score": 28.5, "dci_quintile": 5.0, "is_cra_lmi": false, "income_level": "U", "is_persistent_poverty": false, "is_tribal_overlap": false, "tribal_area_name": null, "aian_pct": 0.0146, "has_nmtc": false, "nmtc_projects": 0, "nmtc_total_usd": 0.0 }, "geometry": { "type": "Polygon", "coordinates": [ [ [ -75.788655461480403, 39.659572794876603 ], [ -75.788633203644906, 39.671513063759001 ], [ -75.788616, 39.680742 ], [ -75.788658, 39.681911 ], [ -75.788603655611993, 39.685655183687999 ], [ -75.788580374480603, 39.687259191678201 ], [ -75.788571706359093, 39.687856402177701 ], [ -75.788479176698303, 39.694231449529298 ], [ -75.788466537961099, 39.695102224881801 ], [ -75.784988, 39.69383 ], [ -75.784402, 39.693604 ], [ -75.783596, 39.693295 ], [ -75.780696, 39.692181 ], [ -75.776769, 39.690681 ], [ -75.776119, 39.690427 ], [ -75.775269, 39.690112 ], [ -75.776323, 39.688076 ], [ -75.775618, 39.686181 ], [ -75.775196, 39.678457 ], [ -75.773981, 39.675869 ], [ -75.773026, 39.673959 ], [ -75.771908, 39.671651 ], [ -75.770612, 39.670437 ], [ -75.771723, 39.669314 ], [ -75.772651, 39.668429 ], [ -75.788431434671395, 39.654318127515502 ], [ -75.788658, 39.658211 ], [ -75.788655461480403, 39.659572794876603 ] ] ] } },
{ "type": "Feature", "properties": { "geoid": "10003014908", "county_name": "New Castle County", "place_name": null, "state_name": "Delaware", "state_abbr": "DE", "is_rural": false, "dci_score": 33.6, "dci_quintile": 5.0, "is_cra_lmi": true, "income_level": "L", "is_persistent_poverty": false, "is_tribal_overlap": false, "tribal_area_name": null, "aian_pct": 0.0034, "has_nmtc": false, "nmtc_projects": 0, "nmtc_total_usd": 0.0 }, "geometry": { "type": "Polygon", "coordinates": [ [ [ -75.634933, 39.655133 ], [ -75.631201, 39.656547 ], [ -75.629904, 39.656763 ], [ -75.627303, 39.656474 ], [ -75.624622, 39.654796 ], [ -75.623725, 39.653532 ], [ -75.622663, 39.650791 ], [ -75.627118, 39.649249 ], [ -75.63109, 39.648317 ], [ -75.633592, 39.653244 ], [ -75.634933, 39.655133 ] ] ] } },
{ "type": "Feature", "properties": { "geoid": "10003015502", "county_name": "New Castle County", "place_name": "Dover", "state_name": "Delaware", "state_abbr": "DE", "is_rural": false, "dci_score": 33.6, "dci_quintile": 5.0, "is_cra_lmi": true, "income_level": "M", "is_persistent_poverty": false, "is_tribal_overlap": false, "tribal_area_name": null, "aian_pct": 0.0, "has_nmtc": false, "nmtc_projects": 0, "nmtc_total_usd": 0.0 }, "geometry": { "type": "Polygon", "coordinates": [ [ [ -75.552426, 39.699508 ], [ -75.551223, 39.702866 ], [ -75.548342, 39.711393 ], [ -75.544844, 39.722411 ], [ -75.535661, 39.718755 ], [ -75.533205, 39.71375 ], [ -75.532534, 39.711403 ], [ -75.532585, 39.706638 ], [ -75.530236, 39.704563 ], [ -75.525533030885995, 39.700503200262297 ], [ -75.531911820720694, 39.692894584837703 ], [ -75.536697, 39.694407 ], [ -75.540617, 39.695014 ], [ -75.55368, 39.695751 ], [ -75.552426, 39.699508 ] ] ] } },
{ "type": "Feature", "properties": { "geoid": "10003000601", "county_name": "New Castle County", "place_name": null, "state_name": "Delaware", "state_abbr": "DE", "is_rural": false, "dci_score": 72.9, "dci_quintile": 3.0, "is_cra_lmi": true, "income_level": "L", "is_persistent_poverty": false, "is_tribal_overlap": false, "tribal_area_name": null, "aian_pct": 0.0, "has_nmtc": false, "nmtc_projects": 0, "nmtc_total_usd": 0.0 }, "geometry": { "type": "Polygon", "coordinates": [ [ [ -75.534544, 39.751586 ], [ -75.533287, 39.752794 ], [ -75.531428, 39.754545 ], [ -75.531904, 39.756248 ], [ -75.525816, 39.759044 ], [ -75.521575, 39.75352 ], [ -75.521537, 39.753472 ], [ -75.522049, 39.753341 ], [ -75.525216, 39.752018 ], [ -75.527966, 39.749461 ], [ -75.531615, 39.746054 ], [ -75.535925, 39.748783 ], [ -75.534544, 39.751586 ] ] ] } },
{ "type": "Feature", "properties": { "geoid": "10003002300", "county_name": "New Castle County", "place_name": null, "state_name": "Delaware", "state_abbr": "DE", "is_rural": false, "dci_score": 69.7, "dci_quintile": 3.0, "is_cra_lmi": true, "income_level": "L", "is_persistent_poverty": false, "is_tribal_overlap": false, "tribal_area_name": null, "aian_pct": 0.0, "has_nmtc": false, "nmtc_projects": 0, "nmtc_total_usd": 0.0 }, "geometry": { "type": "Polygon", "coordinates": [ [ [ -75.571993, 39.750751 ], [ -75.568442, 39.749294 ], [ -75.566511, 39.748513 ], [ -75.564792, 39.747811 ], [ -75.566205, 39.745725 ], [ -75.567433, 39.743922 ], [ -75.569136, 39.744616 ], [ -75.571097, 39.74541 ], [ -75.574639, 39.746869 ], [ -75.571993, 39.750751 ] ] ] } },
{ "type": "Feature", "properties": { "geoid": "10005050406", "county_name": "Sussex County", "place_name": null, "state_name": "Delaware", "state_abbr": "DE", "is_rural": true, "dci_score": 66.7, "dci_quintile": 4.0, "is_cra_lmi": true, "income_level": "M", "is_persistent_poverty": false, "is_tribal_overlap": false, "tribal_area_name": null, "aian_pct": 0.0, "has_nmtc": false, "nmtc_projects": 0, "nmtc_total_usd": 0.0 }, "geometry": { "type": "Polygon", "coordinates": [ [ [ -75.62255, 38.661685 ], [ -75.622272, 38.663976 ], [ -75.621576, 38.669018 ], [ -75.617951, 38.68642 ], [ -75.615134, 38.699765 ], [ -75.614983, 38.699688 ], [ -75.61051, 38.697527 ], [ -75.610152, 38.697369 ], [ -75.608743, 38.696779 ], [ -75.60451, 38.695499 ], [ -75.603076, 38.695164 ], [ -75.602033, 38.695115 ], [ -75.600023, 38.695524 ], [ -75.590503, 38.698988 ], [ -75.589076, 38.699672 ], [ -75.590863, 38.685061 ], [ -75.592136, 38.674648 ], [ -75.592748, 38.669596 ], [ -75.593842, 38.66063 ], [ -75.5944, 38.655777 ], [ -75.594263, 38.65276 ], [ -75.594097, 38.650322 ], [ -75.594082, 38.65008 ], [ -75.594347, 38.650042 ], [ -75.594258, 38.648982 ], [ -75.594193, 38.648173 ], [ -75.594186, 38.648083 ], [ -75.593834, 38.643689 ], [ -75.594294, 38.644274 ], [ -75.596899, 38.642674 ], [ -75.597598, 38.638735 ], [ -75.599077, 38.638507 ], [ -75.602291, 38.638975 ], [ -75.605717, 38.641166 ], [ -75.609034, 38.640593 ], [ -75.611418, 38.640032 ], [ -75.614148, 38.63794 ], [ -75.61425, 38.638208 ], [ -75.618133, 38.64637 ], [ -75.6223, 38.659828 ], [ -75.62255, 38.661685 ] ] ] } },
{ "type": "Feature", "properties": { "geoid": "10003001500", "county_name": "New Castle County", "place_name": null, "state_name": "Delaware", "state_abbr": "DE", "is_rural": false, "dci_score": 38.1, "dci_quintile": 5.0, "is_cra_lmi": false, "income_level": "NA", "is_persistent_poverty": false, "is_tribal_overlap": false, "tribal_area_name": null, "aian_pct": 0.0, "has_nmtc": false, "nmtc_projects": 0, "nmtc_total_usd": 0.0 }, "geometry": { "type": "Polygon", "coordinates": [ [ [ -75.562887, 39.750573 ], [ -75.562292, 39.75144 ], [ -75.560813, 39.753629 ], [ -75.556593, 39.752485 ], [ -75.555094, 39.751144 ], [ -75.556246, 39.75008 ], [ -75.556845, 39.74922 ], [ -75.557419, 39.748356 ], [ -75.559312, 39.745586 ], [ -75.564792, 39.747811 ], [ -75.562887, 39.750573 ] ] ] } },
{ "type": "Feature", "properties": { "geoid": "10003015802", "county_name": "New Castle County", "place_name": null, "state_name": "Delaware", "state_abbr": "DE", "is_rural": false, "dci_score": 33.6, "dci_quintile": 5.0, "is_cra_lmi": true, "income_level": "M", "is_persistent_poverty": false, "is_tribal_overlap": false, "tribal_area_name": null, "aian_pct": 0.0, "has_nmtc": false, "nmtc_projects": 0, "nmtc_total_usd": 0.0 }, "geometry": { "type": "Polygon", "coordinates": [ [ [ -75.557369, 39.685337 ], [ -75.557067, 39.686143 ], [ -75.556495, 39.687807 ], [ -75.55368, 39.695751 ], [ -75.540617, 39.695014 ], [ -75.536697, 39.694407 ], [ -75.531911820720694, 39.692894584837703 ], [ -75.535076119398596, 39.689120211899798 ], [ -75.550807793343793, 39.6703554837718 ], [ -75.554027, 39.67723 ], [ -75.555922, 39.67782 ], [ -75.555496, 39.682255 ], [ -75.55793, 39.683735 ], [ -75.557369, 39.685337 ] ] ] } },
{ "type": "Feature", "properties": { "geoid": "10005050807", "county_name": "Sussex County", "place_name": null, "state_name": "Delaware", "state_abbr": "DE", "is_rural": true, "dci_score": 24.5, "dci_quintile": 5.0, "is_cra_lmi": false, "income_level": "U", "is_persistent_poverty": false, "is_tribal_overlap": false, "tribal_area_name": null, "aian_pct": 0.0, "has_nmtc": false, "nmtc_projects": 0, "nmtc_total_usd": 0.0 }, "geometry": { "type": "Polygon", "coordinates": [ [ [ -75.24436, 38.75678 ], [ -75.227405, 38.758046 ], [ -75.224339, 38.759607 ], [ -75.222491, 38.760821 ], [ -75.214673, 38.767649 ], [ -75.20496, 38.761238 ], [ -75.203061, 38.760209 ], [ -75.20377, 38.759704 ], [ -75.214868, 38.756453 ], [ -75.217279, 38.753493 ], [ -75.220209, 38.751383 ], [ -75.222474, 38.750695 ], [ -75.226374, 38.747725 ], [ -75.227464, 38.748744 ], [ -75.24436, 38.75678 ] ] ] } },
{ "type": "Feature", "properties": { "geoid": "10003010104", "county_name": "New Castle County", "place_name": "Dover", "state_name": "Delaware", "state_abbr": "DE", "is_rural": false, "dci_score": 12.5, "dci_quintile": 5.0, "is_cra_lmi": false, "income_level": "U", "is_persistent_poverty": false, "is_tribal_overlap": false, "tribal_area_name": null, "aian_pct": 0.0, "has_nmtc": false, "nmtc_projects": 0, "nmtc_total_usd": 0.0 }, "geometry": { "type": "Polygon", "coordinates": [ [ [ -75.472654, 39.789843 ], [ -75.470197, 39.792084 ], [ -75.469786, 39.792442 ], [ -75.467931, 39.794084 ], [ -75.465884, 39.795912 ], [ -75.465771, 39.796006 ], [ -75.458683, 39.801841 ], [ -75.457209, 39.802886 ], [ -75.454279, 39.80453 ], [ -75.445425, 39.809156 ], [ -75.440369, 39.81028 ], [ -75.433908519013798, 39.8117473186932 ], [ -75.428038, 39.809212 ], [ -75.423416, 39.806615 ], [ -75.468502, 39.786474 ], [ -75.469004558719405, 39.785741532397701 ], [ -75.469745565365201, 39.7846615325088 ], [ -75.471477, 39.785722 ], [ -75.471665, 39.787109 ], [ -75.474206, 39.788406 ], [ -75.472654, 39.789843 ] ] ] } },
{ "type": "Feature", "properties": { "geoid": "10003014100", "county_name": "New Castle County", "place_name": null, "state_name": "Delaware", "state_abbr": "DE", "is_rural": false, "dci_score": 51.4, "dci_quintile": 5.0, "is_cra_lmi": true, "income_level": "M", "is_persistent_poverty": false, "is_tribal_overlap": false, "tribal_area_name": null, "aian_pct": 0.0031, "has_nmtc": false, "nmtc_projects": 0, "nmtc_total_usd": 0.0 }, "geometry": { "type": "Polygon", "coordinates": [ [ [ -75.729153, 39.677472 ], [ -75.710142, 39.683335 ], [ -75.70315, 39.6855 ], [ -75.702125, 39.685814 ], [ -75.70084, 39.684482 ], [ -75.698931, 39.683246 ], [ -75.699504, 39.682478 ], [ -75.698051, 39.679685 ], [ -75.695988, 39.678859 ], [ -75.696214, 39.678733 ], [ -75.698721, 39.677399 ], [ -75.703599, 39.674849 ], [ -75.705887, 39.673729 ], [ -75.712168, 39.669463 ], [ -75.718403, 39.675364 ], [ -75.718993, 39.67517 ], [ -75.72011, 39.674525 ], [ -75.721524, 39.673901 ], [ -75.728254, 39.673335 ], [ -75.72897, 39.677046 ], [ -75.729153, 39.677472 ] ] ] } },
{ "type": "Feature", "properties": { "geoid": "10003014906", "county_name": "New Castle County", "place_name": "Wilmington", "state_name": "Delaware", "state_abbr": "DE", "is_rural": false, "dci_score": 27.0, "dci_quintile": 5.0, "is_cra_lmi": true, "income_level": "M", "is_persistent_poverty": false, "is_tribal_overlap": false, "tribal_area_name": null, "aian_pct": 0.0, "has_nmtc": false, "nmtc_projects": 0, "nmtc_total_usd": 0.0 }, "geometry": { "type": "Polygon", "coordinates": [ [ [ -75.680701, 39.637585 ], [ -75.677055, 39.639467 ], [ -75.67631, 39.642238 ], [ -75.675098, 39.643602 ], [ -75.674021, 39.644313 ], [ -75.674072, 39.646464 ], [ -75.676315, 39.646832 ], [ -75.676667, 39.648684 ], [ -75.672821, 39.652615 ], [ -75.668222, 39.653377 ], [ -75.669197, 39.650556 ], [ -75.668353, 39.649187 ], [ -75.664186, 39.643441 ], [ -75.660499, 39.638379 ], [ -75.658947, 39.636882 ], [ -75.659174, 39.635874 ], [ -75.65981, 39.632864 ], [ -75.663923, 39.630522 ], [ -75.670646, 39.627833 ], [ -75.677853, 39.633758 ], [ -75.680701, 39.637585 ] ] ] } },
{ "type": "Feature", "properties": { "geoid": "10003013100", "county_name": "New Castle County", "place_name": "Brookside", "state_name": "Delaware", "state_abbr": "DE", "is_rural": false, "dci_score": 5.7, "dci_quintile": 5.0, "is_cra_lmi": false, "income_level": "U", "is_persistent_poverty": false, "is_tribal_overlap": false, "tribal_area_name": null, "aian_pct": 0.0, "has_nmtc": false, "nmtc_projects": 0, "nmtc_total_usd": 0.0 }, "geometry": { "type": "Polygon", "coordinates": [ [ [ -75.658218, 39.723717 ], [ -75.653418, 39.726167 ], [ -75.649285, 39.728305 ], [ -75.646287, 39.729854 ], [ -75.639332, 39.733394 ], [ -75.634316, 39.734963 ], [ -75.63378, 39.734287 ], [ -75.636695, 39.729815 ], [ -75.63698, 39.726867 ], [ -75.635007, 39.72537 ], [ -75.638962, 39.724056 ], [ -75.645444, 39.721865 ], [ -75.650168, 39.720181 ], [ -75.653022, 39.718194 ], [ -75.655356, 39.720944 ], [ -75.658218, 39.723717 ] ] ] } },
{ "type": "Feature", "properties": { "geoid": "10003010703", "county_name": "New Castle County", "place_name": null, "state_name": "Delaware", "state_abbr": "DE", "is_rural": false, "dci_score": 28.3, "dci_quintile": 5.0, "is_cra_lmi": false, "income_level": "U", "is_persistent_poverty": false, "is_tribal_overlap": false, "tribal_area_name": null, "aian_pct": 0.0, "has_nmtc": false, "nmtc_projects": 0, "nmtc_total_usd": 0.0 }, "geometry": { "type": "Polygon", "coordinates": [ [ [ -75.512079, 39.761363 ], [ -75.511009, 39.764912 ], [ -75.511472, 39.76561 ], [ -75.509347, 39.76658 ], [ -75.503363, 39.763051 ], [ -75.4987, 39.760294 ], [ -75.493266, 39.757099 ], [ -75.494284, 39.756591 ], [ -75.498206, 39.755246 ], [ -75.498677, 39.755096 ], [ -75.499656, 39.75669 ], [ -75.504145, 39.759112 ], [ -75.505541, 39.759037 ], [ -75.507443, 39.759441 ], [ -75.509964, 39.758369 ], [ -75.511115, 39.760114 ], [ -75.512079, 39.761363 ] ] ] } },
{ "type": "Feature", "properties": { "geoid": "10003014403", "county_name": "New Castle County", "place_name": null, "state_name": "Delaware", "state_abbr": "DE", "is_rural": false, "dci_score": 28.5, "dci_quintile": 5.0, "is_cra_lmi": false, "income_level": "U", "is_persistent_poverty": false, "is_tribal_overlap": false, "tribal_area_name": null, "aian_pct": 0.0, "has_nmtc": false, "nmtc_projects": 0, "nmtc_total_usd": 0.0 }, "geometry": { "type": "Polygon", "coordinates": [ [ [ -75.776323, 39.688076 ], [ -75.775269, 39.690112 ], [ -75.767913, 39.687372 ], [ -75.756201, 39.683002 ], [ -75.755966, 39.682964 ], [ -75.756493, 39.682751 ], [ -75.762233, 39.677734 ], [ -75.765589, 39.67495 ], [ -75.770612, 39.670437 ], [ -75.771908, 39.671651 ], [ -75.773026, 39.673959 ], [ -75.773981, 39.675869 ], [ -75.775196, 39.678457 ], [ -75.775618, 39.686181 ], [ -75.776323, 39.688076 ] ] ] } },
{ "type": "Feature", "properties": { "geoid": "10003013200", "county_name": "New Castle County", "place_name": "Newark", "state_name": "Delaware", "state_abbr": "DE", "is_rural": false, "dci_score": 5.7, "dci_quintile": 5.0, "is_cra_lmi": true, "income_level": "M", "is_persistent_poverty": false, "is_tribal_overlap": false, "tribal_area_name": null, "aian_pct": 0.0, "has_nmtc": false, "nmtc_projects": 0, "nmtc_total_usd": 0.0 }, "geometry": { "type": "Polygon", "coordinates": [ [ [ -75.655851, 39.734909 ], [ -75.651205, 39.737339 ], [ -75.644965, 39.740603 ], [ -75.643821, 39.74101 ], [ -75.637759, 39.740308 ], [ -75.636816, 39.739814 ], [ -75.634506, 39.738907 ], [ -75.635066, 39.737251 ], [ -75.634316, 39.734963 ], [ -75.639332, 39.733394 ], [ -75.646287, 39.729854 ], [ -75.649285, 39.728305 ], [ -75.653277, 39.729859 ], [ -75.655851, 39.734909 ] ] ] } },
{ "type": "Feature", "properties": { "geoid": "10001041300", "county_name": "Kent County", "place_name": null, "state_name": "Delaware", "state_abbr": "DE", "is_rural": true, "dci_score": 44.1, "dci_quintile": 5.0, "is_cra_lmi": true, "income_level": "M", "is_persistent_poverty": false, "is_tribal_overlap": false, "tribal_area_name": null, "aian_pct": 0.0028, "has_nmtc": false, "nmtc_projects": 0, "nmtc_total_usd": 0.0 }, "geometry": { "type": "Polygon", "coordinates": [ [ [ -75.528267, 39.161113 ], [ -75.519211, 39.163131 ], [ -75.517184, 39.162833 ], [ -75.515275, 39.163267 ], [ -75.513756, 39.161456 ], [ -75.512219, 39.158767 ], [ -75.512264, 39.157502 ], [ -75.515467, 39.148877 ], [ -75.517012, 39.144867 ], [ -75.518555, 39.14298 ], [ -75.522889, 39.140291 ], [ -75.524666, 39.139078 ], [ -75.52574, 39.140097 ], [ -75.525659, 39.141111 ], [ -75.525448, 39.143856 ], [ -75.524855, 39.151843 ], [ -75.526591, 39.156675 ], [ -75.528267, 39.161113 ] ] ] } },
{ "type": "Feature", "properties": { "geoid": "10001042205", "county_name": "Kent County", "place_name": null, "state_name": "Delaware", "state_abbr": "DE", "is_rural": true, "dci_score": 23.0, "dci_quintile": 5.0, "is_cra_lmi": true, "income_level": "M", "is_persistent_poverty": false, "is_tribal_overlap": false, "tribal_area_name": null, "aian_pct": 0.0091, "has_nmtc": false, "nmtc_projects": 0, "nmtc_total_usd": 0.0 }, "geometry": { "type": "Polygon", "coordinates": [ [ [ -75.557552, 39.046087 ], [ -75.557312, 39.047657 ], [ -75.556294, 39.053868 ], [ -75.555609, 39.058008 ], [ -75.555135, 39.061017 ], [ -75.553454, 39.071255 ], [ -75.551922, 39.080803 ], [ -75.551192, 39.083839 ], [ -75.547169, 39.092608 ], [ -75.545947, 39.095216 ], [ -75.544778, 39.095187 ], [ -75.545278, 39.090047 ], [ -75.547259, 39.087001 ], [ -75.546308, 39.084864 ], [ -75.535704, 39.075025 ], [ -75.533533, 39.070091 ], [ -75.533989, 39.065829 ], [ -75.532488, 39.062188 ], [ -75.532005, 39.061038 ], [ -75.525549, 39.050471 ], [ -75.529433, 39.048993 ], [ -75.535993, 39.046389 ], [ -75.548166, 39.04251 ], [ -75.549658, 39.042506 ], [ -75.553188, 39.042987 ], [ -75.555823, 39.042523 ], [ -75.556995, 39.045012 ], [ -75.557421, 39.045445 ], [ -75.557676, 39.045473 ], [ -75.557552, 39.046087 ] ] ] } },
{ "type": "Feature", "properties": { "geoid": "10003014909", "county_name": "New Castle County", "place_name": null, "state_name": "Delaware", "state_abbr": "DE", "is_rural": false, "dci_score": 33.6, "dci_quintile": 5.0, "is_cra_lmi": true, "income_level": "M", "is_persistent_poverty": false, "is_tribal_overlap": false, "tribal_area_name": null, "aian_pct": 0.0148, "has_nmtc": false, "nmtc_projects": 0, "nmtc_total_usd": 0.0 }, "geometry": { "type": "Polygon", "coordinates": [ [ [ -75.639116, 39.662839 ], [ -75.629825, 39.663601 ], [ -75.622386, 39.664268 ], [ -75.61097, 39.665329 ], [ -75.608853, 39.665502 ], [ -75.605645, 39.665412 ], [ -75.604509, 39.665377 ], [ -75.616091, 39.655069 ], [ -75.616906, 39.654458 ], [ -75.619824, 39.6521 ], [ -75.622663, 39.650791 ], [ -75.623725, 39.653532 ], [ -75.624622, 39.654796 ], [ -75.627303, 39.656474 ], [ -75.629904, 39.656763 ], [ -75.631201, 39.656547 ], [ -75.634933, 39.655133 ], [ -75.637455, 39.658573 ], [ -75.642095, 39.662636 ], [ -75.639116, 39.662839 ] ] ] } },
{ "type": "Feature", "properties": { "geoid": "10003014502", "county_name": "New Castle County", "place_name": null, "state_name": "Delaware", "state_abbr": "DE", "is_rural": false, "dci_score": 28.6, "dci_quintile": 5.0, "is_cra_lmi": false, "income_level": "U", "is_persistent_poverty": false, "is_tribal_overlap": false, "tribal_area_name": null, "aian_pct": 0.0009, "has_nmtc": false, "nmtc_projects": 0, "nmtc_total_usd": 0.0 }, "geometry": { "type": "Polygon", "coordinates": [ [ [ -75.753672, 39.683014 ], [ -75.745603, 39.683631 ], [ -75.745551, 39.683641 ], [ -75.744258, 39.683718 ], [ -75.73662, 39.684483 ], [ -75.735383, 39.684739 ], [ -75.732959, 39.685373 ], [ -75.730773, 39.680899 ], [ -75.729153, 39.677472 ], [ -75.736245, 39.675276 ], [ -75.738292, 39.671616 ], [ -75.73886, 39.669542 ], [ -75.738688, 39.667747 ], [ -75.736879, 39.663515 ], [ -75.736081, 39.661738 ], [ -75.738232, 39.661422 ], [ -75.738466, 39.661381 ], [ -75.738362, 39.660996 ], [ -75.74272, 39.659365 ], [ -75.746808, 39.658361 ], [ -75.747974, 39.658224 ], [ -75.748396, 39.658228 ], [ -75.748422, 39.65792 ], [ -75.748649, 39.657614 ], [ -75.74989, 39.656713 ], [ -75.750005, 39.656666 ], [ -75.750595, 39.65623 ], [ -75.751308, 39.655748 ], [ -75.75345, 39.672117 ], [ -75.753513, 39.674431 ], [ -75.753501, 39.674511 ], [ -75.753672, 39.683014 ] ] ] } },
{ "type": "Feature", "properties": { "geoid": "10003000300", "county_name": "New Castle County", "place_name": null, "state_name": "Delaware", "state_abbr": "DE", "is_rural": false, "dci_score": 72.9, "dci_quintile": 3.0, "is_cra_lmi": true, "income_level": "L", "is_persistent_poverty": false, "is_tribal_overlap": false, "tribal_area_name": null, "aian_pct": 0.0061, "has_nmtc": false, "nmtc_projects": 0, "nmtc_total_usd": 0.0 }, "geometry": { "type": "Polygon", "coordinates": [ [ [ -75.542753, 39.764613 ], [ -75.539276, 39.766037 ], [ -75.535894, 39.761579 ], [ -75.534023, 39.759078 ], [ -75.537109, 39.757683 ], [ -75.540813, 39.756037 ], [ -75.54142, 39.755766 ], [ -75.541909, 39.758886 ], [ -75.542236, 39.761202 ], [ -75.542753, 39.764613 ] ] ] } },
{ "type": "Feature", "properties": { "geoid": "10003003002", "county_name": "New Castle County", "place_name": "Wilmington", "state_name": "Delaware", "state_abbr": "DE", "is_rural": false, "dci_score": 72.9, "dci_quintile": 3.0, "is_cra_lmi": true, "income_level": "L", "is_persistent_poverty": false, "is_tribal_overlap": false, "tribal_area_name": null, "aian_pct": 0.0, "has_nmtc": true, "nmtc_projects": 1, "nmtc_total_usd": 16206307.0 }, "geometry": { "type": "Polygon", "coordinates": [ [ [ -75.53753, 39.743324 ], [ -75.531615, 39.746054 ], [ -75.527966, 39.749461 ], [ -75.525216, 39.752018 ], [ -75.522049, 39.753341 ], [ -75.521537, 39.753472 ], [ -75.520499, 39.752119 ], [ -75.517361, 39.753257 ], [ -75.518454, 39.751781 ], [ -75.519394, 39.750723 ], [ -75.518477, 39.749537 ], [ -75.52625, 39.745657 ], [ -75.528202, 39.744475 ], [ -75.526688, 39.744424 ], [ -75.525426, 39.742874 ], [ -75.525927, 39.74058 ], [ -75.52437, 39.738879 ], [ -75.524503, 39.738854 ], [ -75.526481, 39.738032 ], [ -75.531978, 39.73988 ], [ -75.534957, 39.738797 ], [ -75.537034, 39.739702 ], [ -75.53753, 39.743324 ] ] ] } },
{ "type": "Feature", "properties": { "geoid": "10005050503", "county_name": "Sussex County", "place_name": null, "state_name": "Delaware", "state_abbr": "DE", "is_rural": true, "dci_score": 72.4, "dci_quintile": 3.0, "is_cra_lmi": true, "income_level": "M", "is_persistent_poverty": false, "is_tribal_overlap": false, "tribal_area_name": null, "aian_pct": 0.0183, "has_nmtc": false, "nmtc_projects": 0, "nmtc_total_usd": 0.0 }, "geometry": { "type": "Polygon", "coordinates": [ [ [ -75.415454, 38.742661 ], [ -75.412279, 38.748577 ], [ -75.406547, 38.750839 ], [ -75.405202, 38.751289 ], [ -75.395682, 38.750203 ], [ -75.391277, 38.748996 ], [ -75.381938, 38.749366 ], [ -75.379694, 38.749991 ], [ -75.372866, 38.753546 ], [ -75.370807, 38.75395 ], [ -75.355172, 38.750362 ], [ -75.355329, 38.750148 ], [ -75.358099, 38.744954 ], [ -75.360388, 38.740482 ], [ -75.360189, 38.732145 ], [ -75.362046, 38.72609 ], [ -75.362341, 38.722613 ], [ -75.362781, 38.716724 ], [ -75.362996, 38.716406 ], [ -75.36519, 38.714426 ], [ -75.365255, 38.714266 ], [ -75.36603, 38.710621 ], [ -75.36623, 38.709615 ], [ -75.366402, 38.708746 ], [ -75.368285, 38.699179 ], [ -75.378254, 38.695887 ], [ -75.385855, 38.69006 ], [ -75.396067, 38.681838 ], [ -75.396356, 38.682439 ], [ -75.403183, 38.706095 ], [ -75.403459, 38.70682 ], [ -75.404671, 38.709594 ], [ -75.407553, 38.71621 ], [ -75.413246, 38.725623 ], [ -75.424224, 38.739276 ], [ -75.415454, 38.742661 ] ] ] } },
{ "type": "Feature", "properties": { "geoid": "10005050401", "county_name": "Sussex County", "place_name": "Wilmington", "state_name": "Delaware", "state_abbr": "DE", "is_rural": true, "dci_score": 67.3, "dci_quintile": 4.0, "is_cra_lmi": false, "income_level": "U", "is_persistent_poverty": false, "is_tribal_overlap": false, "tribal_area_name": null, "aian_pct": 0.0, "has_nmtc": false, "nmtc_projects": 0, "nmtc_total_usd": 0.0 }, "geometry": { "type": "Polygon", "coordinates": [ [ [ -75.712876155395904, 38.705639758047496 ], [ -75.709012, 38.705277 ], [ -75.704283, 38.703449 ], [ -75.701585, 38.703207 ], [ -75.693149, 38.703903 ], [ -75.690563, 38.7046 ], [ -75.681419, 38.707795 ], [ -75.67323, 38.709992 ], [ -75.668622, 38.71037 ], [ -75.664107, 38.709936 ], [ -75.660922, 38.710385 ], [ -75.648976, 38.716291 ], [ -75.646265, 38.718195 ], [ -75.629927, 38.709302 ], [ -75.627416, 38.707671 ], [ -75.629453, 38.702393 ], [ -75.633513, 38.693468 ], [ -75.634841, 38.691557 ], [ -75.636977, 38.686917 ], [ -75.639884, 38.684056 ], [ -75.639602, 38.680432 ], [ -75.638377, 38.67788 ], [ -75.637533, 38.672668 ], [ -75.637893, 38.667629 ], [ -75.636772, 38.662716 ], [ -75.635702, 38.659764 ], [ -75.635599, 38.659489 ], [ -75.633727, 38.655031 ], [ -75.633315, 38.654089 ], [ -75.63272, 38.652706 ], [ -75.632157, 38.651419 ], [ -75.629569, 38.645449 ], [ -75.63757, 38.643975 ], [ -75.639265, 38.643474 ], [ -75.642538, 38.642184 ], [ -75.643449, 38.641856 ], [ -75.644113, 38.641707 ], [ -75.644429, 38.641662 ], [ -75.648631, 38.641655 ], [ -75.647111, 38.641007 ], [ -75.643605, 38.639814 ], [ -75.632303, 38.636137 ], [ -75.629788, 38.635037 ], [ -75.62655, 38.633926 ], [ -75.624755, 38.63373 ], [ -75.623576, 38.633858 ], [ -75.621842, 38.634428 ], [ -75.614974, 38.637302 ], [ -75.61425, 38.638208 ], [ -75.614148, 38.63794 ], [ -75.618067, 38.633431 ], [ -75.619627, 38.630563 ], [ -75.620424, 38.630358 ], [ -75.62015, 38.629849 ], [ -75.622385, 38.628913 ], [ -75.623436, 38.626704 ], [ -75.623094, 38.624623 ], [ -75.625003, 38.622626 ], [ -75.627198, 38.621642 ], [ -75.630013, 38.618813 ], [ -75.634941, 38.616672 ], [ -75.641264, 38.614198 ], [ -75.643346, 38.612542 ], [ -75.644222, 38.609018 ], [ -75.644874, 38.608134 ], [ -75.647289, 38.606795 ], [ -75.651837, 38.605333 ], [ -75.65288, 38.60438 ], [ -75.65501, 38.601947 ], [ -75.65655, 38.599654 ], [ -75.660951, 38.59033 ], [ -75.662177, 38.589668 ], [ -75.667622, 38.588858 ], [ -75.669537, 38.587437 ], [ -75.669877, 38.58441 ], [ -75.669365, 38.579912 ], [ -75.669386, 38.577719 ], [ -75.670328, 38.575884 ], [ -75.672343, 38.573453 ], [ -75.679428, 38.566485 ], [ -75.685405, 38.563507 ], [ -75.691682, 38.557597 ], [ -75.695581, 38.557387 ], [ -75.701565, 38.560736 ], [ -75.703445, 38.58512 ], [ -75.703981, 38.592066 ], [ -75.705774, 38.61474 ], [ -75.70586, 38.616268 ], [ -75.706235, 38.621296 ], [ -75.706585, 38.626125 ], [ -75.707346, 38.63528 ], [ -75.707355681536598, 38.6354031774734 ], [ -75.709526800864893, 38.663026168094397 ], [ -75.712276594847793, 38.698011593541402 ], [ -75.712876155395904, 38.705639758047496 ] ] ] } },
{ "type": "Feature", "properties": { "geoid": "10001041400", "county_name": "Kent County", "place_name": null, "state_name": "Delaware", "state_abbr": "DE", "is_rural": true, "dci_score": 40.3, "dci_quintile": 5.0, "is_cra_lmi": false, "income_level": "U", "is_persistent_poverty": false, "is_tribal_overlap": false, "tribal_area_name": null, "aian_pct": 0.0, "has_nmtc": false, "nmtc_projects": 0, "nmtc_total_usd": 0.0 }, "geometry": { "type": "Polygon", "coordinates": [ [ [ -75.560962, 39.158688 ], [ -75.557471, 39.159031 ], [ -75.556415, 39.159082 ], [ -75.545843, 39.158749 ], [ -75.545542, 39.158752 ], [ -75.545139, 39.158772 ], [ -75.542852, 39.158895 ], [ -75.53776, 39.159012 ], [ -75.528267, 39.161113 ], [ -75.526591, 39.156675 ], [ -75.524855, 39.151843 ], [ -75.525448, 39.143856 ], [ -75.534547, 39.144367 ], [ -75.538143, 39.140554 ], [ -75.538167, 39.14053 ], [ -75.546022, 39.132273 ], [ -75.550515, 39.127548 ], [ -75.554439, 39.123305 ], [ -75.554824, 39.122733 ], [ -75.555554, 39.123121 ], [ -75.555145, 39.123579 ], [ -75.554697, 39.124623 ], [ -75.554717, 39.127751 ], [ -75.553559, 39.137029 ], [ -75.553569, 39.137272 ], [ -75.553624, 39.137821 ], [ -75.555792, 39.14137 ], [ -75.556848, 39.143085 ], [ -75.558701, 39.146757 ], [ -75.558555, 39.150554 ], [ -75.556229, 39.15096 ], [ -75.555322, 39.151082 ], [ -75.555496, 39.151664 ], [ -75.555661, 39.152089 ], [ -75.555979, 39.152645 ], [ -75.560892, 39.158463 ], [ -75.560962, 39.158688 ] ] ] } },
{ "type": "Feature", "properties": { "geoid": "10005050703", "county_name": "Sussex County", "place_name": "Wilmington", "state_name": "Delaware", "state_abbr": "DE", "is_rural": true, "dci_score": 30.3, "dci_quintile": 5.0, "is_cra_lmi": true, "income_level": "M", "is_persistent_poverty": false, "is_tribal_overlap": true, "tribal_area_name": "Nanticoke Indian Tribe SDTSA", "aian_pct": 0.0635, "has_nmtc": false, "nmtc_projects": 0, "nmtc_total_usd": 0.0 }, "geometry": { "type": "Polygon", "coordinates": [ [ [ -75.291254, 38.595667 ], [ -75.290998, 38.597096 ], [ -75.2859, 38.600348 ], [ -75.281903, 38.601297 ], [ -75.280182, 38.601555 ], [ -75.262254, 38.60109 ], [ -75.2582, 38.601313 ], [ -75.240409, 38.603089 ], [ -75.226624, 38.603596 ], [ -75.222785, 38.605412 ], [ -75.221331, 38.605735 ], [ -75.213695, 38.605964 ], [ -75.211134, 38.606694 ], [ -75.210195, 38.607319 ], [ -75.202363, 38.614492 ], [ -75.188987, 38.605562 ], [ -75.17329, 38.596426 ], [ -75.172804, 38.596305 ], [ -75.168594, 38.592586 ], [ -75.167421, 38.589988 ], [ -75.169529, 38.589123 ], [ -75.170308, 38.588909 ], [ -75.174137, 38.587862 ], [ -75.179354, 38.588308 ], [ -75.182699, 38.589129 ], [ -75.187834, 38.589428 ], [ -75.195037, 38.589559 ], [ -75.198094, 38.590123 ], [ -75.208835, 38.591671 ], [ -75.212901, 38.59011 ], [ -75.217248, 38.590665 ], [ -75.218937, 38.590561 ], [ -75.222809, 38.588775 ], [ -75.225624, 38.5883 ], [ -75.231754, 38.58776 ], [ -75.23466, 38.587704 ], [ -75.236531, 38.588106 ], [ -75.237878, 38.589869 ], [ -75.240504, 38.591414 ], [ -75.244702, 38.591578 ], [ -75.245909, 38.591327 ], [ -75.250201, 38.588233 ], [ -75.25404, 38.586833 ], [ -75.255428, 38.583714 ], [ -75.2583, 38.583157 ], [ -75.260864, 38.584507 ], [ -75.264356, 38.585486 ], [ -75.272886, 38.586341 ], [ -75.275901, 38.585967 ], [ -75.276505, 38.5864 ], [ -75.276942, 38.592355 ], [ -75.279187, 38.592881 ], [ -75.281635, 38.593707 ], [ -75.282266, 38.593769 ], [ -75.282824, 38.593873 ], [ -75.28711, 38.595795 ], [ -75.289214, 38.595264 ], [ -75.289249, 38.594795 ], [ -75.290996, 38.594461 ], [ -75.291146, 38.595067 ], [ -75.291254, 38.595667 ] ] ] } },
{ "type": "Feature", "properties": { "geoid": "10001041803", "county_name": "Kent County", "place_name": "New Castle", "state_name": "Delaware", "state_abbr": "DE", "is_rural": true, "dci_score": 41.3, "dci_quintile": 5.0, "is_cra_lmi": true, "income_level": "M", "is_persistent_poverty": false, "is_tribal_overlap": true, "tribal_area_name": "Lenape Indian Tribe of Delaware SDTSA", "aian_pct": 0.0322, "has_nmtc": false, "nmtc_projects": 0, "nmtc_total_usd": 0.0 }, "geometry": { "type": "Polygon", "coordinates": [ [ [ -75.629671, 39.215867 ], [ -75.626363, 39.222281 ], [ -75.61034, 39.226287 ], [ -75.605044, 39.22764 ], [ -75.600323, 39.228846 ], [ -75.596113, 39.229907 ], [ -75.595978, 39.229945 ], [ -75.590889, 39.231219 ], [ -75.590173, 39.231248 ], [ -75.586804, 39.231373 ], [ -75.584657, 39.232674 ], [ -75.583862, 39.233279 ], [ -75.57981, 39.2302 ], [ -75.578089, 39.226827 ], [ -75.577798, 39.226216 ], [ -75.576602, 39.223572 ], [ -75.575638, 39.221465 ], [ -75.574279, 39.218453 ], [ -75.574243, 39.218372 ], [ -75.571419, 39.212278 ], [ -75.571342, 39.212133 ], [ -75.570852, 39.211296 ], [ -75.570095, 39.210242 ], [ -75.565129, 39.206578 ], [ -75.559177, 39.202321 ], [ -75.564924, 39.198894 ], [ -75.565239, 39.198401 ], [ -75.5649, 39.196743 ], [ -75.564044, 39.195402 ], [ -75.564148, 39.194504 ], [ -75.564214, 39.194429 ], [ -75.566246, 39.19374 ], [ -75.567312, 39.193393 ], [ -75.5712, 39.191052 ], [ -75.574216, 39.193789 ], [ -75.574565, 39.194082 ], [ -75.578737, 39.197844 ], [ -75.578509, 39.198334 ], [ -75.585145, 39.194568 ], [ -75.590257, 39.193725 ], [ -75.591836, 39.193466 ], [ -75.601349, 39.189642 ], [ -75.603287, 39.188871 ], [ -75.60703, 39.188966 ], [ -75.610684, 39.188555 ], [ -75.61554, 39.18727 ], [ -75.623804, 39.188105 ], [ -75.622095, 39.193322 ], [ -75.619217, 39.198072 ], [ -75.617898, 39.199919 ], [ -75.610886, 39.205801 ], [ -75.605849, 39.209521 ], [ -75.605038, 39.210215 ], [ -75.604108, 39.212182 ], [ -75.605246, 39.212016 ], [ -75.610035, 39.212141 ], [ -75.620695, 39.212652 ], [ -75.623624, 39.21373 ], [ -75.625066, 39.214319 ], [ -75.626915, 39.214966 ], [ -75.629671, 39.215867 ] ] ] } },
{ "type": "Feature", "properties": { "geoid": "10005051802", "county_name": "Sussex County", "place_name": null, "state_name": "Delaware", "state_abbr": "DE", "is_rural": true, "dci_score": 75.3, "dci_quintile": 3.0, "is_cra_lmi": true, "income_level": "M", "is_persistent_poverty": false, "is_tribal_overlap": false, "tribal_area_name": null, "aian_pct": 0.0, "has_nmtc": false, "nmtc_projects": 0, "nmtc_total_usd": 0.0 }, "geometry": { "type": "Polygon", "coordinates": [ [ [ -75.591746, 38.538044 ], [ -75.580824, 38.546546 ], [ -75.582101, 38.546952 ], [ -75.582618, 38.547194 ], [ -75.582744, 38.548761 ], [ -75.582788, 38.552533 ], [ -75.584664, 38.554934 ], [ -75.587609, 38.556021 ], [ -75.589891, 38.557806 ], [ -75.588452, 38.560722 ], [ -75.587904, 38.560892 ], [ -75.583913, 38.559573 ], [ -75.582769, 38.558696 ], [ -75.579498, 38.557037 ], [ -75.578138, 38.557127 ], [ -75.576171, 38.557578 ], [ -75.574649, 38.558137 ], [ -75.572904, 38.558976 ], [ -75.57183, 38.558821 ], [ -75.570779, 38.562408 ], [ -75.570979, 38.56419 ], [ -75.567835, 38.565591 ], [ -75.567299, 38.565907 ], [ -75.562739, 38.570154 ], [ -75.561817, 38.568652 ], [ -75.559654, 38.565157 ], [ -75.556763, 38.560032 ], [ -75.55641, 38.555072 ], [ -75.556262, 38.549321 ], [ -75.55698, 38.513458 ], [ -75.569701, 38.512835 ], [ -75.569898, 38.514589 ], [ -75.569793, 38.523773 ], [ -75.576343, 38.523974 ], [ -75.578374, 38.522156 ], [ -75.583645, 38.522446 ], [ -75.588217, 38.523014 ], [ -75.588595, 38.524243 ], [ -75.586775, 38.533521 ], [ -75.591746, 38.538044 ] ] ] } },
{ "type": "Feature", "properties": { "geoid": "10005050104", "county_name": "Sussex County", "place_name": null, "state_name": "Delaware", "state_abbr": "DE", "is_rural": true, "dci_score": 35.7, "dci_quintile": 5.0, "is_cra_lmi": true, "income_level": "M", "is_persistent_poverty": false, "is_tribal_overlap": false, "tribal_area_name": null, "aian_pct": 0.0002, "has_nmtc": false, "nmtc_projects": 0, "nmtc_total_usd": 0.0 }, "geometry": { "type": "Polygon", "coordinates": [ [ [ -75.443717, 38.913077 ], [ -75.44039, 38.913128 ], [ -75.434048, 38.910817 ], [ -75.431697, 38.912117 ], [ -75.430096, 38.913351 ], [ -75.428404, 38.913206 ], [ -75.424692, 38.913418 ], [ -75.423458, 38.91424 ], [ -75.422073, 38.914042 ], [ -75.421581, 38.915517 ], [ -75.41983, 38.915416 ], [ -75.418318, 38.914263 ], [ -75.416947, 38.915521 ], [ -75.418423, 38.916745 ], [ -75.416679, 38.918031 ], [ -75.412565, 38.917992 ], [ -75.410646, 38.917458 ], [ -75.410463, 38.916418 ], [ -75.408818, 38.916824 ], [ -75.408884, 38.916153 ], [ -75.407068, 38.915785 ], [ -75.407082, 38.915429 ], [ -75.407188, 38.915166 ], [ -75.407619, 38.914987 ], [ -75.407732, 38.914846 ], [ -75.407718, 38.914537 ], [ -75.407796, 38.914361 ], [ -75.407993, 38.911922 ], [ -75.409586, 38.90911 ], [ -75.412578, 38.908297 ], [ -75.413327, 38.907672 ], [ -75.413691, 38.905322 ], [ -75.414338, 38.903484 ], [ -75.414717, 38.900998 ], [ -75.415188, 38.90077 ], [ -75.41679, 38.899663 ], [ -75.420784, 38.899182 ], [ -75.42231, 38.898531 ], [ -75.422259, 38.898084 ], [ -75.421767, 38.893646 ], [ -75.419447, 38.884749 ], [ -75.419053, 38.883077 ], [ -75.419001, 38.880733 ], [ -75.419007, 38.870969 ], [ -75.429136, 38.871021 ], [ -75.439209, 38.869281 ], [ -75.439282, 38.877241 ], [ -75.439308, 38.880941 ], [ -75.439352, 38.884941 ], [ -75.439374, 38.886872 ], [ -75.439542, 38.901853 ], [ -75.440068, 38.903726 ], [ -75.443632, 38.911897 ], [ -75.443717, 38.913077 ] ] ] } },
{ "type": "Feature", "properties": { "geoid": "10003012400", "county_name": "New Castle County", "place_name": null, "state_name": "Delaware", "state_abbr": "DE", "is_rural": false, "dci_score": 66.0, "dci_quintile": 4.0, "is_cra_lmi": false, "income_level": "U", "is_persistent_poverty": false, "is_tribal_overlap": false, "tribal_area_name": null, "aian_pct": 0.0025, "has_nmtc": false, "nmtc_projects": 0, "nmtc_total_usd": 0.0 }, "geometry": { "type": "Polygon", "coordinates": [ [ [ -75.622708, 39.73742 ], [ -75.621707, 39.737427 ], [ -75.619978, 39.737529 ], [ -75.614913, 39.737757 ], [ -75.604641, 39.738723 ], [ -75.604699, 39.738862 ], [ -75.600884, 39.739349 ], [ -75.598953, 39.73959 ], [ -75.597107, 39.739223 ], [ -75.595061, 39.738748 ], [ -75.589648, 39.739254 ], [ -75.589496, 39.739291 ], [ -75.589447, 39.739566 ], [ -75.589388, 39.740067 ], [ -75.589439, 39.740131 ], [ -75.586154, 39.740712 ], [ -75.582907, 39.741296 ], [ -75.584312, 39.739214 ], [ -75.58024, 39.737363 ], [ -75.5799, 39.737066 ], [ -75.584775, 39.736213 ], [ -75.587063, 39.734802 ], [ -75.587762, 39.734801 ], [ -75.587877, 39.73481 ], [ -75.588914, 39.733504 ], [ -75.59119, 39.732998 ], [ -75.59057, 39.733211 ], [ -75.590792, 39.733815 ], [ -75.590302, 39.733931 ], [ -75.590435, 39.73429 ], [ -75.59437, 39.733222 ], [ -75.594068, 39.732862 ], [ -75.594312, 39.732363 ], [ -75.596958, 39.730787 ], [ -75.600771, 39.730083 ], [ -75.602494, 39.730614 ], [ -75.603175, 39.730796 ], [ -75.604032, 39.732208 ], [ -75.618538, 39.730482 ], [ -75.621453, 39.733768 ], [ -75.62219, 39.734934 ], [ -75.622708, 39.73742 ] ] ] } },
{ "type": "Feature", "properties": { "geoid": "10003015400", "county_name": "New Castle County", "place_name": null, "state_name": "Delaware", "state_abbr": "DE", "is_rural": false, "dci_score": 62.3, "dci_quintile": 4.0, "is_cra_lmi": true, "income_level": "M", "is_persistent_poverty": false, "is_tribal_overlap": false, "tribal_area_name": null, "aian_pct": 0.0, "has_nmtc": false, "nmtc_projects": 0, "nmtc_total_usd": 0.0 }, "geometry": { "type": "Polygon", "coordinates": [ [ [ -75.564216, 39.709794 ], [ -75.55658, 39.718314 ], [ -75.556036, 39.719274 ], [ -75.555679, 39.720516 ], [ -75.555684, 39.721576 ], [ -75.555791, 39.726286 ], [ -75.555118, 39.725381 ], [ -75.553291, 39.725734 ], [ -75.547709, 39.723558 ], [ -75.544844, 39.722411 ], [ -75.548342, 39.711393 ], [ -75.551223, 39.702866 ], [ -75.552426, 39.699508 ], [ -75.555765, 39.701302 ], [ -75.561969, 39.708553 ], [ -75.564216, 39.709794 ] ] ] } },
{ "type": "Feature", "properties": { "geoid": "10003015100", "county_name": "New Castle County", "place_name": null, "state_name": "Delaware", "state_abbr": "DE", "is_rural": false, "dci_score": 33.6, "dci_quintile": 5.0, "is_cra_lmi": true, "income_level": "M", "is_persistent_poverty": false, "is_tribal_overlap": false, "tribal_area_name": null, "aian_pct": 0.002, "has_nmtc": false, "nmtc_projects": 0, "nmtc_total_usd": 0.0 }, "geometry": { "type": "Polygon", "coordinates": [ [ [ -75.590439, 39.680556 ], [ -75.584259, 39.687404 ], [ -75.581741, 39.690194 ], [ -75.578932, 39.693376 ], [ -75.578317, 39.694057 ], [ -75.576839, 39.691428 ], [ -75.576636, 39.689473 ], [ -75.575342, 39.678254 ], [ -75.574835, 39.673136 ], [ -75.574705, 39.672145 ], [ -75.574438, 39.670212 ], [ -75.57443, 39.670157 ], [ -75.57442, 39.670063 ], [ -75.573798, 39.664329 ], [ -75.573581, 39.663896 ], [ -75.578844, 39.664175 ], [ -75.579264, 39.664754 ], [ -75.579558, 39.665133 ], [ -75.580006, 39.665755 ], [ -75.581843, 39.668349 ], [ -75.585056, 39.672894 ], [ -75.590439, 39.680556 ] ] ] } },
{ "type": "Feature", "properties": { "geoid": "10003000200", "county_name": "New Castle County", "place_name": null, "state_name": "Delaware", "state_abbr": "DE", "is_rural": false, "dci_score": 72.9, "dci_quintile": 3.0, "is_cra_lmi": false, "income_level": "U", "is_persistent_poverty": false, "is_tribal_overlap": false, "tribal_area_name": null, "aian_pct": 0.0, "has_nmtc": false, "nmtc_projects": 0, "nmtc_total_usd": 0.0 }, "geometry": { "type": "Polygon", "coordinates": [ [ [ -75.537409, 39.766887 ], [ -75.535302, 39.767388 ], [ -75.533998, 39.765659 ], [ -75.531291, 39.766893 ], [ -75.532787, 39.769394 ], [ -75.533786, 39.768526 ], [ -75.532026, 39.770066 ], [ -75.529951, 39.771762 ], [ -75.525944, 39.773007 ], [ -75.523998, 39.76992 ], [ -75.523416, 39.769527 ], [ -75.52235, 39.768948 ], [ -75.519811, 39.768136 ], [ -75.518396, 39.767629 ], [ -75.518969, 39.765335 ], [ -75.520631, 39.765788 ], [ -75.518431, 39.762412 ], [ -75.519764, 39.761804 ], [ -75.525487, 39.759194 ], [ -75.525816, 39.759044 ], [ -75.531904, 39.756248 ], [ -75.534023, 39.759078 ], [ -75.535894, 39.761579 ], [ -75.539276, 39.766037 ], [ -75.537409, 39.766887 ] ] ] } },
{ "type": "Feature", "properties": { "geoid": "10003000400", "county_name": "New Castle County", "place_name": null, "state_name": "Delaware", "state_abbr": "DE", "is_rural": false, "dci_score": 72.9, "dci_quintile": 3.0, "is_cra_lmi": true, "income_level": "M", "is_persistent_poverty": false, "is_tribal_overlap": false, "tribal_area_name": null, "aian_pct": 0.0, "has_nmtc": false, "nmtc_projects": 0, "nmtc_total_usd": 0.0 }, "geometry": { "type": "Polygon", "coordinates": [ [ [ -75.557149, 39.76146 ], [ -75.553497, 39.761809 ], [ -75.549115, 39.76277 ], [ -75.542753, 39.764613 ], [ -75.542236, 39.761202 ], [ -75.541909, 39.758886 ], [ -75.54142, 39.755766 ], [ -75.542912, 39.755082 ], [ -75.547704, 39.753167 ], [ -75.547845, 39.752977 ], [ -75.548336, 39.75227 ], [ -75.549131, 39.753812 ], [ -75.551659, 39.755665 ], [ -75.552629, 39.756632 ], [ -75.555006, 39.758559 ], [ -75.556869, 39.760601 ], [ -75.557008, 39.760933 ], [ -75.557149, 39.76146 ] ] ] } },
{ "type": "Feature", "properties": { "geoid": "10003000900", "county_name": "New Castle County", "place_name": null, "state_name": "Delaware", "state_abbr": "DE", "is_rural": false, "dci_score": 79.4, "dci_quintile": 3.0, "is_cra_lmi": true, "income_level": "L", "is_persistent_poverty": false, "is_tribal_overlap": false, "tribal_area_name": null, "aian_pct": 0.0, "has_nmtc": false, "nmtc_projects": 0, "nmtc_total_usd": 0.0 }, "geometry": { "type": "Polygon", "coordinates": [ [ [ -75.545698, 39.743564 ], [ -75.54333, 39.747057 ], [ -75.545189, 39.747802 ], [ -75.544173, 39.749345 ], [ -75.543855, 39.750278 ], [ -75.540808, 39.749634 ], [ -75.539978, 39.748346 ], [ -75.539743, 39.746609 ], [ -75.53753, 39.743324 ], [ -75.537034, 39.739702 ], [ -75.537276, 39.739567 ], [ -75.537743, 39.740325 ], [ -75.539804, 39.741141 ], [ -75.541042, 39.74164 ], [ -75.542244, 39.742154 ], [ -75.54445, 39.743052 ], [ -75.545698, 39.743564 ] ] ] } },
{ "type": "Feature", "properties": { "geoid": "10003001902", "county_name": "New Castle County", "place_name": null, "state_name": "Delaware", "state_abbr": "DE", "is_rural": false, "dci_score": 79.4, "dci_quintile": 3.0, "is_cra_lmi": true, "income_level": "L", "is_persistent_poverty": false, "is_tribal_overlap": false, "tribal_area_name": null, "aian_pct": 0.0, "has_nmtc": true, "nmtc_projects": 3, "nmtc_total_usd": 0.0 }, "geometry": { "type": "Polygon", "coordinates": [ [ [ -75.559771, 39.732921 ], [ -75.558544, 39.73517 ], [ -75.556341, 39.73657 ], [ -75.553051, 39.736105 ], [ -75.551031, 39.735245 ], [ -75.547427, 39.733425 ], [ -75.545869, 39.733499 ], [ -75.543711, 39.733942 ], [ -75.540966, 39.735414 ], [ -75.537788, 39.736254 ], [ -75.535882, 39.736191 ], [ -75.533125, 39.735169 ], [ -75.53359, 39.728605 ], [ -75.532429, 39.725305 ], [ -75.53042, 39.723042 ], [ -75.525823, 39.720577 ], [ -75.512682348589905, 39.715831483850302 ], [ -75.525533030885995, 39.700503200262297 ], [ -75.530236, 39.704563 ], [ -75.532585, 39.706638 ], [ -75.532534, 39.711403 ], [ -75.533205, 39.71375 ], [ -75.535661, 39.718755 ], [ -75.544844, 39.722411 ], [ -75.547709, 39.723558 ], [ -75.553291, 39.725734 ], [ -75.555118, 39.725381 ], [ -75.555791, 39.726286 ], [ -75.555824, 39.726713 ], [ -75.560457, 39.728509 ], [ -75.559771, 39.732921 ] ] ] } },
{ "type": "Feature", "properties": { "geoid": "10003002100", "county_name": "New Castle County", "place_name": null, "state_name": "Delaware", "state_abbr": "DE", "is_rural": false, "dci_score": 79.4, "dci_quintile": 3.0, "is_cra_lmi": true, "income_level": "L", "is_persistent_poverty": false, "is_tribal_overlap": false, "tribal_area_name": null, "aian_pct": 0.0, "has_nmtc": true, "nmtc_projects": 1, "nmtc_total_usd": 9306000.0 }, "geometry": { "type": "Polygon", "coordinates": [ [ [ -75.561973, 39.741688 ], [ -75.560724, 39.743477 ], [ -75.560324, 39.744106 ], [ -75.559312, 39.745586 ], [ -75.558684, 39.745333 ], [ -75.55648, 39.744432 ], [ -75.55256, 39.742827 ], [ -75.553568, 39.74135 ], [ -75.554699, 39.739696 ], [ -75.556422, 39.740388 ], [ -75.557305, 39.739853 ], [ -75.559115, 39.740589 ], [ -75.561317, 39.741425 ], [ -75.561973, 39.741688 ] ] ] } },
{ "type": "Feature", "properties": { "geoid": "10003014907", "county_name": "New Castle County", "place_name": null, "state_name": "Delaware", "state_abbr": "DE", "is_rural": false, "dci_score": 26.7, "dci_quintile": 5.0, "is_cra_lmi": true, "income_level": "M", "is_persistent_poverty": false, "is_tribal_overlap": false, "tribal_area_name": null, "aian_pct": 0.0, "has_nmtc": false, "nmtc_projects": 0, "nmtc_total_usd": 0.0 }, "geometry": { "type": "Polygon", "coordinates": [ [ [ -75.669197, 39.650556 ], [ -75.668222, 39.653377 ], [ -75.669151, 39.65394 ], [ -75.668883, 39.655698 ], [ -75.666964, 39.657964 ], [ -75.663645, 39.658353 ], [ -75.662061, 39.659268 ], [ -75.661109, 39.660077 ], [ -75.661576, 39.661837 ], [ -75.657843, 39.664205 ], [ -75.656672, 39.663983 ], [ -75.655768, 39.662934 ], [ -75.65509, 39.660127 ], [ -75.655039, 39.659989 ], [ -75.654639, 39.658222 ], [ -75.654619, 39.656661 ], [ -75.654671, 39.655893 ], [ -75.656156, 39.649816 ], [ -75.657063, 39.64577 ], [ -75.658947, 39.636882 ], [ -75.660499, 39.638379 ], [ -75.664186, 39.643441 ], [ -75.668353, 39.649187 ], [ -75.669197, 39.650556 ] ] ] } },
{ "type": "Feature", "properties": { "geoid": "10005050711", "county_name": "Sussex County", "place_name": null, "state_name": "Delaware", "state_abbr": "DE", "is_rural": true, "dci_score": 30.2, "dci_quintile": 5.0, "is_cra_lmi": true, "income_level": "M", "is_persistent_poverty": false, "is_tribal_overlap": false, "tribal_area_name": null, "aian_pct": 0.0128, "has_nmtc": false, "nmtc_projects": 0, "nmtc_total_usd": 0.0 }, "geometry": { "type": "Polygon", "coordinates": [ [ [ -75.14217, 38.625281 ], [ -75.13912, 38.629993 ], [ -75.139077, 38.631328 ], [ -75.134289, 38.631615 ], [ -75.129171, 38.634826 ], [ -75.126069, 38.635556 ], [ -75.126119, 38.636216 ], [ -75.129392, 38.640972 ], [ -75.125506, 38.640406 ], [ -75.110027, 38.644082 ], [ -75.102708, 38.644499 ], [ -75.095294, 38.644753 ], [ -75.09351, 38.644281 ], [ -75.090541, 38.641539 ], [ -75.088535, 38.637516 ], [ -75.085208, 38.628429 ], [ -75.085294, 38.625112 ], [ -75.090865, 38.625058 ], [ -75.093306, 38.622257 ], [ -75.095248, 38.623847 ], [ -75.098117, 38.625166 ], [ -75.102891, 38.625394 ], [ -75.118886, 38.624354 ], [ -75.120659, 38.624583 ], [ -75.122489, 38.624841 ], [ -75.126828, 38.624205 ], [ -75.133391, 38.622471 ], [ -75.137028, 38.622402 ], [ -75.139099, 38.623518 ], [ -75.139769, 38.623896 ], [ -75.14217, 38.625281 ] ] ] } },
{ "type": "Feature", "properties": { "geoid": "10005050604", "county_name": "Sussex County", "place_name": null, "state_name": "Delaware", "state_abbr": "DE", "is_rural": true, "dci_score": 27.2, "dci_quintile": 5.0, "is_cra_lmi": false, "income_level": "U", "is_persistent_poverty": false, "is_tribal_overlap": false, "tribal_area_name": null, "aian_pct": 0.0288, "has_nmtc": false, "nmtc_projects": 0, "nmtc_total_usd": 0.0 }, "geometry": { "type": "Polygon", "coordinates": [ [ [ -75.339846, 38.549593 ], [ -75.334125, 38.549231 ], [ -75.317508, 38.544547 ], [ -75.320974, 38.549245 ], [ -75.321642, 38.552417 ], [ -75.323769, 38.559928 ], [ -75.325069, 38.561133 ], [ -75.318367, 38.564071 ], [ -75.324878, 38.574231 ], [ -75.322306, 38.57596 ], [ -75.315512, 38.580555 ], [ -75.314986, 38.580909 ], [ -75.314046, 38.581347 ], [ -75.31327, 38.581575 ], [ -75.311307, 38.581992 ], [ -75.305182, 38.583275 ], [ -75.304793, 38.583358 ], [ -75.30431, 38.583458 ], [ -75.295349, 38.585392 ], [ -75.295055, 38.58562 ], [ -75.293361, 38.589027 ], [ -75.290865, 38.593838 ], [ -75.290996, 38.594461 ], [ -75.289249, 38.594795 ], [ -75.289214, 38.595264 ], [ -75.28711, 38.595795 ], [ -75.282824, 38.593873 ], [ -75.282266, 38.593769 ], [ -75.281635, 38.593707 ], [ -75.279187, 38.592881 ], [ -75.276942, 38.592355 ], [ -75.276505, 38.5864 ], [ -75.275901, 38.585967 ], [ -75.272886, 38.586341 ], [ -75.264356, 38.585486 ], [ -75.260864, 38.584507 ], [ -75.2583, 38.583157 ], [ -75.260098, 38.575067 ], [ -75.261028, 38.573118 ], [ -75.26138, 38.572724 ], [ -75.26738, 38.569785 ], [ -75.272397, 38.565752 ], [ -75.273862, 38.564143 ], [ -75.27476, 38.564531 ], [ -75.275907, 38.563528 ], [ -75.275989, 38.56335 ], [ -75.277877, 38.560724 ], [ -75.277995, 38.557339 ], [ -75.280891, 38.556054 ], [ -75.282819, 38.553642 ], [ -75.286254, 38.55154 ], [ -75.288994, 38.55225 ], [ -75.292197, 38.550263 ], [ -75.30067, 38.546176 ], [ -75.301463, 38.545455 ], [ -75.306705, 38.538853 ], [ -75.306382, 38.535403 ], [ -75.305634, 38.53148 ], [ -75.323907, 38.529485 ], [ -75.329212, 38.530109 ], [ -75.332403, 38.531235 ], [ -75.335052, 38.532673 ], [ -75.334638, 38.540827 ], [ -75.337673, 38.541323 ], [ -75.338863, 38.544394 ], [ -75.339846, 38.549593 ] ] ] } },
{ "type": "Feature", "properties": { "geoid": "10003014501", "county_name": "New Castle County", "place_name": null, "state_name": "Delaware", "state_abbr": "DE", "is_rural": false, "dci_score": 28.5, "dci_quintile": 5.0, "is_cra_lmi": true, "income_level": "L", "is_persistent_poverty": false, "is_tribal_overlap": false, "tribal_area_name": null, "aian_pct": 0.0, "has_nmtc": false, "nmtc_projects": 0, "nmtc_total_usd": 0.0 }, "geometry": { "type": "Polygon", "coordinates": [ [ [ -75.754577, 39.68682 ], [ -75.753952, 39.690219 ], [ -75.753622, 39.690526 ], [ -75.752882, 39.68969 ], [ -75.748756, 39.68943 ], [ -75.748468, 39.689542 ], [ -75.745883, 39.689671 ], [ -75.743595, 39.690045 ], [ -75.74261, 39.690223 ], [ -75.741716, 39.690268 ], [ -75.7375, 39.689852 ], [ -75.737922, 39.686724 ], [ -75.736009, 39.6866 ], [ -75.736706, 39.685618 ], [ -75.73662, 39.684483 ], [ -75.744258, 39.683718 ], [ -75.745551, 39.683641 ], [ -75.745603, 39.683631 ], [ -75.753672, 39.683014 ], [ -75.754113, 39.683002 ], [ -75.754577, 39.68682 ] ] ] } },
{ "type": "Feature", "properties": { "geoid": "10003002700", "county_name": "New Castle County", "place_name": null, "state_name": "Delaware", "state_abbr": "DE", "is_rural": false, "dci_score": 75.4, "dci_quintile": 3.0, "is_cra_lmi": true, "income_level": "M", "is_persistent_poverty": false, "is_tribal_overlap": false, "tribal_area_name": null, "aian_pct": 0.0, "has_nmtc": false, "nmtc_projects": 0, "nmtc_total_usd": 0.0 }, "geometry": { "type": "Polygon", "coordinates": [ [ [ -75.573074, 39.735004 ], [ -75.569119, 39.736578 ], [ -75.565715, 39.737894 ], [ -75.559115, 39.740589 ], [ -75.557305, 39.739853 ], [ -75.55017, 39.736923 ], [ -75.551031, 39.735245 ], [ -75.553051, 39.736105 ], [ -75.556341, 39.73657 ], [ -75.558544, 39.73517 ], [ -75.559771, 39.732921 ], [ -75.560457, 39.728509 ], [ -75.560914, 39.728894 ], [ -75.561261, 39.729529 ], [ -75.561628, 39.725691 ], [ -75.563876, 39.7256 ], [ -75.564837, 39.723761 ], [ -75.564381, 39.728938 ], [ -75.566916, 39.729323 ], [ -75.56649, 39.731803 ], [ -75.569242, 39.72848 ], [ -75.570532, 39.729275 ], [ -75.573074, 39.735004 ] ] ] } },
{ "type": "Feature", "properties": { "geoid": "10001042500", "county_name": "Kent County", "place_name": null, "state_name": "Delaware", "state_abbr": "DE", "is_rural": true, "dci_score": 37.0, "dci_quintile": 5.0, "is_cra_lmi": true, "income_level": "M", "is_persistent_poverty": false, "is_tribal_overlap": false, "tribal_area_name": null, "aian_pct": 0.0, "has_nmtc": false, "nmtc_projects": 0, "nmtc_total_usd": 0.0 }, "geometry": { "type": "Polygon", "coordinates": [ [ [ -75.443988, 38.913074 ], [ -75.443462, 38.91481 ], [ -75.442736, 38.915876 ], [ -75.438018, 38.921452 ], [ -75.432182, 38.929016 ], [ -75.430219, 38.933399 ], [ -75.429994, 38.934191 ], [ -75.429921, 38.934434 ], [ -75.429632, 38.935413 ], [ -75.429235, 38.936419 ], [ -75.42852, 38.937763 ], [ -75.428058, 38.93947 ], [ -75.42792, 38.940786 ], [ -75.427578, 38.94237 ], [ -75.427251, 38.942443 ], [ -75.426295, 38.942521 ], [ -75.423774, 38.941988 ], [ -75.421399, 38.940038 ], [ -75.420456, 38.939834 ], [ -75.41811, 38.938384 ], [ -75.413837, 38.937766 ], [ -75.412355, 38.938339 ], [ -75.406699, 38.937184 ], [ -75.403675, 38.93713 ], [ -75.402873, 38.937472 ], [ -75.400321, 38.935548 ], [ -75.397887, 38.936187 ], [ -75.398613, 38.933517 ], [ -75.400176, 38.93139 ], [ -75.40095, 38.929481 ], [ -75.399109, 38.92691 ], [ -75.399883, 38.925574 ], [ -75.402155, 38.925007 ], [ -75.403351, 38.922773 ], [ -75.401735, 38.920269 ], [ -75.401413, 38.918355 ], [ -75.402507, 38.917559 ], [ -75.402774, 38.917422 ], [ -75.404831, 38.917451 ], [ -75.40561, 38.919408 ], [ -75.408922, 38.919703 ], [ -75.408818, 38.916824 ], [ -75.410463, 38.916418 ], [ -75.410646, 38.917458 ], [ -75.412565, 38.917992 ], [ -75.416679, 38.918031 ], [ -75.418423, 38.916745 ], [ -75.416947, 38.915521 ], [ -75.418318, 38.914263 ], [ -75.41983, 38.915416 ], [ -75.421581, 38.915517 ], [ -75.422073, 38.914042 ], [ -75.423458, 38.91424 ], [ -75.424692, 38.913418 ], [ -75.428404, 38.913206 ], [ -75.430096, 38.913351 ], [ -75.431697, 38.912117 ], [ -75.434048, 38.910817 ], [ -75.44039, 38.913128 ], [ -75.443717, 38.913077 ], [ -75.443988, 38.913074 ] ] ] } },
{ "type": "Feature", "properties": { "geoid": "10005051801", "county_name": "Sussex County", "place_name": "Brookside", "state_name": "Delaware", "state_abbr": "DE", "is_rural": true, "dci_score": 74.6, "dci_quintile": 3.0, "is_cra_lmi": false, "income_level": "U", "is_persistent_poverty": false, "is_tribal_overlap": false, "tribal_area_name": null, "aian_pct": 0.0, "has_nmtc": false, "nmtc_projects": 0, "nmtc_total_usd": 0.0 }, "geometry": { "type": "Polygon", "coordinates": [ [ [ -75.701565, 38.560736 ], [ -75.695581, 38.557387 ], [ -75.691682, 38.557597 ], [ -75.685405, 38.563507 ], [ -75.679428, 38.566485 ], [ -75.672343, 38.573453 ], [ -75.670328, 38.575884 ], [ -75.669386, 38.577719 ], [ -75.669365, 38.579912 ], [ -75.669877, 38.58441 ], [ -75.669537, 38.587437 ], [ -75.667622, 38.588858 ], [ -75.662177, 38.589668 ], [ -75.660951, 38.59033 ], [ -75.65655, 38.599654 ], [ -75.65501, 38.601947 ], [ -75.65288, 38.60438 ], [ -75.651672, 38.604028 ], [ -75.651574, 38.602095 ], [ -75.650097, 38.602507 ], [ -75.648826, 38.601843 ], [ -75.646882, 38.601866 ], [ -75.644698, 38.600973 ], [ -75.640114, 38.600397 ], [ -75.637622, 38.601115 ], [ -75.633877, 38.600454 ], [ -75.632905, 38.599213 ], [ -75.629919, 38.597965 ], [ -75.628084, 38.596414 ], [ -75.626152, 38.596743 ], [ -75.624703, 38.595807 ], [ -75.61902, 38.5967 ], [ -75.616668, 38.597487 ], [ -75.610347, 38.597995 ], [ -75.608689, 38.598567 ], [ -75.605902, 38.598052 ], [ -75.601569, 38.597735 ], [ -75.599791, 38.598373 ], [ -75.594263, 38.597525 ], [ -75.59069, 38.596151 ], [ -75.58621, 38.59697 ], [ -75.58592, 38.597941 ], [ -75.580857, 38.599415 ], [ -75.571989, 38.585075 ], [ -75.56876, 38.579859 ], [ -75.567533, 38.577886 ], [ -75.566594, 38.576363 ], [ -75.564681, 38.573285 ], [ -75.562739, 38.570154 ], [ -75.567299, 38.565907 ], [ -75.567835, 38.565591 ], [ -75.570979, 38.56419 ], [ -75.570779, 38.562408 ], [ -75.57183, 38.558821 ], [ -75.572904, 38.558976 ], [ -75.574649, 38.558137 ], [ -75.576171, 38.557578 ], [ -75.578138, 38.557127 ], [ -75.579498, 38.557037 ], [ -75.582769, 38.558696 ], [ -75.583913, 38.559573 ], [ -75.587904, 38.560892 ], [ -75.588452, 38.560722 ], [ -75.589891, 38.557806 ], [ -75.587609, 38.556021 ], [ -75.584664, 38.554934 ], [ -75.582788, 38.552533 ], [ -75.582744, 38.548761 ], [ -75.582618, 38.547194 ], [ -75.582101, 38.546952 ], [ -75.580824, 38.546546 ], [ -75.591746, 38.538044 ], [ -75.591822, 38.538 ], [ -75.592685, 38.537538 ], [ -75.640152, 38.517477 ], [ -75.641332, 38.517197 ], [ -75.642705, 38.517161 ], [ -75.660342, 38.518586 ], [ -75.694538, 38.521362 ], [ -75.698779000160499, 38.522030554439802 ], [ -75.7001723474568, 38.542618701794602 ], [ -75.700179, 38.542717 ], [ -75.700394635168195, 38.545520412767502 ], [ -75.701565, 38.560736 ] ] ] } },
{ "type": "Feature", "properties": { "geoid": "10005050407", "county_name": "Sussex County", "place_name": null, "state_name": "Delaware", "state_abbr": "DE", "is_rural": true, "dci_score": 69.0, "dci_quintile": 4.0, "is_cra_lmi": false, "income_level": "U", "is_persistent_poverty": false, "is_tribal_overlap": false, "tribal_area_name": null, "aian_pct": 0.0, "has_nmtc": false, "nmtc_projects": 0, "nmtc_total_usd": 0.0 }, "geometry": { "type": "Polygon", "coordinates": [ [ [ -75.5944, 38.655777 ], [ -75.593842, 38.66063 ], [ -75.592748, 38.669596 ], [ -75.592136, 38.674648 ], [ -75.590863, 38.685061 ], [ -75.589076, 38.699672 ], [ -75.58827, 38.706611 ], [ -75.588436, 38.709069 ], [ -75.58851, 38.709706 ], [ -75.589452, 38.717035 ], [ -75.590485, 38.722989 ], [ -75.587816, 38.722502 ], [ -75.584916, 38.719879 ], [ -75.582183, 38.718675 ], [ -75.581292, 38.718285 ], [ -75.565484, 38.710247 ], [ -75.564863, 38.710026 ], [ -75.561306, 38.709039 ], [ -75.558087, 38.708259 ], [ -75.555772, 38.707748 ], [ -75.545845, 38.708066 ], [ -75.531357, 38.710272 ], [ -75.530284, 38.71031 ], [ -75.5211, 38.708381 ], [ -75.484187, 38.693636 ], [ -75.48155, 38.692598 ], [ -75.4806, 38.69239 ], [ -75.484249, 38.687861 ], [ -75.487763, 38.684978 ], [ -75.49363, 38.681147 ], [ -75.494974, 38.680812 ], [ -75.500895, 38.681173 ], [ -75.504316, 38.676218 ], [ -75.504902, 38.675886 ], [ -75.512064, 38.67346 ], [ -75.517558, 38.669198 ], [ -75.519877, 38.667504 ], [ -75.525609, 38.666379 ], [ -75.537617, 38.665776 ], [ -75.543466, 38.659779 ], [ -75.545102, 38.657513 ], [ -75.552135, 38.650651 ], [ -75.553415, 38.647682 ], [ -75.553503, 38.643812 ], [ -75.554993, 38.642054 ], [ -75.556035, 38.63954 ], [ -75.560366, 38.640557 ], [ -75.562171, 38.64094 ], [ -75.563865, 38.640984 ], [ -75.573065, 38.640769 ], [ -75.58891, 38.641832 ], [ -75.590423, 38.641714 ], [ -75.593327, 38.640541 ], [ -75.593577, 38.640376 ], [ -75.593834, 38.643689 ], [ -75.594186, 38.648083 ], [ -75.594193, 38.648173 ], [ -75.594258, 38.648982 ], [ -75.594347, 38.650042 ], [ -75.594082, 38.65008 ], [ -75.594097, 38.650322 ], [ -75.594263, 38.65276 ], [ -75.5944, 38.655777 ] ] ] } },
{ "type": "Feature", "properties": { "geoid": "10003002400", "county_name": "New Castle County", "place_name": null, "state_name": "Delaware", "state_abbr": "DE", "is_rural": false, "dci_score": 67.0, "dci_quintile": 4.0, "is_cra_lmi": true, "income_level": "M", "is_persistent_poverty": false, "is_tribal_overlap": false, "tribal_area_name": null, "aian_pct": 0.0, "has_nmtc": false, "nmtc_projects": 0, "nmtc_total_usd": 0.0 }, "geometry": { "type": "Polygon", "coordinates": [ [ [ -75.587482, 39.758109 ], [ -75.578566, 39.754466 ], [ -75.578608, 39.754406 ], [ -75.574977, 39.752919 ], [ -75.573635, 39.754965 ], [ -75.57181, 39.754222 ], [ -75.57013, 39.753526 ], [ -75.571993, 39.750751 ], [ -75.574639, 39.746869 ], [ -75.577087, 39.743284 ], [ -75.578007, 39.742413 ], [ -75.578726, 39.742049 ], [ -75.582907, 39.741296 ], [ -75.581868, 39.742862 ], [ -75.584081, 39.744163 ], [ -75.584555, 39.744507 ], [ -75.581662, 39.749721 ], [ -75.581755, 39.749759 ], [ -75.587136, 39.751921 ], [ -75.588502, 39.752482 ], [ -75.587482, 39.758109 ] ] ] } },
{ "type": "Feature", "properties": { "geoid": "10003010704", "county_name": "New Castle County", "place_name": null, "state_name": "Delaware", "state_abbr": "DE", "is_rural": false, "dci_score": 56.5, "dci_quintile": 4.0, "is_cra_lmi": true, "income_level": "M", "is_persistent_poverty": false, "is_tribal_overlap": false, "tribal_area_name": null, "aian_pct": 0.0, "has_nmtc": false, "nmtc_projects": 0, "nmtc_total_usd": 0.0 }, "geometry": { "type": "Polygon", "coordinates": [ [ [ -75.525487, 39.759194 ], [ -75.519764, 39.761804 ], [ -75.518431, 39.762412 ], [ -75.517044, 39.763049 ], [ -75.515953, 39.763553 ], [ -75.511472, 39.76561 ], [ -75.511009, 39.764912 ], [ -75.512079, 39.761363 ], [ -75.511115, 39.760114 ], [ -75.509964, 39.758369 ], [ -75.507443, 39.759441 ], [ -75.505541, 39.759037 ], [ -75.504145, 39.759112 ], [ -75.499656, 39.75669 ], [ -75.498677, 39.755096 ], [ -75.498206, 39.755246 ], [ -75.495513, 39.755569 ], [ -75.497634, 39.75381 ], [ -75.493658, 39.752587 ], [ -75.491556, 39.755167 ], [ -75.489888, 39.755585 ], [ -75.4897514259047, 39.755503457769102 ], [ -75.490243, 39.754787 ], [ -75.496490535766, 39.743299082882402 ], [ -75.505975, 39.742059 ], [ -75.513287, 39.745078 ], [ -75.515828, 39.746128 ], [ -75.518477, 39.749537 ], [ -75.519394, 39.750723 ], [ -75.518454, 39.751781 ], [ -75.517361, 39.753257 ], [ -75.520499, 39.752119 ], [ -75.521537, 39.753472 ], [ -75.521575, 39.75352 ], [ -75.525816, 39.759044 ], [ -75.525487, 39.759194 ] ] ] } },
{ "type": "Feature", "properties": { "geoid": "10003001400", "county_name": "New Castle County", "place_name": null, "state_name": "Delaware", "state_abbr": "DE", "is_rural": false, "dci_score": 59.6, "dci_quintile": 4.0, "is_cra_lmi": false, "income_level": "U", "is_persistent_poverty": false, "is_tribal_overlap": false, "tribal_area_name": null, "aian_pct": 0.0, "has_nmtc": false, "nmtc_projects": 0, "nmtc_total_usd": 0.0 }, "geometry": { "type": "Polygon", "coordinates": [ [ [ -75.57013, 39.753526 ], [ -75.568855, 39.755313 ], [ -75.567772, 39.756035 ], [ -75.567144, 39.755667 ], [ -75.563366, 39.75431 ], [ -75.560813, 39.753629 ], [ -75.562292, 39.75144 ], [ -75.562887, 39.750573 ], [ -75.564792, 39.747811 ], [ -75.566511, 39.748513 ], [ -75.568442, 39.749294 ], [ -75.571993, 39.750751 ], [ -75.57013, 39.753526 ] ] ] } },
{ "type": "Feature", "properties": { "geoid": "10001040203", "county_name": "Kent County", "place_name": null, "state_name": "Delaware", "state_abbr": "DE", "is_rural": true, "dci_score": 26.6, "dci_quintile": 5.0, "is_cra_lmi": false, "income_level": "U", "is_persistent_poverty": false, "is_tribal_overlap": false, "tribal_area_name": null, "aian_pct": 0.0, "has_nmtc": false, "nmtc_projects": 0, "nmtc_total_usd": 0.0 }, "geometry": { "type": "Polygon", "coordinates": [ [ [ -75.609385, 39.308801 ], [ -75.606598, 39.30809 ], [ -75.603836, 39.311182 ], [ -75.603446, 39.309094 ], [ -75.602031, 39.30811 ], [ -75.599571, 39.308442 ], [ -75.599218, 39.309737 ], [ -75.597106, 39.309554 ], [ -75.59669, 39.309751 ], [ -75.595471, 39.310081 ], [ -75.593889, 39.308417 ], [ -75.592338, 39.309948 ], [ -75.592056, 39.311252 ], [ -75.590409, 39.311746 ], [ -75.587495, 39.311009 ], [ -75.587325, 39.309699 ], [ -75.584341, 39.308718 ], [ -75.581145, 39.311131 ], [ -75.57462, 39.313434 ], [ -75.570958, 39.318845 ], [ -75.568716, 39.323523 ], [ -75.56982, 39.326577 ], [ -75.569007, 39.328744 ], [ -75.564806, 39.331936 ], [ -75.562734, 39.332104 ], [ -75.558843, 39.333334 ], [ -75.556205, 39.335325 ], [ -75.555717, 39.337066 ], [ -75.556813, 39.338169 ], [ -75.558334, 39.33923 ], [ -75.557358, 39.341501 ], [ -75.557846, 39.342764 ], [ -75.559982, 39.343466 ], [ -75.560519, 39.345067 ], [ -75.5588, 39.346549 ], [ -75.557378, 39.349101 ], [ -75.55619, 39.348287 ], [ -75.555886, 39.346743 ], [ -75.554223, 39.345404 ], [ -75.551599, 39.345105 ], [ -75.55104, 39.345568 ], [ -75.551096, 39.349483 ], [ -75.552242, 39.350157 ], [ -75.553841, 39.349938 ], [ -75.554683, 39.351506 ], [ -75.553369, 39.35301 ], [ -75.551626, 39.35394 ], [ -75.549645, 39.353855 ], [ -75.548483, 39.350965 ], [ -75.541257, 39.341387 ], [ -75.526967, 39.332413 ], [ -75.519773, 39.32991 ], [ -75.513088, 39.326355 ], [ -75.512619, 39.325739 ], [ -75.513332, 39.321549 ], [ -75.515047, 39.314826 ], [ -75.515841, 39.285397 ], [ -75.516047, 39.283968 ], [ -75.516614, 39.282552 ], [ -75.520538, 39.277254 ], [ -75.521305, 39.273519 ], [ -75.521072, 39.267572 ], [ -75.517861, 39.248173 ], [ -75.5177, 39.247207 ], [ -75.517631, 39.245626 ], [ -75.518882, 39.245997 ], [ -75.523729, 39.245886 ], [ -75.524961, 39.247389 ], [ -75.524584, 39.249632 ], [ -75.527975, 39.250474 ], [ -75.530119, 39.251819 ], [ -75.531834, 39.252014 ], [ -75.533638, 39.251228 ], [ -75.535752, 39.248892 ], [ -75.538739, 39.249172 ], [ -75.539508, 39.251494 ], [ -75.542081, 39.251609 ], [ -75.543949, 39.250919 ], [ -75.545805, 39.251436 ], [ -75.549851, 39.251047 ], [ -75.550618, 39.250258 ], [ -75.551144, 39.247685 ], [ -75.553556, 39.247014 ], [ -75.555191, 39.244294 ], [ -75.559762, 39.244678 ], [ -75.562778, 39.243972 ], [ -75.567196, 39.244251 ], [ -75.568811, 39.245169 ], [ -75.57008, 39.243735 ], [ -75.575818, 39.243657 ], [ -75.577049, 39.242685 ], [ -75.581599, 39.242084 ], [ -75.584735, 39.242025 ], [ -75.588101, 39.244031 ], [ -75.588347, 39.245817 ], [ -75.586712, 39.252517 ], [ -75.586335, 39.2556 ], [ -75.586563, 39.263781 ], [ -75.58895, 39.269684 ], [ -75.589528, 39.271141 ], [ -75.591662, 39.276908 ], [ -75.591725, 39.277098 ], [ -75.594514, 39.285438 ], [ -75.5948, 39.286451 ], [ -75.595257, 39.288142 ], [ -75.596062, 39.290112 ], [ -75.596338, 39.290628 ], [ -75.596689, 39.291284 ], [ -75.597716, 39.293353 ], [ -75.602814, 39.301329 ], [ -75.603838, 39.302581 ], [ -75.60688, 39.306035 ], [ -75.609385, 39.308801 ] ] ] } },
{ "type": "Feature", "properties": { "geoid": "10003001600", "county_name": "New Castle County", "place_name": null, "state_name": "Delaware", "state_abbr": "DE", "is_rural": false, "dci_score": 79.4, "dci_quintile": 3.0, "is_cra_lmi": true, "income_level": "M", "is_persistent_poverty": false, "is_tribal_overlap": false, "tribal_area_name": null, "aian_pct": 0.0, "has_nmtc": false, "nmtc_projects": 0, "nmtc_total_usd": 0.0 }, "geometry": { "type": "Polygon", "coordinates": [ [ [ -75.559312, 39.745586 ], [ -75.557419, 39.748356 ], [ -75.556845, 39.74922 ], [ -75.556246, 39.75008 ], [ -75.555094, 39.751144 ], [ -75.554987, 39.751244 ], [ -75.554707, 39.750993 ], [ -75.553163, 39.749755 ], [ -75.551681, 39.749403 ], [ -75.553482, 39.746747 ], [ -75.551436, 39.745905 ], [ -75.552299, 39.744644 ], [ -75.552052, 39.743571 ], [ -75.55256, 39.742827 ], [ -75.55648, 39.744432 ], [ -75.558684, 39.745333 ], [ -75.559312, 39.745586 ] ] ] } },
{ "type": "Feature", "properties": { "geoid": "10005050200", "county_name": "Sussex County", "place_name": null, "state_name": "Delaware", "state_abbr": "DE", "is_rural": true, "dci_score": 69.5, "dci_quintile": 4.0, "is_cra_lmi": true, "income_level": "M", "is_persistent_poverty": false, "is_tribal_overlap": false, "tribal_area_name": null, "aian_pct": 0.0, "has_nmtc": false, "nmtc_projects": 0, "nmtc_total_usd": 0.0 }, "geometry": { "type": "Polygon", "coordinates": [ [ [ -75.496751, 38.760556 ], [ -75.494986, 38.764322 ], [ -75.494637, 38.764744 ], [ -75.488338, 38.769536 ], [ -75.487302, 38.770701 ], [ -75.483117, 38.779053 ], [ -75.481525, 38.781009 ], [ -75.476536, 38.785474 ], [ -75.475079, 38.787295 ], [ -75.474882, 38.787999 ], [ -75.476696, 38.792387 ], [ -75.475881, 38.795233 ], [ -75.474127, 38.796201 ], [ -75.465494, 38.806871 ], [ -75.462573, 38.809831 ], [ -75.457679, 38.813207 ], [ -75.457381, 38.813642 ], [ -75.458078, 38.81737 ], [ -75.45544, 38.82085 ], [ -75.453322, 38.822709 ], [ -75.453025, 38.82288 ], [ -75.447252, 38.823818 ], [ -75.440802, 38.825741 ], [ -75.438787, 38.826895 ], [ -75.435022, 38.828142 ], [ -75.429204, 38.82819 ], [ -75.422355, 38.833447 ], [ -75.419167, 38.828984 ], [ -75.414906, 38.827254 ], [ -75.412102, 38.823601 ], [ -75.40926, 38.821997 ], [ -75.408111, 38.820721 ], [ -75.403538, 38.827286 ], [ -75.402416, 38.828062 ], [ -75.395489, 38.830519 ], [ -75.394913, 38.831066 ], [ -75.395355, 38.835821 ], [ -75.393524, 38.83453 ], [ -75.388089, 38.834301 ], [ -75.383011, 38.83322 ], [ -75.370379, 38.833517 ], [ -75.36701, 38.83334 ], [ -75.365942, 38.833254 ], [ -75.362636, 38.833128 ], [ -75.348894, 38.834181 ], [ -75.345712, 38.834144 ], [ -75.345398, 38.829586 ], [ -75.343619, 38.826552 ], [ -75.345383, 38.81567 ], [ -75.342963, 38.810292 ], [ -75.342387, 38.808497 ], [ -75.341976, 38.804234 ], [ -75.342273, 38.800454 ], [ -75.341985, 38.798332 ], [ -75.340734, 38.794685 ], [ -75.340676, 38.786696 ], [ -75.340119, 38.78144 ], [ -75.341489, 38.77584 ], [ -75.340686, 38.770917 ], [ -75.339793, 38.767008 ], [ -75.338345, 38.763708 ], [ -75.337514, 38.759416 ], [ -75.336878, 38.753913 ], [ -75.335774, 38.748774 ], [ -75.341191, 38.748325 ], [ -75.345153, 38.747177 ], [ -75.349837, 38.747518 ], [ -75.353634, 38.744774 ], [ -75.356107, 38.743734 ], [ -75.358099, 38.744954 ], [ -75.355329, 38.750148 ], [ -75.355172, 38.750362 ], [ -75.370807, 38.75395 ], [ -75.372866, 38.753546 ], [ -75.379694, 38.749991 ], [ -75.381938, 38.749366 ], [ -75.391277, 38.748996 ], [ -75.395682, 38.750203 ], [ -75.405202, 38.751289 ], [ -75.406547, 38.750839 ], [ -75.412279, 38.748577 ], [ -75.415454, 38.742661 ], [ -75.424224, 38.739276 ], [ -75.426965, 38.742679 ], [ -75.444194, 38.744532 ], [ -75.453854, 38.746071 ], [ -75.456839, 38.746468 ], [ -75.464215, 38.746629 ], [ -75.466229, 38.747343 ], [ -75.475198, 38.751308 ], [ -75.4843, 38.755635 ], [ -75.48547, 38.755966 ], [ -75.494144, 38.757279 ], [ -75.500351, 38.755637 ], [ -75.496751, 38.760556 ] ] ] } },
{ "type": "Feature", "properties": { "geoid": "10005050710", "county_name": "Sussex County", "place_name": null, "state_name": "Delaware", "state_abbr": "DE", "is_rural": true, "dci_score": 30.3, "dci_quintile": 5.0, "is_cra_lmi": false, "income_level": "NA", "is_persistent_poverty": false, "is_tribal_overlap": false, "tribal_area_name": null, "aian_pct": 0.0123, "has_nmtc": false, "nmtc_projects": 0, "nmtc_total_usd": 0.0 }, "geometry": { "type": "Polygon", "coordinates": [ [ [ -75.181158, 38.63494 ], [ -75.176742, 38.638403 ], [ -75.175567, 38.638941 ], [ -75.174083, 38.640293 ], [ -75.169744, 38.638427 ], [ -75.167291, 38.636722 ], [ -75.166464, 38.636587 ], [ -75.16335, 38.637721 ], [ -75.157047, 38.64103 ], [ -75.153387, 38.642065 ], [ -75.151041, 38.643489 ], [ -75.147023, 38.643722 ], [ -75.144067, 38.645649 ], [ -75.141067, 38.643644 ], [ -75.133268, 38.642425 ], [ -75.129392, 38.640972 ], [ -75.126119, 38.636216 ], [ -75.126069, 38.635556 ], [ -75.129171, 38.634826 ], [ -75.134289, 38.631615 ], [ -75.139077, 38.631328 ], [ -75.13912, 38.629993 ], [ -75.14217, 38.625281 ], [ -75.14805, 38.629417 ], [ -75.152166, 38.631008 ], [ -75.156841, 38.631798 ], [ -75.157616, 38.631497 ], [ -75.160557, 38.628614 ], [ -75.163201, 38.628367 ], [ -75.167212, 38.628561 ], [ -75.172916, 38.630037 ], [ -75.179738, 38.631885 ], [ -75.181775, 38.632428 ], [ -75.181158, 38.63494 ] ] ] } },
{ "type": "Feature", "properties": { "geoid": "10003012300", "county_name": "New Castle County", "place_name": null, "state_name": "Delaware", "state_abbr": "DE", "is_rural": false, "dci_score": 69.7, "dci_quintile": 3.0, "is_cra_lmi": false, "income_level": "U", "is_persistent_poverty": false, "is_tribal_overlap": false, "tribal_area_name": null, "aian_pct": 0.0121, "has_nmtc": false, "nmtc_projects": 0, "nmtc_total_usd": 0.0 }, "geometry": { "type": "Polygon", "coordinates": [ [ [ -75.604509, 39.741584 ], [ -75.602632, 39.744944 ], [ -75.601183, 39.744152 ], [ -75.599298, 39.742887 ], [ -75.597096, 39.744347 ], [ -75.594971, 39.74376 ], [ -75.592393, 39.745484 ], [ -75.591875, 39.745849 ], [ -75.589611, 39.746104 ], [ -75.586593, 39.74597 ], [ -75.584652, 39.744544 ], [ -75.584555, 39.744507 ], [ -75.584081, 39.744163 ], [ -75.581868, 39.742862 ], [ -75.582907, 39.741296 ], [ -75.586154, 39.740712 ], [ -75.589439, 39.740131 ], [ -75.589388, 39.740067 ], [ -75.589447, 39.739566 ], [ -75.589496, 39.739291 ], [ -75.589648, 39.739254 ], [ -75.595061, 39.738748 ], [ -75.597107, 39.739223 ], [ -75.598953, 39.73959 ], [ -75.600884, 39.739349 ], [ -75.604699, 39.738862 ], [ -75.604509, 39.741584 ] ] ] } },
{ "type": "Feature", "properties": { "geoid": "10003014703", "county_name": "New Castle County", "place_name": null, "state_name": "Delaware", "state_abbr": "DE", "is_rural": false, "dci_score": 51.4, "dci_quintile": 5.0, "is_cra_lmi": true, "income_level": "M", "is_persistent_poverty": false, "is_tribal_overlap": false, "tribal_area_name": null, "aian_pct": 0.0063, "has_nmtc": false, "nmtc_projects": 0, "nmtc_total_usd": 0.0 }, "geometry": { "type": "Polygon", "coordinates": [ [ [ -75.73886, 39.669542 ], [ -75.738292, 39.671616 ], [ -75.736245, 39.675276 ], [ -75.729153, 39.677472 ], [ -75.72897, 39.677046 ], [ -75.728254, 39.673335 ], [ -75.721524, 39.673901 ], [ -75.72011, 39.674525 ], [ -75.718993, 39.67517 ], [ -75.718403, 39.675364 ], [ -75.712168, 39.669463 ], [ -75.71435, 39.66796 ], [ -75.716729, 39.666645 ], [ -75.716918, 39.666542 ], [ -75.719979, 39.665272 ], [ -75.726564, 39.662704 ], [ -75.728532, 39.66229 ], [ -75.736081, 39.661738 ], [ -75.736879, 39.663515 ], [ -75.738688, 39.667747 ], [ -75.73886, 39.669542 ] ] ] } },
{ "type": "Feature", "properties": { "geoid": "10003002900", "county_name": "New Castle County", "place_name": "Edgemoor", "state_name": "Delaware", "state_abbr": "DE", "is_rural": false, "dci_score": 79.4, "dci_quintile": 3.0, "is_cra_lmi": true, "income_level": "L", "is_persistent_poverty": false, "is_tribal_overlap": false, "tribal_area_name": null, "aian_pct": 0.0, "has_nmtc": true, "nmtc_projects": 1, "nmtc_total_usd": 7613003.0 }, "geometry": { "type": "Polygon", "coordinates": [ [ [ -75.55017, 39.736923 ], [ -75.549004, 39.738708 ], [ -75.548588, 39.73933 ], [ -75.547103, 39.741537 ], [ -75.546571, 39.742305 ], [ -75.545698, 39.743564 ], [ -75.54445, 39.743052 ], [ -75.542244, 39.742154 ], [ -75.541042, 39.74164 ], [ -75.539804, 39.741141 ], [ -75.537743, 39.740325 ], [ -75.537276, 39.739567 ], [ -75.537034, 39.739702 ], [ -75.534957, 39.738797 ], [ -75.531978, 39.73988 ], [ -75.526481, 39.738032 ], [ -75.526554, 39.73405 ], [ -75.529764, 39.731832 ], [ -75.532076, 39.731283 ], [ -75.53359, 39.728605 ], [ -75.533125, 39.735169 ], [ -75.535882, 39.736191 ], [ -75.537788, 39.736254 ], [ -75.540966, 39.735414 ], [ -75.543711, 39.733942 ], [ -75.545869, 39.733499 ], [ -75.547427, 39.733425 ], [ -75.551031, 39.735245 ], [ -75.55017, 39.736923 ] ] ] } },
{ "type": "Feature", "properties": { "geoid": "10005050601", "county_name": "Sussex County", "place_name": "Newark", "state_name": "Delaware", "state_abbr": "DE", "is_rural": true, "dci_score": 51.1, "dci_quintile": 5.0, "is_cra_lmi": false, "income_level": "U", "is_persistent_poverty": false, "is_tribal_overlap": false, "tribal_area_name": null, "aian_pct": 0.003, "has_nmtc": false, "nmtc_projects": 0, "nmtc_total_usd": 0.0 }, "geometry": { "type": "Polygon", "coordinates": [ [ [ -75.478684, 38.623536 ], [ -75.47863, 38.623572 ], [ -75.449577, 38.639403 ], [ -75.439227, 38.6445 ], [ -75.438102, 38.645225 ], [ -75.430384, 38.652066 ], [ -75.425558, 38.648754 ], [ -75.423563, 38.647705 ], [ -75.416955, 38.642893 ], [ -75.409134, 38.64036 ], [ -75.401613, 38.639709 ], [ -75.395966, 38.634089 ], [ -75.392393, 38.631908 ], [ -75.39058, 38.631574 ], [ -75.382351, 38.631059 ], [ -75.374388, 38.629319 ], [ -75.372905, 38.62881 ], [ -75.366016, 38.625507 ], [ -75.357394, 38.619053 ], [ -75.356114, 38.61884 ], [ -75.351844, 38.616704 ], [ -75.346875, 38.620031 ], [ -75.337632, 38.620575 ], [ -75.368094, 38.652959 ], [ -75.36636, 38.652738 ], [ -75.361442, 38.6539 ], [ -75.358536, 38.653465 ], [ -75.344865, 38.647502 ], [ -75.340769, 38.646801 ], [ -75.330169, 38.642815 ], [ -75.3235, 38.639359 ], [ -75.321905, 38.638949 ], [ -75.315168, 38.638469 ], [ -75.313533, 38.635161 ], [ -75.311376, 38.633698 ], [ -75.295932, 38.632165 ], [ -75.294844, 38.621428 ], [ -75.293662, 38.614548 ], [ -75.293819, 38.61321 ], [ -75.295238, 38.610964 ], [ -75.295558, 38.60954 ], [ -75.294046, 38.600877 ], [ -75.292794, 38.597794 ], [ -75.291254, 38.595667 ], [ -75.291146, 38.595067 ], [ -75.290996, 38.594461 ], [ -75.292778, 38.594164 ], [ -75.29421, 38.594933 ], [ -75.295568, 38.597953 ], [ -75.296765, 38.598777 ], [ -75.299501, 38.59918 ], [ -75.302938, 38.598531 ], [ -75.303589, 38.598533 ], [ -75.304815, 38.597931 ], [ -75.304339, 38.596135 ], [ -75.304975, 38.59564 ], [ -75.30976, 38.596744 ], [ -75.31128, 38.596461 ], [ -75.31247, 38.595278 ], [ -75.312841, 38.595473 ], [ -75.314838, 38.596695 ], [ -75.317264, 38.599132 ], [ -75.318908, 38.600885 ], [ -75.319068, 38.600804 ], [ -75.320392, 38.600129 ], [ -75.321391, 38.599383 ], [ -75.321439, 38.59939 ], [ -75.321588, 38.599212 ], [ -75.328219, 38.592494 ], [ -75.329285, 38.591414 ], [ -75.328231, 38.590518 ], [ -75.327737, 38.588854 ], [ -75.326331, 38.587921 ], [ -75.326485, 38.587747 ], [ -75.329834, 38.581806 ], [ -75.324878, 38.574231 ], [ -75.318367, 38.564071 ], [ -75.325069, 38.561133 ], [ -75.323769, 38.559928 ], [ -75.321642, 38.552417 ], [ -75.320974, 38.549245 ], [ -75.317508, 38.544547 ], [ -75.334125, 38.549231 ], [ -75.339846, 38.549593 ], [ -75.338863, 38.544394 ], [ -75.337673, 38.541323 ], [ -75.334638, 38.540827 ], [ -75.335052, 38.532673 ], [ -75.332403, 38.531235 ], [ -75.329212, 38.530109 ], [ -75.323907, 38.529485 ], [ -75.326743, 38.52905 ], [ -75.334393, 38.527027 ], [ -75.356966, 38.524818 ], [ -75.35867, 38.536695 ], [ -75.358176, 38.538099 ], [ -75.354767, 38.545996 ], [ -75.354643, 38.546216 ], [ -75.365452, 38.552278 ], [ -75.370682, 38.554587 ], [ -75.372102, 38.557292 ], [ -75.376237, 38.561758 ], [ -75.377105, 38.564457 ], [ -75.380756, 38.576215 ], [ -75.384069, 38.580776 ], [ -75.388765, 38.583185 ], [ -75.390652, 38.590523 ], [ -75.390728, 38.593965 ], [ -75.393426, 38.598147 ], [ -75.406387, 38.593689 ], [ -75.409075, 38.592995 ], [ -75.411731, 38.592946 ], [ -75.413211, 38.593302 ], [ -75.432455, 38.599707 ], [ -75.432787, 38.599817 ], [ -75.445545, 38.604164 ], [ -75.466711, 38.612896 ], [ -75.484652, 38.620322 ], [ -75.478684, 38.623536 ] ] ] } }
]
}
