{
"type": "FeatureCollection",
"name": "11",
"crs": { "type": "name", "properties": { "name": "urn:ogc:def:crs:OGC:1.3:CRS84" } },
"features": [
{ "type": "Feature", "properties": { "geoid": "11001000201", "county_name": "District of Columbia", "place_name": "Washington", "state_name": "District of Columbia", "state_abbr": "DC", "is_rural": false, "dci_score": 36.7, "dci_quintile": 5.0, "is_cra_lmi": false, "income_level": "NA", "is_persistent_poverty": false, "is_tribal_overlap": false, "tribal_area_name": null, "aian_pct": 0.0038, "has_nmtc": false, "nmtc_projects": 0, "nmtc_total_usd": 0.0 }, "geometry": { "type": "Polygon", "coordinates": [ [ [ -77.079016, 38.912679 ], [ -77.074327, 38.912589 ], [ -77.073097, 38.912589 ], [ -77.069201, 38.911606 ], [ -77.069162, 38.910692 ], [ -77.069081, 38.908718 ], [ -77.071546, 38.908662 ], [ -77.071498, 38.905109 ], [ -77.076044, 38.905552 ], [ -77.07831, 38.906042 ], [ -77.077908, 38.90671 ], [ -77.0777, 38.909687 ], [ -77.079016, 38.912679 ] ] ] } },
{ "type": "Feature", "properties": { "geoid": "11001002801", "county_name": "District of Columbia", "place_name": null, "state_name": "District of Columbia", "state_abbr": "DC", "is_rural": false, "dci_score": 44.7, "dci_quintile": 5.0, "is_cra_lmi": true, "income_level": "M", "is_persistent_poverty": false, "is_tribal_overlap": false, "tribal_area_name": null, "aian_pct": 0.0, "has_nmtc": false, "nmtc_projects": 0, "nmtc_total_usd": 0.0 }, "geometry": { "type": "Polygon", "coordinates": [ [ [ -77.036451, 38.934966 ], [ -77.036447, 38.937427 ], [ -77.03391, 38.937387 ], [ -77.03273, 38.937078 ], [ -77.032732, 38.934121 ], [ -77.032735, 38.931868 ], [ -77.036456, 38.933288 ], [ -77.036451, 38.934966 ] ] ] } },
{ "type": "Feature", "properties": { "geoid": "11001007707", "county_name": "District of Columbia", "place_name": "Washington", "state_name": "District of Columbia", "state_abbr": "DC", "is_rural": false, "dci_score": 83.4, "dci_quintile": 2.0, "is_cra_lmi": true, "income_level": "L", "is_persistent_poverty": false, "is_tribal_overlap": false, "tribal_area_name": null, "aian_pct": 0.0046, "has_nmtc": false, "nmtc_projects": 0, "nmtc_total_usd": 0.0 }, "geometry": { "type": "Polygon", "coordinates": [ [ [ -76.944864, 38.879093 ], [ -76.942897, 38.880366 ], [ -76.936264, 38.880209 ], [ -76.93304, 38.881491 ], [ -76.93101, 38.88068 ], [ -76.929316, 38.880674 ], [ -76.925954, 38.881082 ], [ -76.924034950179802, 38.881405225682002 ], [ -76.9298866240579, 38.876823222814899 ], [ -76.931247264631097, 38.875757808176701 ], [ -76.933718878799695, 38.873822474211899 ], [ -76.933804814136295, 38.873755184754799 ], [ -76.934971325738701, 38.872841777818898 ], [ -76.942981, 38.877043 ], [ -76.944864, 38.879093 ] ] ] } },
{ "type": "Feature", "properties": { "geoid": "11001008803", "county_name": "District of Columbia", "place_name": null, "state_name": "District of Columbia", "state_abbr": "DC", "is_rural": false, "dci_score": 38.1, "dci_quintile": 5.0, "is_cra_lmi": true, "income_level": "L", "is_persistent_poverty": false, "is_tribal_overlap": false, "tribal_area_name": null, "aian_pct": 0.0005, "has_nmtc": true, "nmtc_projects": 1, "nmtc_total_usd": 1750000.0 }, "geometry": { "type": "Polygon", "coordinates": [ [ [ -77.00173, 38.909978 ], [ -76.992663, 38.913034 ], [ -76.980806, 38.917184 ], [ -76.978167, 38.917282 ], [ -76.985773, 38.910474 ], [ -76.986951, 38.909446 ], [ -76.988831, 38.907777 ], [ -76.9904, 38.906386 ], [ -76.993135, 38.904 ], [ -76.998336, 38.90623 ], [ -77.002506, 38.908001 ], [ -77.00173, 38.909978 ] ] ] } },
{ "type": "Feature", "properties": { "geoid": "11001002802", "county_name": "District of Columbia", "place_name": null, "state_name": "District of Columbia", "state_abbr": "DC", "is_rural": false, "dci_score": 40.4, "dci_quintile": 5.0, "is_cra_lmi": true, "income_level": "M", "is_persistent_poverty": false, "is_tribal_overlap": false, "tribal_area_name": null, "aian_pct": 0.0133, "has_nmtc": true, "nmtc_projects": 2, "nmtc_total_usd": 0.0 }, "geometry": { "type": "Polygon", "coordinates": [ [ [ -77.036707, 38.927118 ], [ -77.036476, 38.928687 ], [ -77.03646, 38.931653 ], [ -77.036456, 38.933288 ], [ -77.032735, 38.931868 ], [ -77.032663, 38.93034 ], [ -77.032612, 38.928805 ], [ -77.032518, 38.927538 ], [ -77.032407, 38.926573 ], [ -77.035484, 38.926325 ], [ -77.036489, 38.926272 ], [ -77.036488, 38.926525 ], [ -77.036707, 38.927118 ] ] ] } },
{ "type": "Feature", "properties": { "geoid": "11001007806", "county_name": "District of Columbia", "place_name": "Washington", "state_name": "District of Columbia", "state_abbr": "DC", "is_rural": false, "dci_score": 83.4, "dci_quintile": 2.0, "is_cra_lmi": true, "income_level": "L", "is_persistent_poverty": false, "is_tribal_overlap": false, "tribal_area_name": null, "aian_pct": 0.0134, "has_nmtc": true, "nmtc_projects": 1, "nmtc_total_usd": 0.0 }, "geometry": { "type": "Polygon", "coordinates": [ [ [ -76.94286, 38.902045 ], [ -76.933078, 38.909654 ], [ -76.9316368067784, 38.910551963314703 ], [ -76.931251468051201, 38.910244618908997 ], [ -76.923529268146595, 38.904085427599597 ], [ -76.93021, 38.903446 ], [ -76.931669, 38.903045 ], [ -76.94152, 38.902806 ], [ -76.942609, 38.901927 ], [ -76.94286, 38.902045 ] ] ] } },
{ "type": "Feature", "properties": { "geoid": "11001007406", "county_name": "District of Columbia", "place_name": "Washington", "state_name": "District of Columbia", "state_abbr": "DC", "is_rural": false, "dci_score": 79.6, "dci_quintile": 3.0, "is_cra_lmi": true, "income_level": "L", "is_persistent_poverty": false, "is_tribal_overlap": false, "tribal_area_name": null, "aian_pct": 0.0, "has_nmtc": true, "nmtc_projects": 1, "nmtc_total_usd": 0.0 }, "geometry": { "type": "Polygon", "coordinates": [ [ [ -76.9936, 38.85848 ], [ -76.993275, 38.858415 ], [ -76.990825, 38.858482 ], [ -76.988636, 38.858429 ], [ -76.987666, 38.857981 ], [ -76.987224, 38.857357 ], [ -76.986995, 38.85619 ], [ -76.986075, 38.854627 ], [ -76.983338, 38.853366 ], [ -76.986937, 38.852768 ], [ -76.991987, 38.853752 ], [ -76.99355, 38.85547 ], [ -76.9936, 38.85848 ] ] ] } },
{ "type": "Feature", "properties": { "geoid": "11001007409", "county_name": "District of Columbia", "place_name": null, "state_name": "District of Columbia", "state_abbr": "DC", "is_rural": false, "dci_score": 79.7, "dci_quintile": 3.0, "is_cra_lmi": true, "income_level": "L", "is_persistent_poverty": false, "is_tribal_overlap": false, "tribal_area_name": null, "aian_pct": 0.0, "has_nmtc": true, "nmtc_projects": 2, "nmtc_total_usd": 7920000.0 }, "geometry": { "type": "Polygon", "coordinates": [ [ [ -76.980658, 38.845405 ], [ -76.977053, 38.846473 ], [ -76.974313, 38.846822 ], [ -76.970885, 38.848018 ], [ -76.967784, 38.848379 ], [ -76.966570510714703, 38.848182851060301 ], [ -76.970809393601897, 38.844782018698503 ], [ -76.970851731409496, 38.844748051308997 ], [ -76.972326515878294, 38.843564839863603 ], [ -76.972937771182004, 38.843074433104697 ], [ -76.976378, 38.842489 ], [ -76.977896, 38.841786 ], [ -76.980658, 38.845405 ] ] ] } },
{ "type": "Feature", "properties": { "geoid": "11001007709", "county_name": "District of Columbia", "place_name": null, "state_name": "District of Columbia", "state_abbr": "DC", "is_rural": false, "dci_score": 82.4, "dci_quintile": 2.0, "is_cra_lmi": true, "income_level": "L", "is_persistent_poverty": false, "is_tribal_overlap": false, "tribal_area_name": null, "aian_pct": 0.0178, "has_nmtc": true, "nmtc_projects": 1, "nmtc_total_usd": 0.0 }, "geometry": { "type": "Polygon", "coordinates": [ [ [ -76.973299, 38.87839 ], [ -76.971757, 38.880216 ], [ -76.967714, 38.881483 ], [ -76.964289, 38.881191 ], [ -76.96311, 38.882008 ], [ -76.958873, 38.881706 ], [ -76.961464, 38.878156 ], [ -76.962018, 38.877809 ], [ -76.96492, 38.876364 ], [ -76.964772, 38.871087 ], [ -76.967771, 38.872308 ], [ -76.969821, 38.87313 ], [ -76.970531, 38.873522 ], [ -76.971334, 38.873909 ], [ -76.972917, 38.874582 ], [ -76.978031, 38.876881 ], [ -76.973299, 38.87839 ] ] ] } },
{ "type": "Feature", "properties": { "geoid": "11001007809", "county_name": "District of Columbia", "place_name": "Washington", "state_name": "District of Columbia", "state_abbr": "DC", "is_rural": false, "dci_score": 83.4, "dci_quintile": 2.0, "is_cra_lmi": true, "income_level": "M", "is_persistent_poverty": false, "is_tribal_overlap": false, "tribal_area_name": null, "aian_pct": 0.0, "has_nmtc": false, "nmtc_projects": 0, "nmtc_total_usd": 0.0 }, "geometry": { "type": "Polygon", "coordinates": [ [ [ -76.94152, 38.902806 ], [ -76.931669, 38.903045 ], [ -76.93021, 38.903446 ], [ -76.923529268146595, 38.904085427599597 ], [ -76.925144, 38.899747 ], [ -76.930213, 38.900017 ], [ -76.931667, 38.899755 ], [ -76.933751, 38.898974 ], [ -76.939189, 38.90056 ], [ -76.942609, 38.901927 ], [ -76.94152, 38.902806 ] ] ] } },
{ "type": "Feature", "properties": { "geoid": "11001009604", "county_name": "District of Columbia", "place_name": null, "state_name": "District of Columbia", "state_abbr": "DC", "is_rural": false, "dci_score": 83.4, "dci_quintile": 2.0, "is_cra_lmi": true, "income_level": "M", "is_persistent_poverty": false, "is_tribal_overlap": false, "tribal_area_name": null, "aian_pct": 0.0096, "has_nmtc": true, "nmtc_projects": 1, "nmtc_total_usd": 6790000.0 }, "geometry": { "type": "Polygon", "coordinates": [ [ [ -76.9618, 38.896123 ], [ -76.961984, 38.897135 ], [ -76.96029, 38.896987 ], [ -76.957489, 38.896576 ], [ -76.951015, 38.89552 ], [ -76.954179, 38.892404 ], [ -76.956718, 38.889831 ], [ -76.963367, 38.889867 ], [ -76.9618, 38.896123 ] ] ] } },
{ "type": "Feature", "properties": { "geoid": "11001009907", "county_name": "District of Columbia", "place_name": null, "state_name": "District of Columbia", "state_abbr": "DC", "is_rural": false, "dci_score": 83.4, "dci_quintile": 2.0, "is_cra_lmi": true, "income_level": "L", "is_persistent_poverty": false, "is_tribal_overlap": false, "tribal_area_name": null, "aian_pct": 0.0036, "has_nmtc": true, "nmtc_projects": 1, "nmtc_total_usd": 10587459.0 }, "geometry": { "type": "Polygon", "coordinates": [ [ [ -76.945772, 38.880869 ], [ -76.944179, 38.881417 ], [ -76.942977, 38.882112 ], [ -76.94252, 38.882476 ], [ -76.94093, 38.884581 ], [ -76.940555, 38.886544 ], [ -76.93616, 38.886549 ], [ -76.935916, 38.885981 ], [ -76.934832, 38.883733 ], [ -76.933624, 38.882273 ], [ -76.93304, 38.881491 ], [ -76.936264, 38.880209 ], [ -76.942897, 38.880366 ], [ -76.944864, 38.879093 ], [ -76.945772, 38.880869 ] ] ] } },
{ "type": "Feature", "properties": { "geoid": "11001009510", "county_name": "District of Columbia", "place_name": null, "state_name": "District of Columbia", "state_abbr": "DC", "is_rural": false, "dci_score": 49.7, "dci_quintile": 5.0, "is_cra_lmi": true, "income_level": "M", "is_persistent_poverty": false, "is_tribal_overlap": false, "tribal_area_name": null, "aian_pct": 0.0122, "has_nmtc": false, "nmtc_projects": 0, "nmtc_total_usd": 0.0 }, "geometry": { "type": "Polygon", "coordinates": [ [ [ -77.010926, 38.944613 ], [ -77.008917, 38.946006 ], [ -77.008669, 38.947098 ], [ -77.009007, 38.952407 ], [ -77.005965, 38.952037 ], [ -77.003858, 38.950959 ], [ -77.00267, 38.947909 ], [ -77.003241, 38.946309 ], [ -77.000493, 38.94737 ], [ -77.000043, 38.94627 ], [ -76.997642, 38.940732 ], [ -76.99967, 38.940741 ], [ -77.005414, 38.940961 ], [ -77.005946, 38.941314 ], [ -77.008034, 38.942381 ], [ -77.009581, 38.943237 ], [ -77.010926, 38.944613 ] ] ] } },
{ "type": "Feature", "properties": { "geoid": "11001007404", "county_name": "District of Columbia", "place_name": null, "state_name": "District of Columbia", "state_abbr": "DC", "is_rural": false, "dci_score": 80.1, "dci_quintile": 3.0, "is_cra_lmi": true, "income_level": "M", "is_persistent_poverty": false, "is_tribal_overlap": false, "tribal_area_name": null, "aian_pct": 0.0, "has_nmtc": false, "nmtc_projects": 0, "nmtc_total_usd": 0.0 }, "geometry": { "type": "Polygon", "coordinates": [ [ [ -76.991987, 38.853752 ], [ -76.986937, 38.852768 ], [ -76.983338, 38.853366 ], [ -76.979845, 38.854294 ], [ -76.975898, 38.853628 ], [ -76.974335, 38.852631 ], [ -76.97276, 38.851201 ], [ -76.974206, 38.850977 ], [ -76.9761, 38.850356 ], [ -76.980308, 38.846903 ], [ -76.981332, 38.8466 ], [ -76.983433, 38.846 ], [ -76.988511, 38.844705 ], [ -76.989093, 38.844592 ], [ -76.985047, 38.848964 ], [ -76.986473, 38.849853 ], [ -76.992289, 38.853452 ], [ -76.991987, 38.853752 ] ] ] } },
{ "type": "Feature", "properties": { "geoid": "11001004703", "county_name": "District of Columbia", "place_name": null, "state_name": "District of Columbia", "state_abbr": "DC", "is_rural": false, "dci_score": 29.7, "dci_quintile": 5.0, "is_cra_lmi": false, "income_level": "NA", "is_persistent_poverty": false, "is_tribal_overlap": false, "tribal_area_name": null, "aian_pct": 0.0, "has_nmtc": false, "nmtc_projects": 0, "nmtc_total_usd": 0.0 }, "geometry": { "type": "Polygon", "coordinates": [ [ [ -77.021919, 38.902939 ], [ -77.018928, 38.903916 ], [ -77.01618, 38.904879 ], [ -77.014814, 38.905417 ], [ -77.014758, 38.905324 ], [ -77.013722, 38.902514 ], [ -77.016176, 38.902519 ], [ -77.017648, 38.90252 ], [ -77.021918, 38.902521 ], [ -77.021919, 38.902939 ] ] ] } },
{ "type": "Feature", "properties": { "geoid": "11001005004", "county_name": "District of Columbia", "place_name": "Washington", "state_name": "District of Columbia", "state_abbr": "DC", "is_rural": false, "dci_score": 39.7, "dci_quintile": 5.0, "is_cra_lmi": false, "income_level": "U", "is_persistent_poverty": false, "is_tribal_overlap": false, "tribal_area_name": null, "aian_pct": 0.0023, "has_nmtc": false, "nmtc_projects": 0, "nmtc_total_usd": 0.0 }, "geometry": { "type": "Polygon", "coordinates": [ [ [ -77.030324, 38.909669 ], [ -77.029628, 38.910192 ], [ -77.028082, 38.910253 ], [ -77.027036, 38.909645 ], [ -77.027036, 38.908576 ], [ -77.027036, 38.90724 ], [ -77.027037, 38.905647 ], [ -77.02705, 38.903949 ], [ -77.029623, 38.904835 ], [ -77.02962, 38.905648 ], [ -77.029623, 38.90724 ], [ -77.029628, 38.909099 ], [ -77.030324, 38.909669 ] ] ] } },
{ "type": "Feature", "properties": { "geoid": "11001009906", "county_name": "District of Columbia", "place_name": null, "state_name": "District of Columbia", "state_abbr": "DC", "is_rural": false, "dci_score": 83.4, "dci_quintile": 2.0, "is_cra_lmi": true, "income_level": "L", "is_persistent_poverty": false, "is_tribal_overlap": false, "tribal_area_name": null, "aian_pct": 0.0, "has_nmtc": true, "nmtc_projects": 1, "nmtc_total_usd": 10560000.0 }, "geometry": { "type": "Polygon", "coordinates": [ [ [ -76.939889, 38.888198 ], [ -76.937878, 38.889884 ], [ -76.937594, 38.889881 ], [ -76.934875, 38.889824 ], [ -76.932047, 38.889806 ], [ -76.932944, 38.885709 ], [ -76.935916, 38.885981 ], [ -76.93616, 38.886549 ], [ -76.940555, 38.886544 ], [ -76.939889, 38.888198 ] ] ] } },
{ "type": "Feature", "properties": { "geoid": "11001006400", "county_name": "District of Columbia", "place_name": null, "state_name": "District of Columbia", "state_abbr": "DC", "is_rural": false, "dci_score": 39.1, "dci_quintile": 5.0, "is_cra_lmi": true, "income_level": "L", "is_persistent_poverty": false, "is_tribal_overlap": false, "tribal_area_name": null, "aian_pct": 0.0, "has_nmtc": true, "nmtc_projects": 1, "nmtc_total_usd": 0.0 }, "geometry": { "type": "Polygon", "coordinates": [ [ [ -77.015316, 38.869472 ], [ -77.014341, 38.872035 ], [ -77.013368, 38.872977 ], [ -77.013179, 38.873415 ], [ -77.014438, 38.874667 ], [ -77.014431, 38.874836 ], [ -77.013865, 38.876458 ], [ -77.009098, 38.876469 ], [ -77.009084, 38.872976 ], [ -77.00906, 38.871348 ], [ -77.008878, 38.870804 ], [ -77.0082, 38.869913 ], [ -77.005457, 38.868707 ], [ -77.00819, 38.864481 ], [ -77.009124, 38.863596 ], [ -77.015377, 38.860038 ], [ -77.015316, 38.869472 ] ] ] } },
{ "type": "Feature", "properties": { "geoid": "11001009802", "county_name": "District of Columbia", "place_name": null, "state_name": "District of Columbia", "state_abbr": "DC", "is_rural": false, "dci_score": 90.8, "dci_quintile": 1.0, "is_cra_lmi": false, "income_level": "U", "is_persistent_poverty": false, "is_tribal_overlap": false, "tribal_area_name": null, "aian_pct": 0.0, "has_nmtc": false, "nmtc_projects": 0, "nmtc_total_usd": 0.0 }, "geometry": { "type": "Polygon", "coordinates": [ [ [ -77.000571, 38.83096 ], [ -76.99912, 38.831989 ], [ -76.993463, 38.831987 ], [ -76.991367, 38.832706 ], [ -76.99091, 38.832349 ], [ -76.99275, 38.830909 ], [ -76.994889, 38.829204 ], [ -76.998497, 38.829205 ], [ -77.000567, 38.829205 ], [ -77.000571, 38.83096 ] ] ] } },
{ "type": "Feature", "properties": { "geoid": "11001009803", "county_name": "District of Columbia", "place_name": null, "state_name": "District of Columbia", "state_abbr": "DC", "is_rural": false, "dci_score": 90.8, "dci_quintile": 1.0, "is_cra_lmi": true, "income_level": "L", "is_persistent_poverty": false, "is_tribal_overlap": false, "tribal_area_name": null, "aian_pct": 0.0094, "has_nmtc": true, "nmtc_projects": 1, "nmtc_total_usd": 21200000.0 }, "geometry": { "type": "Polygon", "coordinates": [ [ [ -77.007744, 38.835687 ], [ -77.006026, 38.838018 ], [ -77.004213, 38.840407 ], [ -77.00172, 38.841604 ], [ -77.000572, 38.841879 ], [ -77.000759, 38.836291 ], [ -77.000758, 38.835805 ], [ -77.000571, 38.833969 ], [ -77.001738, 38.833724 ], [ -77.003858, 38.830987 ], [ -77.005885, 38.831206 ], [ -77.007677, 38.831398 ], [ -77.0084, 38.83326 ], [ -77.007744, 38.835687 ] ] ] } },
{ "type": "Feature", "properties": { "geoid": "11001007503", "county_name": "District of Columbia", "place_name": null, "state_name": "District of Columbia", "state_abbr": "DC", "is_rural": false, "dci_score": 79.6, "dci_quintile": 3.0, "is_cra_lmi": true, "income_level": "L", "is_persistent_poverty": false, "is_tribal_overlap": false, "tribal_area_name": null, "aian_pct": 0.0135, "has_nmtc": true, "nmtc_projects": 4, "nmtc_total_usd": 73557021.0 }, "geometry": { "type": "Polygon", "coordinates": [ [ [ -76.992717, 38.864864 ], [ -76.989483, 38.868361 ], [ -76.988708, 38.867515 ], [ -76.984361, 38.866634 ], [ -76.983186, 38.86642 ], [ -76.982171, 38.865326 ], [ -76.982679, 38.863615 ], [ -76.982963, 38.861313 ], [ -76.983666, 38.86053 ], [ -76.988033, 38.860199 ], [ -76.988273, 38.860362 ], [ -76.990452, 38.86255 ], [ -76.991221, 38.863318 ], [ -76.992717, 38.864864 ] ] ] } },
{ "type": "Feature", "properties": { "geoid": "11001002202", "county_name": "District of Columbia", "place_name": null, "state_name": "District of Columbia", "state_abbr": "DC", "is_rural": false, "dci_score": 44.4, "dci_quintile": 5.0, "is_cra_lmi": true, "income_level": "M", "is_persistent_poverty": false, "is_tribal_overlap": false, "tribal_area_name": null, "aian_pct": 0.0031, "has_nmtc": false, "nmtc_projects": 0, "nmtc_total_usd": 0.0 }, "geometry": { "type": "Polygon", "coordinates": [ [ [ -77.019681, 38.952083 ], [ -77.015891, 38.952204 ], [ -77.013458, 38.952276 ], [ -77.012429, 38.952308 ], [ -77.009007, 38.952407 ], [ -77.008669, 38.947098 ], [ -77.008917, 38.946006 ], [ -77.010926, 38.944613 ], [ -77.01154, 38.944329 ], [ -77.015673, 38.945729 ], [ -77.016014, 38.946395 ], [ -77.016811, 38.946409 ], [ -77.017333, 38.946395 ], [ -77.019413, 38.946335 ], [ -77.019513, 38.94847 ], [ -77.019546, 38.949211 ], [ -77.019681, 38.952083 ] ] ] } },
{ "type": "Feature", "properties": { "geoid": "11001007708", "county_name": "District of Columbia", "place_name": null, "state_name": "District of Columbia", "state_abbr": "DC", "is_rural": false, "dci_score": 83.4, "dci_quintile": 2.0, "is_cra_lmi": true, "income_level": "L", "is_persistent_poverty": false, "is_tribal_overlap": false, "tribal_area_name": null, "aian_pct": 0.0228, "has_nmtc": false, "nmtc_projects": 0, "nmtc_total_usd": 0.0 }, "geometry": { "type": "Polygon", "coordinates": [ [ [ -76.97072, 38.881435 ], [ -76.966789, 38.885235 ], [ -76.963367, 38.889867 ], [ -76.956718, 38.889831 ], [ -76.953006, 38.889822 ], [ -76.953179, 38.889597 ], [ -76.955232, 38.886797 ], [ -76.957496, 38.88363 ], [ -76.958873, 38.881706 ], [ -76.96311, 38.882008 ], [ -76.964289, 38.881191 ], [ -76.967714, 38.881483 ], [ -76.971757, 38.880216 ], [ -76.97072, 38.881435 ] ] ] } },
{ "type": "Feature", "properties": { "geoid": "11001010500", "county_name": "District of Columbia", "place_name": null, "state_name": "District of Columbia", "state_abbr": "DC", "is_rural": false, "dci_score": 42.0, "dci_quintile": 5.0, "is_cra_lmi": false, "income_level": "U", "is_persistent_poverty": false, "is_tribal_overlap": false, "tribal_area_name": null, "aian_pct": 0.0, "has_nmtc": true, "nmtc_projects": 1, "nmtc_total_usd": 9463822.0 }, "geometry": { "type": "Polygon", "coordinates": [ [ [ -77.017556, 38.885071 ], [ -77.017547, 38.887571 ], [ -77.015178, 38.887566 ], [ -77.013807, 38.887562 ], [ -77.012993, 38.886673 ], [ -77.009068, 38.883857 ], [ -77.009112, 38.881548 ], [ -77.009113, 38.881435 ], [ -77.009125, 38.879286 ], [ -77.009147, 38.877529 ], [ -77.009098, 38.876469 ], [ -77.013865, 38.876458 ], [ -77.015209, 38.876459 ], [ -77.015186, 38.879284 ], [ -77.017547, 38.879286 ], [ -77.017561, 38.882298 ], [ -77.017556, 38.885071 ] ] ] } },
{ "type": "Feature", "properties": { "geoid": "11001007403", "county_name": "District of Columbia", "place_name": null, "state_name": "District of Columbia", "state_abbr": "DC", "is_rural": false, "dci_score": 79.6, "dci_quintile": 3.0, "is_cra_lmi": true, "income_level": "L", "is_persistent_poverty": false, "is_tribal_overlap": false, "tribal_area_name": null, "aian_pct": 0.0, "has_nmtc": false, "nmtc_projects": 0, "nmtc_total_usd": 0.0 }, "geometry": { "type": "Polygon", "coordinates": [ [ [ -76.981332, 38.8466 ], [ -76.980308, 38.846903 ], [ -76.9761, 38.850356 ], [ -76.974206, 38.850977 ], [ -76.97276, 38.851201 ], [ -76.968793, 38.849267 ], [ -76.965438274117801, 38.849091238237399 ], [ -76.966570510714703, 38.848182851060301 ], [ -76.967784, 38.848379 ], [ -76.970885, 38.848018 ], [ -76.974313, 38.846822 ], [ -76.977053, 38.846473 ], [ -76.980658, 38.845405 ], [ -76.981332, 38.8466 ] ] ] } },
{ "type": "Feature", "properties": { "geoid": "11001007502", "county_name": "District of Columbia", "place_name": "Washington", "state_name": "District of Columbia", "state_abbr": "DC", "is_rural": false, "dci_score": 79.6, "dci_quintile": 3.0, "is_cra_lmi": true, "income_level": "L", "is_persistent_poverty": false, "is_tribal_overlap": false, "tribal_area_name": null, "aian_pct": 0.0, "has_nmtc": false, "nmtc_projects": 0, "nmtc_total_usd": 0.0 }, "geometry": { "type": "Polygon", "coordinates": [ [ [ -76.975736, 38.860817 ], [ -76.97335, 38.863287 ], [ -76.970234, 38.861924 ], [ -76.969373, 38.861223 ], [ -76.968769, 38.860664 ], [ -76.968213, 38.860252 ], [ -76.968195, 38.858906 ], [ -76.96802, 38.85819 ], [ -76.967356, 38.857068 ], [ -76.965708, 38.854841 ], [ -76.962979, 38.852134 ], [ -76.961941486243504, 38.851896691863203 ], [ -76.963472206273096, 38.850668603625799 ], [ -76.965688, 38.852406 ], [ -76.966255, 38.85047 ], [ -76.970048, 38.852724 ], [ -76.969977, 38.855119 ], [ -76.969972, 38.855822 ], [ -76.971751, 38.856906 ], [ -76.973416, 38.855345 ], [ -76.975212, 38.856528 ], [ -76.973627, 38.85944 ], [ -76.975736, 38.860817 ] ] ] } },
{ "type": "Feature", "properties": { "geoid": "11001007605", "county_name": "District of Columbia", "place_name": "Washington", "state_name": "District of Columbia", "state_abbr": "DC", "is_rural": false, "dci_score": 79.6, "dci_quintile": 3.0, "is_cra_lmi": true, "income_level": "L", "is_persistent_poverty": false, "is_tribal_overlap": false, "tribal_area_name": null, "aian_pct": 0.0, "has_nmtc": true, "nmtc_projects": 1, "nmtc_total_usd": 0.0 }, "geometry": { "type": "Polygon", "coordinates": [ [ [ -76.984361, 38.866634 ], [ -76.982226, 38.867737 ], [ -76.981247, 38.86823 ], [ -76.979007, 38.868232 ], [ -76.974963, 38.868243 ], [ -76.970692, 38.868247 ], [ -76.970221, 38.867212 ], [ -76.970213, 38.866276 ], [ -76.970817, 38.86472 ], [ -76.968769, 38.860664 ], [ -76.969373, 38.861223 ], [ -76.970234, 38.861924 ], [ -76.97335, 38.863287 ], [ -76.973963, 38.863531 ], [ -76.975527, 38.864229 ], [ -76.977244, 38.865055 ], [ -76.979014, 38.865665 ], [ -76.983186, 38.86642 ], [ -76.984361, 38.866634 ] ] ] } },
{ "type": "Feature", "properties": { "geoid": "11001007803", "county_name": "District of Columbia", "place_name": "Washington", "state_name": "District of Columbia", "state_abbr": "DC", "is_rural": false, "dci_score": 83.4, "dci_quintile": 2.0, "is_cra_lmi": true, "income_level": "L", "is_persistent_poverty": false, "is_tribal_overlap": false, "tribal_area_name": null, "aian_pct": 0.0, "has_nmtc": true, "nmtc_projects": 2, "nmtc_total_usd": 0.0 }, "geometry": { "type": "Polygon", "coordinates": [ [ [ -76.951015, 38.89552 ], [ -76.946011, 38.899505 ], [ -76.943666, 38.901392 ], [ -76.94286, 38.902045 ], [ -76.942609, 38.901927 ], [ -76.939189, 38.90056 ], [ -76.93919, 38.89837 ], [ -76.936601, 38.898319 ], [ -76.934872, 38.895003 ], [ -76.934875, 38.89427 ], [ -76.934875, 38.889824 ], [ -76.937594, 38.889881 ], [ -76.938042, 38.890599 ], [ -76.939206, 38.891527 ], [ -76.93934, 38.891596 ], [ -76.942611, 38.892939 ], [ -76.945589, 38.893656 ], [ -76.946639, 38.894022 ], [ -76.94916, 38.895133 ], [ -76.951015, 38.89552 ] ] ] } },
{ "type": "Feature", "properties": { "geoid": "11001008802", "county_name": "District of Columbia", "place_name": "Washington", "state_name": "District of Columbia", "state_abbr": "DC", "is_rural": false, "dci_score": 38.1, "dci_quintile": 5.0, "is_cra_lmi": true, "income_level": "M", "is_persistent_poverty": false, "is_tribal_overlap": false, "tribal_area_name": null, "aian_pct": 0.0, "has_nmtc": false, "nmtc_projects": 0, "nmtc_total_usd": 0.0 }, "geometry": { "type": "Polygon", "coordinates": [ [ [ -76.9904, 38.906386 ], [ -76.988831, 38.907777 ], [ -76.984393, 38.90588 ], [ -76.982276, 38.90498 ], [ -76.980922, 38.904009 ], [ -76.981778, 38.902706 ], [ -76.98301, 38.900717 ], [ -76.98341, 38.900181 ], [ -76.984058, 38.900218 ], [ -76.984388, 38.900295 ], [ -76.987411, 38.901567 ], [ -76.993135, 38.904 ], [ -76.9904, 38.906386 ] ] ] } },
{ "type": "Feature", "properties": { "geoid": "11001008904", "county_name": "District of Columbia", "place_name": null, "state_name": "District of Columbia", "state_abbr": "DC", "is_rural": false, "dci_score": 38.1, "dci_quintile": 5.0, "is_cra_lmi": true, "income_level": "L", "is_persistent_poverty": false, "is_tribal_overlap": false, "tribal_area_name": null, "aian_pct": 0.0, "has_nmtc": true, "nmtc_projects": 1, "nmtc_total_usd": 18812000.0 }, "geometry": { "type": "Polygon", "coordinates": [ [ [ -76.98341, 38.900181 ], [ -76.98301, 38.900717 ], [ -76.982399, 38.900522 ], [ -76.978994, 38.901927 ], [ -76.976216, 38.903068 ], [ -76.972461, 38.904587 ], [ -76.97189, 38.903721 ], [ -76.970233, 38.903445 ], [ -76.970385, 38.897925 ], [ -76.974173, 38.898587 ], [ -76.975453, 38.898803 ], [ -76.976239, 38.898949 ], [ -76.979273, 38.899477 ], [ -76.983256, 38.900181 ], [ -76.98341, 38.900181 ] ] ] } },
{ "type": "Feature", "properties": { "geoid": "11001009801", "county_name": "District of Columbia", "place_name": "Washington", "state_name": "District of Columbia", "state_abbr": "DC", "is_rural": false, "dci_score": 90.8, "dci_quintile": 1.0, "is_cra_lmi": true, "income_level": "L", "is_persistent_poverty": false, "is_tribal_overlap": false, "tribal_area_name": null, "aian_pct": 0.0248, "has_nmtc": true, "nmtc_projects": 2, "nmtc_total_usd": 751246.0 }, "geometry": { "type": "Polygon", "coordinates": [ [ [ -77.003858, 38.830987 ], [ -77.001738, 38.833724 ], [ -77.000571, 38.833969 ], [ -76.996865, 38.836431 ], [ -76.993505, 38.837482 ], [ -76.992205, 38.835311 ], [ -76.990808, 38.834332 ], [ -76.989484, 38.833462 ], [ -76.99091, 38.832349 ], [ -76.991367, 38.832706 ], [ -76.993463, 38.831987 ], [ -76.99912, 38.831989 ], [ -77.000571, 38.83096 ], [ -77.00203, 38.830958 ], [ -77.003858, 38.830987 ] ] ] } },
{ "type": "Feature", "properties": { "geoid": "11001009811", "county_name": "District of Columbia", "place_name": null, "state_name": "District of Columbia", "state_abbr": "DC", "is_rural": false, "dci_score": 90.8, "dci_quintile": 1.0, "is_cra_lmi": true, "income_level": "L", "is_persistent_poverty": false, "is_tribal_overlap": false, "tribal_area_name": null, "aian_pct": 0.0, "has_nmtc": false, "nmtc_projects": 0, "nmtc_total_usd": 0.0 }, "geometry": { "type": "Polygon", "coordinates": [ [ [ -77.00203, 38.830958 ], [ -77.000571, 38.83096 ], [ -77.000567, 38.829205 ], [ -76.998497, 38.829205 ], [ -76.994889, 38.829204 ], [ -76.991343739779794, 38.829197086731398 ], [ -76.992697, 38.828213 ], [ -76.992802935577501, 38.828121576145399 ], [ -76.995947329318099, 38.825407921273403 ], [ -76.997942934824707, 38.823685686384202 ], [ -76.998458490566094, 38.823240754716998 ], [ -76.999130853194202, 38.822660496558399 ], [ -76.999997, 38.821913 ], [ -77.001084509433994, 38.821602283018898 ], [ -77.001397, 38.821513 ], [ -77.001481076298305, 38.821446228991 ], [ -77.001491820919298, 38.821437695918 ], [ -77.002187, 38.821965 ], [ -77.001381, 38.824523 ], [ -77.002307, 38.826853 ], [ -77.00203, 38.830958 ] ] ] } },
{ "type": "Feature", "properties": { "geoid": "11001004704", "county_name": "District of Columbia", "place_name": "Washington", "state_name": "District of Columbia", "state_abbr": "DC", "is_rural": false, "dci_score": 31.1, "dci_quintile": 5.0, "is_cra_lmi": true, "income_level": "L", "is_persistent_poverty": false, "is_tribal_overlap": false, "tribal_area_name": null, "aian_pct": 0.0, "has_nmtc": false, "nmtc_projects": 0, "nmtc_total_usd": 0.0 }, "geometry": { "type": "Polygon", "coordinates": [ [ [ -77.014814, 38.905417 ], [ -77.01216, 38.906269 ], [ -77.009002, 38.907274 ], [ -77.009063, 38.905647 ], [ -77.009069, 38.904684 ], [ -77.009064, 38.902515 ], [ -77.012171, 38.902516 ], [ -77.013722, 38.902514 ], [ -77.014758, 38.905324 ], [ -77.014814, 38.905417 ] ] ] } },
{ "type": "Feature", "properties": { "geoid": "11001001804", "county_name": "District of Columbia", "place_name": null, "state_name": "District of Columbia", "state_abbr": "DC", "is_rural": false, "dci_score": 37.1, "dci_quintile": 5.0, "is_cra_lmi": true, "income_level": "M", "is_persistent_poverty": false, "is_tribal_overlap": false, "tribal_area_name": null, "aian_pct": 0.0, "has_nmtc": true, "nmtc_projects": 2, "nmtc_total_usd": 39315100.0 }, "geometry": { "type": "Polygon", "coordinates": [ [ [ -77.033419, 38.965429 ], [ -77.033418, 38.96685 ], [ -77.033418, 38.967566 ], [ -77.033416, 38.972263 ], [ -77.029692, 38.972263 ], [ -77.027024, 38.972354 ], [ -77.027265, 38.969925 ], [ -77.027501, 38.967288 ], [ -77.02771, 38.964954 ], [ -77.027889, 38.9627 ], [ -77.028013, 38.961226 ], [ -77.02852, 38.961338 ], [ -77.029694, 38.961506 ], [ -77.033425, 38.962042 ], [ -77.033419, 38.965429 ] ] ] } },
{ "type": "Feature", "properties": { "geoid": "11001002001", "county_name": "District of Columbia", "place_name": null, "state_name": "District of Columbia", "state_abbr": "DC", "is_rural": false, "dci_score": 44.4, "dci_quintile": 5.0, "is_cra_lmi": true, "income_level": "L", "is_persistent_poverty": false, "is_tribal_overlap": false, "tribal_area_name": null, "aian_pct": 0.0, "has_nmtc": false, "nmtc_projects": 0, "nmtc_total_usd": 0.0 }, "geometry": { "type": "Polygon", "coordinates": [ [ [ -77.043461, 38.961395 ], [ -77.040266, 38.963035 ], [ -77.03642, 38.962592 ], [ -77.034796, 38.962241 ], [ -77.033425, 38.962042 ], [ -77.029694, 38.961506 ], [ -77.02852, 38.961338 ], [ -77.030161, 38.959882 ], [ -77.033411, 38.956196 ], [ -77.033761, 38.955653 ], [ -77.036415, 38.952535 ], [ -77.036398, 38.956212 ], [ -77.038538, 38.956043 ], [ -77.039788, 38.957243 ], [ -77.038708, 38.959721 ], [ -77.042193, 38.960394 ], [ -77.043461, 38.961395 ] ] ] } },
{ "type": "Feature", "properties": { "geoid": "11001003000", "county_name": "District of Columbia", "place_name": null, "state_name": "District of Columbia", "state_abbr": "DC", "is_rural": false, "dci_score": 40.6, "dci_quintile": 5.0, "is_cra_lmi": true, "income_level": "L", "is_persistent_poverty": false, "is_tribal_overlap": false, "tribal_area_name": null, "aian_pct": 0.0018, "has_nmtc": true, "nmtc_projects": 1, "nmtc_total_usd": 3602350.0 }, "geometry": { "type": "Polygon", "coordinates": [ [ [ -77.032663, 38.93034 ], [ -77.029709, 38.931323 ], [ -77.02826, 38.931821 ], [ -77.027744, 38.929675 ], [ -77.02751, 38.928705 ], [ -77.027046, 38.926749 ], [ -77.029707, 38.926742 ], [ -77.032407, 38.926573 ], [ -77.032518, 38.927538 ], [ -77.032612, 38.928805 ], [ -77.032663, 38.93034 ] ] ] } },
{ "type": "Feature", "properties": { "geoid": "11001006804", "county_name": "District of Columbia", "place_name": null, "state_name": "District of Columbia", "state_abbr": "DC", "is_rural": false, "dci_score": 16.7, "dci_quintile": 5.0, "is_cra_lmi": false, "income_level": "NA", "is_persistent_poverty": false, "is_tribal_overlap": false, "tribal_area_name": null, "aian_pct": 0.0086, "has_nmtc": false, "nmtc_projects": 0, "nmtc_total_usd": 0.0 }, "geometry": { "type": "Polygon", "coordinates": [ [ [ -76.980872, 38.879236 ], [ -76.98076, 38.882259 ], [ -76.978999, 38.882973 ], [ -76.977261, 38.883676 ], [ -76.977263, 38.884102 ], [ -76.97726, 38.884556 ], [ -76.977257, 38.889798 ], [ -76.973836, 38.890582 ], [ -76.975152, 38.893295 ], [ -76.974766, 38.894404 ], [ -76.970968, 38.895997 ], [ -76.969526, 38.897606 ], [ -76.969464, 38.897769 ], [ -76.961984, 38.897135 ], [ -76.9618, 38.896123 ], [ -76.963367, 38.889867 ], [ -76.966789, 38.885235 ], [ -76.97072, 38.881435 ], [ -76.971757, 38.880216 ], [ -76.973299, 38.87839 ], [ -76.978031, 38.876881 ], [ -76.980676, 38.878506 ], [ -76.981576, 38.878837 ], [ -76.980872, 38.879236 ] ] ] } },
{ "type": "Feature", "properties": { "geoid": "11001010400", "county_name": "District of Columbia", "place_name": null, "state_name": "District of Columbia", "state_abbr": "DC", "is_rural": false, "dci_score": 90.8, "dci_quintile": 1.0, "is_cra_lmi": true, "income_level": "L", "is_persistent_poverty": false, "is_tribal_overlap": false, "tribal_area_name": null, "aian_pct": 0.0, "has_nmtc": true, "nmtc_projects": 2, "nmtc_total_usd": 30832819.0 }, "geometry": { "type": "Polygon", "coordinates": [ [ [ -77.009155, 38.839563 ], [ -77.009064, 38.839873 ], [ -77.00836, 38.845038 ], [ -77.008034, 38.849875 ], [ -77.005389, 38.854316 ], [ -77.003004, 38.860535 ], [ -77.002983, 38.860117 ], [ -76.998769, 38.857514 ], [ -76.992289, 38.853452 ], [ -76.986473, 38.849853 ], [ -76.985047, 38.848964 ], [ -76.989093, 38.844592 ], [ -76.991658, 38.844127 ], [ -76.992176, 38.844039 ], [ -76.994226, 38.843688 ], [ -76.997453, 38.843167 ], [ -76.99845, 38.843109 ], [ -77.002349, 38.842493 ], [ -77.004213, 38.840407 ], [ -77.006026, 38.838018 ], [ -77.007744, 38.835687 ], [ -77.009168, 38.838898 ], [ -77.009155, 38.839563 ] ] ] } },
{ "type": "Feature", "properties": { "geoid": "11001010900", "county_name": "District of Columbia", "place_name": null, "state_name": "District of Columbia", "state_abbr": "DC", "is_rural": false, "dci_score": 90.8, "dci_quintile": 1.0, "is_cra_lmi": true, "income_level": "L", "is_persistent_poverty": false, "is_tribal_overlap": false, "tribal_area_name": null, "aian_pct": 0.0, "has_nmtc": false, "nmtc_projects": 0, "nmtc_total_usd": 0.0 }, "geometry": { "type": "Polygon", "coordinates": [ [ [ -77.038992785434104, 38.792766769814001 ], [ -77.038943053789396, 38.796988433879697 ], [ -77.038929172245602, 38.798166822709703 ], [ -77.038904082038201, 38.800296702537103 ], [ -77.038898, 38.800813 ], [ -77.038800581262507, 38.801657927494098 ], [ -77.038402663949896, 38.805109124730699 ], [ -77.037999808574099, 38.808603150538801 ], [ -77.037446963170694, 38.8133980626165 ], [ -77.037356, 38.814187 ], [ -77.038098, 38.815613 ], [ -77.038788344509499, 38.819616998155098 ], [ -77.027477, 38.819979 ], [ -77.017484, 38.821664 ], [ -77.01737, 38.823592 ], [ -77.012699, 38.823032 ], [ -77.012071, 38.821873 ], [ -77.011557, 38.82282 ], [ -77.011886, 38.823582 ], [ -77.008086, 38.823631 ], [ -77.006002, 38.824091 ], [ -77.00543, 38.823594 ], [ -77.002187, 38.821965 ], [ -77.001491820919298, 38.821437695918 ], [ -77.001741688084493, 38.821239258509699 ], [ -77.004678508076907, 38.818906919454399 ], [ -77.015561863547006, 38.810263667541797 ], [ -77.020499452418505, 38.8063423746487 ], [ -77.021867604247106, 38.8052558273112 ], [ -77.037579715256499, 38.792777714848 ], [ -77.039006, 38.791645 ], [ -77.038992785434104, 38.792766769814001 ] ] ] } },
{ "type": "Feature", "properties": { "geoid": "11001007407", "county_name": "District of Columbia", "place_name": null, "state_name": "District of Columbia", "state_abbr": "DC", "is_rural": false, "dci_score": 79.6, "dci_quintile": 3.0, "is_cra_lmi": true, "income_level": "L", "is_persistent_poverty": false, "is_tribal_overlap": false, "tribal_area_name": null, "aian_pct": 0.0, "has_nmtc": true, "nmtc_projects": 1, "nmtc_total_usd": 10185000.0 }, "geometry": { "type": "Polygon", "coordinates": [ [ [ -76.993827, 38.861455 ], [ -76.993159, 38.862268 ], [ -76.991221, 38.863318 ], [ -76.990452, 38.86255 ], [ -76.988273, 38.860362 ], [ -76.988033, 38.860199 ], [ -76.984587, 38.857861 ], [ -76.983106, 38.85692 ], [ -76.977361, 38.857304 ], [ -76.975447, 38.856314 ], [ -76.974638, 38.854998 ], [ -76.975898, 38.853628 ], [ -76.979845, 38.854294 ], [ -76.983338, 38.853366 ], [ -76.986075, 38.854627 ], [ -76.986995, 38.85619 ], [ -76.987224, 38.857357 ], [ -76.987666, 38.857981 ], [ -76.988636, 38.858429 ], [ -76.990825, 38.858482 ], [ -76.993275, 38.858415 ], [ -76.9936, 38.85848 ], [ -76.993649, 38.859443 ], [ -76.994327, 38.860654 ], [ -76.993827, 38.861455 ] ] ] } },
{ "type": "Feature", "properties": { "geoid": "11001007504", "county_name": "District of Columbia", "place_name": null, "state_name": "District of Columbia", "state_abbr": "DC", "is_rural": false, "dci_score": 79.6, "dci_quintile": 3.0, "is_cra_lmi": true, "income_level": "L", "is_persistent_poverty": false, "is_tribal_overlap": false, "tribal_area_name": null, "aian_pct": 0.0025, "has_nmtc": false, "nmtc_projects": 0, "nmtc_total_usd": 0.0 }, "geometry": { "type": "Polygon", "coordinates": [ [ [ -76.988033, 38.860199 ], [ -76.983666, 38.86053 ], [ -76.982963, 38.861313 ], [ -76.982679, 38.863615 ], [ -76.982171, 38.865326 ], [ -76.983186, 38.86642 ], [ -76.979014, 38.865665 ], [ -76.977244, 38.865055 ], [ -76.975527, 38.864229 ], [ -76.973963, 38.863531 ], [ -76.97335, 38.863287 ], [ -76.975736, 38.860817 ], [ -76.973627, 38.85944 ], [ -76.975212, 38.856528 ], [ -76.975447, 38.856314 ], [ -76.977361, 38.857304 ], [ -76.983106, 38.85692 ], [ -76.984587, 38.857861 ], [ -76.988033, 38.860199 ] ] ] } },
{ "type": "Feature", "properties": { "geoid": "11001007804", "county_name": "District of Columbia", "place_name": null, "state_name": "District of Columbia", "state_abbr": "DC", "is_rural": false, "dci_score": 83.4, "dci_quintile": 2.0, "is_cra_lmi": true, "income_level": "M", "is_persistent_poverty": false, "is_tribal_overlap": false, "tribal_area_name": null, "aian_pct": 0.0, "has_nmtc": false, "nmtc_projects": 0, "nmtc_total_usd": 0.0 }, "geometry": { "type": "Polygon", "coordinates": [ [ [ -76.939189, 38.90056 ], [ -76.933751, 38.898974 ], [ -76.931667, 38.899755 ], [ -76.930213, 38.900017 ], [ -76.925144, 38.899747 ], [ -76.925671, 38.898348 ], [ -76.92628, 38.89661 ], [ -76.927957, 38.891884 ], [ -76.927966, 38.889812 ], [ -76.930054, 38.88982 ], [ -76.932047, 38.889806 ], [ -76.934875, 38.889824 ], [ -76.934875, 38.89427 ], [ -76.934872, 38.895003 ], [ -76.936601, 38.898319 ], [ -76.93919, 38.89837 ], [ -76.939189, 38.90056 ] ] ] } },
{ "type": "Feature", "properties": { "geoid": "11001009601", "county_name": "District of Columbia", "place_name": null, "state_name": "District of Columbia", "state_abbr": "DC", "is_rural": false, "dci_score": 83.4, "dci_quintile": 2.0, "is_cra_lmi": true, "income_level": "L", "is_persistent_poverty": false, "is_tribal_overlap": false, "tribal_area_name": null, "aian_pct": 0.0, "has_nmtc": false, "nmtc_projects": 0, "nmtc_total_usd": 0.0 }, "geometry": { "type": "Polygon", "coordinates": [ [ [ -76.957969, 38.906154 ], [ -76.954459, 38.91096 ], [ -76.953573, 38.914382 ], [ -76.952893, 38.914797 ], [ -76.945951, 38.915252 ], [ -76.943623, 38.917006 ], [ -76.942434, 38.918093 ], [ -76.941921067989597, 38.918586499498403 ], [ -76.941920456206901, 38.918586026615301 ], [ -76.941444504182499, 38.918218135091003 ], [ -76.935096, 38.913311 ], [ -76.931724405319002, 38.9106218315098 ], [ -76.9316368067784, 38.910551963314703 ], [ -76.933078, 38.909654 ], [ -76.94286, 38.902045 ], [ -76.943666, 38.901392 ], [ -76.945338, 38.902391 ], [ -76.950975, 38.90817 ], [ -76.956238, 38.905555 ], [ -76.957969, 38.906154 ] ] ] } },
{ "type": "Feature", "properties": { "geoid": "11001009602", "county_name": "District of Columbia", "place_name": null, "state_name": "District of Columbia", "state_abbr": "DC", "is_rural": false, "dci_score": 83.4, "dci_quintile": 2.0, "is_cra_lmi": true, "income_level": "L", "is_persistent_poverty": false, "is_tribal_overlap": false, "tribal_area_name": null, "aian_pct": 0.0, "has_nmtc": true, "nmtc_projects": 3, "nmtc_total_usd": 50017877.0 }, "geometry": { "type": "Polygon", "coordinates": [ [ [ -76.962218, 38.899497 ], [ -76.959386, 38.90339 ], [ -76.957969, 38.906154 ], [ -76.956238, 38.905555 ], [ -76.950975, 38.90817 ], [ -76.945338, 38.902391 ], [ -76.943666, 38.901392 ], [ -76.946011, 38.899505 ], [ -76.951015, 38.89552 ], [ -76.957489, 38.896576 ], [ -76.96029, 38.896987 ], [ -76.961984, 38.897135 ], [ -76.962218, 38.899497 ] ] ] } },
{ "type": "Feature", "properties": { "geoid": "11001009804", "county_name": "District of Columbia", "place_name": null, "state_name": "District of Columbia", "state_abbr": "DC", "is_rural": false, "dci_score": 90.8, "dci_quintile": 1.0, "is_cra_lmi": true, "income_level": "L", "is_persistent_poverty": false, "is_tribal_overlap": false, "tribal_area_name": null, "aian_pct": 0.0, "has_nmtc": true, "nmtc_projects": 1, "nmtc_total_usd": 0.0 }, "geometry": { "type": "Polygon", "coordinates": [ [ [ -77.002349, 38.842493 ], [ -76.99845, 38.843109 ], [ -76.997453, 38.843167 ], [ -76.994226, 38.843688 ], [ -76.993616, 38.840245 ], [ -76.993563, 38.838805 ], [ -76.993505, 38.837482 ], [ -76.996865, 38.836431 ], [ -77.000571, 38.833969 ], [ -77.000758, 38.835805 ], [ -77.000759, 38.836291 ], [ -77.000572, 38.841879 ], [ -77.00172, 38.841604 ], [ -77.004213, 38.840407 ], [ -77.002349, 38.842493 ] ] ] } },
{ "type": "Feature", "properties": { "geoid": "11001009810", "county_name": "District of Columbia", "place_name": null, "state_name": "District of Columbia", "state_abbr": "DC", "is_rural": false, "dci_score": 90.8, "dci_quintile": 1.0, "is_cra_lmi": true, "income_level": "L", "is_persistent_poverty": false, "is_tribal_overlap": false, "tribal_area_name": null, "aian_pct": 0.0, "has_nmtc": false, "nmtc_projects": 0, "nmtc_total_usd": 0.0 }, "geometry": { "type": "Polygon", "coordinates": [ [ [ -77.007677, 38.831398 ], [ -77.005885, 38.831206 ], [ -77.003858, 38.830987 ], [ -77.00203, 38.830958 ], [ -77.002307, 38.826853 ], [ -77.001381, 38.824523 ], [ -77.002187, 38.821965 ], [ -77.00543, 38.823594 ], [ -77.006002, 38.824091 ], [ -77.007336, 38.826063 ], [ -77.007642, 38.826978 ], [ -77.007675, 38.829199 ], [ -77.007677, 38.831398 ] ] ] } },
{ "type": "Feature", "properties": { "geoid": "11001009807", "county_name": "District of Columbia", "place_name": null, "state_name": "District of Columbia", "state_abbr": "DC", "is_rural": false, "dci_score": 90.8, "dci_quintile": 1.0, "is_cra_lmi": false, "income_level": "U", "is_persistent_poverty": false, "is_tribal_overlap": false, "tribal_area_name": null, "aian_pct": 0.0, "has_nmtc": false, "nmtc_projects": 0, "nmtc_total_usd": 0.0 }, "geometry": { "type": "Polygon", "coordinates": [ [ [ -77.017307, 38.828344 ], [ -77.016807, 38.829786 ], [ -77.016698, 38.829983 ], [ -77.015153, 38.831425 ], [ -77.009155, 38.839563 ], [ -77.009168, 38.838898 ], [ -77.007744, 38.835687 ], [ -77.0084, 38.83326 ], [ -77.007677, 38.831398 ], [ -77.007675, 38.829199 ], [ -77.007642, 38.826978 ], [ -77.007336, 38.826063 ], [ -77.006002, 38.824091 ], [ -77.008086, 38.823631 ], [ -77.011886, 38.823582 ], [ -77.011557, 38.82282 ], [ -77.012071, 38.821873 ], [ -77.012699, 38.823032 ], [ -77.01737, 38.823592 ], [ -77.017307, 38.828344 ] ] ] } },
{ "type": "Feature", "properties": { "geoid": "11001009904", "county_name": "District of Columbia", "place_name": null, "state_name": "District of Columbia", "state_abbr": "DC", "is_rural": false, "dci_score": 83.4, "dci_quintile": 2.0, "is_cra_lmi": true, "income_level": "M", "is_persistent_poverty": false, "is_tribal_overlap": false, "tribal_area_name": null, "aian_pct": 0.0, "has_nmtc": false, "nmtc_projects": 0, "nmtc_total_usd": 0.0 }, "geometry": { "type": "Polygon", "coordinates": [ [ [ -76.935916, 38.885981 ], [ -76.932944, 38.885709 ], [ -76.932047, 38.889806 ], [ -76.930054, 38.88982 ], [ -76.929767, 38.889344 ], [ -76.927604, 38.888652 ], [ -76.928696, 38.883656 ], [ -76.929322, 38.880769 ], [ -76.929316, 38.880674 ], [ -76.93101, 38.88068 ], [ -76.93304, 38.881491 ], [ -76.933624, 38.882273 ], [ -76.934832, 38.883733 ], [ -76.935916, 38.885981 ] ] ] } },
{ "type": "Feature", "properties": { "geoid": "11001008903", "county_name": "District of Columbia", "place_name": null, "state_name": "District of Columbia", "state_abbr": "DC", "is_rural": false, "dci_score": 38.1, "dci_quintile": 5.0, "is_cra_lmi": true, "income_level": "L", "is_persistent_poverty": false, "is_tribal_overlap": false, "tribal_area_name": null, "aian_pct": 0.0, "has_nmtc": false, "nmtc_projects": 0, "nmtc_total_usd": 0.0 }, "geometry": { "type": "Polygon", "coordinates": [ [ [ -76.98301, 38.900717 ], [ -76.981778, 38.902706 ], [ -76.980922, 38.904009 ], [ -76.979175, 38.906736 ], [ -76.978838, 38.907271 ], [ -76.976208, 38.906282 ], [ -76.970205, 38.905621 ], [ -76.972461, 38.904587 ], [ -76.976216, 38.903068 ], [ -76.978994, 38.901927 ], [ -76.982399, 38.900522 ], [ -76.98301, 38.900717 ] ] ] } },
{ "type": "Feature", "properties": { "geoid": "11001007901", "county_name": "District of Columbia", "place_name": null, "state_name": "District of Columbia", "state_abbr": "DC", "is_rural": false, "dci_score": 38.1, "dci_quintile": 5.0, "is_cra_lmi": true, "income_level": "M", "is_persistent_poverty": false, "is_tribal_overlap": false, "tribal_area_name": null, "aian_pct": 0.0, "has_nmtc": false, "nmtc_projects": 0, "nmtc_total_usd": 0.0 }, "geometry": { "type": "Polygon", "coordinates": [ [ [ -76.983648, 38.894783 ], [ -76.983644, 38.896667 ], [ -76.983647, 38.897326 ], [ -76.983596, 38.90001 ], [ -76.983256, 38.900181 ], [ -76.979273, 38.899477 ], [ -76.976239, 38.898949 ], [ -76.976491, 38.898818 ], [ -76.977257, 38.896116 ], [ -76.977259, 38.893301 ], [ -76.980764, 38.893337 ], [ -76.983052, 38.893327 ], [ -76.983648, 38.893504 ], [ -76.983648, 38.894783 ] ] ] } },
{ "type": "Feature", "properties": { "geoid": "11001009603", "county_name": "District of Columbia", "place_name": null, "state_name": "District of Columbia", "state_abbr": "DC", "is_rural": false, "dci_score": 83.4, "dci_quintile": 2.0, "is_cra_lmi": true, "income_level": "M", "is_persistent_poverty": false, "is_tribal_overlap": false, "tribal_area_name": null, "aian_pct": 0.0, "has_nmtc": true, "nmtc_projects": 2, "nmtc_total_usd": 25802000.0 }, "geometry": { "type": "Polygon", "coordinates": [ [ [ -76.954179, 38.892404 ], [ -76.951015, 38.89552 ], [ -76.94916, 38.895133 ], [ -76.946639, 38.894022 ], [ -76.945589, 38.893656 ], [ -76.942611, 38.892939 ], [ -76.93934, 38.891596 ], [ -76.939206, 38.891527 ], [ -76.938042, 38.890599 ], [ -76.937594, 38.889881 ], [ -76.937878, 38.889884 ], [ -76.947245, 38.889839 ], [ -76.948282, 38.88982 ], [ -76.953006, 38.889822 ], [ -76.956718, 38.889831 ], [ -76.954179, 38.892404 ] ] ] } },
{ "type": "Feature", "properties": { "geoid": "11001009905", "county_name": "District of Columbia", "place_name": "Washington", "state_name": "District of Columbia", "state_abbr": "DC", "is_rural": false, "dci_score": 83.4, "dci_quintile": 2.0, "is_cra_lmi": true, "income_level": "L", "is_persistent_poverty": false, "is_tribal_overlap": false, "tribal_area_name": null, "aian_pct": 0.0, "has_nmtc": false, "nmtc_projects": 0, "nmtc_total_usd": 0.0 }, "geometry": { "type": "Polygon", "coordinates": [ [ [ -76.929322, 38.880769 ], [ -76.928696, 38.883656 ], [ -76.927604, 38.888652 ], [ -76.9243, 38.88677 ], [ -76.923428, 38.886497 ], [ -76.921755, 38.886394 ], [ -76.919817, 38.886014 ], [ -76.918550521543906, 38.885690065624701 ], [ -76.919295, 38.885112 ], [ -76.920195, 38.884412 ], [ -76.920825111103696, 38.883918607691399 ], [ -76.920980221810296, 38.883797152238301 ], [ -76.923972437651798, 38.8814541745108 ], [ -76.924034950179802, 38.881405225682002 ], [ -76.925954, 38.881082 ], [ -76.929316, 38.880674 ], [ -76.929322, 38.880769 ] ] ] } },
{ "type": "Feature", "properties": { "geoid": "11001007304", "county_name": "District of Columbia", "place_name": null, "state_name": "District of Columbia", "state_abbr": "DC", "is_rural": false, "dci_score": 90.8, "dci_quintile": 1.0, "is_cra_lmi": true, "income_level": "L", "is_persistent_poverty": false, "is_tribal_overlap": false, "tribal_area_name": null, "aian_pct": 0.0, "has_nmtc": true, "nmtc_projects": 2, "nmtc_total_usd": 4700000.0 }, "geometry": { "type": "Polygon", "coordinates": [ [ [ -76.994226, 38.843688 ], [ -76.992176, 38.844039 ], [ -76.991658, 38.844127 ], [ -76.989093, 38.844592 ], [ -76.988511, 38.844705 ], [ -76.983433, 38.846 ], [ -76.981332, 38.8466 ], [ -76.980658, 38.845405 ], [ -76.977896, 38.841786 ], [ -76.976378, 38.842489 ], [ -76.972937771182004, 38.843074433104697 ], [ -76.979497, 38.837812 ], [ -76.982490980881394, 38.835634786175703 ], [ -76.984969314303896, 38.833832549620901 ], [ -76.987184, 38.83634 ], [ -76.988731, 38.838594 ], [ -76.993505, 38.837482 ], [ -76.993563, 38.838805 ], [ -76.993616, 38.840245 ], [ -76.994226, 38.843688 ] ] ] } },
{ "type": "Feature", "properties": { "geoid": "11001007601", "county_name": "District of Columbia", "place_name": "Washington", "state_name": "District of Columbia", "state_abbr": "DC", "is_rural": false, "dci_score": 79.6, "dci_quintile": 3.0, "is_cra_lmi": true, "income_level": "L", "is_persistent_poverty": false, "is_tribal_overlap": false, "tribal_area_name": null, "aian_pct": 0.0, "has_nmtc": false, "nmtc_projects": 0, "nmtc_total_usd": 0.0 }, "geometry": { "type": "Polygon", "coordinates": [ [ [ -76.990102, 38.871349 ], [ -76.983957, 38.874928 ], [ -76.978031, 38.876881 ], [ -76.972917, 38.874582 ], [ -76.971334, 38.873909 ], [ -76.970966, 38.873304 ], [ -76.97094, 38.868762 ], [ -76.970692, 38.868247 ], [ -76.974963, 38.868243 ], [ -76.979007, 38.868232 ], [ -76.981247, 38.86823 ], [ -76.982226, 38.867737 ], [ -76.984361, 38.866634 ], [ -76.988708, 38.867515 ], [ -76.989483, 38.868361 ], [ -76.988353, 38.869138 ], [ -76.990102, 38.871349 ] ] ] } },
{ "type": "Feature", "properties": { "geoid": "11001007401", "county_name": "District of Columbia", "place_name": null, "state_name": "District of Columbia", "state_abbr": "DC", "is_rural": false, "dci_score": 79.6, "dci_quintile": 3.0, "is_cra_lmi": true, "income_level": "L", "is_persistent_poverty": false, "is_tribal_overlap": false, "tribal_area_name": null, "aian_pct": 0.0, "has_nmtc": true, "nmtc_projects": 1, "nmtc_total_usd": 7200000.0 }, "geometry": { "type": "Polygon", "coordinates": [ [ [ -77.003415, 38.870878 ], [ -77.000711, 38.870603 ], [ -76.999542, 38.870485 ], [ -76.99246, 38.870129 ], [ -76.990102, 38.871349 ], [ -76.988353, 38.869138 ], [ -76.989483, 38.868361 ], [ -76.992717, 38.864864 ], [ -76.991221, 38.863318 ], [ -76.993159, 38.862268 ], [ -76.993827, 38.861455 ], [ -76.994327, 38.860654 ], [ -76.993649, 38.859443 ], [ -76.9936, 38.85848 ], [ -76.99355, 38.85547 ], [ -76.991987, 38.853752 ], [ -76.992289, 38.853452 ], [ -76.998769, 38.857514 ], [ -77.002983, 38.860117 ], [ -77.003004, 38.860535 ], [ -77.002078, 38.862754 ], [ -77.001803, 38.865527 ], [ -77.002397, 38.867475 ], [ -77.005457, 38.868707 ], [ -77.003415, 38.870878 ] ] ] } },
{ "type": "Feature", "properties": { "geoid": "11001007703", "county_name": "District of Columbia", "place_name": null, "state_name": "District of Columbia", "state_abbr": "DC", "is_rural": false, "dci_score": 83.4, "dci_quintile": 2.0, "is_cra_lmi": true, "income_level": "M", "is_persistent_poverty": false, "is_tribal_overlap": false, "tribal_area_name": null, "aian_pct": 0.0052, "has_nmtc": true, "nmtc_projects": 1, "nmtc_total_usd": 0.0 }, "geometry": { "type": "Polygon", "coordinates": [ [ [ -76.957496, 38.88363 ], [ -76.955232, 38.886797 ], [ -76.953179, 38.889597 ], [ -76.953006, 38.889822 ], [ -76.948282, 38.88982 ], [ -76.947245, 38.889839 ], [ -76.937878, 38.889884 ], [ -76.939889, 38.888198 ], [ -76.940555, 38.886544 ], [ -76.94093, 38.884581 ], [ -76.94252, 38.882476 ], [ -76.942977, 38.882112 ], [ -76.944179, 38.881417 ], [ -76.945772, 38.880869 ], [ -76.946677, 38.88283 ], [ -76.947812, 38.882842 ], [ -76.953091, 38.883611 ], [ -76.956266, 38.88363 ], [ -76.957496, 38.88363 ] ] ] } },
{ "type": "Feature", "properties": { "geoid": "11001007808", "county_name": "District of Columbia", "place_name": null, "state_name": "District of Columbia", "state_abbr": "DC", "is_rural": false, "dci_score": 83.4, "dci_quintile": 2.0, "is_cra_lmi": true, "income_level": "M", "is_persistent_poverty": false, "is_tribal_overlap": false, "tribal_area_name": null, "aian_pct": 0.0086, "has_nmtc": false, "nmtc_projects": 0, "nmtc_total_usd": 0.0 }, "geometry": { "type": "Polygon", "coordinates": [ [ [ -76.927957, 38.891884 ], [ -76.92628, 38.89661 ], [ -76.925133, 38.895897 ], [ -76.921892, 38.895805 ], [ -76.920513, 38.895806 ], [ -76.917779, 38.895813 ], [ -76.913657, 38.895812 ], [ -76.913413374932105, 38.896017037458897 ], [ -76.912868951119094, 38.895582807516803 ], [ -76.910955802208093, 38.894056888699403 ], [ -76.910528841588302, 38.893716346862703 ], [ -76.909395, 38.892812 ], [ -76.910795, 38.891712 ], [ -76.912763855740593, 38.8901832414249 ], [ -76.913262575757599, 38.889796 ], [ -76.913303391762398, 38.889764307572698 ], [ -76.91417, 38.889789 ], [ -76.917785, 38.8898 ], [ -76.920707, 38.889817 ], [ -76.922909, 38.889802 ], [ -76.927966, 38.889812 ], [ -76.927957, 38.891884 ] ] ] } },
{ "type": "Feature", "properties": { "geoid": "11001011100", "county_name": "District of Columbia", "place_name": "Washington", "state_name": "District of Columbia", "state_abbr": "DC", "is_rural": false, "dci_score": 63.4, "dci_quintile": 4.0, "is_cra_lmi": false, "income_level": "U", "is_persistent_poverty": false, "is_tribal_overlap": false, "tribal_area_name": null, "aian_pct": 0.0, "has_nmtc": true, "nmtc_projects": 1, "nmtc_total_usd": 500000.0 }, "geometry": { "type": "Polygon", "coordinates": [ [ [ -76.97913, 38.927709 ], [ -76.97158, 38.931312 ], [ -76.963435789814099, 38.935216502945401 ], [ -76.963430253918403, 38.9352122239235 ], [ -76.961374166883601, 38.933622952411902 ], [ -76.958798975852005, 38.931632434659399 ], [ -76.957718618064007, 38.930797362103803 ], [ -76.961486, 38.928267 ], [ -76.965161, 38.92526 ], [ -76.962634, 38.92354 ], [ -76.954983, 38.918342 ], [ -76.956458, 38.917616 ], [ -76.943623, 38.917006 ], [ -76.945951, 38.915252 ], [ -76.952893, 38.914797 ], [ -76.953573, 38.914382 ], [ -76.954459, 38.91096 ], [ -76.957969, 38.906154 ], [ -76.959386, 38.90339 ], [ -76.962218, 38.899497 ], [ -76.961984, 38.897135 ], [ -76.969464, 38.897769 ], [ -76.970385, 38.897925 ], [ -76.970233, 38.903445 ], [ -76.97189, 38.903721 ], [ -76.972461, 38.904587 ], [ -76.970205, 38.905621 ], [ -76.976208, 38.906282 ], [ -76.978838, 38.907271 ], [ -76.977366, 38.909586 ], [ -76.976327, 38.912642 ], [ -76.975127, 38.914133 ], [ -76.978167, 38.917282 ], [ -76.978565, 38.919355 ], [ -76.979006, 38.919894 ], [ -76.978998, 38.924509 ], [ -76.979001, 38.927481 ], [ -76.97913, 38.927709 ] ] ] } },
{ "type": "Feature", "properties": { "geoid": "11001001901", "county_name": "District of Columbia", "place_name": "Washington", "state_name": "District of Columbia", "state_abbr": "DC", "is_rural": false, "dci_score": 40.3, "dci_quintile": 5.0, "is_cra_lmi": false, "income_level": "U", "is_persistent_poverty": false, "is_tribal_overlap": false, "tribal_area_name": null, "aian_pct": 0.0, "has_nmtc": false, "nmtc_projects": 0, "nmtc_total_usd": 0.0 }, "geometry": { "type": "Polygon", "coordinates": [ [ [ -77.028013, 38.961226 ], [ -77.027889, 38.9627 ], [ -77.02771, 38.964954 ], [ -77.027501, 38.967288 ], [ -77.027265, 38.969925 ], [ -77.025406, 38.969924 ], [ -77.019895, 38.969923 ], [ -77.019895, 38.967288 ], [ -77.019897, 38.96495 ], [ -77.019895, 38.963772 ], [ -77.019896, 38.9627 ], [ -77.019897, 38.958733 ], [ -77.027922, 38.960918 ], [ -77.028031, 38.961014 ], [ -77.028013, 38.961226 ] ] ] } },
{ "type": "Feature", "properties": { "geoid": "11001010800", "county_name": "District of Columbia", "place_name": null, "state_name": "District of Columbia", "state_abbr": "DC", "is_rural": false, "dci_score": 56.2, "dci_quintile": 4.0, "is_cra_lmi": false, "income_level": "NA", "is_persistent_poverty": false, "is_tribal_overlap": false, "tribal_area_name": null, "aian_pct": 0.0113, "has_nmtc": true, "nmtc_projects": 1, "nmtc_total_usd": 5742400.0 }, "geometry": { "type": "Polygon", "coordinates": [ [ [ -77.050131, 38.899574 ], [ -77.05012, 38.901987 ], [ -77.049566, 38.902175 ], [ -77.043462, 38.900202 ], [ -77.03946, 38.898813 ], [ -77.039473, 38.897356 ], [ -77.039481, 38.8921 ], [ -77.040676, 38.8921 ], [ -77.043474, 38.893514 ], [ -77.046682, 38.895316 ], [ -77.048023, 38.896017 ], [ -77.050117, 38.896024 ], [ -77.050135, 38.898327 ], [ -77.050131, 38.899574 ] ] ] } },
{ "type": "Feature", "properties": { "geoid": "11001009511", "county_name": "District of Columbia", "place_name": null, "state_name": "District of Columbia", "state_abbr": "DC", "is_rural": false, "dci_score": null, "dci_quintile": null, "is_cra_lmi": false, "income_level": "NA", "is_persistent_poverty": false, "is_tribal_overlap": false, "tribal_area_name": null, "aian_pct": 0.0025, "has_nmtc": false, "nmtc_projects": 0, "nmtc_total_usd": 0.0 }, "geometry": { "type": "Polygon", "coordinates": [ [ [ -77.008034, 38.942381 ], [ -77.005946, 38.941314 ], [ -77.005414, 38.940961 ], [ -76.99967, 38.940741 ], [ -76.997642, 38.940732 ], [ -76.994837, 38.933746 ], [ -76.996184, 38.93316 ], [ -77.000982, 38.931215 ], [ -77.002132, 38.936155 ], [ -77.004144, 38.936808 ], [ -77.006359, 38.936592 ], [ -77.008313, 38.940626 ], [ -77.008034, 38.942381 ] ] ] } },
{ "type": "Feature", "properties": { "geoid": "11001001803", "county_name": "District of Columbia", "place_name": null, "state_name": "District of Columbia", "state_abbr": "DC", "is_rural": false, "dci_score": 39.0, "dci_quintile": 5.0, "is_cra_lmi": true, "income_level": "L", "is_persistent_poverty": false, "is_tribal_overlap": false, "tribal_area_name": null, "aian_pct": 0.0, "has_nmtc": false, "nmtc_projects": 0, "nmtc_total_usd": 0.0 }, "geometry": { "type": "Polygon", "coordinates": [ [ [ -77.046714, 38.967749 ], [ -77.044407, 38.970997 ], [ -77.041183, 38.971201 ], [ -77.039889, 38.972834 ], [ -77.037462, 38.973055 ], [ -77.036371, 38.972269 ], [ -77.033416, 38.972263 ], [ -77.033418, 38.967566 ], [ -77.033418, 38.96685 ], [ -77.033419, 38.965429 ], [ -77.033425, 38.962042 ], [ -77.034796, 38.962241 ], [ -77.03642, 38.962592 ], [ -77.040266, 38.963035 ], [ -77.043461, 38.961395 ], [ -77.043521, 38.961365 ], [ -77.046275, 38.963104 ], [ -77.047606, 38.965044 ], [ -77.046714, 38.967749 ] ] ] } },
{ "type": "Feature", "properties": { "geoid": "11001007408", "county_name": "District of Columbia", "place_name": null, "state_name": "District of Columbia", "state_abbr": "DC", "is_rural": false, "dci_score": 79.6, "dci_quintile": 3.0, "is_cra_lmi": true, "income_level": "L", "is_persistent_poverty": false, "is_tribal_overlap": false, "tribal_area_name": null, "aian_pct": 0.0141, "has_nmtc": false, "nmtc_projects": 0, "nmtc_total_usd": 0.0 }, "geometry": { "type": "Polygon", "coordinates": [ [ [ -76.974638, 38.854998 ], [ -76.975447, 38.856314 ], [ -76.975212, 38.856528 ], [ -76.973416, 38.855345 ], [ -76.971751, 38.856906 ], [ -76.969972, 38.855822 ], [ -76.969977, 38.855119 ], [ -76.970048, 38.852724 ], [ -76.966255, 38.85047 ], [ -76.965688, 38.852406 ], [ -76.963472206273096, 38.850668603625799 ], [ -76.965438274117801, 38.849091238237399 ], [ -76.968793, 38.849267 ], [ -76.97276, 38.851201 ], [ -76.974335, 38.852631 ], [ -76.975898, 38.853628 ], [ -76.974638, 38.854998 ] ] ] } },
{ "type": "Feature", "properties": { "geoid": "11001009204", "county_name": "District of Columbia", "place_name": null, "state_name": "District of Columbia", "state_abbr": "DC", "is_rural": false, "dci_score": 57.1, "dci_quintile": 4.0, "is_cra_lmi": true, "income_level": "L", "is_persistent_poverty": false, "is_tribal_overlap": false, "tribal_area_name": null, "aian_pct": 0.005, "has_nmtc": false, "nmtc_projects": 0, "nmtc_total_usd": 0.0 }, "geometry": { "type": "Polygon", "coordinates": [ [ [ -77.002993, 38.925243 ], [ -77.002444, 38.925594 ], [ -76.996173, 38.925582 ], [ -76.994966, 38.925582 ], [ -76.994484, 38.925582 ], [ -76.994943, 38.923983 ], [ -76.996033, 38.921383 ], [ -77.000569, 38.919761 ], [ -77.000569, 38.922985 ], [ -77.00057, 38.923439 ], [ -77.003556, 38.923429 ], [ -77.002993, 38.925243 ] ] ] } },
{ "type": "Feature", "properties": { "geoid": "11001008804", "county_name": "District of Columbia", "place_name": "Washington", "state_name": "District of Columbia", "state_abbr": "DC", "is_rural": false, "dci_score": 38.1, "dci_quintile": 5.0, "is_cra_lmi": true, "income_level": "L", "is_persistent_poverty": false, "is_tribal_overlap": false, "tribal_area_name": null, "aian_pct": 0.0829, "has_nmtc": false, "nmtc_projects": 0, "nmtc_total_usd": 0.0 }, "geometry": { "type": "Polygon", "coordinates": [ [ [ -76.986951, 38.909446 ], [ -76.985773, 38.910474 ], [ -76.978167, 38.917282 ], [ -76.975127, 38.914133 ], [ -76.976327, 38.912642 ], [ -76.977366, 38.909586 ], [ -76.978838, 38.907271 ], [ -76.979175, 38.906736 ], [ -76.980922, 38.904009 ], [ -76.982276, 38.90498 ], [ -76.984393, 38.90588 ], [ -76.988831, 38.907777 ], [ -76.986951, 38.909446 ] ] ] } },
{ "type": "Feature", "properties": { "geoid": "11001009102", "county_name": "District of Columbia", "place_name": null, "state_name": "District of Columbia", "state_abbr": "DC", "is_rural": false, "dci_score": 64.1, "dci_quintile": 4.0, "is_cra_lmi": true, "income_level": "M", "is_persistent_poverty": false, "is_tribal_overlap": false, "tribal_area_name": null, "aian_pct": 0.0019, "has_nmtc": true, "nmtc_projects": 2, "nmtc_total_usd": 28204068.0 }, "geometry": { "type": "Polygon", "coordinates": [ [ [ -76.998929, 38.91557 ], [ -76.996033, 38.921383 ], [ -76.988001, 38.923866 ], [ -76.985623, 38.92462 ], [ -76.97913, 38.927709 ], [ -76.979001, 38.927481 ], [ -76.978998, 38.924509 ], [ -76.979006, 38.919894 ], [ -76.978565, 38.919355 ], [ -76.978167, 38.917282 ], [ -76.980806, 38.917184 ], [ -76.992663, 38.913034 ], [ -77.00173, 38.909978 ], [ -76.998929, 38.91557 ] ] ] } }
]
}
