{
"type": "FeatureCollection",
"name": "33",
"crs": { "type": "name", "properties": { "name": "urn:ogc:def:crs:OGC:1.3:CRS84" } },
"features": [
{ "type": "Feature", "properties": { "geoid": "33011010500", "county_name": "Hillsborough County", "place_name": "Nashua", "state_name": "New Hampshire", "state_abbr": "NH", "is_rural": false, "dci_score": 59.5, "dci_quintile": 4.0, "is_cra_lmi": true, "income_level": "L", "is_persistent_poverty": false, "is_tribal_overlap": false, "tribal_area_name": null, "aian_pct": 0.0, "has_nmtc": false, "nmtc_projects": 0, "nmtc_total_usd": 0.0 }, "geometry": { "type": "Polygon", "coordinates": [ [ [ -71.475667, 42.764728 ], [ -71.474637, 42.764734 ], [ -71.473347, 42.76493 ], [ -71.472259, 42.766716 ], [ -71.470104, 42.766141 ], [ -71.469869, 42.768732 ], [ -71.466717, 42.768901 ], [ -71.462337, 42.76958 ], [ -71.46098, 42.769682 ], [ -71.458221, 42.770203 ], [ -71.456483, 42.767732 ], [ -71.452727, 42.768144 ], [ -71.45095, 42.765988 ], [ -71.45181, 42.765688 ], [ -71.455815, 42.766712 ], [ -71.454739, 42.763714 ], [ -71.454733, 42.762787 ], [ -71.456623, 42.762443 ], [ -71.464423, 42.763786 ], [ -71.466551, 42.763583 ], [ -71.46761, 42.762388 ], [ -71.46841, 42.761688 ], [ -71.473169, 42.762246 ], [ -71.47471, 42.763888 ], [ -71.475667, 42.764728 ] ] ] } },
{ "type": "Feature", "properties": { "geoid": "33011000300", "county_name": "Hillsborough County", "place_name": "Manchester", "state_name": "New Hampshire", "state_abbr": "NH", "is_rural": false, "dci_score": 62.7, "dci_quintile": 4.0, "is_cra_lmi": true, "income_level": "L", "is_persistent_poverty": false, "is_tribal_overlap": false, "tribal_area_name": null, "aian_pct": 0.0, "has_nmtc": false, "nmtc_projects": 0, "nmtc_total_usd": 0.0 }, "geometry": { "type": "Polygon", "coordinates": [ [ [ -71.491419, 42.996573 ], [ -71.49048, 42.996595 ], [ -71.485748, 42.996706 ], [ -71.479845, 42.996866 ], [ -71.477015, 42.99694 ], [ -71.474381, 42.996084 ], [ -71.47258, 42.9939 ], [ -71.474203, 42.993513 ], [ -71.480415, 42.993275 ], [ -71.48148, 42.993868 ], [ -71.48373, 42.993676 ], [ -71.49018, 42.992872 ], [ -71.491358, 42.994938 ], [ -71.491419, 42.996573 ] ] ] } },
{ "type": "Feature", "properties": { "geoid": "33011001500", "county_name": "Hillsborough County", "place_name": "Manchester", "state_name": "New Hampshire", "state_abbr": "NH", "is_rural": false, "dci_score": 72.1, "dci_quintile": 3.0, "is_cra_lmi": true, "income_level": "L", "is_persistent_poverty": false, "is_tribal_overlap": false, "tribal_area_name": null, "aian_pct": 0.0, "has_nmtc": false, "nmtc_projects": 0, "nmtc_total_usd": 0.0 }, "geometry": { "type": "Polygon", "coordinates": [ [ [ -71.457407, 42.989377 ], [ -71.457394, 42.990959 ], [ -71.452992, 42.990945 ], [ -71.453, 42.989386 ], [ -71.453, 42.987657 ], [ -71.452999, 42.987302 ], [ -71.452972, 42.981337 ], [ -71.455417, 42.981355 ], [ -71.457401, 42.981349 ], [ -71.457417, 42.987302 ], [ -71.457407, 42.989377 ] ] ] } },
{ "type": "Feature", "properties": { "geoid": "33011002000", "county_name": "Hillsborough County", "place_name": "Manchester", "state_name": "New Hampshire", "state_abbr": "NH", "is_rural": false, "dci_score": 62.7, "dci_quintile": 4.0, "is_cra_lmi": true, "income_level": "L", "is_persistent_poverty": false, "is_tribal_overlap": false, "tribal_area_name": null, "aian_pct": 0.0, "has_nmtc": false, "nmtc_projects": 0, "nmtc_total_usd": 0.0 }, "geometry": { "type": "Polygon", "coordinates": [ [ [ -71.480136, 42.98291 ], [ -71.479377, 42.983652 ], [ -71.479683, 42.985037 ], [ -71.477242, 42.98532 ], [ -71.476748, 42.985373 ], [ -71.47623, 42.985416 ], [ -71.475739, 42.985479 ], [ -71.475255, 42.985511 ], [ -71.473959, 42.985651 ], [ -71.473936, 42.984999 ], [ -71.473919, 42.983647 ], [ -71.473137, 42.983948 ], [ -71.471579, 42.984678 ], [ -71.469537, 42.985267 ], [ -71.468465, 42.983011 ], [ -71.469188, 42.978931 ], [ -71.469911, 42.977484 ], [ -71.474011, 42.979384 ], [ -71.475916, 42.980943 ], [ -71.480743, 42.981993 ], [ -71.480136, 42.98291 ] ] ] } },
{ "type": "Feature", "properties": { "geoid": "33013032900", "county_name": "Merrimack County", "place_name": null, "state_name": "New Hampshire", "state_abbr": "NH", "is_rural": true, "dci_score": 62.2, "dci_quintile": 4.0, "is_cra_lmi": true, "income_level": "M", "is_persistent_poverty": false, "is_tribal_overlap": false, "tribal_area_name": null, "aian_pct": 0.0, "has_nmtc": false, "nmtc_projects": 0, "nmtc_total_usd": 0.0 }, "geometry": { "type": "Polygon", "coordinates": [ [ [ -71.530312, 43.208941 ], [ -71.523922, 43.212165 ], [ -71.520882, 43.215224 ], [ -71.521286, 43.217024 ], [ -71.523059, 43.219529 ], [ -71.523134, 43.219616 ], [ -71.507417, 43.22416 ], [ -71.500059, 43.226268 ], [ -71.49576, 43.227906 ], [ -71.49448, 43.228451 ], [ -71.493703, 43.228419 ], [ -71.478778, 43.234767 ], [ -71.476414, 43.235317 ], [ -71.470475, 43.234868 ], [ -71.471441, 43.233194 ], [ -71.47152, 43.233113 ], [ -71.4748, 43.233558 ], [ -71.477387, 43.232189 ], [ -71.488941, 43.22448 ], [ -71.495299, 43.221556 ], [ -71.504591, 43.217359 ], [ -71.505923, 43.216665 ], [ -71.505288, 43.213281 ], [ -71.510729, 43.212502 ], [ -71.512011, 43.213864 ], [ -71.51574, 43.212136 ], [ -71.51588, 43.212165 ], [ -71.526002, 43.209081 ], [ -71.530312, 43.208941 ] ] ] } },
{ "type": "Feature", "properties": { "geoid": "33013035000", "county_name": "Merrimack County", "place_name": null, "state_name": "New Hampshire", "state_abbr": "NH", "is_rural": true, "dci_score": 65.6, "dci_quintile": 4.0, "is_cra_lmi": false, "income_level": "U", "is_persistent_poverty": false, "is_tribal_overlap": false, "tribal_area_name": null, "aian_pct": 0.0, "has_nmtc": false, "nmtc_projects": 0, "nmtc_total_usd": 0.0 }, "geometry": { "type": "Polygon", "coordinates": [ [ [ -71.375562, 43.319824 ], [ -71.349051, 43.346578 ], [ -71.305137, 43.322745 ], [ -71.236011, 43.284994 ], [ -71.246967, 43.276189 ], [ -71.247336, 43.275232 ], [ -71.250279, 43.267439 ], [ -71.252079, 43.263975 ], [ -71.257024, 43.256721 ], [ -71.262068, 43.250937 ], [ -71.262409, 43.251051 ], [ -71.361472, 43.268034 ], [ -71.35688, 43.27236 ], [ -71.355231, 43.2731 ], [ -71.354462, 43.274264 ], [ -71.350287, 43.27635 ], [ -71.348548, 43.278524 ], [ -71.344001, 43.278715 ], [ -71.342307, 43.280783 ], [ -71.341972, 43.284475 ], [ -71.338873, 43.284826 ], [ -71.334951, 43.287885 ], [ -71.353266, 43.297761 ], [ -71.38195, 43.31336 ], [ -71.375562, 43.319824 ] ] ] } },
{ "type": "Feature", "properties": { "geoid": "33015107400", "county_name": "Rockingham County", "place_name": "Concord", "state_name": "New Hampshire", "state_abbr": "NH", "is_rural": true, "dci_score": 15.7, "dci_quintile": 5.0, "is_cra_lmi": false, "income_level": "U", "is_persistent_poverty": false, "is_tribal_overlap": false, "tribal_area_name": null, "aian_pct": 0.0, "has_nmtc": false, "nmtc_projects": 0, "nmtc_total_usd": 0.0 }, "geometry": { "type": "Polygon", "coordinates": [ [ [ -70.821297, 43.083062 ], [ -70.816357, 43.08447 ], [ -70.809018, 43.087817 ], [ -70.80628, 43.088783 ], [ -70.802582, 43.090615 ], [ -70.794997, 43.084384 ], [ -70.789802, 43.079405 ], [ -70.786086, 43.077095 ], [ -70.782571, 43.074154 ], [ -70.780157, 43.072125 ], [ -70.777039, 43.066764 ], [ -70.786195, 43.059747 ], [ -70.78744, 43.058446 ], [ -70.788536, 43.056955 ], [ -70.798238, 43.040906 ], [ -70.800087, 43.037443 ], [ -70.810043, 43.020704 ], [ -70.814299, 43.045811 ], [ -70.815095, 43.050219 ], [ -70.818107, 43.062699 ], [ -70.823097, 43.082276 ], [ -70.821297, 43.083062 ] ] ] } },
{ "type": "Feature", "properties": { "geoid": "33005971403", "county_name": "Cheshire County", "place_name": null, "state_name": "New Hampshire", "state_abbr": "NH", "is_rural": true, "dci_score": 54.2, "dci_quintile": 4.0, "is_cra_lmi": false, "income_level": "U", "is_persistent_poverty": false, "is_tribal_overlap": false, "tribal_area_name": null, "aian_pct": 0.0, "has_nmtc": true, "nmtc_projects": 1, "nmtc_total_usd": 0.0 }, "geometry": { "type": "Polygon", "coordinates": [ [ [ -72.368215, 42.927267 ], [ -72.365244, 42.927235 ], [ -72.356534, 42.925321 ], [ -72.350797, 42.925431 ], [ -72.348307, 42.92598 ], [ -72.332053, 42.930148 ], [ -72.330085, 42.930521 ], [ -72.32614, 42.930406 ], [ -72.322394, 42.929223 ], [ -72.313888, 42.92537 ], [ -72.310253, 42.924052 ], [ -72.307858, 42.923645 ], [ -72.29081, 42.922475 ], [ -72.289223, 42.925222 ], [ -72.287786, 42.926577 ], [ -72.288059, 42.930795 ], [ -72.28786, 42.932478 ], [ -72.285636, 42.932449 ], [ -72.278625, 42.933625 ], [ -72.278435, 42.933648 ], [ -72.278505, 42.933325 ], [ -72.277979, 42.930951 ], [ -72.277811, 42.929747 ], [ -72.27758, 42.92849 ], [ -72.276901, 42.928717 ], [ -72.263133, 42.922956 ], [ -72.262612, 42.916862 ], [ -72.263039, 42.915507 ], [ -72.259268, 42.914955 ], [ -72.252606, 42.914799 ], [ -72.248059, 42.91548 ], [ -72.245063, 42.915065 ], [ -72.242097, 42.91396 ], [ -72.24078, 42.913789 ], [ -72.238086, 42.914172 ], [ -72.236688, 42.914804 ], [ -72.234526, 42.915854 ], [ -72.232168, 42.916583 ], [ -72.228014, 42.91576 ], [ -72.222654, 42.911779 ], [ -72.23108, 42.911257 ], [ -72.234056, 42.907107 ], [ -72.236085, 42.904261 ], [ -72.240496, 42.906932 ], [ -72.248384, 42.907 ], [ -72.247499, 42.911204 ], [ -72.265147, 42.911047 ], [ -72.291322, 42.910922 ], [ -72.30894, 42.910853 ], [ -72.346592, 42.910761 ], [ -72.36295, 42.910685 ], [ -72.36794, 42.926394 ], [ -72.368215, 42.927267 ] ] ] } },
{ "type": "Feature", "properties": { "geoid": "33017083002", "county_name": "Strafford County", "place_name": null, "state_name": "New Hampshire", "state_abbr": "NH", "is_rural": true, "dci_score": 49.3, "dci_quintile": 5.0, "is_cra_lmi": true, "income_level": "M", "is_persistent_poverty": false, "is_tribal_overlap": false, "tribal_area_name": null, "aian_pct": 0.0, "has_nmtc": false, "nmtc_projects": 0, "nmtc_total_usd": 0.0 }, "geometry": { "type": "Polygon", "coordinates": [ [ [ -70.924647, 43.258208 ], [ -70.917712, 43.265955 ], [ -70.909864, 43.265533 ], [ -70.905736, 43.265078 ], [ -70.889785, 43.260734 ], [ -70.888159, 43.257237 ], [ -70.882874, 43.254616 ], [ -70.87943, 43.24947 ], [ -70.875886, 43.247228 ], [ -70.874098, 43.247489 ], [ -70.872236, 43.247646 ], [ -70.870776, 43.24761 ], [ -70.867078, 43.248334 ], [ -70.862891, 43.250671 ], [ -70.857656, 43.252901 ], [ -70.847469, 43.240595 ], [ -70.863077, 43.233564 ], [ -70.885828, 43.223464 ], [ -70.886041, 43.223594 ], [ -70.91677, 43.246869 ], [ -70.927576, 43.25495 ], [ -70.924647, 43.258208 ] ] ] } },
{ "type": "Feature", "properties": { "geoid": "33017080203", "county_name": "Strafford County", "place_name": null, "state_name": "New Hampshire", "state_abbr": "NH", "is_rural": true, "dci_score": null, "dci_quintile": null, "is_cra_lmi": false, "income_level": "U", "is_persistent_poverty": false, "is_tribal_overlap": false, "tribal_area_name": null, "aian_pct": 0.0, "has_nmtc": false, "nmtc_projects": 0, "nmtc_total_usd": 0.0 }, "geometry": { "type": "Polygon", "coordinates": [ [ [ -70.967434, 43.135039 ], [ -70.964152, 43.147829 ], [ -70.946713, 43.142348 ], [ -70.937584, 43.13948 ], [ -70.926674, 43.134292 ], [ -70.924592, 43.133659 ], [ -70.920695, 43.133091 ], [ -70.918525, 43.131008 ], [ -70.92068, 43.130803 ], [ -70.924235, 43.126126 ], [ -70.925746, 43.125577 ], [ -70.926264, 43.126615 ], [ -70.930064, 43.127217 ], [ -70.931239, 43.126164 ], [ -70.933053, 43.128266 ], [ -70.935481, 43.129438 ], [ -70.939326, 43.131001 ], [ -70.939875, 43.131986 ], [ -70.941798, 43.132344 ], [ -70.947779, 43.132915 ], [ -70.949641, 43.133175 ], [ -70.951153, 43.133793 ], [ -70.955288, 43.13319 ], [ -70.957622, 43.130863 ], [ -70.961666, 43.13287 ], [ -70.966579, 43.133137 ], [ -70.967585, 43.134504 ], [ -70.967434, 43.135039 ] ] ] } },
{ "type": "Feature", "properties": { "geoid": "33011000202", "county_name": "Hillsborough County", "place_name": null, "state_name": "New Hampshire", "state_abbr": "NH", "is_rural": false, "dci_score": 62.7, "dci_quintile": 4.0, "is_cra_lmi": true, "income_level": "M", "is_persistent_poverty": false, "is_tribal_overlap": false, "tribal_area_name": null, "aian_pct": 0.0, "has_nmtc": false, "nmtc_projects": 0, "nmtc_total_usd": 0.0 }, "geometry": { "type": "Polygon", "coordinates": [ [ [ -71.50373, 43.011734 ], [ -71.498143, 43.012505 ], [ -71.493479, 43.009996 ], [ -71.488555, 43.005 ], [ -71.483219, 43.00451 ], [ -71.481149, 43.00377 ], [ -71.478122, 43.004536 ], [ -71.477377, 43.004698 ], [ -71.47761, 43.005692 ], [ -71.475512, 43.005324 ], [ -71.474727, 43.005302 ], [ -71.4696, 43.003536 ], [ -71.473711, 43.001183 ], [ -71.473811, 42.999983 ], [ -71.469411, 42.996784 ], [ -71.46938, 42.994207 ], [ -71.47258, 42.9939 ], [ -71.474381, 42.996084 ], [ -71.477015, 42.99694 ], [ -71.479845, 42.996866 ], [ -71.485748, 42.996706 ], [ -71.49048, 42.996595 ], [ -71.491419, 42.996573 ], [ -71.491358, 42.994938 ], [ -71.492232, 42.994875 ], [ -71.493909, 42.994176 ], [ -71.495493, 42.993025 ], [ -71.495012, 42.995483 ], [ -71.496512, 42.996683 ], [ -71.498912, 42.997283 ], [ -71.500505, 42.998585 ], [ -71.501397, 43.001974 ], [ -71.50373, 43.011734 ] ] ] } },
{ "type": "Feature", "properties": { "geoid": "33007950700", "county_name": "Coos County", "place_name": null, "state_name": "New Hampshire", "state_abbr": "NH", "is_rural": true, "dci_score": 97.6, "dci_quintile": 1.0, "is_cra_lmi": true, "income_level": "M", "is_persistent_poverty": false, "is_tribal_overlap": false, "tribal_area_name": null, "aian_pct": 0.0, "has_nmtc": false, "nmtc_projects": 0, "nmtc_total_usd": 0.0 }, "geometry": { "type": "Polygon", "coordinates": [ [ [ -71.238408, 44.526589 ], [ -71.164129, 44.527787 ], [ -71.162353, 44.525107 ], [ -71.15999, 44.518809 ], [ -71.160407, 44.515671 ], [ -71.158623, 44.509602 ], [ -71.159356, 44.507088 ], [ -71.159863, 44.503236 ], [ -71.162809, 44.494719 ], [ -71.163182, 44.492215 ], [ -71.167368, 44.485236 ], [ -71.167702, 44.482506 ], [ -71.170193, 44.479116 ], [ -71.170672, 44.476119 ], [ -71.174189, 44.47456 ], [ -71.175422, 44.474374 ], [ -71.17782, 44.476205 ], [ -71.182324, 44.474311 ], [ -71.183181, 44.473962 ], [ -71.18615, 44.472713 ], [ -71.186222, 44.472838 ], [ -71.186369, 44.473328 ], [ -71.188436, 44.476786 ], [ -71.18995, 44.478464 ], [ -71.191308, 44.479403 ], [ -71.2057, 44.486737 ], [ -71.211263, 44.489928 ], [ -71.221175, 44.496427 ], [ -71.223576, 44.498889 ], [ -71.224836, 44.500851 ], [ -71.226926, 44.505463 ], [ -71.229503, 44.514391 ], [ -71.231058, 44.517113 ], [ -71.233857, 44.520178 ], [ -71.238408, 44.526589 ] ] ] } },
{ "type": "Feature", "properties": { "geoid": "33017081400", "county_name": "Strafford County", "place_name": null, "state_name": "New Hampshire", "state_abbr": "NH", "is_rural": true, "dci_score": 23.9, "dci_quintile": 5.0, "is_cra_lmi": false, "income_level": "U", "is_persistent_poverty": false, "is_tribal_overlap": false, "tribal_area_name": null, "aian_pct": 0.0, "has_nmtc": false, "nmtc_projects": 0, "nmtc_total_usd": 0.0 }, "geometry": { "type": "Polygon", "coordinates": [ [ [ -70.880234, 43.197399 ], [ -70.879516, 43.197734 ], [ -70.876821, 43.198687 ], [ -70.874857, 43.199242 ], [ -70.872635, 43.200152 ], [ -70.867971, 43.203056 ], [ -70.864549, 43.207134 ], [ -70.860415, 43.205721 ], [ -70.859508, 43.205205 ], [ -70.855522, 43.204413 ], [ -70.854103, 43.20365 ], [ -70.84864, 43.202842 ], [ -70.844704, 43.204604 ], [ -70.838737, 43.205268 ], [ -70.83767, 43.20275 ], [ -70.837715, 43.200835 ], [ -70.836174, 43.197448 ], [ -70.831886, 43.19802 ], [ -70.831703, 43.195983 ], [ -70.819977217279899, 43.196841236980198 ], [ -70.819146, 43.195157 ], [ -70.819344, 43.193036 ], [ -70.820702, 43.191663 ], [ -70.823754, 43.191075 ], [ -70.827201, 43.189485 ], [ -70.827901, 43.188685 ], [ -70.828301, 43.186685 ], [ -70.8248158, 43.1797146 ], [ -70.824801, 43.179685 ], [ -70.823501, 43.174585 ], [ -70.824001, 43.173285 ], [ -70.825015171974499, 43.172731815286603 ], [ -70.825901, 43.175785 ], [ -70.831901, 43.182485 ], [ -70.837101, 43.183985 ], [ -70.843201, 43.189385 ], [ -70.846602, 43.190385 ], [ -70.849331, 43.192157 ], [ -70.851602, 43.192585 ], [ -70.853702, 43.194084 ], [ -70.856802, 43.195284 ], [ -70.859902, 43.195484 ], [ -70.861802, 43.195784 ], [ -70.86354, 43.196984 ], [ -70.867704, 43.197803 ], [ -70.869406, 43.197212 ], [ -70.871509, 43.193738 ], [ -70.872811, 43.19515 ], [ -70.873183, 43.196484 ], [ -70.877009, 43.196146 ], [ -70.879658, 43.195891 ], [ -70.880234, 43.197399 ] ] ] } },
{ "type": "Feature", "properties": { "geoid": "33007950100", "county_name": "Coos County", "place_name": null, "state_name": "New Hampshire", "state_abbr": "NH", "is_rural": true, "dci_score": 53.6, "dci_quintile": 5.0, "is_cra_lmi": true, "income_level": "M", "is_persistent_poverty": false, "is_tribal_overlap": false, "tribal_area_name": null, "aian_pct": 0.0, "has_nmtc": false, "nmtc_projects": 0, "nmtc_total_usd": 0.0 }, "geometry": { "type": "Polygon", "coordinates": [ [ [ -71.541324, 44.985071 ], [ -71.539989683037703, 44.986160085753703 ], [ -71.538647, 44.987256 ], [ -71.538143, 44.98985 ], [ -71.534008, 44.990414 ], [ -71.532749, 44.991066 ], [ -71.533713, 44.991963 ], [ -71.537091, 44.992611 ], [ -71.536188, 44.994592 ], [ -71.529667039440895, 44.999527011412503 ], [ -71.529305, 44.999801 ], [ -71.525381697089998, 45.0016448045155 ], [ -71.524794, 45.001921 ], [ -71.519996, 45.002417 ], [ -71.514452, 45.004259 ], [ -71.513859390190504, 45.004603712775499 ], [ -71.508129, 45.007937 ], [ -71.504251, 45.008223 ], [ -71.501055, 45.006742 ], [ -71.496864, 45.003947 ], [ -71.494648, 45.003998 ], [ -71.489675, 45.00114 ], [ -71.488547836346001, 45.001287520925402 ], [ -71.480552, 45.002334 ], [ -71.478458, 45.007486 ], [ -71.476676, 45.009179 ], [ -71.473269, 45.010586 ], [ -71.465964, 45.011919 ], [ -71.464555, 45.013637 ], [ -71.465049961356797, 45.013633098079197 ], [ -71.501088, 45.013349 ], [ -71.500069, 45.014212 ], [ -71.500164, 45.015377 ], [ -71.500969, 45.01604 ], [ -71.500378, 45.021977 ], [ -71.496995, 45.023613 ], [ -71.499945, 45.026323 ], [ -71.494009, 45.034345 ], [ -71.491148, 45.041774 ], [ -71.491085, 45.043671 ], [ -71.49315, 45.045772 ], [ -71.497179, 45.044582 ], [ -71.499527, 45.044672 ], [ -71.500874, 45.04511 ], [ -71.505222, 45.048791 ], [ -71.505091, 45.051465 ], [ -71.504542, 45.052379 ], [ -71.502768, 45.05263 ], [ -71.500545, 45.051943 ], [ -71.497738, 45.054751 ], [ -71.499316, 45.057707 ], [ -71.49671, 45.061255 ], [ -71.496105, 45.065082 ], [ -71.498399, 45.069629 ], [ -71.497917, 45.070589 ], [ -71.497304, 45.070544 ], [ -71.494864, 45.071068 ], [ -71.492742, 45.071417 ], [ -71.489116, 45.070853 ], [ -71.489146, 45.073565 ], [ -71.487147, 45.075562 ], [ -71.486345, 45.078503 ], [ -71.482862, 45.079144 ], [ -71.480219, 45.081316 ], [ -71.479929, 45.082139 ], [ -71.480897, 45.08303 ], [ -71.480769, 45.083556 ], [ -71.477323, 45.082946 ], [ -71.474979, 45.083706 ], [ -71.471382, 45.084199 ], [ -71.468299, 45.084092 ], [ -71.467447, 45.086851 ], [ -71.464837, 45.093023 ], [ -71.462063, 45.093526 ], [ -71.459999, 45.095058 ], [ -71.458323, 45.098807 ], [ -71.455452, 45.101458 ], [ -71.452451, 45.102282 ], [ -71.449257, 45.104522 ], [ -71.448355, 45.107882 ], [ -71.448678, 45.109001 ], [ -71.450373, 45.109958 ], [ -71.448096, 45.112111 ], [ -71.444735, 45.112591 ], [ -71.441683, 45.11307 ], [ -71.440577, 45.114464 ], [ -71.438589, 45.117813 ], [ -71.432444, 45.120453 ], [ -71.428828, 45.123881 ], [ -71.427208, 45.127364 ], [ -71.426755, 45.129672 ], [ -71.428392, 45.1318 ], [ -71.427538, 45.133352 ], [ -71.42887, 45.1357 ], [ -71.433083, 45.137899 ], [ -71.435795, 45.139659 ], [ -71.437216, 45.142333 ], [ -71.433835, 45.144475 ], [ -71.433179, 45.149166 ], [ -71.430473, 45.150123 ], [ -71.427688, 45.152251 ], [ -71.42675, 45.153257 ], [ -71.424004, 45.15929 ], [ -71.423616, 45.161096 ], [ -71.424616, 45.165872 ], [ -71.422031, 45.167495 ], [ -71.419058, 45.170488 ], [ -71.415844, 45.176349 ], [ -71.414497, 45.179214 ], [ -71.415468, 45.183309 ], [ -71.414853, 45.184908 ], [ -71.410636, 45.186172 ], [ -71.408777, 45.18797 ], [ -71.405281, 45.193018 ], [ -71.405346, 45.196037 ], [ -71.405636, 45.198139 ], [ -71.399955, 45.20093 ], [ -71.39781, 45.203553 ], [ -71.398002, 45.205953 ], [ -71.3991, 45.208628 ], [ -71.403267, 45.215348 ], [ -71.407405, 45.216812 ], [ -71.409119, 45.216606 ], [ -71.415553, 45.218001 ], [ -71.41607, 45.218322 ], [ -71.416167, 45.219533 ], [ -71.417233, 45.221293 ], [ -71.421372, 45.224036 ], [ -71.426157, 45.225098 ], [ -71.428192, 45.227119 ], [ -71.431753, 45.228743 ], [ -71.438545, 45.232765 ], [ -71.440583, 45.234982 ], [ -71.44288, 45.234799 ], [ -71.443882, 45.235462 ], [ -71.443883, 45.237061 ], [ -71.443365, 45.237724 ], [ -71.442298, 45.238547 ], [ -71.438546, 45.239004 ], [ -71.433014, 45.237656 ], [ -71.430394, 45.236125 ], [ -71.429326, 45.234228 ], [ -71.420335, 45.232719 ], [ -71.418556, 45.233839 ], [ -71.417132, 45.235575 ], [ -71.413348, 45.236123 ], [ -71.411924, 45.23882 ], [ -71.406973, 45.241516 ], [ -71.402638, 45.242589 ], [ -71.394422, 45.241216 ], [ -71.391901, 45.237216 ], [ -71.389412, 45.235021 ], [ -71.385629, 45.233214 ], [ -71.384917, 45.233351 ], [ -71.38317, 45.234904 ], [ -71.380158, 45.238857 ], [ -71.379833, 45.240616 ], [ -71.37763, 45.244203 ], [ -71.376691, 45.244911 ], [ -71.37194, 45.246349 ], [ -71.368381, 45.246579 ], [ -71.363013, 45.248205 ], [ -71.359224, 45.250912 ], [ -71.357253, 45.253336 ], [ -71.356736, 45.254776 ], [ -71.356835, 45.257175 ], [ -71.358657, 45.259494 ], [ -71.359558, 45.262682 ], [ -71.362245, 45.264738 ], [ -71.363218, 45.266429 ], [ -71.362831, 45.267617 ], [ -71.360664, 45.269835 ], [ -71.354999, 45.268626 ], [ -71.353446, 45.268695 ], [ -71.351666, 45.269199 ], [ -71.347622, 45.272125 ], [ -71.344029, 45.271167 ], [ -71.336392, 45.273066 ], [ -71.333965, 45.275306 ], [ -71.333674, 45.276769 ], [ -71.331733, 45.279969 ], [ -71.328464, 45.281135 ], [ -71.320922, 45.282324 ], [ -71.318397, 45.284655 ], [ -71.314318, 45.287033 ], [ -71.309008, 45.287238 ], [ -71.306872, 45.288861 ], [ -71.304896, 45.292449 ], [ -71.301107, 45.296563 ], [ -71.296509, 45.29919 ], [ -71.291975, 45.298938 ], [ -71.288639, 45.300881 ], [ -71.286236, 45.300669 ], [ -71.284396, 45.302434 ], [ -71.283684, 45.301977 ], [ -71.282552, 45.299279 ], [ -71.282747, 45.297497 ], [ -71.28074, 45.295188 ], [ -71.279219, 45.294982 ], [ -71.27232, 45.296694 ], [ -71.266557, 45.294589 ], [ -71.264939, 45.293446 ], [ -71.266754, 45.29123 ], [ -71.264385, 45.286732 ], [ -71.263815, 45.282726 ], [ -71.263042, 45.277401 ], [ -71.262136, 45.276098 ], [ -71.259485, 45.27244 ], [ -71.256441, 45.27333 ], [ -71.248382, 45.268023 ], [ -71.245503, 45.26887 ], [ -71.244499, 45.268139 ], [ -71.239346, 45.261925 ], [ -71.236271, 45.261126 ], [ -71.235364, 45.260349 ], [ -71.231572, 45.253472 ], [ -71.233027, 45.251551 ], [ -71.231122, 45.249712 ], [ -71.228048, 45.24969 ], [ -71.225811, 45.251691 ], [ -71.221994, 45.253543 ], [ -71.220634, 45.251121 ], [ -71.2118, 45.250457 ], [ -71.205145389569097, 45.253375555618398 ], [ -71.203033, 45.254302 ], [ -71.198276, 45.254257 ], [ -71.196658, 45.253594 ], [ -71.194878, 45.250515 ], [ -71.191744, 45.249694 ], [ -71.189964, 45.248062 ], [ -71.187441, 45.247697 ], [ -71.187505, 45.244977 ], [ -71.183785, 45.244932 ], [ -71.182782, 45.242715 ], [ -71.182587, 45.241069 ], [ -71.180905, 45.239858 ], [ -71.179838, 45.240178 ], [ -71.178576, 45.241389 ], [ -71.177508, 45.243629 ], [ -71.173367, 45.246348 ], [ -71.171264, 45.246143 ], [ -71.167446, 45.247491 ], [ -71.162845, 45.250332 ], [ -71.158192, 45.248746 ], [ -71.155734, 45.24646 ], [ -71.150254, 45.243732 ], [ -71.148165, 45.242412 ], [ -71.147906, 45.23928 ], [ -71.144801, 45.242251 ], [ -71.13943, 45.242958 ], [ -71.133994, 45.244167 ], [ -71.131953, 45.245423 ], [ -71.127962, 45.253672 ], [ -71.124517, 45.25527 ], [ -71.123663, 45.25936 ], [ -71.119914, 45.262287 ], [ -71.120112, 45.265738 ], [ -71.118749, 45.268113 ], [ -71.116638, 45.269679 ], [ -71.116332, 45.272322 ], [ -71.115881, 45.274562 ], [ -71.113162, 45.274861 ], [ -71.110735, 45.275456 ], [ -71.107339, 45.278612 ], [ -71.105691, 45.282498 ], [ -71.109349, 45.282222 ], [ -71.110159, 45.282999 ], [ -71.110743, 45.284576 ], [ -71.108675, 45.288965 ], [ -71.107353, 45.290369 ], [ -71.104436, 45.291778 ], [ -71.105151, 45.294635 ], [ -71.097772, 45.301906 ], [ -71.089483, 45.304584 ], [ -71.085564, 45.305476 ], [ -71.083924, 45.305451 ], [ -71.076914, 45.246912 ], [ -71.0726, 45.180935 ], [ -71.069387, 45.144037 ], [ -71.059729035533707, 45.014632554408102 ], [ -71.059004, 45.004918 ], [ -71.057861, 45.000049 ], [ -71.057159514433394, 44.990629303729797 ], [ -71.055851758204398, 44.973068477021997 ], [ -71.056637, 44.97301 ], [ -71.101317, 44.972462 ], [ -71.148789, 44.970089 ], [ -71.152451, 44.95451 ], [ -71.188478, 44.959454 ], [ -71.22446, 44.96439 ], [ -71.290105, 44.973584 ], [ -71.29247, 44.964688 ], [ -71.295034, 44.965047 ], [ -71.308263, 44.914693 ], [ -71.494678, 44.940385 ], [ -71.494875, 44.940386 ], [ -71.515351695665402, 44.942719691780702 ], [ -71.514933, 44.944159 ], [ -71.517288, 44.944692 ], [ -71.517508, 44.948812 ], [ -71.518987, 44.950115 ], [ -71.515857, 44.952758 ], [ -71.514843, 44.958741 ], [ -71.516246, 44.964089 ], [ -71.517674, 44.964383 ], [ -71.518864, 44.963626 ], [ -71.520216, 44.963487 ], [ -71.523376, 44.96396 ], [ -71.523563, 44.964607 ], [ -71.51886, 44.966622 ], [ -71.518947, 44.967869 ], [ -71.523117, 44.966852 ], [ -71.522035, 44.968545 ], [ -71.526607, 44.971265 ], [ -71.532238, 44.977353 ], [ -71.532818283385794, 44.978153349610302 ], [ -71.536602, 44.983372 ], [ -71.54086, 44.983788 ], [ -71.541324, 44.985071 ] ] ] } },
{ "type": "Feature", "properties": { "geoid": "33011001300", "county_name": "Hillsborough County", "place_name": null, "state_name": "New Hampshire", "state_abbr": "NH", "is_rural": false, "dci_score": 48.5, "dci_quintile": 5.0, "is_cra_lmi": true, "income_level": "M", "is_persistent_poverty": false, "is_tribal_overlap": false, "tribal_area_name": null, "aian_pct": 0.0, "has_nmtc": false, "nmtc_projects": 0, "nmtc_total_usd": 0.0 }, "geometry": { "type": "Polygon", "coordinates": [ [ [ -71.457754, 42.995337 ], [ -71.454741, 42.995628 ], [ -71.453128, 42.993602 ], [ -71.453741, 42.995708 ], [ -71.449499, 42.995548 ], [ -71.44865, 42.995538 ], [ -71.444998, 42.995517 ], [ -71.444992, 42.990898 ], [ -71.448217, 42.990905 ], [ -71.448567, 42.990907 ], [ -71.452992, 42.990945 ], [ -71.457394, 42.990959 ], [ -71.457429, 42.993589 ], [ -71.457754, 42.995337 ] ] ] } },
{ "type": "Feature", "properties": { "geoid": "33007950800", "county_name": "Coos County", "place_name": null, "state_name": "New Hampshire", "state_abbr": "NH", "is_rural": true, "dci_score": 97.6, "dci_quintile": 1.0, "is_cra_lmi": true, "income_level": "L", "is_persistent_poverty": false, "is_tribal_overlap": false, "tribal_area_name": null, "aian_pct": 0.0, "has_nmtc": false, "nmtc_projects": 0, "nmtc_total_usd": 0.0 }, "geometry": { "type": "Polygon", "coordinates": [ [ [ -71.397622, 44.444963 ], [ -71.356681, 44.523568 ], [ -71.288823, 44.525194 ], [ -71.288701, 44.525178 ], [ -71.238408, 44.526589 ], [ -71.233857, 44.520178 ], [ -71.231058, 44.517113 ], [ -71.229503, 44.514391 ], [ -71.226926, 44.505463 ], [ -71.224836, 44.500851 ], [ -71.223576, 44.498889 ], [ -71.221175, 44.496427 ], [ -71.211263, 44.489928 ], [ -71.2057, 44.486737 ], [ -71.191308, 44.479403 ], [ -71.18995, 44.478464 ], [ -71.188436, 44.476786 ], [ -71.186369, 44.473328 ], [ -71.186222, 44.472838 ], [ -71.18615, 44.472713 ], [ -71.183181, 44.473962 ], [ -71.182324, 44.474311 ], [ -71.180078, 44.471796 ], [ -71.181049, 44.47107 ], [ -71.178513, 44.469122 ], [ -71.182559, 44.46504 ], [ -71.184821, 44.463914 ], [ -71.185716, 44.4613 ], [ -71.186417, 44.454276 ], [ -71.187765, 44.452422 ], [ -71.187579, 44.44982 ], [ -71.187247, 44.4495 ], [ -71.189124, 44.449448 ], [ -71.190455, 44.44946 ], [ -71.248783, 44.448533 ], [ -71.25064, 44.448532 ], [ -71.388879, 44.445176 ], [ -71.397622, 44.444963 ] ] ] } },
{ "type": "Feature", "properties": { "geoid": "33007950300", "county_name": "Coos County", "place_name": "Portsmouth", "state_name": "New Hampshire", "state_abbr": "NH", "is_rural": true, "dci_score": 65.2, "dci_quintile": 4.0, "is_cra_lmi": true, "income_level": "M", "is_persistent_poverty": false, "is_tribal_overlap": false, "tribal_area_name": null, "aian_pct": 0.0, "has_nmtc": true, "nmtc_projects": 1, "nmtc_total_usd": 3402000.0 }, "geometry": { "type": "Polygon", "coordinates": [ [ [ -71.360176, 44.795294 ], [ -71.353202, 44.82192 ], [ -71.344184, 44.856428 ], [ -71.342322, 44.863607 ], [ -71.319432, 44.872067 ], [ -71.318808, 44.875129 ], [ -71.308263, 44.914693 ], [ -71.295034, 44.965047 ], [ -71.29247, 44.964688 ], [ -71.290105, 44.973584 ], [ -71.22446, 44.96439 ], [ -71.188478, 44.959454 ], [ -71.152451, 44.95451 ], [ -71.148789, 44.970089 ], [ -71.101317, 44.972462 ], [ -71.056637, 44.97301 ], [ -71.055851758204398, 44.973068477021997 ], [ -71.052707, 44.93084 ], [ -71.049434503081002, 44.8960076580886 ], [ -71.046347914526805, 44.863154118262003 ], [ -71.044646, 44.845039 ], [ -71.043342081623194, 44.828679287839698 ], [ -71.039291847429695, 44.777862713149901 ], [ -71.037518, 44.755607 ], [ -71.036705, 44.736498 ], [ -71.034849536966405, 44.709958591135099 ], [ -71.031055978432605, 44.655697849119598 ], [ -71.031039, 44.655455 ], [ -71.029047341493296, 44.611248722021799 ], [ -71.026655, 44.558149 ], [ -71.022992, 44.500058 ], [ -71.020773, 44.473737 ], [ -71.018885122995002, 44.440367988774902 ], [ -71.161666, 44.438178 ], [ -71.162034, 44.449846 ], [ -71.154193, 44.465642 ], [ -71.146613, 44.481043 ], [ -71.124528, 44.52707 ], [ -71.123947, 44.528039 ], [ -71.156572, 44.528054 ], [ -71.164129, 44.527787 ], [ -71.238408, 44.526589 ], [ -71.288701, 44.525178 ], [ -71.288823, 44.525194 ], [ -71.356681, 44.523568 ], [ -71.332526, 44.570358 ], [ -71.316091, 44.603645 ], [ -71.318442, 44.603546 ], [ -71.322179, 44.63813 ], [ -71.325568, 44.637863 ], [ -71.327017, 44.652213 ], [ -71.323462, 44.652618 ], [ -71.323934, 44.661735 ], [ -71.325277, 44.705306 ], [ -71.327795, 44.781729 ], [ -71.36309, 44.784438 ], [ -71.360176, 44.795294 ] ] ] } },
{ "type": "Feature", "properties": { "geoid": "33005971600", "county_name": "Cheshire County", "place_name": null, "state_name": "New Hampshire", "state_abbr": "NH", "is_rural": true, "dci_score": 43.3, "dci_quintile": 5.0, "is_cra_lmi": true, "income_level": "M", "is_persistent_poverty": false, "is_tribal_overlap": false, "tribal_area_name": null, "aian_pct": 0.0, "has_nmtc": false, "nmtc_projects": 0, "nmtc_total_usd": 0.0 }, "geometry": { "type": "Polygon", "coordinates": [ [ [ -72.557247, 42.853019 ], [ -72.556270395012007, 42.855292562325303 ], [ -72.555057030600906, 42.858117306869602 ], [ -72.497498, 42.854208 ], [ -72.479919, 42.853205 ], [ -72.477275, 42.85307 ], [ -72.465619, 42.796502 ], [ -72.46497, 42.79335 ], [ -72.464561, 42.791357 ], [ -72.451195743325101, 42.726631390482702 ], [ -72.458519, 42.726853 ], [ -72.458488, 42.729094 ], [ -72.461001, 42.733209 ], [ -72.467827, 42.741209 ], [ -72.473071, 42.745916 ], [ -72.474723, 42.750729 ], [ -72.475938, 42.757702 ], [ -72.477615, 42.761245 ], [ -72.479354, 42.763119 ], [ -72.484878, 42.76554 ], [ -72.4864, 42.76698 ], [ -72.487767, 42.76938 ], [ -72.491122, 42.772465 ], [ -72.495343, 42.773286 ], [ -72.497949, 42.772918 ], [ -72.498786, 42.771981 ], [ -72.499249, 42.769054 ], [ -72.50069, 42.767657 ], [ -72.507985, 42.764414 ], [ -72.510871, 42.763752 ], [ -72.513105, 42.763822 ], [ -72.516082, 42.765949 ], [ -72.516731, 42.76867 ], [ -72.514836, 42.771436 ], [ -72.510154, 42.773221 ], [ -72.508372, 42.77461 ], [ -72.508048, 42.776885 ], [ -72.508858, 42.779919 ], [ -72.511746, 42.784114 ], [ -72.511753056352504, 42.7841216667994 ], [ -72.515838, 42.78856 ], [ -72.518354, 42.790651 ], [ -72.525930308158294, 42.795707934293198 ], [ -72.5396, 42.804832 ], [ -72.54146, 42.808948 ], [ -72.542616, 42.816702 ], [ -72.543815, 42.819001 ], [ -72.544773, 42.820468 ], [ -72.5454185789212, 42.824294640234697 ], [ -72.545669, 42.825779 ], [ -72.546050090642396, 42.827814628935997 ], [ -72.547244, 42.834192 ], [ -72.547402, 42.837587 ], [ -72.54855, 42.842021 ], [ -72.553426, 42.846709 ], [ -72.556282382898104, 42.851426031166497 ], [ -72.556576630203395, 42.851911951212699 ], [ -72.557247, 42.853019 ] ] ] } },
{ "type": "Feature", "properties": { "geoid": "33011010202", "county_name": "Hillsborough County", "place_name": "Keene", "state_name": "New Hampshire", "state_abbr": "NH", "is_rural": false, "dci_score": 14.7, "dci_quintile": 5.0, "is_cra_lmi": false, "income_level": "U", "is_persistent_poverty": false, "is_tribal_overlap": false, "tribal_area_name": null, "aian_pct": 0.0, "has_nmtc": false, "nmtc_projects": 0, "nmtc_total_usd": 0.0 }, "geometry": { "type": "Polygon", "coordinates": [ [ [ -71.561109, 42.789318 ], [ -71.55621, 42.792332 ], [ -71.553769, 42.79559 ], [ -71.552104, 42.796382 ], [ -71.550565, 42.799046 ], [ -71.548688, 42.799541 ], [ -71.548886, 42.800092 ], [ -71.549008, 42.801228 ], [ -71.546674, 42.80286 ], [ -71.544156, 42.802929 ], [ -71.54337, 42.804134 ], [ -71.543143, 42.804197 ], [ -71.543423, 42.805805 ], [ -71.540311, 42.805057 ], [ -71.539502, 42.803135 ], [ -71.538083, 42.803532 ], [ -71.535611, 42.802181 ], [ -71.533779, 42.801876 ], [ -71.531369, 42.802669 ], [ -71.529034, 42.802616 ], [ -71.525677, 42.800488 ], [ -71.523861, 42.8009 ], [ -71.522427, 42.802189 ], [ -71.515623, 42.800783 ], [ -71.516156, 42.798853 ], [ -71.516764, 42.797143 ], [ -71.523317, 42.79305 ], [ -71.516889, 42.789639 ], [ -71.510049, 42.785472 ], [ -71.503319, 42.782519 ], [ -71.498757, 42.779445 ], [ -71.492846, 42.77666 ], [ -71.49272, 42.775024 ], [ -71.492869, 42.773091 ], [ -71.492937, 42.772628 ], [ -71.506064, 42.775728 ], [ -71.506648, 42.775727 ], [ -71.511239, 42.774301 ], [ -71.515988, 42.772967 ], [ -71.520415, 42.77221 ], [ -71.525668, 42.773241 ], [ -71.527264, 42.776173 ], [ -71.529263, 42.775608 ], [ -71.531613, 42.78027 ], [ -71.538586, 42.778485 ], [ -71.552243, 42.777035 ], [ -71.55119, 42.778485 ], [ -71.547345, 42.781674 ], [ -71.548047, 42.784947 ], [ -71.550321, 42.784474 ], [ -71.552716, 42.785389 ], [ -71.554242, 42.786762 ], [ -71.557874, 42.785763 ], [ -71.559003, 42.787518 ], [ -71.5612, 42.788741 ], [ -71.561109, 42.789318 ] ] ] } },
{ "type": "Feature", "properties": { "geoid": "33011010700", "county_name": "Hillsborough County", "place_name": null, "state_name": "New Hampshire", "state_abbr": "NH", "is_rural": false, "dci_score": 70.8, "dci_quintile": 3.0, "is_cra_lmi": true, "income_level": "L", "is_persistent_poverty": false, "is_tribal_overlap": false, "tribal_area_name": null, "aian_pct": 0.0, "has_nmtc": true, "nmtc_projects": 1, "nmtc_total_usd": 4000000.0 }, "geometry": { "type": "Polygon", "coordinates": [ [ [ -71.469045, 42.760218 ], [ -71.466236, 42.762882 ], [ -71.464572, 42.762037 ], [ -71.462968, 42.762977 ], [ -71.460819, 42.758504 ], [ -71.458189, 42.759015 ], [ -71.457263, 42.75379 ], [ -71.456784, 42.753128 ], [ -71.45499, 42.751012 ], [ -71.456808, 42.749637 ], [ -71.458067, 42.749593 ], [ -71.460371, 42.749653 ], [ -71.460399, 42.749734 ], [ -71.461654, 42.75289 ], [ -71.463119, 42.752393 ], [ -71.464771, 42.75598 ], [ -71.465505, 42.757499 ], [ -71.467097, 42.757117 ], [ -71.468364, 42.75939 ], [ -71.46887, 42.759084 ], [ -71.469045, 42.760218 ] ] ] } },
{ "type": "Feature", "properties": { "geoid": "33011002400", "county_name": "Hillsborough County", "place_name": null, "state_name": "New Hampshire", "state_abbr": "NH", "is_rural": false, "dci_score": 73.6, "dci_quintile": 3.0, "is_cra_lmi": true, "income_level": "M", "is_persistent_poverty": false, "is_tribal_overlap": false, "tribal_area_name": null, "aian_pct": 0.0, "has_nmtc": false, "nmtc_projects": 0, "nmtc_total_usd": 0.0 }, "geometry": { "type": "Polygon", "coordinates": [ [ [ -71.474837, 42.969229 ], [ -71.471796, 42.97414 ], [ -71.470105, 42.973545 ], [ -71.471535, 42.970791 ], [ -71.472384, 42.9673 ], [ -71.466636, 42.968051 ], [ -71.467149, 42.971065 ], [ -71.465865, 42.973538 ], [ -71.464366, 42.973681 ], [ -71.463061, 42.973695 ], [ -71.460395, 42.973679 ], [ -71.458743, 42.973233 ], [ -71.453152, 42.965042 ], [ -71.452697, 42.964489 ], [ -71.451302, 42.962438 ], [ -71.450362, 42.960929 ], [ -71.446837, 42.956528 ], [ -71.444669, 42.954126 ], [ -71.450086, 42.952149 ], [ -71.454255, 42.94931 ], [ -71.456297, 42.948313 ], [ -71.460649, 42.947328 ], [ -71.46261, 42.94948 ], [ -71.464487, 42.950647 ], [ -71.467204, 42.951639 ], [ -71.471308, 42.954317 ], [ -71.4723, 42.955889 ], [ -71.472987, 42.958765 ], [ -71.475855, 42.966472 ], [ -71.474837, 42.969229 ] ] ] } },
{ "type": "Feature", "properties": { "geoid": "33011001400", "county_name": "Hillsborough County", "place_name": null, "state_name": "New Hampshire", "state_abbr": "NH", "is_rural": false, "dci_score": 74.6, "dci_quintile": 3.0, "is_cra_lmi": true, "income_level": "L", "is_persistent_poverty": false, "is_tribal_overlap": false, "tribal_area_name": null, "aian_pct": 0.0, "has_nmtc": false, "nmtc_projects": 0, "nmtc_total_usd": 0.0 }, "geometry": { "type": "Polygon", "coordinates": [ [ [ -71.463047, 42.985055 ], [ -71.460682, 42.98506 ], [ -71.460675, 42.987219 ], [ -71.460692, 42.989348 ], [ -71.460656, 42.993595 ], [ -71.460925, 42.995015 ], [ -71.457754, 42.995337 ], [ -71.457429, 42.993589 ], [ -71.457394, 42.990959 ], [ -71.457407, 42.989377 ], [ -71.457417, 42.987302 ], [ -71.457401, 42.981349 ], [ -71.461946, 42.98135 ], [ -71.463036, 42.98135 ], [ -71.463047, 42.985055 ] ] ] } },
{ "type": "Feature", "properties": { "geoid": "33011001800", "county_name": "Hillsborough County", "place_name": null, "state_name": "New Hampshire", "state_abbr": "NH", "is_rural": false, "dci_score": 72.0, "dci_quintile": 3.0, "is_cra_lmi": false, "income_level": "U", "is_persistent_poverty": false, "is_tribal_overlap": false, "tribal_area_name": null, "aian_pct": 0.0, "has_nmtc": false, "nmtc_projects": 0, "nmtc_total_usd": 0.0 }, "geometry": { "type": "Polygon", "coordinates": [ [ [ -71.455416, 42.973783 ], [ -71.453004, 42.973782 ], [ -71.452977, 42.976481 ], [ -71.450734, 42.976486 ], [ -71.448204, 42.977369 ], [ -71.448212, 42.98134 ], [ -71.444992, 42.981337 ], [ -71.43812, 42.981339 ], [ -71.434474, 42.981355 ], [ -71.431522, 42.980261 ], [ -71.431305, 42.979639 ], [ -71.429786, 42.976726 ], [ -71.428921, 42.975417 ], [ -71.427421, 42.97396 ], [ -71.435837, 42.973102 ], [ -71.438112, 42.973389 ], [ -71.439233, 42.973523 ], [ -71.444982, 42.973186 ], [ -71.446337, 42.973096 ], [ -71.455409, 42.972743 ], [ -71.455416, 42.973783 ] ] ] } },
{ "type": "Feature", "properties": { "geoid": "33007950600", "county_name": "Coos County", "place_name": null, "state_name": "New Hampshire", "state_abbr": "NH", "is_rural": true, "dci_score": 97.6, "dci_quintile": 1.0, "is_cra_lmi": false, "income_level": "U", "is_persistent_poverty": false, "is_tribal_overlap": false, "tribal_area_name": null, "aian_pct": 0.0, "has_nmtc": true, "nmtc_projects": 2, "nmtc_total_usd": 15171967.0 }, "geometry": { "type": "Polygon", "coordinates": [ [ [ -71.187765, 44.452422 ], [ -71.186417, 44.454276 ], [ -71.185716, 44.4613 ], [ -71.184821, 44.463914 ], [ -71.182559, 44.46504 ], [ -71.178513, 44.469122 ], [ -71.181049, 44.47107 ], [ -71.180078, 44.471796 ], [ -71.182324, 44.474311 ], [ -71.17782, 44.476205 ], [ -71.175422, 44.474374 ], [ -71.174189, 44.47456 ], [ -71.170672, 44.476119 ], [ -71.170193, 44.479116 ], [ -71.167702, 44.482506 ], [ -71.167368, 44.485236 ], [ -71.163182, 44.492215 ], [ -71.162809, 44.494719 ], [ -71.159863, 44.503236 ], [ -71.159356, 44.507088 ], [ -71.158623, 44.509602 ], [ -71.160407, 44.515671 ], [ -71.15999, 44.518809 ], [ -71.162353, 44.525107 ], [ -71.164129, 44.527787 ], [ -71.156572, 44.528054 ], [ -71.123947, 44.528039 ], [ -71.124528, 44.52707 ], [ -71.146613, 44.481043 ], [ -71.154193, 44.465642 ], [ -71.162034, 44.449846 ], [ -71.187247, 44.4495 ], [ -71.187579, 44.44982 ], [ -71.187765, 44.452422 ] ] ] } },
{ "type": "Feature", "properties": { "geoid": "33007950200", "county_name": "Coos County", "place_name": null, "state_name": "New Hampshire", "state_abbr": "NH", "is_rural": true, "dci_score": 89.1, "dci_quintile": 2.0, "is_cra_lmi": true, "income_level": "M", "is_persistent_poverty": false, "is_tribal_overlap": false, "tribal_area_name": null, "aian_pct": 0.0, "has_nmtc": false, "nmtc_projects": 0, "nmtc_total_usd": 0.0 }, "geometry": { "type": "Polygon", "coordinates": [ [ [ -71.602229414466905, 44.771022732752101 ], [ -71.601471, 44.772067 ], [ -71.595099, 44.775405 ], [ -71.595164, 44.780152 ], [ -71.592486, 44.782669 ], [ -71.584177, 44.784794 ], [ -71.57972, 44.784725 ], [ -71.571315, 44.793339 ], [ -71.573129, 44.797947 ], [ -71.571888, 44.801415 ], [ -71.56877, 44.805722 ], [ -71.568672, 44.807457 ], [ -71.574135, 44.81162 ], [ -71.57605, 44.812429 ], [ -71.576865, 44.815197 ], [ -71.57489, 44.818109 ], [ -71.573456, 44.820644 ], [ -71.568404, 44.822703 ], [ -71.564533, 44.823548 ], [ -71.562353, 44.823282 ], [ -71.561496503264607, 44.824359008540803 ], [ -71.560811, 44.825221 ], [ -71.556923, 44.834201 ], [ -71.553328, 44.835164 ], [ -71.551114, 44.836965 ], [ -71.550647, 44.838499 ], [ -71.551424, 44.84216 ], [ -71.555482, 44.847006 ], [ -71.555656, 44.849118 ], [ -71.553217, 44.851858 ], [ -71.548358, 44.854686 ], [ -71.547516, 44.856747 ], [ -71.549747, 44.859696 ], [ -71.549741, 44.861458 ], [ -71.545525, 44.866127 ], [ -71.539286, 44.86863 ], [ -71.53433, 44.869465 ], [ -71.528751, 44.873494 ], [ -71.528889, 44.876928 ], [ -71.527343, 44.878277 ], [ -71.523349, 44.87919 ], [ -71.521979803135693, 44.880350093577498 ], [ -71.521915, 44.880405 ], [ -71.518745, 44.884806 ], [ -71.515641, 44.885371 ], [ -71.510669, 44.89043 ], [ -71.51409, 44.893149 ], [ -71.5132, 44.894785 ], [ -71.508642, 44.897703 ], [ -71.504963272717504, 44.9006947611892 ], [ -71.502473, 44.90272 ], [ -71.501088, 44.904433 ], [ -71.499528, 44.904774 ], [ -71.497841, 44.904342 ], [ -71.496609, 44.903603 ], [ -71.495793, 44.903728 ], [ -71.495378, 44.903621 ], [ -71.49491, 44.904299 ], [ -71.494835, 44.905919 ], [ -71.495951, 44.90736 ], [ -71.496017, 44.908898 ], [ -71.494716, 44.910102 ], [ -71.493082, 44.910394 ], [ -71.493268947812595, 44.911204328952898 ], [ -71.493363, 44.911612 ], [ -71.494403, 44.911837 ], [ -71.495326, 44.911794 ], [ -71.498926, 44.910917 ], [ -71.499945, 44.911174 ], [ -71.500548, 44.911956 ], [ -71.500552, 44.913089 ], [ -71.500788, 44.914535 ], [ -71.504483, 44.919062 ], [ -71.509207, 44.923429 ], [ -71.515437, 44.926923 ], [ -71.515605, 44.927992 ], [ -71.51345, 44.928808 ], [ -71.517077, 44.935876 ], [ -71.520128, 44.93664 ], [ -71.523048, 44.939258 ], [ -71.522441, 44.940289 ], [ -71.521127, 44.940357 ], [ -71.520107, 44.939009 ], [ -71.517983, 44.938745 ], [ -71.516183, 44.939862 ], [ -71.515351695665402, 44.942719691780702 ], [ -71.494875, 44.940386 ], [ -71.494678, 44.940385 ], [ -71.308263, 44.914693 ], [ -71.318808, 44.875129 ], [ -71.319432, 44.872067 ], [ -71.342322, 44.863607 ], [ -71.344184, 44.856428 ], [ -71.353202, 44.82192 ], [ -71.360176, 44.795294 ], [ -71.444421, 44.786856 ], [ -71.557568, 44.775427 ], [ -71.602026, 44.770875 ], [ -71.602229414466905, 44.771022732752101 ] ] ] } },
{ "type": "Feature", "properties": { "geoid": "33007950400", "county_name": "Coos County", "place_name": null, "state_name": "New Hampshire", "state_abbr": "NH", "is_rural": true, "dci_score": 86.6, "dci_quintile": 2.0, "is_cra_lmi": true, "income_level": "M", "is_persistent_poverty": false, "is_tribal_overlap": false, "tribal_area_name": null, "aian_pct": 0.0, "has_nmtc": false, "nmtc_projects": 0, "nmtc_total_usd": 0.0 }, "geometry": { "type": "Polygon", "coordinates": [ [ [ -71.631883, 44.752463 ], [ -71.630257, 44.753475 ], [ -71.625482, 44.753788 ], [ -71.621157, 44.755772 ], [ -71.616669, 44.756299 ], [ -71.612856, 44.758998 ], [ -71.611767, 44.764345 ], [ -71.610179, 44.765584 ], [ -71.604615, 44.767738 ], [ -71.602229414466905, 44.771022732752101 ], [ -71.602026, 44.770875 ], [ -71.557568, 44.775427 ], [ -71.444421, 44.786856 ], [ -71.360176, 44.795294 ], [ -71.36309, 44.784438 ], [ -71.327795, 44.781729 ], [ -71.325277, 44.705306 ], [ -71.323934, 44.661735 ], [ -71.323462, 44.652618 ], [ -71.327017, 44.652213 ], [ -71.325568, 44.637863 ], [ -71.322179, 44.63813 ], [ -71.318442, 44.603546 ], [ -71.316091, 44.603645 ], [ -71.332526, 44.570358 ], [ -71.428247, 44.531747 ], [ -71.427804, 44.522851 ], [ -71.437463, 44.518922 ], [ -71.445502, 44.515695 ], [ -71.467555, 44.506791 ], [ -71.467707, 44.508927 ], [ -71.476237, 44.508851 ], [ -71.476115, 44.504235 ], [ -71.491344, 44.509799 ], [ -71.536713, 44.526943 ], [ -71.568789, 44.537783 ], [ -71.571662, 44.538743 ], [ -71.5722259660226, 44.5384432380501 ], [ -71.574445, 44.540635 ], [ -71.580519, 44.54451 ], [ -71.587324, 44.547425 ], [ -71.597135, 44.553849 ], [ -71.598116, 44.555412 ], [ -71.597797, 44.557172 ], [ -71.596137, 44.560898 ], [ -71.593625, 44.563702 ], [ -71.591521, 44.565155 ], [ -71.587664, 44.565798 ], [ -71.574125, 44.564507 ], [ -71.569599, 44.562777 ], [ -71.56207, 44.563172 ], [ -71.559049, 44.564446 ], [ -71.558469, 44.566116 ], [ -71.558985, 44.568779 ], [ -71.557838, 44.570268 ], [ -71.556802146984694, 44.570276358468099 ], [ -71.556103, 44.570282 ], [ -71.552826, 44.569209 ], [ -71.549374, 44.569641 ], [ -71.547726, 44.571381 ], [ -71.548168, 44.572676 ], [ -71.552243, 44.575447 ], [ -71.553891, 44.577629 ], [ -71.554883, 44.579628 ], [ -71.554444, 44.581336 ], [ -71.55194, 44.581378 ], [ -71.550594, 44.580389 ], [ -71.549405, 44.578171 ], [ -71.546533, 44.577819 ], [ -71.544491, 44.578476 ], [ -71.540463, 44.580841 ], [ -71.537381, 44.583359 ], [ -71.537182, 44.585259 ], [ -71.535397, 44.587113 ], [ -71.535584114332593, 44.5873389686748 ], [ -71.535946, 44.587776 ], [ -71.538449, 44.587479 ], [ -71.540051, 44.588524 ], [ -71.539878, 44.589969 ], [ -71.537976, 44.592018 ], [ -71.538274, 44.593524 ], [ -71.540175, 44.59327 ], [ -71.543918, 44.590985 ], [ -71.545939, 44.590604 ], [ -71.547424, 44.591831 ], [ -71.545463, 44.594624 ], [ -71.545055, 44.596773 ], [ -71.546087, 44.597377 ], [ -71.547253, 44.59684 ], [ -71.549146, 44.594994 ], [ -71.553372, 44.593171 ], [ -71.555402, 44.593842 ], [ -71.554211, 44.595352 ], [ -71.554151, 44.597961 ], [ -71.550634, 44.599591 ], [ -71.550331, 44.600896 ], [ -71.551562, 44.601227 ], [ -71.557279, 44.599381 ], [ -71.560421, 44.599769 ], [ -71.5622, 44.601592 ], [ -71.561903, 44.603128 ], [ -71.558563, 44.603276 ], [ -71.555233, 44.604034 ], [ -71.55386, 44.605598 ], [ -71.553616, 44.608299 ], [ -71.5556, 44.614326 ], [ -71.556531, 44.619575 ], [ -71.555801, 44.622699 ], [ -71.555062, 44.624185 ], [ -71.55415, 44.625419 ], [ -71.550442, 44.62313 ], [ -71.546948, 44.622123 ], [ -71.545978, 44.623118 ], [ -71.547756, 44.625007 ], [ -71.54971, 44.625129 ], [ -71.552945, 44.626747 ], [ -71.556467, 44.627221 ], [ -71.55735, 44.628448 ], [ -71.554837, 44.629631 ], [ -71.551128, 44.627755 ], [ -71.546931, 44.62855 ], [ -71.547226, 44.630355 ], [ -71.54951, 44.630903 ], [ -71.55214, 44.630082 ], [ -71.555791, 44.632047 ], [ -71.559554, 44.634964 ], [ -71.563279, 44.636648 ], [ -71.563599, 44.639049 ], [ -71.559704, 44.639298 ], [ -71.557866, 44.641218 ], [ -71.558068096115505, 44.641874374938098 ], [ -71.55879, 44.644219 ], [ -71.561667, 44.646822 ], [ -71.562806, 44.652356 ], [ -71.565076, 44.653796 ], [ -71.567053, 44.653349 ], [ -71.567708, 44.651536 ], [ -71.569025, 44.65029 ], [ -71.571626, 44.649897 ], [ -71.57881, 44.650982 ], [ -71.579419, 44.652309 ], [ -71.576098, 44.652762 ], [ -71.57449, 44.654832 ], [ -71.5766, 44.656189 ], [ -71.581315, 44.65545 ], [ -71.585748, 44.6579 ], [ -71.587365, 44.659715 ], [ -71.587237552770802, 44.6610581564277 ], [ -71.587198, 44.661475 ], [ -71.58511, 44.663112 ], [ -71.585157, 44.666057 ], [ -71.587339, 44.66877 ], [ -71.586965, 44.67047 ], [ -71.582027, 44.672018 ], [ -71.581463, 44.673204 ], [ -71.582502, 44.674246 ], [ -71.586162, 44.67435 ], [ -71.596089, 44.677637 ], [ -71.596623, 44.679056 ], [ -71.594208, 44.68144 ], [ -71.594224, 44.683815 ], [ -71.596437, 44.687059 ], [ -71.597955, 44.691767 ], [ -71.596497, 44.694609 ], [ -71.593802, 44.695632 ], [ -71.594136, 44.696932 ], [ -71.598656, 44.698005 ], [ -71.600496, 44.698737 ], [ -71.600975, 44.699934 ], [ -71.598792, 44.703274 ], [ -71.6001, 44.705999 ], [ -71.603948, 44.707583 ], [ -71.607551, 44.712317 ], [ -71.612512, 44.716673 ], [ -71.612548, 44.719186 ], [ -71.618732, 44.722471 ], [ -71.617038, 44.72825 ], [ -71.619079, 44.729035 ], [ -71.622234, 44.727538 ], [ -71.625038, 44.727708 ], [ -71.626248, 44.72904 ], [ -71.625013, 44.736299 ], [ -71.626166, 44.739864 ], [ -71.625148, 44.74275 ], [ -71.626986, 44.747014 ], [ -71.63106, 44.748509 ], [ -71.632043, 44.750269 ], [ -71.631883, 44.752463 ] ] ] } },
{ "type": "Feature", "properties": { "geoid": "33015055002", "county_name": "Rockingham County", "place_name": null, "state_name": "New Hampshire", "state_abbr": "NH", "is_rural": true, "dci_score": 20.6, "dci_quintile": 5.0, "is_cra_lmi": true, "income_level": "M", "is_persistent_poverty": false, "is_tribal_overlap": false, "tribal_area_name": null, "aian_pct": 0.0, "has_nmtc": false, "nmtc_projects": 0, "nmtc_total_usd": 0.0 }, "geometry": { "type": "Polygon", "coordinates": [ [ [ -71.223544, 43.074464 ], [ -71.222512, 43.07724 ], [ -71.222898, 43.078761 ], [ -71.212954, 43.076981 ], [ -71.16777, 43.069111 ], [ -71.130921, 43.062539 ], [ -71.14092, 43.041633 ], [ -71.149668, 43.023333 ], [ -71.15526, 43.020503 ], [ -71.160948, 43.021314 ], [ -71.163931, 43.023281 ], [ -71.165535, 43.023043 ], [ -71.166348, 43.026417 ], [ -71.168185, 43.024694 ], [ -71.166803, 43.018828 ], [ -71.172607, 43.017741 ], [ -71.176136, 43.01853 ], [ -71.179316, 43.018179 ], [ -71.18384, 43.018653 ], [ -71.195228, 43.022567 ], [ -71.195888, 43.029174 ], [ -71.195943, 43.029694 ], [ -71.195891, 43.030257 ], [ -71.195661, 43.030807 ], [ -71.196602, 43.030776 ], [ -71.19719, 43.03181 ], [ -71.197321, 43.033655 ], [ -71.197309, 43.034609 ], [ -71.19089, 43.038264 ], [ -71.190468, 43.039065 ], [ -71.190579, 43.039656 ], [ -71.195809, 43.039126 ], [ -71.201135, 43.041424 ], [ -71.204985, 43.044647 ], [ -71.208496, 43.048998 ], [ -71.211952, 43.051295 ], [ -71.213422, 43.054212 ], [ -71.214653, 43.055241 ], [ -71.219674, 43.05725 ], [ -71.221265, 43.058613 ], [ -71.222236, 43.060663 ], [ -71.22253, 43.064708 ], [ -71.224115, 43.07063 ], [ -71.223544, 43.074464 ] ] ] } },
{ "type": "Feature", "properties": { "geoid": "33001965900", "county_name": "Belknap County", "place_name": null, "state_name": "New Hampshire", "state_abbr": "NH", "is_rural": true, "dci_score": 67.5, "dci_quintile": 4.0, "is_cra_lmi": true, "income_level": "M", "is_persistent_poverty": false, "is_tribal_overlap": false, "tribal_area_name": null, "aian_pct": 0.0, "has_nmtc": false, "nmtc_projects": 0, "nmtc_total_usd": 0.0 }, "geometry": { "type": "Polygon", "coordinates": [ [ [ -71.470965, 43.529258 ], [ -71.467664, 43.530564 ], [ -71.467212, 43.530714 ], [ -71.463931, 43.531836 ], [ -71.463138, 43.532842 ], [ -71.461642, 43.532879 ], [ -71.45892, 43.533144 ], [ -71.451589, 43.531399 ], [ -71.449991, 43.53125 ], [ -71.450507, 43.52975 ], [ -71.453392, 43.521394 ], [ -71.448182, 43.520992 ], [ -71.443422, 43.520628 ], [ -71.448796, 43.50411 ], [ -71.451303, 43.500903 ], [ -71.461383, 43.506216 ], [ -71.459095, 43.511969 ], [ -71.459018, 43.514032 ], [ -71.45991, 43.515474 ], [ -71.463921, 43.518303 ], [ -71.467142, 43.523273 ], [ -71.467568, 43.524166 ], [ -71.468528, 43.525653 ], [ -71.470965, 43.529258 ] ] ] } },
{ "type": "Feature", "properties": { "geoid": "33015065008", "county_name": "Rockingham County", "place_name": null, "state_name": "New Hampshire", "state_abbr": "NH", "is_rural": false, "dci_score": 34.8, "dci_quintile": 5.0, "is_cra_lmi": false, "income_level": "U", "is_persistent_poverty": false, "is_tribal_overlap": false, "tribal_area_name": null, "aian_pct": 0.0, "has_nmtc": false, "nmtc_projects": 0, "nmtc_total_usd": 0.0 }, "geometry": { "type": "Polygon", "coordinates": [ [ [ -70.852666, 42.924663 ], [ -70.846828, 42.929544 ], [ -70.840831, 42.932528 ], [ -70.830365, 42.926757 ], [ -70.824521, 42.923467 ], [ -70.823229, 42.922094 ], [ -70.821994, 42.920818 ], [ -70.814966, 42.915649 ], [ -70.813517, 42.915355 ], [ -70.812654, 42.915251 ], [ -70.808457719182499, 42.913135998334603 ], [ -70.808712, 42.912787 ], [ -70.810069, 42.909549 ], [ -70.810681, 42.906887 ], [ -70.810739696906595, 42.904208353748402 ], [ -70.810751921970805, 42.903650460252699 ], [ -70.810813293767595, 42.900849744793298 ], [ -70.810905194050093, 42.896655855173101 ], [ -70.810999, 42.892375 ], [ -70.812447097584695, 42.889320746025099 ], [ -70.817274, 42.893272 ], [ -70.819251, 42.894915 ], [ -70.822487, 42.897593 ], [ -70.822318, 42.904528 ], [ -70.823509, 42.906245 ], [ -70.833534, 42.912425 ], [ -70.83828, 42.912547 ], [ -70.838692, 42.912889 ], [ -70.83892, 42.91334 ], [ -70.83924, 42.914705 ], [ -70.839531, 42.915613 ], [ -70.840034, 42.915956 ], [ -70.840795, 42.915826 ], [ -70.841301, 42.91553 ], [ -70.84159, 42.91527 ], [ -70.842018, 42.914453 ], [ -70.842491, 42.913774 ], [ -70.843239, 42.913118 ], [ -70.844245, 42.912805 ], [ -70.844811, 42.912767 ], [ -70.845436, 42.912905 ], [ -70.846123, 42.913264 ], [ -70.851769, 42.921244 ], [ -70.854027, 42.923556 ], [ -70.852666, 42.924663 ] ] ] } },
{ "type": "Feature", "properties": { "geoid": "33013044300", "county_name": "Merrimack County", "place_name": null, "state_name": "New Hampshire", "state_abbr": "NH", "is_rural": true, "dci_score": 28.5, "dci_quintile": 5.0, "is_cra_lmi": false, "income_level": "U", "is_persistent_poverty": false, "is_tribal_overlap": false, "tribal_area_name": null, "aian_pct": 0.0, "has_nmtc": false, "nmtc_projects": 0, "nmtc_total_usd": 0.0 }, "geometry": { "type": "Polygon", "coordinates": [ [ [ -71.645104, 43.232016 ], [ -71.642894, 43.233077 ], [ -71.635271, 43.238122 ], [ -71.627846, 43.238657 ], [ -71.625624, 43.2393 ], [ -71.622422, 43.243114 ], [ -71.618569, 43.246979 ], [ -71.619268, 43.249296 ], [ -71.618142, 43.251349 ], [ -71.620662, 43.254524 ], [ -71.622589, 43.25803 ], [ -71.620978, 43.26181 ], [ -71.615904, 43.26273 ], [ -71.606286, 43.268822 ], [ -71.606071, 43.269142 ], [ -71.60627, 43.271232 ], [ -71.605571, 43.272974 ], [ -71.60001, 43.280114 ], [ -71.599535, 43.279558 ], [ -71.597931, 43.276343 ], [ -71.58946, 43.269883 ], [ -71.588344, 43.268581 ], [ -71.586473, 43.266345 ], [ -71.586425, 43.266284 ], [ -71.583576, 43.262872 ], [ -71.582162, 43.261202 ], [ -71.58184, 43.260815 ], [ -71.578272, 43.256554 ], [ -71.5773, 43.255376 ], [ -71.581015, 43.253932 ], [ -71.581778, 43.254716 ], [ -71.589522, 43.252182 ], [ -71.589552, 43.245992 ], [ -71.588119, 43.242614 ], [ -71.590101, 43.24197 ], [ -71.593076, 43.238063 ], [ -71.593082, 43.235892 ], [ -71.594134, 43.233432 ], [ -71.595949, 43.232099 ], [ -71.598252, 43.231481 ], [ -71.601766, 43.228883 ], [ -71.601924, 43.227215 ], [ -71.601893, 43.226727 ], [ -71.600015, 43.222946 ], [ -71.599476, 43.220106 ], [ -71.601188, 43.220569 ], [ -71.60475, 43.220054 ], [ -71.607384, 43.218931 ], [ -71.61324, 43.218278 ], [ -71.625793, 43.217284 ], [ -71.635118, 43.216063 ], [ -71.638663, 43.216086 ], [ -71.649748, 43.23203 ], [ -71.645104, 43.232016 ] ] ] } },
{ "type": "Feature", "properties": { "geoid": "33003955301", "county_name": "Carroll County", "place_name": null, "state_name": "New Hampshire", "state_abbr": "NH", "is_rural": true, "dci_score": 28.5, "dci_quintile": 5.0, "is_cra_lmi": true, "income_level": "M", "is_persistent_poverty": false, "is_tribal_overlap": false, "tribal_area_name": null, "aian_pct": 0.0, "has_nmtc": false, "nmtc_projects": 0, "nmtc_total_usd": 0.0 }, "geometry": { "type": "Polygon", "coordinates": [ [ [ -71.142681, 44.071229 ], [ -71.141913, 44.072951 ], [ -71.139276, 44.075279 ], [ -71.138774, 44.076817 ], [ -71.121775, 44.075158 ], [ -71.111707, 44.075262 ], [ -71.100238, 44.0753 ], [ -71.0983, 44.075082 ], [ -71.083694, 44.075254 ], [ -71.083709, 44.078641 ], [ -71.095596, 44.077802 ], [ -71.09767, 44.124142 ], [ -71.098434, 44.235454 ], [ -71.070357, 44.237537 ], [ -71.04228, 44.237514 ], [ -71.042112, 44.274943 ], [ -71.043668, 44.274928 ], [ -71.044385, 44.283778 ], [ -71.010271167868396, 44.284888321571998 ], [ -71.009587085490793, 44.273274308957397 ], [ -71.008736, 44.258825 ], [ -71.008764, 44.258443 ], [ -71.008567, 44.245491 ], [ -71.002161997775303, 44.1106192952439 ], [ -71.001335, 44.093205 ], [ -71.001367, 44.092931 ], [ -71.000045655021594, 44.069500294246303 ], [ -70.998444, 44.041099 ], [ -70.9975738927252, 44.021710301121203 ], [ -71.004309, 44.023863 ], [ -71.015816, 44.012067 ], [ -71.020375, 44.006986 ], [ -71.021, 44.005726 ], [ -71.023827, 44.003157 ], [ -71.027383, 44.002604 ], [ -71.03258, 44.000839 ], [ -71.037872, 44.001041 ], [ -71.045919, 44.003594 ], [ -71.048707, 44.007077 ], [ -71.049643, 44.009942 ], [ -71.052062, 44.012384 ], [ -71.053528, 44.013058 ], [ -71.055573, 44.012843 ], [ -71.061667, 44.010352 ], [ -71.072647, 44.009821 ], [ -71.081404, 44.006095 ], [ -71.085433, 44.005282 ], [ -71.088028, 44.006586 ], [ -71.093854, 44.009624 ], [ -71.097039, 44.01166 ], [ -71.10242, 44.016349 ], [ -71.103423, 44.017963 ], [ -71.10218, 44.018322 ], [ -71.110636, 44.044261 ], [ -71.11376, 44.045741 ], [ -71.116116, 44.046149 ], [ -71.123508, 44.044477 ], [ -71.124686, 44.044112 ], [ -71.124322, 44.046735 ], [ -71.12452, 44.048026 ], [ -71.125067, 44.049361 ], [ -71.128416, 44.053627 ], [ -71.129954, 44.055634 ], [ -71.137678, 44.059895 ], [ -71.141146, 44.062884 ], [ -71.143105, 44.067305 ], [ -71.142681, 44.071229 ] ] ] } },
{ "type": "Feature", "properties": { "geoid": "33017084301", "county_name": "Strafford County", "place_name": null, "state_name": "New Hampshire", "state_abbr": "NH", "is_rural": true, "dci_score": 59.9, "dci_quintile": 4.0, "is_cra_lmi": true, "income_level": "M", "is_persistent_poverty": false, "is_tribal_overlap": false, "tribal_area_name": null, "aian_pct": 0.0, "has_nmtc": false, "nmtc_projects": 0, "nmtc_total_usd": 0.0 }, "geometry": { "type": "Polygon", "coordinates": [ [ [ -70.979108, 43.296778 ], [ -70.975781, 43.296452 ], [ -70.975669, 43.29754 ], [ -70.980226, 43.299199 ], [ -70.978898, 43.301155 ], [ -70.97786, 43.302313 ], [ -70.980109, 43.305012 ], [ -70.980019, 43.305491 ], [ -70.978284, 43.304836 ], [ -70.975904, 43.304229 ], [ -70.973405, 43.305002 ], [ -70.973138, 43.304164 ], [ -70.971952, 43.304787 ], [ -70.965201, 43.303952 ], [ -70.96295, 43.303468 ], [ -70.960979, 43.302798 ], [ -70.953583, 43.298418 ], [ -70.954474, 43.298383 ], [ -70.954087, 43.297377 ], [ -70.95701, 43.294491 ], [ -70.963261, 43.297977 ], [ -70.969818, 43.291545 ], [ -70.970514, 43.29177 ], [ -70.972428, 43.289322 ], [ -70.973535, 43.282803 ], [ -70.97476, 43.28388 ], [ -70.974491, 43.290311 ], [ -70.976212, 43.288953 ], [ -70.977666, 43.292833 ], [ -70.980529, 43.295297 ], [ -70.979108, 43.296778 ] ] ] } },
{ "type": "Feature", "properties": { "geoid": "33009961101", "county_name": "Grafton County", "place_name": null, "state_name": "New Hampshire", "state_abbr": "NH", "is_rural": true, "dci_score": 50.2, "dci_quintile": 5.0, "is_cra_lmi": true, "income_level": "M", "is_persistent_poverty": false, "is_tribal_overlap": false, "tribal_area_name": null, "aian_pct": 0.0, "has_nmtc": false, "nmtc_projects": 0, "nmtc_total_usd": 0.0 }, "geometry": { "type": "Polygon", "coordinates": [ [ [ -71.677827, 43.742745 ], [ -71.67717, 43.747033 ], [ -71.642303, 43.74907 ], [ -71.627485, 43.737197 ], [ -71.609954, 43.724189 ], [ -71.581892, 43.705072 ], [ -71.581403, 43.691949 ], [ -71.621452, 43.687799 ], [ -71.642227, 43.685257 ], [ -71.648346, 43.684511 ], [ -71.647415, 43.687303 ], [ -71.64714, 43.690446 ], [ -71.649109, 43.694429 ], [ -71.654785, 43.699258 ], [ -71.656891, 43.702691 ], [ -71.654373, 43.7081 ], [ -71.654325, 43.709066 ], [ -71.654388, 43.711007 ], [ -71.65654, 43.71499 ], [ -71.658524, 43.717545 ], [ -71.659958, 43.719064 ], [ -71.659744, 43.724496 ], [ -71.661239, 43.726197 ], [ -71.661209, 43.728539 ], [ -71.663193, 43.730042 ], [ -71.667389, 43.73182 ], [ -71.668198, 43.734818 ], [ -71.670121, 43.736314 ], [ -71.674195, 43.737626 ], [ -71.677552, 43.740708 ], [ -71.677827, 43.742745 ] ] ] } },
{ "type": "Feature", "properties": { "geoid": "33009961201", "county_name": "Grafton County", "place_name": null, "state_name": "New Hampshire", "state_abbr": "NH", "is_rural": true, "dci_score": 51.8, "dci_quintile": 5.0, "is_cra_lmi": false, "income_level": "U", "is_persistent_poverty": false, "is_tribal_overlap": false, "tribal_area_name": null, "aian_pct": 0.0, "has_nmtc": false, "nmtc_projects": 0, "nmtc_total_usd": 0.0 }, "geometry": { "type": "Polygon", "coordinates": [ [ [ -71.77178, 43.626452 ], [ -71.763174, 43.628752 ], [ -71.755796, 43.627827 ], [ -71.752654, 43.626352 ], [ -71.747089, 43.624888 ], [ -71.744429, 43.624566 ], [ -71.741243, 43.621647 ], [ -71.740547, 43.619627 ], [ -71.736475, 43.615432 ], [ -71.73329, 43.619007 ], [ -71.732778, 43.621669 ], [ -71.732943, 43.623597 ], [ -71.736179, 43.628142 ], [ -71.735921, 43.63319 ], [ -71.707445, 43.644304 ], [ -71.700547, 43.635027 ], [ -71.688004, 43.639696 ], [ -71.681458, 43.630045 ], [ -71.676896, 43.631647 ], [ -71.673844, 43.627382 ], [ -71.675888, 43.626459 ], [ -71.6745, 43.624605 ], [ -71.658676, 43.631471 ], [ -71.656753, 43.631967 ], [ -71.656936, 43.630311 ], [ -71.654724, 43.628542 ], [ -71.652234, 43.623 ], [ -71.651153, 43.621119 ], [ -71.652724, 43.619847 ], [ -71.656265, 43.618021 ], [ -71.658402, 43.617594 ], [ -71.661743, 43.615984 ], [ -71.665054, 43.613573 ], [ -71.665497, 43.612505 ], [ -71.665268, 43.611246 ], [ -71.66304, 43.608042 ], [ -71.662827, 43.605997 ], [ -71.664581, 43.604449 ], [ -71.669083, 43.604883 ], [ -71.67041, 43.604571 ], [ -71.681275, 43.598139 ], [ -71.686188, 43.595553 ], [ -71.688096, 43.59495 ], [ -71.694337, 43.594683 ], [ -71.697709, 43.594294 ], [ -71.70334, 43.594614 ], [ -71.704576, 43.595362 ], [ -71.706194, 43.599261 ], [ -71.707704, 43.601023 ], [ -71.710222, 43.601084 ], [ -71.713286, 43.600544 ], [ -71.71657, 43.59878 ], [ -71.72014, 43.595225 ], [ -71.724993, 43.595805 ], [ -71.726977, 43.595545 ], [ -71.728121, 43.594904 ], [ -71.730623, 43.592615 ], [ -71.731533, 43.590716 ], [ -71.731493, 43.588496 ], [ -71.729486, 43.586813 ], [ -71.727755, 43.586039 ], [ -71.724611, 43.585657 ], [ -71.720293, 43.582804 ], [ -71.718508, 43.580668 ], [ -71.716066, 43.578768 ], [ -71.715715, 43.577898 ], [ -71.717516, 43.574641 ], [ -71.718538, 43.573649 ], [ -71.721498, 43.572459 ], [ -71.72481, 43.57059 ], [ -71.7251, 43.568888 ], [ -71.724214, 43.566371 ], [ -71.725755, 43.564432 ], [ -71.727573, 43.563411 ], [ -71.730517, 43.564738 ], [ -71.728472, 43.565509 ], [ -71.730547, 43.567729 ], [ -71.733797, 43.567614 ], [ -71.735995, 43.569315 ], [ -71.741618, 43.568568 ], [ -71.74341, 43.567591 ], [ -71.743121, 43.566012 ], [ -71.744845, 43.565219 ], [ -71.746386, 43.566493 ], [ -71.749545, 43.567614 ], [ -71.755481, 43.565447 ], [ -71.758746, 43.567141 ], [ -71.76102, 43.567729 ], [ -71.761538, 43.569308 ], [ -71.75072, 43.579508 ], [ -71.751732, 43.581517 ], [ -71.761017, 43.599937 ], [ -71.761741, 43.600968 ], [ -71.765394, 43.608247 ], [ -71.765437, 43.608729 ], [ -71.773717, 43.625238 ], [ -71.77178, 43.626452 ] ] ] } },
{ "type": "Feature", "properties": { "geoid": "33009961001", "county_name": "Grafton County", "place_name": null, "state_name": "New Hampshire", "state_abbr": "NH", "is_rural": true, "dci_score": 35.2, "dci_quintile": 5.0, "is_cra_lmi": true, "income_level": "M", "is_persistent_poverty": false, "is_tribal_overlap": false, "tribal_area_name": null, "aian_pct": 0.0, "has_nmtc": true, "nmtc_projects": 1, "nmtc_total_usd": 6400000.0 }, "geometry": { "type": "Polygon", "coordinates": [ [ [ -71.765231, 43.776436 ], [ -71.756851, 43.792636 ], [ -71.749321, 43.802437 ], [ -71.743731, 43.800545 ], [ -71.741824, 43.797958 ], [ -71.736987, 43.798065 ], [ -71.736422, 43.794251 ], [ -71.731905, 43.794541 ], [ -71.731264, 43.789986 ], [ -71.728319, 43.790222 ], [ -71.728136, 43.789017 ], [ -71.723223, 43.78949 ], [ -71.722948, 43.782608 ], [ -71.676879, 43.782362 ], [ -71.673096, 43.782356 ], [ -71.669419, 43.782746 ], [ -71.674149, 43.77726 ], [ -71.677781, 43.775376 ], [ -71.679474, 43.771874 ], [ -71.679566, 43.767907 ], [ -71.68069, 43.766539 ], [ -71.681718, 43.765725 ], [ -71.685875, 43.763657 ], [ -71.68628, 43.762444 ], [ -71.685662, 43.759949 ], [ -71.687347, 43.760037 ], [ -71.687777, 43.758135 ], [ -71.687786, 43.756997 ], [ -71.692337, 43.758242 ], [ -71.694379, 43.75876 ], [ -71.699765, 43.75926 ], [ -71.707909, 43.763057 ], [ -71.714021, 43.765281 ], [ -71.716275, 43.767535 ], [ -71.721406, 43.770341 ], [ -71.721811, 43.770828 ], [ -71.725536, 43.771299 ], [ -71.729798, 43.771264 ], [ -71.757474, 43.770811 ], [ -71.761574, 43.77028 ], [ -71.765031, 43.7722 ], [ -71.763005, 43.776135 ], [ -71.765231, 43.776436 ] ] ] } },
{ "type": "Feature", "properties": { "geoid": "33015003400", "county_name": "Rockingham County", "place_name": null, "state_name": "New Hampshire", "state_abbr": "NH", "is_rural": false, "dci_score": 35.5, "dci_quintile": 5.0, "is_cra_lmi": true, "income_level": "M", "is_persistent_poverty": false, "is_tribal_overlap": false, "tribal_area_name": null, "aian_pct": 0.0, "has_nmtc": true, "nmtc_projects": 1, "nmtc_total_usd": 1339940.0 }, "geometry": { "type": "Polygon", "coordinates": [ [ [ -71.336986, 42.899131 ], [ -71.33257, 42.897839 ], [ -71.32759, 42.894023 ], [ -71.327195, 42.893488 ], [ -71.326239, 42.894362 ], [ -71.322166, 42.898838 ], [ -71.317965, 42.902908 ], [ -71.314539, 42.904237 ], [ -71.309286, 42.905118 ], [ -71.305604, 42.909115 ], [ -71.304044, 42.910018 ], [ -71.302011, 42.910061 ], [ -71.302675, 42.908301 ], [ -71.298306, 42.90078 ], [ -71.296003, 42.894263 ], [ -71.299069, 42.895003 ], [ -71.30443, 42.893213 ], [ -71.312049, 42.892261 ], [ -71.316216, 42.888373 ], [ -71.319534, 42.886157 ], [ -71.322253, 42.883022 ], [ -71.324167, 42.881986 ], [ -71.326276, 42.880826 ], [ -71.326403, 42.88076 ], [ -71.331458, 42.87809 ], [ -71.335745, 42.87462 ], [ -71.336913, 42.883628 ], [ -71.338991, 42.899247 ], [ -71.336986, 42.899131 ] ] ] } },
{ "type": "Feature", "properties": { "geoid": "33019975901", "county_name": "Sullivan County", "place_name": null, "state_name": "New Hampshire", "state_abbr": "NH", "is_rural": true, "dci_score": 79.7, "dci_quintile": 3.0, "is_cra_lmi": false, "income_level": "U", "is_persistent_poverty": false, "is_tribal_overlap": false, "tribal_area_name": null, "aian_pct": 0.0, "has_nmtc": true, "nmtc_projects": 1, "nmtc_total_usd": 5035853.0 }, "geometry": { "type": "Polygon", "coordinates": [ [ [ -72.401542269708202, 43.4036867763106 ], [ -72.400131, 43.410997 ], [ -72.399972, 43.415249 ], [ -72.396503984753394, 43.428694399347499 ], [ -72.396439728308394, 43.428943519810403 ], [ -72.391585, 43.428424 ], [ -72.375951, 43.427746 ], [ -72.325569, 43.425736 ], [ -72.269503, 43.423725 ], [ -72.268952, 43.375073 ], [ -72.268831, 43.374529 ], [ -72.268608, 43.367465 ], [ -72.271166, 43.367152 ], [ -72.284748, 43.364107 ], [ -72.28804, 43.363737 ], [ -72.290769, 43.364012 ], [ -72.300215, 43.365833 ], [ -72.30243, 43.365817 ], [ -72.303634, 43.365391 ], [ -72.308583, 43.362026 ], [ -72.310751, 43.361427 ], [ -72.312527, 43.361606 ], [ -72.317226, 43.363786 ], [ -72.323211, 43.36723 ], [ -72.326444, 43.370456 ], [ -72.329197, 43.374613 ], [ -72.331535, 43.375811 ], [ -72.333503, 43.375927 ], [ -72.334293, 43.375773 ], [ -72.336043, 43.37438 ], [ -72.336583, 43.372887 ], [ -72.33856, 43.372912 ], [ -72.340781, 43.374767 ], [ -72.345346, 43.37534 ], [ -72.3461, 43.375677 ], [ -72.350309, 43.37709 ], [ -72.353665, 43.381177 ], [ -72.353206, 43.386277 ], [ -72.354123, 43.38884 ], [ -72.359991, 43.390663 ], [ -72.367989, 43.392024 ], [ -72.375028, 43.392203 ], [ -72.38769, 43.393993 ], [ -72.389306, 43.394464 ], [ -72.390924, 43.395862 ], [ -72.392896, 43.398962 ], [ -72.396604, 43.402349 ], [ -72.401624713554, 43.403259726150402 ], [ -72.401542269708202, 43.4036867763106 ] ] ] } },
{ "type": "Feature", "properties": { "geoid": "33017084302", "county_name": "Strafford County", "place_name": null, "state_name": "New Hampshire", "state_abbr": "NH", "is_rural": true, "dci_score": 54.5, "dci_quintile": 4.0, "is_cra_lmi": true, "income_level": "M", "is_persistent_poverty": false, "is_tribal_overlap": false, "tribal_area_name": null, "aian_pct": 0.0, "has_nmtc": false, "nmtc_projects": 0, "nmtc_total_usd": 0.0 }, "geometry": { "type": "Polygon", "coordinates": [ [ [ -70.992929, 43.321131 ], [ -70.987303, 43.325689 ], [ -70.986531, 43.326024 ], [ -70.98152, 43.327335 ], [ -70.977617, 43.328934 ], [ -70.976601, 43.329355 ], [ -70.975179, 43.325865 ], [ -70.966745, 43.315022 ], [ -70.963232, 43.312488 ], [ -70.961244, 43.311928 ], [ -70.957363, 43.308998 ], [ -70.940315, 43.298924 ], [ -70.942945, 43.298781 ], [ -70.945695, 43.298684 ], [ -70.953583, 43.298418 ], [ -70.960979, 43.302798 ], [ -70.96295, 43.303468 ], [ -70.965201, 43.303952 ], [ -70.971952, 43.304787 ], [ -70.973138, 43.304164 ], [ -70.973405, 43.305002 ], [ -70.975904, 43.304229 ], [ -70.978284, 43.304836 ], [ -70.980019, 43.305491 ], [ -70.979874, 43.307795 ], [ -70.98113, 43.308257 ], [ -70.979885, 43.309739 ], [ -70.984473, 43.31245 ], [ -70.984276, 43.314481 ], [ -70.985744, 43.315507 ], [ -70.990393, 43.314325 ], [ -70.990843, 43.31663 ], [ -70.992561, 43.316948 ], [ -70.992434, 43.318496 ], [ -70.991249, 43.318249 ], [ -70.990985, 43.319983 ], [ -70.992929, 43.321131 ] ] ] } },
{ "type": "Feature", "properties": { "geoid": "33003955901", "county_name": "Carroll County", "place_name": null, "state_name": "New Hampshire", "state_abbr": "NH", "is_rural": true, "dci_score": 75.6, "dci_quintile": 3.0, "is_cra_lmi": true, "income_level": "M", "is_persistent_poverty": false, "is_tribal_overlap": false, "tribal_area_name": null, "aian_pct": 0.0, "has_nmtc": false, "nmtc_projects": 0, "nmtc_total_usd": 0.0 }, "geometry": { "type": "Polygon", "coordinates": [ [ [ -71.279927, 43.774895 ], [ -71.243763, 43.81366 ], [ -71.218959, 43.821708 ], [ -71.207342, 43.825441 ], [ -71.189563, 43.831176 ], [ -71.183613, 43.833037 ], [ -71.183901, 43.832214 ], [ -71.181459, 43.831215 ], [ -71.182207, 43.830658 ], [ -71.178133, 43.829963 ], [ -71.176958, 43.829185 ], [ -71.177858, 43.827835 ], [ -71.17719, 43.826758 ], [ -71.174211, 43.827598 ], [ -71.174822, 43.8255 ], [ -71.173234, 43.823326 ], [ -71.17112, 43.822343 ], [ -71.171282, 43.82061 ], [ -71.170122, 43.81868 ], [ -71.169558, 43.819366 ], [ -71.168168, 43.817978 ], [ -71.16797, 43.816192 ], [ -71.169237, 43.815361 ], [ -71.169084, 43.809311 ], [ -71.168428, 43.808723 ], [ -71.162184, 43.80882 ], [ -71.157075, 43.807259 ], [ -71.151132, 43.803904 ], [ -71.148377, 43.800934 ], [ -71.146211, 43.796753 ], [ -71.14473, 43.792381 ], [ -71.142732, 43.790116 ], [ -71.139909, 43.789177 ], [ -71.130417, 43.78701 ], [ -71.11647, 43.784859 ], [ -71.110916, 43.784355 ], [ -71.110153, 43.785424 ], [ -71.10936, 43.789238 ], [ -71.108154, 43.791664 ], [ -71.106399, 43.79261 ], [ -71.104873, 43.792015 ], [ -71.103271, 43.79451 ], [ -71.100845, 43.796822 ], [ -71.100296, 43.80011 ], [ -71.100875, 43.806816 ], [ -71.097483, 43.807452 ], [ -71.094985, 43.806351 ], [ -71.091293, 43.806053 ], [ -71.083159, 43.798271 ], [ -71.080322, 43.797585 ], [ -71.130844, 43.750053 ], [ -71.13135, 43.749435 ], [ -71.131316, 43.748759 ], [ -71.133556, 43.749115 ], [ -71.137815, 43.754114 ], [ -71.145462, 43.7593 ], [ -71.151926, 43.76286 ], [ -71.151665, 43.761461 ], [ -71.15019, 43.759381 ], [ -71.152951, 43.755024 ], [ -71.154535, 43.753967 ], [ -71.151663, 43.746938 ], [ -71.150549, 43.746447 ], [ -71.149697, 43.745566 ], [ -71.149308, 43.742281 ], [ -71.152542, 43.738781 ], [ -71.153993, 43.73425 ], [ -71.156024, 43.729595 ], [ -71.157492, 43.727309 ], [ -71.159581, 43.725997 ], [ -71.162967, 43.725256 ], [ -71.166013, 43.723913 ], [ -71.168791, 43.721724 ], [ -71.172297, 43.71831 ], [ -71.173413, 43.716314 ], [ -71.173137, 43.71285 ], [ -71.174704, 43.712038 ], [ -71.17646, 43.709617 ], [ -71.177341, 43.707229 ], [ -71.179094, 43.705565 ], [ -71.181776, 43.703877 ], [ -71.183768, 43.703151 ], [ -71.188234, 43.702289 ], [ -71.192948, 43.702569 ], [ -71.196077, 43.703085 ], [ -71.199235, 43.702462 ], [ -71.201699, 43.702769 ], [ -71.232456, 43.750046 ], [ -71.23389, 43.752724 ], [ -71.245319, 43.770394 ], [ -71.245643, 43.770408 ], [ -71.279927, 43.774895 ] ] ] } },
{ "type": "Feature", "properties": { "geoid": "33011010802", "county_name": "Hillsborough County", "place_name": "Somersworth", "state_name": "New Hampshire", "state_abbr": "NH", "is_rural": false, "dci_score": 70.8, "dci_quintile": 3.0, "is_cra_lmi": true, "income_level": "L", "is_persistent_poverty": false, "is_tribal_overlap": false, "tribal_area_name": null, "aian_pct": 0.0, "has_nmtc": false, "nmtc_projects": 0, "nmtc_total_usd": 0.0 }, "geometry": { "type": "Polygon", "coordinates": [ [ [ -71.49335, 42.7641 ], [ -71.48981, 42.768188 ], [ -71.48731, 42.768788 ], [ -71.48691, 42.767388 ], [ -71.48821, 42.766388 ], [ -71.48721, 42.762588 ], [ -71.48431, 42.759688 ], [ -71.47711, 42.759888 ], [ -71.47621, 42.760788 ], [ -71.47721, 42.762388 ], [ -71.47641, 42.763788 ], [ -71.47471, 42.763888 ], [ -71.473169, 42.762246 ], [ -71.46841, 42.761688 ], [ -71.46761, 42.762388 ], [ -71.466551, 42.763583 ], [ -71.466236, 42.762882 ], [ -71.469045, 42.760218 ], [ -71.46887, 42.759084 ], [ -71.468364, 42.75939 ], [ -71.467097, 42.757117 ], [ -71.465505, 42.757499 ], [ -71.464771, 42.75598 ], [ -71.467909, 42.754833 ], [ -71.47303, 42.752969 ], [ -71.474212, 42.754877 ], [ -71.47515, 42.754567 ], [ -71.488024, 42.75024 ], [ -71.488369, 42.750097 ], [ -71.491151, 42.747577 ], [ -71.492404, 42.746983 ], [ -71.492625, 42.748039 ], [ -71.49335, 42.7641 ] ] ] } },
{ "type": "Feature", "properties": { "geoid": "33001965802", "county_name": "Belknap County", "place_name": null, "state_name": "New Hampshire", "state_abbr": "NH", "is_rural": true, "dci_score": 43.0, "dci_quintile": 5.0, "is_cra_lmi": true, "income_level": "M", "is_persistent_poverty": false, "is_tribal_overlap": false, "tribal_area_name": null, "aian_pct": 0.0, "has_nmtc": false, "nmtc_projects": 0, "nmtc_total_usd": 0.0 }, "geometry": { "type": "Polygon", "coordinates": [ [ [ -71.524816, 43.446148 ], [ -71.520204, 43.446036 ], [ -71.514801, 43.445101 ], [ -71.505252, 43.444181 ], [ -71.50147, 43.444843 ], [ -71.498216, 43.446257 ], [ -71.493922, 43.446221 ], [ -71.489612, 43.446492 ], [ -71.48515, 43.446202 ], [ -71.480666, 43.446687 ], [ -71.478018, 43.445587 ], [ -71.472061, 43.448669 ], [ -71.470927, 43.449557 ], [ -71.470544, 43.450447 ], [ -71.470208, 43.451863 ], [ -71.469767, 43.452937 ], [ -71.4664, 43.456605 ], [ -71.466191, 43.457247 ], [ -71.467355, 43.462355 ], [ -71.468278, 43.465796 ], [ -71.46746, 43.471913 ], [ -71.4661, 43.476426 ], [ -71.462431, 43.486937 ], [ -71.462594, 43.489065 ], [ -71.464088, 43.492021 ], [ -71.463545, 43.49657 ], [ -71.462214, 43.500656 ], [ -71.461383, 43.506216 ], [ -71.451303, 43.500903 ], [ -71.448796, 43.50411 ], [ -71.44581, 43.507778 ], [ -71.436861, 43.502759 ], [ -71.396767, 43.481281 ], [ -71.419502, 43.459987 ], [ -71.421182, 43.458245 ], [ -71.431082, 43.44764 ], [ -71.441522, 43.436496 ], [ -71.452875, 43.42567 ], [ -71.464171, 43.413557 ], [ -71.471454, 43.411298 ], [ -71.488922, 43.420948 ], [ -71.536655, 43.445796 ], [ -71.524816, 43.446148 ] ] ] } },
{ "type": "Feature", "properties": { "geoid": "33019975902", "county_name": "Sullivan County", "place_name": "Durham", "state_name": "New Hampshire", "state_abbr": "NH", "is_rural": true, "dci_score": 81.9, "dci_quintile": 2.0, "is_cra_lmi": true, "income_level": "M", "is_persistent_poverty": false, "is_tribal_overlap": false, "tribal_area_name": null, "aian_pct": 0.0, "has_nmtc": true, "nmtc_projects": 1, "nmtc_total_usd": 2235630.0 }, "geometry": { "type": "Polygon", "coordinates": [ [ [ -72.354154, 43.324856 ], [ -72.350232, 43.328302 ], [ -72.348966, 43.332559 ], [ -72.34932, 43.335024 ], [ -72.348212, 43.340091 ], [ -72.346175, 43.343538 ], [ -72.345877, 43.345137 ], [ -72.34356, 43.350231 ], [ -72.346646, 43.352988 ], [ -72.346262, 43.360046 ], [ -72.34579, 43.361741 ], [ -72.345175, 43.367321 ], [ -72.345084, 43.368153 ], [ -72.34375, 43.370315 ], [ -72.343982, 43.373025 ], [ -72.344549, 43.373212 ], [ -72.34492, 43.373749 ], [ -72.345346, 43.37534 ], [ -72.340781, 43.374767 ], [ -72.33856, 43.372912 ], [ -72.336583, 43.372887 ], [ -72.336043, 43.37438 ], [ -72.334293, 43.375773 ], [ -72.333503, 43.375927 ], [ -72.331535, 43.375811 ], [ -72.329197, 43.374613 ], [ -72.326444, 43.370456 ], [ -72.323211, 43.36723 ], [ -72.317226, 43.363786 ], [ -72.312527, 43.361606 ], [ -72.310751, 43.361427 ], [ -72.308583, 43.362026 ], [ -72.303634, 43.365391 ], [ -72.30243, 43.365817 ], [ -72.300215, 43.365833 ], [ -72.290769, 43.364012 ], [ -72.28804, 43.363737 ], [ -72.284748, 43.364107 ], [ -72.271166, 43.367152 ], [ -72.268608, 43.367465 ], [ -72.267504, 43.331525 ], [ -72.310486, 43.332759 ], [ -72.337635, 43.332197 ], [ -72.337833, 43.327604 ], [ -72.341496, 43.328329 ], [ -72.340519, 43.322576 ], [ -72.354863, 43.321989 ], [ -72.354154, 43.324856 ] ] ] } },
{ "type": "Feature", "properties": { "geoid": "33017083001", "county_name": "Strafford County", "place_name": null, "state_name": "New Hampshire", "state_abbr": "NH", "is_rural": true, "dci_score": 49.4, "dci_quintile": 5.0, "is_cra_lmi": true, "income_level": "M", "is_persistent_poverty": false, "is_tribal_overlap": false, "tribal_area_name": null, "aian_pct": 0.0, "has_nmtc": false, "nmtc_projects": 0, "nmtc_total_usd": 0.0 }, "geometry": { "type": "Polygon", "coordinates": [ [ [ -70.912044, 43.272247 ], [ -70.898667006645596, 43.287113411186297 ], [ -70.896304, 43.285282 ], [ -70.890204, 43.284182 ], [ -70.886504, 43.282783 ], [ -70.883913653214606, 43.277879843584699 ], [ -70.883704, 43.277483 ], [ -70.882804, 43.273183 ], [ -70.882067064705893, 43.272714041176499 ], [ -70.881704, 43.272483 ], [ -70.876842, 43.27246 ], [ -70.874298, 43.271872 ], [ -70.872585, 43.270152 ], [ -70.872748, 43.268638 ], [ -70.871252, 43.267604 ], [ -70.870289, 43.266314 ], [ -70.868417, 43.26575 ], [ -70.865888, 43.265859 ], [ -70.864578948281206, 43.265489628747503 ], [ -70.863759137963996, 43.265258305294601 ], [ -70.86323, 43.265109 ], [ -70.863231, 43.265098 ], [ -70.861384, 43.263143 ], [ -70.859853, 43.259763 ], [ -70.859607, 43.257342 ], [ -70.858207, 43.256286 ], [ -70.855082, 43.255191 ], [ -70.852015, 43.256808 ], [ -70.843302, 43.254321 ], [ -70.843223236258197, 43.254261344507597 ], [ -70.839213, 43.251224 ], [ -70.839717, 43.250393 ], [ -70.841059, 43.249699 ], [ -70.841273, 43.248653 ], [ -70.839300448539603, 43.244303505026501 ], [ -70.847469, 43.240595 ], [ -70.857656, 43.252901 ], [ -70.862891, 43.250671 ], [ -70.867078, 43.248334 ], [ -70.870776, 43.24761 ], [ -70.872236, 43.247646 ], [ -70.874098, 43.247489 ], [ -70.875886, 43.247228 ], [ -70.87943, 43.24947 ], [ -70.882874, 43.254616 ], [ -70.888159, 43.257237 ], [ -70.889785, 43.260734 ], [ -70.905736, 43.265078 ], [ -70.909864, 43.265533 ], [ -70.917712, 43.265955 ], [ -70.912044, 43.272247 ] ] ] } },
{ "type": "Feature", "properties": { "geoid": "33015003500", "county_name": "Rockingham County", "place_name": null, "state_name": "New Hampshire", "state_abbr": "NH", "is_rural": false, "dci_score": 35.5, "dci_quintile": 5.0, "is_cra_lmi": true, "income_level": "M", "is_persistent_poverty": false, "is_tribal_overlap": false, "tribal_area_name": null, "aian_pct": 0.0, "has_nmtc": false, "nmtc_projects": 0, "nmtc_total_usd": 0.0 }, "geometry": { "type": "Polygon", "coordinates": [ [ [ -71.335745, 42.87462 ], [ -71.331458, 42.87809 ], [ -71.326403, 42.88076 ], [ -71.326276, 42.880826 ], [ -71.324167, 42.881986 ], [ -71.322253, 42.883022 ], [ -71.319534, 42.886157 ], [ -71.316216, 42.888373 ], [ -71.312049, 42.892261 ], [ -71.30443, 42.893213 ], [ -71.299069, 42.895003 ], [ -71.296003, 42.894263 ], [ -71.295512, 42.894185 ], [ -71.295591, 42.891466 ], [ -71.294458, 42.88916 ], [ -71.293362, 42.883763 ], [ -71.297311, 42.88337 ], [ -71.299456, 42.883954 ], [ -71.303499, 42.882216 ], [ -71.302551, 42.88123 ], [ -71.301012, 42.878687 ], [ -71.30814, 42.876959 ], [ -71.314458, 42.873887 ], [ -71.315541, 42.872861 ], [ -71.320748, 42.87018 ], [ -71.325508, 42.867034 ], [ -71.32769, 42.862399 ], [ -71.331502, 42.859752 ], [ -71.333629, 42.856583 ], [ -71.334152, 42.856214 ], [ -71.335745, 42.87462 ] ] ] } },
{ "type": "Feature", "properties": { "geoid": "33019975800", "county_name": "Sullivan County", "place_name": null, "state_name": "New Hampshire", "state_abbr": "NH", "is_rural": true, "dci_score": 81.9, "dci_quintile": 2.0, "is_cra_lmi": true, "income_level": "M", "is_persistent_poverty": false, "is_tribal_overlap": false, "tribal_area_name": null, "aian_pct": 0.0, "has_nmtc": false, "nmtc_projects": 0, "nmtc_total_usd": 0.0 }, "geometry": { "type": "Polygon", "coordinates": [ [ [ -72.415381, 43.380211 ], [ -72.413154, 43.384302 ], [ -72.411109704396196, 43.385774224020501 ], [ -72.405253, 43.389992 ], [ -72.403811, 43.391935 ], [ -72.401624713554, 43.403259726150402 ], [ -72.396604, 43.402349 ], [ -72.392896, 43.398962 ], [ -72.390924, 43.395862 ], [ -72.389306, 43.394464 ], [ -72.38769, 43.393993 ], [ -72.375028, 43.392203 ], [ -72.367989, 43.392024 ], [ -72.359991, 43.390663 ], [ -72.354123, 43.38884 ], [ -72.353206, 43.386277 ], [ -72.353665, 43.381177 ], [ -72.350309, 43.37709 ], [ -72.3461, 43.375677 ], [ -72.345346, 43.37534 ], [ -72.34492, 43.373749 ], [ -72.344549, 43.373212 ], [ -72.343982, 43.373025 ], [ -72.34375, 43.370315 ], [ -72.345084, 43.368153 ], [ -72.345175, 43.367321 ], [ -72.34579, 43.361741 ], [ -72.346262, 43.360046 ], [ -72.346646, 43.352988 ], [ -72.34356, 43.350231 ], [ -72.345877, 43.345137 ], [ -72.346175, 43.343538 ], [ -72.348212, 43.340091 ], [ -72.34932, 43.335024 ], [ -72.348966, 43.332559 ], [ -72.350232, 43.328302 ], [ -72.354154, 43.324856 ], [ -72.351765, 43.33476 ], [ -72.367602, 43.335538 ], [ -72.406495, 43.337553 ], [ -72.406699128666503, 43.337697504440897 ], [ -72.406326271158306, 43.338224207326199 ], [ -72.400981, 43.345775 ], [ -72.399289, 43.347581 ], [ -72.395403, 43.350414 ], [ -72.39092, 43.354984 ], [ -72.390286366897001, 43.356490138905698 ], [ -72.390103, 43.356926 ], [ -72.39217, 43.357865 ], [ -72.400441, 43.357685 ], [ -72.403949, 43.358098 ], [ -72.413377, 43.362741 ], [ -72.414692, 43.364273 ], [ -72.415099, 43.365896 ], [ -72.415978, 43.376531 ], [ -72.415381, 43.380211 ] ] ] } },
{ "type": "Feature", "properties": { "geoid": "33011001600", "county_name": "Hillsborough County", "place_name": null, "state_name": "New Hampshire", "state_abbr": "NH", "is_rural": false, "dci_score": 71.9, "dci_quintile": 3.0, "is_cra_lmi": true, "income_level": "L", "is_persistent_poverty": false, "is_tribal_overlap": false, "tribal_area_name": null, "aian_pct": 0.0, "has_nmtc": false, "nmtc_projects": 0, "nmtc_total_usd": 0.0 }, "geometry": { "type": "Polygon", "coordinates": [ [ [ -71.453, 42.989386 ], [ -71.452992, 42.990945 ], [ -71.448567, 42.990907 ], [ -71.448217, 42.990905 ], [ -71.444992, 42.990898 ], [ -71.444998, 42.98939 ], [ -71.445004, 42.987341 ], [ -71.444991, 42.985052 ], [ -71.444998, 42.98174 ], [ -71.444992, 42.981337 ], [ -71.448212, 42.98134 ], [ -71.452972, 42.981337 ], [ -71.452999, 42.987302 ], [ -71.453, 42.987657 ], [ -71.453, 42.989386 ] ] ] } },
{ "type": "Feature", "properties": { "geoid": "33003955802", "county_name": "Carroll County", "place_name": null, "state_name": "New Hampshire", "state_abbr": "NH", "is_rural": true, "dci_score": 60.7, "dci_quintile": 4.0, "is_cra_lmi": false, "income_level": "U", "is_persistent_poverty": false, "is_tribal_overlap": false, "tribal_area_name": null, "aian_pct": 0.0, "has_nmtc": false, "nmtc_projects": 0, "nmtc_total_usd": 0.0 }, "geometry": { "type": "Polygon", "coordinates": [ [ [ -71.183613, 43.833037 ], [ -71.183592, 43.833043 ], [ -71.122437, 43.851684 ], [ -71.11731, 43.852752 ], [ -71.113632, 43.849234 ], [ -71.095649, 43.853694 ], [ -71.08232, 43.854873 ], [ -71.073757, 43.856418 ], [ -70.994458, 43.871734 ], [ -70.991748972621593, 43.877322795670104 ], [ -70.989929, 43.839239 ], [ -70.989067, 43.79244 ], [ -70.989036761866899, 43.792153608733202 ], [ -70.989030119862093, 43.792090701007503 ], [ -70.990582, 43.791687 ], [ -70.991971, 43.792244 ], [ -70.994793, 43.792381 ], [ -70.997693, 43.794807 ], [ -71.000973, 43.795341 ], [ -71.001568, 43.792839 ], [ -71.002423, 43.791625 ], [ -71.004299, 43.790588 ], [ -71.007764, 43.790154 ], [ -71.011762, 43.788651 ], [ -71.01495, 43.788536 ], [ -71.020139, 43.789398 ], [ -71.022885, 43.788887 ], [ -71.027204, 43.789039 ], [ -71.029156, 43.789878 ], [ -71.034849, 43.794441 ], [ -71.037229, 43.798072 ], [ -71.039139, 43.799111 ], [ -71.04408, 43.799964 ], [ -71.045484, 43.800697 ], [ -71.048582, 43.80059 ], [ -71.051404, 43.799629 ], [ -71.056194, 43.796288 ], [ -71.058745, 43.795212 ], [ -71.059583, 43.793892 ], [ -71.060864, 43.793692 ], [ -71.064345, 43.794289 ], [ -71.068401, 43.796598 ], [ -71.068648, 43.800262 ], [ -71.071334, 43.800919 ], [ -71.074554, 43.800232 ], [ -71.077711, 43.798484 ], [ -71.080322, 43.797585 ], [ -71.083159, 43.798271 ], [ -71.091293, 43.806053 ], [ -71.094985, 43.806351 ], [ -71.097483, 43.807452 ], [ -71.100875, 43.806816 ], [ -71.100296, 43.80011 ], [ -71.100845, 43.796822 ], [ -71.103271, 43.79451 ], [ -71.104873, 43.792015 ], [ -71.106399, 43.79261 ], [ -71.108154, 43.791664 ], [ -71.10936, 43.789238 ], [ -71.110153, 43.785424 ], [ -71.110916, 43.784355 ], [ -71.11647, 43.784859 ], [ -71.130417, 43.78701 ], [ -71.139909, 43.789177 ], [ -71.142732, 43.790116 ], [ -71.14473, 43.792381 ], [ -71.146211, 43.796753 ], [ -71.148377, 43.800934 ], [ -71.151132, 43.803904 ], [ -71.157075, 43.807259 ], [ -71.162184, 43.80882 ], [ -71.168428, 43.808723 ], [ -71.169084, 43.809311 ], [ -71.169237, 43.815361 ], [ -71.16797, 43.816192 ], [ -71.168168, 43.817978 ], [ -71.169558, 43.819366 ], [ -71.170122, 43.81868 ], [ -71.171282, 43.82061 ], [ -71.17112, 43.822343 ], [ -71.173234, 43.823326 ], [ -71.174822, 43.8255 ], [ -71.174211, 43.827598 ], [ -71.17719, 43.826758 ], [ -71.177858, 43.827835 ], [ -71.176958, 43.829185 ], [ -71.178133, 43.829963 ], [ -71.182207, 43.830658 ], [ -71.181459, 43.831215 ], [ -71.183901, 43.832214 ], [ -71.183613, 43.833037 ] ] ] } },
{ "type": "Feature", "properties": { "geoid": "33003955402", "county_name": "Carroll County", "place_name": null, "state_name": "New Hampshire", "state_abbr": "NH", "is_rural": true, "dci_score": 38.9, "dci_quintile": 5.0, "is_cra_lmi": false, "income_level": "U", "is_persistent_poverty": false, "is_tribal_overlap": false, "tribal_area_name": null, "aian_pct": 0.0, "has_nmtc": false, "nmtc_projects": 0, "nmtc_total_usd": 0.0 }, "geometry": { "type": "Polygon", "coordinates": [ [ [ -71.09697, 43.984762 ], [ -71.083208, 43.992827 ], [ -71.085847, 43.995289 ], [ -71.088245, 43.99781 ], [ -71.088035, 44.00335 ], [ -71.088439, 44.004783 ], [ -71.085433, 44.005282 ], [ -71.081404, 44.006095 ], [ -71.072647, 44.009821 ], [ -71.061667, 44.010352 ], [ -71.055573, 44.012843 ], [ -71.053528, 44.013058 ], [ -71.052062, 44.012384 ], [ -71.049643, 44.009942 ], [ -71.048707, 44.007077 ], [ -71.045919, 44.003594 ], [ -71.037872, 44.001041 ], [ -71.03258, 44.000839 ], [ -71.027383, 44.002604 ], [ -71.023827, 44.003157 ], [ -71.021, 44.005726 ], [ -71.020375, 44.006986 ], [ -71.015816, 44.012067 ], [ -71.004309, 44.023863 ], [ -70.9975738927252, 44.021710301121203 ], [ -70.997566214614906, 44.021539208921197 ], [ -70.996776734037994, 44.003947123877701 ], [ -70.996611261248304, 44.0002598749778 ], [ -70.994806719643194, 43.960049070163898 ], [ -70.9946862935724, 43.957365602398497 ], [ -70.993249975170698, 43.925359956901097 ], [ -71.050841, 43.925399 ], [ -71.053389, 43.964155 ], [ -71.08334, 43.963919 ], [ -71.082871, 43.950252 ], [ -71.084537, 43.954199 ], [ -71.08434, 43.955567 ], [ -71.084585, 43.957423 ], [ -71.093231, 43.970376 ], [ -71.093455, 43.97861 ], [ -71.096634, 43.980406 ], [ -71.098976, 43.983899 ], [ -71.09697, 43.984762 ] ] ] } },
{ "type": "Feature", "properties": { "geoid": "33009960101", "county_name": "Grafton County", "place_name": null, "state_name": "New Hampshire", "state_abbr": "NH", "is_rural": true, "dci_score": 81.5, "dci_quintile": 2.0, "is_cra_lmi": true, "income_level": "M", "is_persistent_poverty": false, "is_tribal_overlap": false, "tribal_area_name": null, "aian_pct": 0.0, "has_nmtc": false, "nmtc_projects": 0, "nmtc_total_usd": 0.0 }, "geometry": { "type": "Polygon", "coordinates": [ [ [ -71.844319, 44.344204 ], [ -71.837764853491294, 44.347719933902098 ], [ -71.833261, 44.350136 ], [ -71.826246, 44.352006 ], [ -71.818838, 44.352939 ], [ -71.814351, 44.354541 ], [ -71.812902, 44.355547 ], [ -71.812413, 44.357325 ], [ -71.813023, 44.359301 ], [ -71.814991, 44.363686 ], [ -71.816289, 44.367403 ], [ -71.81549, 44.368836 ], [ -71.812832, 44.370448 ], [ -71.812235, 44.371492 ], [ -71.812424, 44.372532 ], [ -71.815251, 44.374594 ], [ -71.815773, 44.375464 ], [ -71.814388, 44.381932 ], [ -71.81313, 44.382801 ], [ -71.808828, 44.383862 ], [ -71.803461, 44.383335 ], [ -71.800316, 44.384276 ], [ -71.799899, 44.385951 ], [ -71.803489, 44.390384 ], [ -71.803488, 44.39189 ], [ -71.802353, 44.39338 ], [ -71.793924, 44.399271 ], [ -71.790688, 44.40026 ], [ -71.778613, 44.399799 ], [ -71.775399, 44.401126 ], [ -71.772801, 44.403097 ], [ -71.767888, 44.405445 ], [ -71.765688977432305, 44.406307687658 ], [ -71.752764, 44.391908 ], [ -71.74956, 44.38916 ], [ -71.737251, 44.375065 ], [ -71.696885, 44.332118 ], [ -71.726054, 44.315707 ], [ -71.728978, 44.313942 ], [ -71.734232, 44.31127 ], [ -71.736266, 44.310836 ], [ -71.739112, 44.310944 ], [ -71.741938, 44.310572 ], [ -71.744038, 44.309734 ], [ -71.745469, 44.308279 ], [ -71.745333, 44.306304 ], [ -71.748596, 44.304464 ], [ -71.752358, 44.304526 ], [ -71.755117, 44.305987 ], [ -71.759968, 44.307091 ], [ -71.763905, 44.308295 ], [ -71.765928, 44.307374 ], [ -71.765926, 44.306551 ], [ -71.764167, 44.305058 ], [ -71.766056, 44.303986 ], [ -71.767663, 44.30574 ], [ -71.770074, 44.305502 ], [ -71.77125, 44.306336 ], [ -71.767891, 44.308644 ], [ -71.769998, 44.309895 ], [ -71.776631, 44.311598 ], [ -71.778166, 44.309033 ], [ -71.784908, 44.312126 ], [ -71.786301, 44.31334 ], [ -71.787842, 44.311051 ], [ -71.791845, 44.312164 ], [ -71.795985, 44.315303 ], [ -71.797474, 44.316946 ], [ -71.799763, 44.319517 ], [ -71.80231, 44.320823 ], [ -71.808297, 44.327812 ], [ -71.809978, 44.325751 ], [ -71.813569, 44.325902 ], [ -71.815972, 44.326647 ], [ -71.817378, 44.328523 ], [ -71.828306, 44.336029 ], [ -71.833577, 44.338901 ], [ -71.8383, 44.34026 ], [ -71.845015554428997, 44.3439247578766 ], [ -71.844319, 44.344204 ] ] ] } },
{ "type": "Feature", "properties": { "geoid": "33017087001", "county_name": "Strafford County", "place_name": null, "state_name": "New Hampshire", "state_abbr": "NH", "is_rural": true, "dci_score": 74.1, "dci_quintile": 3.0, "is_cra_lmi": true, "income_level": "L", "is_persistent_poverty": false, "is_tribal_overlap": false, "tribal_area_name": null, "aian_pct": 0.0, "has_nmtc": false, "nmtc_projects": 0, "nmtc_total_usd": 0.0 }, "geometry": { "type": "Polygon", "coordinates": [ [ [ -71.110071, 43.401297 ], [ -71.088454, 43.421475 ], [ -71.085326, 43.424359 ], [ -71.077986, 43.419666 ], [ -71.076796, 43.420712 ], [ -71.057078, 43.40821 ], [ -71.056069, 43.409247 ], [ -71.037042, 43.398699 ], [ -71.046886, 43.389679 ], [ -71.047728, 43.389 ], [ -71.042522, 43.385971 ], [ -71.034575, 43.381405 ], [ -71.039539, 43.37687 ], [ -71.044294, 43.375537 ], [ -71.047014, 43.37889 ], [ -71.050201, 43.381271 ], [ -71.053044, 43.383826 ], [ -71.058322, 43.378837 ], [ -71.058609, 43.378267 ], [ -71.059125, 43.377697 ], [ -71.061357, 43.376018 ], [ -71.064675, 43.377837 ], [ -71.068301, 43.380295 ], [ -71.073072, 43.383944 ], [ -71.076622, 43.385488 ], [ -71.081475, 43.386799 ], [ -71.091069, 43.391387 ], [ -71.10709, 43.399747 ], [ -71.110071, 43.401297 ] ] ] } },
{ "type": "Feature", "properties": { "geoid": "33019975700", "county_name": "Sullivan County", "place_name": null, "state_name": "New Hampshire", "state_abbr": "NH", "is_rural": true, "dci_score": 70.7, "dci_quintile": 3.0, "is_cra_lmi": true, "income_level": "M", "is_persistent_poverty": false, "is_tribal_overlap": false, "tribal_area_name": null, "aian_pct": 0.0, "has_nmtc": false, "nmtc_projects": 0, "nmtc_total_usd": 0.0 }, "geometry": { "type": "Polygon", "coordinates": [ [ [ -72.452556, 43.172117 ], [ -72.451430916722003, 43.172977426991999 ], [ -72.444904, 43.177969 ], [ -72.443405, 43.179729 ], [ -72.443749, 43.182221 ], [ -72.449435, 43.18917 ], [ -72.45028, 43.192485 ], [ -72.438969, 43.201035 ], [ -72.437719, 43.20275 ], [ -72.438594, 43.209013 ], [ -72.440563, 43.215254 ], [ -72.4405, 43.219049 ], [ -72.437656, 43.225266 ], [ -72.435478063405895, 43.228793028352698 ], [ -72.435104878919702, 43.229397376646098 ], [ -72.434466, 43.230432 ], [ -72.433785292783, 43.2330390564128 ], [ -72.433684, 43.233427 ], [ -72.433688684947995, 43.233440482434801 ], [ -72.434216, 43.234958 ], [ -72.436654, 43.238319 ], [ -72.438937, 43.24424 ], [ -72.438693, 43.252905 ], [ -72.436378, 43.257454 ], [ -72.435221, 43.258483 ], [ -72.427711061083698, 43.261213736697897 ], [ -72.4276791218808, 43.261225350314803 ], [ -72.421583, 43.263442 ], [ -72.41545, 43.271374 ], [ -72.407842, 43.282892 ], [ -72.401666, 43.303395 ], [ -72.395462, 43.312994 ], [ -72.395805, 43.314617 ], [ -72.397619, 43.317064 ], [ -72.402532, 43.32038 ], [ -72.408696, 43.327674 ], [ -72.410197, 43.330395 ], [ -72.410353, 43.331675 ], [ -72.409037, 43.334395 ], [ -72.406699128666503, 43.337697504440897 ], [ -72.406495, 43.337553 ], [ -72.367602, 43.335538 ], [ -72.351765, 43.33476 ], [ -72.354154, 43.324856 ], [ -72.354863, 43.321989 ], [ -72.35742, 43.310434 ], [ -72.361492, 43.292497 ], [ -72.361348, 43.290739 ], [ -72.360326, 43.288923 ], [ -72.356587, 43.289083 ], [ -72.3541, 43.2852 ], [ -72.353715, 43.279285 ], [ -72.35114, 43.275427 ], [ -72.349354, 43.274923 ], [ -72.34766, 43.273024 ], [ -72.345722, 43.269072 ], [ -72.345143, 43.266745 ], [ -72.343846, 43.264235 ], [ -72.338627, 43.259817 ], [ -72.356282, 43.257841 ], [ -72.350876, 43.239005 ], [ -72.34203, 43.204459 ], [ -72.406591, 43.197463 ], [ -72.406119, 43.194572 ], [ -72.416204, 43.193779 ], [ -72.406271, 43.157859 ], [ -72.43209, 43.15982 ], [ -72.443886, 43.160723 ], [ -72.446254, 43.160903 ], [ -72.452093744289201, 43.161342419572598 ], [ -72.4521, 43.161414 ], [ -72.451868, 43.170174 ], [ -72.452556, 43.172117 ] ] ] } },
{ "type": "Feature", "properties": { "geoid": "33011001700", "county_name": "Hillsborough County", "place_name": null, "state_name": "New Hampshire", "state_abbr": "NH", "is_rural": false, "dci_score": 71.1, "dci_quintile": 3.0, "is_cra_lmi": true, "income_level": "M", "is_persistent_poverty": false, "is_tribal_overlap": false, "tribal_area_name": null, "aian_pct": 0.0, "has_nmtc": false, "nmtc_projects": 0, "nmtc_total_usd": 0.0 }, "geometry": { "type": "Polygon", "coordinates": [ [ [ -71.445004, 42.987341 ], [ -71.4399, 42.987356 ], [ -71.434717, 42.987378 ], [ -71.433315, 42.987482 ], [ -71.432465, 42.982695 ], [ -71.431522, 42.980261 ], [ -71.434474, 42.981355 ], [ -71.43812, 42.981339 ], [ -71.444992, 42.981337 ], [ -71.444998, 42.98174 ], [ -71.444991, 42.985052 ], [ -71.445004, 42.987341 ] ] ] } },
{ "type": "Feature", "properties": { "geoid": "33005971300", "county_name": "Cheshire County", "place_name": null, "state_name": "New Hampshire", "state_abbr": "NH", "is_rural": true, "dci_score": 54.2, "dci_quintile": 4.0, "is_cra_lmi": true, "income_level": "M", "is_persistent_poverty": false, "is_tribal_overlap": false, "tribal_area_name": null, "aian_pct": 0.0, "has_nmtc": true, "nmtc_projects": 1, "nmtc_total_usd": 0.0 }, "geometry": { "type": "Polygon", "coordinates": [ [ [ -72.295188, 42.942423 ], [ -72.293803, 42.944854 ], [ -72.288302, 42.947073 ], [ -72.281559, 42.949899 ], [ -72.277864, 42.952613 ], [ -72.278125, 42.946981 ], [ -72.277495, 42.944238 ], [ -72.276276, 42.941762 ], [ -72.276184, 42.941244 ], [ -72.276505, 42.940272 ], [ -72.276849, 42.938507 ], [ -72.277073, 42.937444 ], [ -72.277292, 42.936385 ], [ -72.278249, 42.933671 ], [ -72.278435, 42.933648 ], [ -72.278625, 42.933625 ], [ -72.285636, 42.932449 ], [ -72.28786, 42.932478 ], [ -72.294692, 42.933521 ], [ -72.297442, 42.933684 ], [ -72.295188, 42.942423 ] ] ] } }
]
}
