{
"type": "FeatureCollection",
"name": "44",
"crs": { "type": "name", "properties": { "name": "urn:ogc:def:crs:OGC:1.3:CRS84" } },
"features": [
{ "type": "Feature", "properties": { "geoid": "44007014100", "county_name": "Providence County", "place_name": null, "state_name": "Rhode Island", "state_abbr": "RI", "is_rural": false, "ui_invest_score": 3.0, "ui_invest_quintile": 3, "dci_score": 59.9, "dci_quintile": 4.0, "is_cra_lmi": true, "income_level": "M", "is_persistent_poverty": false, "is_tribal_overlap": false, "tribal_area_name": null, "aian_pct": 0.0, "has_nmtc": false, "nmtc_projects": 0, "nmtc_total_usd": 0.0 }, "geometry": { "type": "Polygon", "coordinates": [ [ [ -71.452255, 41.799133 ], [ -71.452003, 41.80278 ], [ -71.451889, 41.804722 ], [ -71.452314, 41.806133 ], [ -71.45023, 41.80637 ], [ -71.447533, 41.806614 ], [ -71.443678, 41.807032 ], [ -71.442223, 41.807203 ], [ -71.442154, 41.806573 ], [ -71.442015, 41.80604 ], [ -71.441869, 41.805674 ], [ -71.441541, 41.805063 ], [ -71.441318, 41.80475 ], [ -71.440541, 41.803946 ], [ -71.440252, 41.803705 ], [ -71.439938, 41.803415 ], [ -71.439266, 41.802027 ], [ -71.43934, 41.797241 ], [ -71.438541, 41.794229 ], [ -71.437642, 41.793239 ], [ -71.436482, 41.788412 ], [ -71.434046, 41.786307 ], [ -71.435135, 41.785543 ], [ -71.438789, 41.786987 ], [ -71.442415, 41.78743 ], [ -71.443623, 41.78796 ], [ -71.44534, 41.788715 ], [ -71.445855, 41.788255 ], [ -71.449173, 41.792049 ], [ -71.448359, 41.793258 ], [ -71.450447, 41.793858 ], [ -71.452576, 41.795261 ], [ -71.452255, 41.799133 ] ] ] } },
{ "type": "Feature", "properties": { "geoid": "44007015900", "county_name": "Providence County", "place_name": null, "state_name": "Rhode Island", "state_abbr": "RI", "is_rural": false, "ui_invest_score": 3.0, "ui_invest_quintile": 3, "dci_score": 56.8, "dci_quintile": 4.0, "is_cra_lmi": true, "income_level": "L", "is_persistent_poverty": false, "is_tribal_overlap": false, "tribal_area_name": null, "aian_pct": 0.0, "has_nmtc": false, "nmtc_projects": 0, "nmtc_total_usd": 0.0 }, "geometry": { "type": "Polygon", "coordinates": [ [ [ -71.366707, 41.885281 ], [ -71.364288, 41.885513 ], [ -71.361313, 41.886219 ], [ -71.356705, 41.887321 ], [ -71.354126, 41.887936 ], [ -71.354149, 41.885761 ], [ -71.354179, 41.884323 ], [ -71.35421, 41.880848 ], [ -71.354263, 41.878479 ], [ -71.354263, 41.878399 ], [ -71.357353, 41.879005 ], [ -71.361122, 41.879759 ], [ -71.362236, 41.879971 ], [ -71.364915, 41.880487 ], [ -71.365471, 41.882407 ], [ -71.367027, 41.885227 ], [ -71.366707, 41.885281 ] ] ] } },
{ "type": "Feature", "properties": { "geoid": "44007010900", "county_name": "Providence County", "place_name": null, "state_name": "Rhode Island", "state_abbr": "RI", "is_rural": false, "ui_invest_score": 1.0, "ui_invest_quintile": 1, "dci_score": 83.7, "dci_quintile": 2.0, "is_cra_lmi": true, "income_level": "L", "is_persistent_poverty": false, "is_tribal_overlap": false, "tribal_area_name": null, "aian_pct": 0.0038, "has_nmtc": true, "nmtc_projects": 1, "nmtc_total_usd": 771083.0 }, "geometry": { "type": "Polygon", "coordinates": [ [ [ -71.397243, 41.896782 ], [ -71.394296, 41.897652 ], [ -71.391739, 41.898343 ], [ -71.39006, 41.899319 ], [ -71.388268, 41.899805 ], [ -71.386348, 41.899636 ], [ -71.3817, 41.897062 ], [ -71.3817, 41.8937517472528 ], [ -71.3817, 41.893199 ], [ -71.381529354391105, 41.893225767938603 ], [ -71.381638, 41.8927 ], [ -71.382784, 41.892138 ], [ -71.384402, 41.890849 ], [ -71.385422, 41.889538 ], [ -71.387299, 41.889523 ], [ -71.390236, 41.889172 ], [ -71.390556, 41.888046 ], [ -71.390907, 41.888657 ], [ -71.391953, 41.89035 ], [ -71.39238, 41.890949 ], [ -71.394073, 41.893356 ], [ -71.394592, 41.894009 ], [ -71.394348, 41.894203 ], [ -71.397243, 41.896782 ] ] ] } },
{ "type": "Feature", "properties": { "geoid": "44007002802", "county_name": "Providence County", "place_name": "Cranston", "state_name": "Rhode Island", "state_abbr": "RI", "is_rural": false, "ui_invest_score": 3.0, "ui_invest_quintile": 3, "dci_score": 66.5, "dci_quintile": 4.0, "is_cra_lmi": false, "income_level": "U", "is_persistent_poverty": false, "is_tribal_overlap": false, "tribal_area_name": null, "aian_pct": 0.0, "has_nmtc": false, "nmtc_projects": 0, "nmtc_total_usd": 0.0 }, "geometry": { "type": "Polygon", "coordinates": [ [ [ -71.442986, 41.856556 ], [ -71.434998, 41.861824 ], [ -71.429906, 41.861255 ], [ -71.429451, 41.85923 ], [ -71.426628, 41.853081 ], [ -71.428825, 41.853676 ], [ -71.429703, 41.850525 ], [ -71.428284, 41.849178 ], [ -71.43084, 41.847626 ], [ -71.433815, 41.850227 ], [ -71.434099, 41.85047 ], [ -71.435921, 41.851952 ], [ -71.437141, 41.852753 ], [ -71.43792, 41.853271 ], [ -71.442986, 41.856556 ] ] ] } },
{ "type": "Feature", "properties": { "geoid": "44005041200", "county_name": "Newport County", "place_name": "Pawtucket", "state_name": "Rhode Island", "state_abbr": "RI", "is_rural": false, "ui_invest_score": 2.0, "ui_invest_quintile": 2, "dci_score": 65.0, "dci_quintile": 4.0, "is_cra_lmi": true, "income_level": "M", "is_persistent_poverty": false, "is_tribal_overlap": false, "tribal_area_name": null, "aian_pct": 0.0015, "has_nmtc": false, "nmtc_projects": 0, "nmtc_total_usd": 0.0 }, "geometry": { "type": "Polygon", "coordinates": [ [ [ -71.329315, 41.513829 ], [ -71.326035, 41.51431 ], [ -71.325451, 41.51728 ], [ -71.328031, 41.518848 ], [ -71.327128, 41.521589 ], [ -71.323991, 41.522407 ], [ -71.320901, 41.519489 ], [ -71.319810607228504, 41.519544192294703 ], [ -71.318608324369393, 41.519605048118002 ], [ -71.314579, 41.519809 ], [ -71.312666333455894, 41.521425111274603 ], [ -71.312237, 41.520853 ], [ -71.317588, 41.515974 ], [ -71.318656, 41.514246 ], [ -71.319168, 41.512079 ], [ -71.318751, 41.50682 ], [ -71.32051, 41.506544 ], [ -71.319786, 41.500434 ], [ -71.322045, 41.499493 ], [ -71.323030681662601, 41.499419416069102 ], [ -71.323125, 41.503088 ], [ -71.327804, 41.504258 ], [ -71.330694, 41.507699 ], [ -71.329315, 41.513829 ] ] ] } },
{ "type": "Feature", "properties": { "geoid": "44007000200", "county_name": "Providence County", "place_name": null, "state_name": "Rhode Island", "state_abbr": "RI", "is_rural": false, "ui_invest_score": 3.0, "ui_invest_quintile": 3, "dci_score": 82.8, "dci_quintile": 2.0, "is_cra_lmi": true, "income_level": "L", "is_persistent_poverty": false, "is_tribal_overlap": false, "tribal_area_name": null, "aian_pct": 0.0, "has_nmtc": false, "nmtc_projects": 0, "nmtc_total_usd": 0.0 }, "geometry": { "type": "Polygon", "coordinates": [ [ [ -71.426224, 41.795532 ], [ -71.425789, 41.797333 ], [ -71.426033, 41.797836 ], [ -71.417435, 41.800449 ], [ -71.417419, 41.800434 ], [ -71.415466, 41.798851 ], [ -71.414665, 41.798199 ], [ -71.412117, 41.796158 ], [ -71.409447, 41.794 ], [ -71.417591, 41.789592 ], [ -71.420063, 41.787033 ], [ -71.42061, 41.786184 ], [ -71.421667, 41.78619 ], [ -71.421801, 41.787048 ], [ -71.422305, 41.788516 ], [ -71.423857, 41.791002 ], [ -71.426459, 41.794973 ], [ -71.426224, 41.795532 ] ] ] } },
{ "type": "Feature", "properties": { "geoid": "44007015100", "county_name": "Providence County", "place_name": "Central Falls", "state_name": "Rhode Island", "state_abbr": "RI", "is_rural": false, "ui_invest_score": 1.0, "ui_invest_quintile": 1, "dci_score": 87.4, "dci_quintile": 2.0, "is_cra_lmi": true, "income_level": "L", "is_persistent_poverty": false, "is_tribal_overlap": false, "tribal_area_name": null, "aian_pct": 0.0029, "has_nmtc": false, "nmtc_projects": 0, "nmtc_total_usd": 0.0 }, "geometry": { "type": "Polygon", "coordinates": [ [ [ -71.406403, 41.880716 ], [ -71.405004, 41.880894 ], [ -71.403706, 41.881059 ], [ -71.39231, 41.882599 ], [ -71.389404, 41.880306 ], [ -71.394944, 41.876992 ], [ -71.39676, 41.875979 ], [ -71.398025, 41.874476 ], [ -71.39871, 41.873391 ], [ -71.401276, 41.870384 ], [ -71.403047, 41.870982 ], [ -71.404815, 41.872447 ], [ -71.405551, 41.873295 ], [ -71.405912, 41.87423 ], [ -71.405527, 41.876325 ], [ -71.405648, 41.877198 ], [ -71.406403, 41.880716 ] ] ] } },
{ "type": "Feature", "properties": { "geoid": "44007010800", "county_name": "Providence County", "place_name": null, "state_name": "Rhode Island", "state_abbr": "RI", "is_rural": false, "ui_invest_score": 1.0, "ui_invest_quintile": 1, "dci_score": 84.1, "dci_quintile": 2.0, "is_cra_lmi": true, "income_level": "L", "is_persistent_poverty": false, "is_tribal_overlap": false, "tribal_area_name": null, "aian_pct": 0.0, "has_nmtc": false, "nmtc_projects": 0, "nmtc_total_usd": 0.0 }, "geometry": { "type": "Polygon", "coordinates": [ [ [ -71.395981, 41.885738 ], [ -71.393799, 41.887001 ], [ -71.392624, 41.888123 ], [ -71.390907, 41.888657 ], [ -71.390556, 41.888046 ], [ -71.390236, 41.889172 ], [ -71.387299, 41.889523 ], [ -71.385422, 41.889538 ], [ -71.384402, 41.890849 ], [ -71.382784, 41.892138 ], [ -71.381638, 41.8927 ], [ -71.383093, 41.88987 ], [ -71.381824, 41.88837 ], [ -71.380219, 41.88793 ], [ -71.381008, 41.884067 ], [ -71.385269, 41.883511 ], [ -71.386742, 41.883316 ], [ -71.39231, 41.882599 ], [ -71.392891, 41.883183 ], [ -71.394203, 41.88422 ], [ -71.395981, 41.885738 ] ] ] } },
{ "type": "Feature", "properties": { "geoid": "44007013600", "county_name": "Providence County", "place_name": null, "state_name": "Rhode Island", "state_abbr": "RI", "is_rural": false, "ui_invest_score": 1.0, "ui_invest_quintile": 1, "dci_score": 65.6, "dci_quintile": 4.0, "is_cra_lmi": false, "income_level": "U", "is_persistent_poverty": false, "is_tribal_overlap": false, "tribal_area_name": null, "aian_pct": 0.0046, "has_nmtc": false, "nmtc_projects": 0, "nmtc_total_usd": 0.0 }, "geometry": { "type": "Polygon", "coordinates": [ [ [ -71.427771, 41.766596 ], [ -71.425975, 41.771525 ], [ -71.424121, 41.776613 ], [ -71.42381, 41.777267 ], [ -71.419437, 41.776243 ], [ -71.414963, 41.773193 ], [ -71.413296, 41.772831 ], [ -71.411947, 41.772381 ], [ -71.410484, 41.771965 ], [ -71.403954, 41.773247 ], [ -71.405151, 41.771748 ], [ -71.405203, 41.76761 ], [ -71.410702, 41.766554 ], [ -71.412183, 41.765058 ], [ -71.414383, 41.762953 ], [ -71.415806, 41.762902 ], [ -71.417848, 41.762167 ], [ -71.419078, 41.761885 ], [ -71.420091, 41.761746 ], [ -71.418715, 41.764076 ], [ -71.419797, 41.764785 ], [ -71.421994, 41.76458 ], [ -71.422957, 41.762971 ], [ -71.426224, 41.761025 ], [ -71.42989, 41.760761 ], [ -71.427771, 41.766596 ] ] ] } },
{ "type": "Feature", "properties": { "geoid": "44007002600", "county_name": "Providence County", "place_name": null, "state_name": "Rhode Island", "state_abbr": "RI", "is_rural": false, "ui_invest_score": 2.0, "ui_invest_quintile": 2, "dci_score": 86.7, "dci_quintile": 2.0, "is_cra_lmi": true, "income_level": "M", "is_persistent_poverty": false, "is_tribal_overlap": false, "tribal_area_name": null, "aian_pct": 0.0043, "has_nmtc": false, "nmtc_projects": 0, "nmtc_total_usd": 0.0 }, "geometry": { "type": "Polygon", "coordinates": [ [ [ -71.428505, 41.841019 ], [ -71.427261, 41.840919 ], [ -71.427155, 41.840721 ], [ -71.425049, 41.838558 ], [ -71.423703, 41.837777 ], [ -71.421401, 41.838434 ], [ -71.421178, 41.838759 ], [ -71.419861, 41.840813 ], [ -71.417953, 41.840633 ], [ -71.415688, 41.836838 ], [ -71.415443, 41.836182 ], [ -71.416283, 41.834736 ], [ -71.41745, 41.832012 ], [ -71.421974, 41.833767 ], [ -71.425644, 41.835213 ], [ -71.427879, 41.836113 ], [ -71.43045, 41.836231 ], [ -71.428505, 41.841019 ] ] ] } },
{ "type": "Feature", "properties": { "geoid": "44007000302", "county_name": "Providence County", "place_name": "Providence", "state_name": "Rhode Island", "state_abbr": "RI", "is_rural": false, "ui_invest_score": 3.0, "ui_invest_quintile": 3, "dci_score": 82.7, "dci_quintile": 2.0, "is_cra_lmi": true, "income_level": "L", "is_persistent_poverty": false, "is_tribal_overlap": false, "tribal_area_name": null, "aian_pct": 0.009, "has_nmtc": false, "nmtc_projects": 0, "nmtc_total_usd": 0.0 }, "geometry": { "type": "Polygon", "coordinates": [ [ [ -71.426338, 41.801506 ], [ -71.426186, 41.802002 ], [ -71.424942, 41.806549 ], [ -71.424866, 41.807102 ], [ -71.424858, 41.807175 ], [ -71.424629, 41.808777 ], [ -71.424377, 41.809406 ], [ -71.422569, 41.812073 ], [ -71.422173, 41.812767 ], [ -71.421631, 41.812183 ], [ -71.421272, 41.810753 ], [ -71.421005, 41.809772 ], [ -71.420242, 41.807247 ], [ -71.420052, 41.806618 ], [ -71.420013, 41.806477 ], [ -71.41935, 41.804417 ], [ -71.418907, 41.802975 ], [ -71.418129, 41.801144 ], [ -71.417435, 41.800449 ], [ -71.426033, 41.797836 ], [ -71.426498, 41.799648 ], [ -71.426338, 41.801506 ] ] ] } },
{ "type": "Feature", "properties": { "geoid": "44007000900", "county_name": "Providence County", "place_name": "Newport", "state_name": "Rhode Island", "state_abbr": "RI", "is_rural": false, "ui_invest_score": 1.0, "ui_invest_quintile": 1, "dci_score": 83.4, "dci_quintile": 2.0, "is_cra_lmi": false, "income_level": "U", "is_persistent_poverty": false, "is_tribal_overlap": false, "tribal_area_name": null, "aian_pct": 0.0, "has_nmtc": true, "nmtc_projects": 1, "nmtc_total_usd": 15080000.0 }, "geometry": { "type": "Polygon", "coordinates": [ [ [ -71.43364, 41.824219 ], [ -71.428597, 41.825559 ], [ -71.425882, 41.825894 ], [ -71.42009, 41.826218 ], [ -71.418839, 41.826023 ], [ -71.420158, 41.821941 ], [ -71.420799, 41.821781 ], [ -71.421135, 41.822128 ], [ -71.426208, 41.822487 ], [ -71.430367, 41.820797 ], [ -71.43177, 41.820683 ], [ -71.432045, 41.821308 ], [ -71.432556, 41.822548 ], [ -71.431816, 41.822731 ], [ -71.432396, 41.823597 ], [ -71.43364, 41.824219 ] ] ] } },
{ "type": "Feature", "properties": { "geoid": "44007018300", "county_name": "Providence County", "place_name": null, "state_name": "Rhode Island", "state_abbr": "RI", "is_rural": false, "ui_invest_score": 3.0, "ui_invest_quintile": 3, "dci_score": 92.5, "dci_quintile": 1.0, "is_cra_lmi": true, "income_level": "L", "is_persistent_poverty": false, "is_tribal_overlap": false, "tribal_area_name": null, "aian_pct": 0.0054, "has_nmtc": false, "nmtc_projects": 0, "nmtc_total_usd": 0.0 }, "geometry": { "type": "Polygon", "coordinates": [ [ [ -71.502425, 42.007653 ], [ -71.500692, 42.009485 ], [ -71.499893, 42.007828 ], [ -71.499298, 42.007439 ], [ -71.494911, 42.007603 ], [ -71.492188, 42.008114 ], [ -71.489708, 42.007507 ], [ -71.48793, 42.006069 ], [ -71.487511, 42.005657 ], [ -71.488373, 42.005871 ], [ -71.496536, 42.005268 ], [ -71.49852, 42.004524 ], [ -71.497589, 42.003815 ], [ -71.497093, 42.003181 ], [ -71.497231, 42.003197 ], [ -71.498218, 42.003109 ], [ -71.499899, 42.004978 ], [ -71.503339, 42.00671 ], [ -71.502425, 42.007653 ] ] ] } },
{ "type": "Feature", "properties": { "geoid": "44007001000", "county_name": "Providence County", "place_name": null, "state_name": "Rhode Island", "state_abbr": "RI", "is_rural": false, "ui_invest_score": 1.0, "ui_invest_quintile": 1, "dci_score": 83.3, "dci_quintile": 2.0, "is_cra_lmi": true, "income_level": "M", "is_persistent_poverty": false, "is_tribal_overlap": false, "tribal_area_name": null, "aian_pct": 0.0, "has_nmtc": false, "nmtc_projects": 0, "nmtc_total_usd": 0.0 }, "geometry": { "type": "Polygon", "coordinates": [ [ [ -71.439534, 41.815962 ], [ -71.437881, 41.819511 ], [ -71.435852, 41.822487 ], [ -71.43364, 41.824219 ], [ -71.432396, 41.823597 ], [ -71.431816, 41.822731 ], [ -71.432556, 41.822548 ], [ -71.432045, 41.821308 ], [ -71.43177, 41.820683 ], [ -71.431221, 41.819363 ], [ -71.430664, 41.817661 ], [ -71.430481, 41.816689 ], [ -71.431335, 41.816589 ], [ -71.434662, 41.816181 ], [ -71.437042, 41.815857 ], [ -71.438858, 41.815769 ], [ -71.439534, 41.815962 ] ] ] } },
{ "type": "Feature", "properties": { "geoid": "44007015200", "county_name": "Providence County", "place_name": null, "state_name": "Rhode Island", "state_abbr": "RI", "is_rural": false, "ui_invest_score": 3.0, "ui_invest_quintile": 3, "dci_score": 87.5, "dci_quintile": 2.0, "is_cra_lmi": true, "income_level": "L", "is_persistent_poverty": false, "is_tribal_overlap": false, "tribal_area_name": null, "aian_pct": 0.0387, "has_nmtc": true, "nmtc_projects": 1, "nmtc_total_usd": 7958831.0 }, "geometry": { "type": "Polygon", "coordinates": [ [ [ -71.39231, 41.882599 ], [ -71.386742, 41.883316 ], [ -71.385269, 41.883511 ], [ -71.381008, 41.884067 ], [ -71.380991, 41.883324 ], [ -71.381807, 41.879848 ], [ -71.381773, 41.877653 ], [ -71.383397, 41.876556 ], [ -71.384622, 41.87409 ], [ -71.384699, 41.87343 ], [ -71.385323, 41.873339 ], [ -71.387581, 41.873505 ], [ -71.387337, 41.875713 ], [ -71.388596, 41.875717 ], [ -71.388611, 41.878429 ], [ -71.38774, 41.8788 ], [ -71.388275, 41.879429 ], [ -71.389404, 41.880306 ], [ -71.39231, 41.882599 ] ] ] } },
{ "type": "Feature", "properties": { "geoid": "44007014700", "county_name": "Providence County", "place_name": null, "state_name": "Rhode Island", "state_abbr": "RI", "is_rural": false, "ui_invest_score": 3.0, "ui_invest_quintile": 3, "dci_score": 60.7, "dci_quintile": 4.0, "is_cra_lmi": true, "income_level": "M", "is_persistent_poverty": false, "is_tribal_overlap": false, "tribal_area_name": null, "aian_pct": 0.0028, "has_nmtc": false, "nmtc_projects": 0, "nmtc_total_usd": 0.0 }, "geometry": { "type": "Polygon", "coordinates": [ [ [ -71.479736, 41.796852 ], [ -71.47231, 41.79646 ], [ -71.471598, 41.79831 ], [ -71.469597, 41.798812 ], [ -71.467582, 41.798109 ], [ -71.466027, 41.803749 ], [ -71.463665, 41.805046 ], [ -71.461882, 41.805099 ], [ -71.457703, 41.805569 ], [ -71.452314, 41.806133 ], [ -71.451889, 41.804722 ], [ -71.452003, 41.80278 ], [ -71.452255, 41.799133 ], [ -71.452576, 41.795261 ], [ -71.450447, 41.793858 ], [ -71.452232, 41.790928 ], [ -71.452441, 41.789759 ], [ -71.451683, 41.78796 ], [ -71.451134, 41.783886 ], [ -71.454155, 41.78466 ], [ -71.456099, 41.78426 ], [ -71.45726, 41.783974 ], [ -71.461105, 41.78347 ], [ -71.464249, 41.782928 ], [ -71.464874, 41.782692 ], [ -71.465836, 41.782242 ], [ -71.472294, 41.780961 ], [ -71.472811, 41.782264 ], [ -71.472761, 41.785336 ], [ -71.472407, 41.787899 ], [ -71.472076, 41.790871 ], [ -71.473976, 41.794182 ], [ -71.477844, 41.795559 ], [ -71.479736, 41.796852 ] ] ] } },
{ "type": "Feature", "properties": { "geoid": "44007001800", "county_name": "Providence County", "place_name": null, "state_name": "Rhode Island", "state_abbr": "RI", "is_rural": false, "ui_invest_score": 2.0, "ui_invest_quintile": 2, "dci_score": 83.2, "dci_quintile": 2.0, "is_cra_lmi": true, "income_level": "L", "is_persistent_poverty": false, "is_tribal_overlap": false, "tribal_area_name": null, "aian_pct": 0.009, "has_nmtc": false, "nmtc_projects": 0, "nmtc_total_usd": 0.0 }, "geometry": { "type": "Polygon", "coordinates": [ [ [ -71.470877, 41.821944 ], [ -71.463837, 41.823128 ], [ -71.460523, 41.822674 ], [ -71.459347, 41.822472 ], [ -71.456446, 41.821971 ], [ -71.45436, 41.821606 ], [ -71.452339, 41.820858 ], [ -71.448555, 41.817135 ], [ -71.449898, 41.817268 ], [ -71.450104, 41.815826 ], [ -71.451195, 41.815708 ], [ -71.453888, 41.81543 ], [ -71.45578, 41.815258 ], [ -71.455475, 41.813202 ], [ -71.458023, 41.812827 ], [ -71.461288, 41.812256 ], [ -71.461586, 41.812153 ], [ -71.462494, 41.809978 ], [ -71.46492, 41.805874 ], [ -71.467072, 41.80447 ], [ -71.469165, 41.804864 ], [ -71.466803, 41.8078 ], [ -71.468703, 41.8106 ], [ -71.466551, 41.810742 ], [ -71.468193, 41.815445 ], [ -71.46965, 41.818876 ], [ -71.470031, 41.819828 ], [ -71.470877, 41.821944 ] ] ] } },
{ "type": "Feature", "properties": { "geoid": "44007017400", "county_name": "Providence County", "place_name": "Providence", "state_name": "Rhode Island", "state_abbr": "RI", "is_rural": false, "ui_invest_score": 1.0, "ui_invest_quintile": 1, "dci_score": 92.5, "dci_quintile": 1.0, "is_cra_lmi": true, "income_level": "L", "is_persistent_poverty": false, "is_tribal_overlap": false, "tribal_area_name": null, "aian_pct": 0.0, "has_nmtc": true, "nmtc_projects": 1, "nmtc_total_usd": 2400000.0 }, "geometry": { "type": "Polygon", "coordinates": [ [ [ -71.540116, 42.009805 ], [ -71.529707, 42.009877 ], [ -71.525952, 42.00791 ], [ -71.524836, 42.004699 ], [ -71.522074, 42.004219 ], [ -71.521306, 42.004303 ], [ -71.519031, 42.004806 ], [ -71.518179, 42.004622 ], [ -71.519275, 42.003181 ], [ -71.520005, 42.002227 ], [ -71.522663, 42.001356 ], [ -71.523038, 41.999442 ], [ -71.525172, 41.99788 ], [ -71.530914, 41.993933 ], [ -71.533301, 41.993419 ], [ -71.536049, 41.999997 ], [ -71.540116, 42.009805 ] ] ] } },
{ "type": "Feature", "properties": { "geoid": "44005040500", "county_name": "Newport County", "place_name": null, "state_name": "Rhode Island", "state_abbr": "RI", "is_rural": false, "ui_invest_score": 1.0, "ui_invest_quintile": 1, "dci_score": 64.9, "dci_quintile": 4.0, "is_cra_lmi": true, "income_level": "L", "is_persistent_poverty": false, "is_tribal_overlap": false, "tribal_area_name": null, "aian_pct": 0.0522, "has_nmtc": false, "nmtc_projects": 0, "nmtc_total_usd": 0.0 }, "geometry": { "type": "Polygon", "coordinates": [ [ [ -71.319168, 41.512079 ], [ -71.318656, 41.514246 ], [ -71.317588, 41.515974 ], [ -71.312237, 41.520853 ], [ -71.311141, 41.519396 ], [ -71.306441, 41.512716 ], [ -71.303558, 41.508579 ], [ -71.302421, 41.506998 ], [ -71.304733, 41.507384 ], [ -71.30661, 41.50504 ], [ -71.309181, 41.503512 ], [ -71.30841, 41.500465 ], [ -71.307563, 41.499163 ], [ -71.311172, 41.496974 ], [ -71.315658, 41.493862 ], [ -71.316627, 41.494828 ], [ -71.317723, 41.494831 ], [ -71.31807, 41.498646 ], [ -71.318145, 41.499431 ], [ -71.318361, 41.500647 ], [ -71.318751, 41.50682 ], [ -71.319168, 41.512079 ] ] ] } },
{ "type": "Feature", "properties": { "geoid": "44007010200", "county_name": "Providence County", "place_name": "Pawtucket", "state_name": "Rhode Island", "state_abbr": "RI", "is_rural": false, "ui_invest_score": 3.0, "ui_invest_quintile": 3, "dci_score": 77.4, "dci_quintile": 3.0, "is_cra_lmi": false, "income_level": "U", "is_persistent_poverty": false, "is_tribal_overlap": false, "tribal_area_name": null, "aian_pct": 0.0023, "has_nmtc": false, "nmtc_projects": 0, "nmtc_total_usd": 0.0 }, "geometry": { "type": "Polygon", "coordinates": [ [ [ -71.385572, 41.818996 ], [ -71.382797, 41.822695 ], [ -71.377434, 41.829288 ], [ -71.373587, 41.832486 ], [ -71.373099, 41.8366 ], [ -71.372996, 41.838065 ], [ -71.368779, 41.838812 ], [ -71.365139, 41.838641 ], [ -71.362238, 41.835498 ], [ -71.362069, 41.834921 ], [ -71.361346, 41.833682 ], [ -71.360012, 41.833491 ], [ -71.360435, 41.832951 ], [ -71.362617, 41.830067 ], [ -71.363594, 41.827526 ], [ -71.36512, 41.825908 ], [ -71.366318, 41.82391 ], [ -71.36293, 41.822773 ], [ -71.365105, 41.819126 ], [ -71.367643, 41.814072 ], [ -71.37011, 41.814598 ], [ -71.375084, 41.816181 ], [ -71.381524, 41.818539 ], [ -71.383238, 41.818919 ], [ -71.385572, 41.818996 ] ] ] } },
{ "type": "Feature", "properties": { "geoid": "44007016700", "county_name": "Providence County", "place_name": "Central Falls", "state_name": "Rhode Island", "state_abbr": "RI", "is_rural": false, "ui_invest_score": 3.0, "ui_invest_quintile": 3, "dci_score": 87.5, "dci_quintile": 2.0, "is_cra_lmi": true, "income_level": "M", "is_persistent_poverty": false, "is_tribal_overlap": false, "tribal_area_name": null, "aian_pct": 0.0047, "has_nmtc": true, "nmtc_projects": 1, "nmtc_total_usd": 0.0 }, "geometry": { "type": "Polygon", "coordinates": [ [ [ -71.384622, 41.87409 ], [ -71.383397, 41.876556 ], [ -71.381828, 41.876514 ], [ -71.38169, 41.876476 ], [ -71.379539, 41.876595 ], [ -71.373024, 41.87772 ], [ -71.372208, 41.875298 ], [ -71.372169, 41.874599 ], [ -71.372124, 41.873806 ], [ -71.371811, 41.872589 ], [ -71.375305, 41.871708 ], [ -71.373878, 41.86911 ], [ -71.375862, 41.868107 ], [ -71.377235, 41.867401 ], [ -71.375635, 41.86534 ], [ -71.378599, 41.8637 ], [ -71.380399, 41.868499 ], [ -71.384552, 41.872608 ], [ -71.384699, 41.87343 ], [ -71.384622, 41.87409 ] ] ] } },
{ "type": "Feature", "properties": { "geoid": "44007002000", "county_name": "Providence County", "place_name": "Cranston", "state_name": "Rhode Island", "state_abbr": "RI", "is_rural": false, "ui_invest_score": 1.0, "ui_invest_quintile": 1, "dci_score": 74.4, "dci_quintile": 3.0, "is_cra_lmi": true, "income_level": "L", "is_persistent_poverty": false, "is_tribal_overlap": false, "tribal_area_name": null, "aian_pct": 0.0006, "has_nmtc": false, "nmtc_projects": 0, "nmtc_total_usd": 0.0 }, "geometry": { "type": "Polygon", "coordinates": [ [ [ -71.472459, 41.836981 ], [ -71.468742, 41.83926 ], [ -71.46456, 41.842066 ], [ -71.464119, 41.838062 ], [ -71.462936, 41.833989 ], [ -71.464485, 41.833706 ], [ -71.461806, 41.832727 ], [ -71.45858, 41.83289 ], [ -71.456497, 41.832108 ], [ -71.455154, 41.835003 ], [ -71.453629, 41.835819 ], [ -71.452782, 41.832409 ], [ -71.454689, 41.83223 ], [ -71.454826, 41.83028 ], [ -71.456291, 41.830189 ], [ -71.456131, 41.828663 ], [ -71.457008, 41.82576 ], [ -71.453972, 41.825336 ], [ -71.453934, 41.825092 ], [ -71.456446, 41.821971 ], [ -71.459347, 41.822472 ], [ -71.460523, 41.822674 ], [ -71.463837, 41.823128 ], [ -71.470877, 41.821944 ], [ -71.471077, 41.822384 ], [ -71.471306, 41.824139 ], [ -71.465216, 41.824604 ], [ -71.462423, 41.824687 ], [ -71.462432, 41.827413 ], [ -71.464769, 41.831048 ], [ -71.46759, 41.831491 ], [ -71.470444, 41.832912 ], [ -71.472432, 41.834181 ], [ -71.472459, 41.836981 ] ] ] } },
{ "type": "Feature", "properties": { "geoid": "44007015500", "county_name": "Providence County", "place_name": null, "state_name": "Rhode Island", "state_abbr": "RI", "is_rural": false, "ui_invest_score": 3.0, "ui_invest_quintile": 3, "dci_score": 56.8, "dci_quintile": 4.0, "is_cra_lmi": true, "income_level": "M", "is_persistent_poverty": false, "is_tribal_overlap": false, "tribal_area_name": null, "aian_pct": 0.0, "has_nmtc": true, "nmtc_projects": 1, "nmtc_total_usd": 0.0 }, "geometry": { "type": "Polygon", "coordinates": [ [ [ -71.372185, 41.89262 ], [ -71.371190326560196, 41.894585333817098 ], [ -71.370999, 41.894599 ], [ -71.365399, 41.895299 ], [ -71.364699, 41.895399 ], [ -71.362499, 41.895599 ], [ -71.354699, 41.896499 ], [ -71.354518825625505, 41.896517017437397 ], [ -71.354042, 41.894241 ], [ -71.355965, 41.893127 ], [ -71.361404, 41.889961 ], [ -71.363533, 41.888706 ], [ -71.363663, 41.88863 ], [ -71.364288, 41.888268 ], [ -71.367626, 41.886277 ], [ -71.368362, 41.887601 ], [ -71.372246, 41.892509 ], [ -71.372185, 41.89262 ] ] ] } },
{ "type": "Feature", "properties": { "geoid": "44007011100", "county_name": "Providence County", "place_name": null, "state_name": "Rhode Island", "state_abbr": "RI", "is_rural": false, "ui_invest_score": 3.0, "ui_invest_quintile": 3, "dci_score": 84.1, "dci_quintile": 2.0, "is_cra_lmi": true, "income_level": "L", "is_persistent_poverty": false, "is_tribal_overlap": false, "tribal_area_name": null, "aian_pct": 0.0209, "has_nmtc": true, "nmtc_projects": 1, "nmtc_total_usd": 0.0 }, "geometry": { "type": "Polygon", "coordinates": [ [ [ -71.407055, 41.89191 ], [ -71.404691, 41.894784 ], [ -71.404568, 41.894824 ], [ -71.403107, 41.89267 ], [ -71.399651, 41.890038 ], [ -71.400177, 41.889652 ], [ -71.398979, 41.888641 ], [ -71.400459, 41.88818 ], [ -71.397354, 41.885078 ], [ -71.395981, 41.885738 ], [ -71.394203, 41.88422 ], [ -71.392891, 41.883183 ], [ -71.39231, 41.882599 ], [ -71.403706, 41.881059 ], [ -71.405817, 41.887239 ], [ -71.406227, 41.888491 ], [ -71.407055, 41.89191 ] ] ] } },
{ "type": "Feature", "properties": { "geoid": "44007002700", "county_name": "Providence County", "place_name": null, "state_name": "Rhode Island", "state_abbr": "RI", "is_rural": false, "ui_invest_score": 3.0, "ui_invest_quintile": 3, "dci_score": 86.7, "dci_quintile": 2.0, "is_cra_lmi": true, "income_level": "L", "is_persistent_poverty": false, "is_tribal_overlap": false, "tribal_area_name": null, "aian_pct": 0.0, "has_nmtc": false, "nmtc_projects": 0, "nmtc_total_usd": 0.0 }, "geometry": { "type": "Polygon", "coordinates": [ [ [ -71.432643, 41.84679 ], [ -71.428993, 41.846054 ], [ -71.43084, 41.847626 ], [ -71.428284, 41.849178 ], [ -71.429703, 41.850525 ], [ -71.428825, 41.853676 ], [ -71.426628, 41.853081 ], [ -71.425735, 41.851334 ], [ -71.424454, 41.849792 ], [ -71.420647, 41.845284 ], [ -71.417953, 41.840633 ], [ -71.419861, 41.840813 ], [ -71.421178, 41.838759 ], [ -71.421401, 41.838434 ], [ -71.423703, 41.837777 ], [ -71.425049, 41.838558 ], [ -71.427155, 41.840721 ], [ -71.427261, 41.840919 ], [ -71.428505, 41.841019 ], [ -71.429871, 41.841137 ], [ -71.429374, 41.844169 ], [ -71.433043, 41.844464 ], [ -71.432643, 41.84679 ] ] ] } },
{ "type": "Feature", "properties": { "geoid": "44007018100", "county_name": "Providence County", "place_name": "Providence", "state_name": "Rhode Island", "state_abbr": "RI", "is_rural": false, "ui_invest_score": 3.0, "ui_invest_quintile": 3, "dci_score": 92.5, "dci_quintile": 1.0, "is_cra_lmi": true, "income_level": "L", "is_persistent_poverty": false, "is_tribal_overlap": false, "tribal_area_name": null, "aian_pct": 0.0, "has_nmtc": true, "nmtc_projects": 1, "nmtc_total_usd": 1676199.0 }, "geometry": { "type": "Polygon", "coordinates": [ [ [ -71.512498, 42.013235 ], [ -71.512322, 42.014005 ], [ -71.511633399473496, 42.016285273249302 ], [ -71.502055503273596, 42.017010843962503 ], [ -71.502049541112896, 42.017011295624201 ], [ -71.500905, 42.017098 ], [ -71.499905, 42.017198 ], [ -71.498258301061995, 42.0172202331592 ], [ -71.491354280241097, 42.017313448859198 ], [ -71.491817, 42.016162 ], [ -71.493042, 42.015527 ], [ -71.49345, 42.014306 ], [ -71.495406, 42.013669 ], [ -71.493285, 42.014918 ], [ -71.496107, 42.014154 ], [ -71.500189, 42.01528 ], [ -71.500692, 42.009485 ], [ -71.501823, 42.010303 ], [ -71.503532, 42.010521 ], [ -71.513427, 42.010696 ], [ -71.512498, 42.013235 ] ] ] } },
{ "type": "Feature", "properties": { "geoid": "44007002801", "county_name": "Providence County", "place_name": null, "state_name": "Rhode Island", "state_abbr": "RI", "is_rural": false, "ui_invest_score": 1.0, "ui_invest_quintile": 1, "dci_score": 77.0, "dci_quintile": 3.0, "is_cra_lmi": true, "income_level": "M", "is_persistent_poverty": false, "is_tribal_overlap": false, "tribal_area_name": null, "aian_pct": 0.0, "has_nmtc": false, "nmtc_projects": 0, "nmtc_total_usd": 0.0 }, "geometry": { "type": "Polygon", "coordinates": [ [ [ -71.446686, 41.85405 ], [ -71.442986, 41.856556 ], [ -71.43792, 41.853271 ], [ -71.437141, 41.852753 ], [ -71.435921, 41.851952 ], [ -71.434099, 41.85047 ], [ -71.433815, 41.850227 ], [ -71.43084, 41.847626 ], [ -71.428993, 41.846054 ], [ -71.432643, 41.84679 ], [ -71.433313, 41.846939 ], [ -71.434205, 41.847197 ], [ -71.435096, 41.847631 ], [ -71.438942, 41.849201 ], [ -71.443214, 41.850803 ], [ -71.443985, 41.851147 ], [ -71.445137, 41.851948 ], [ -71.446686, 41.85405 ] ] ] } },
{ "type": "Feature", "properties": { "geoid": "44007002200", "county_name": "Providence County", "place_name": null, "state_name": "Rhode Island", "state_abbr": "RI", "is_rural": false, "ui_invest_score": 1.0, "ui_invest_quintile": 1, "dci_score": 86.6, "dci_quintile": 2.0, "is_cra_lmi": true, "income_level": "M", "is_persistent_poverty": false, "is_tribal_overlap": false, "tribal_area_name": null, "aian_pct": 0.0468, "has_nmtc": false, "nmtc_projects": 0, "nmtc_total_usd": 0.0 }, "geometry": { "type": "Polygon", "coordinates": [ [ [ -71.444527, 41.832447 ], [ -71.44101, 41.832264 ], [ -71.439339, 41.832417 ], [ -71.438538, 41.832584 ], [ -71.436523, 41.833317 ], [ -71.434311, 41.833992 ], [ -71.43335, 41.8339 ], [ -71.432449, 41.833824 ], [ -71.430237, 41.834194 ], [ -71.429253, 41.834396 ], [ -71.428734, 41.832623 ], [ -71.428604, 41.831772 ], [ -71.42836, 41.83149 ], [ -71.43177, 41.829872 ], [ -71.433304, 41.828999 ], [ -71.438911, 41.825958 ], [ -71.439476, 41.824562 ], [ -71.441566, 41.82468 ], [ -71.443398, 41.82478 ], [ -71.443542, 41.826206 ], [ -71.444031, 41.829288 ], [ -71.44416, 41.830044 ], [ -71.444527, 41.832447 ] ] ] } },
{ "type": "Feature", "properties": { "geoid": "44007002500", "county_name": "Providence County", "place_name": null, "state_name": "Rhode Island", "state_abbr": "RI", "is_rural": false, "ui_invest_score": 1.0, "ui_invest_quintile": 1, "dci_score": 85.8, "dci_quintile": 2.0, "is_cra_lmi": true, "income_level": "M", "is_persistent_poverty": false, "is_tribal_overlap": false, "tribal_area_name": null, "aian_pct": 0.0, "has_nmtc": true, "nmtc_projects": 7, "nmtc_total_usd": 58694611.0 }, "geometry": { "type": "Polygon", "coordinates": [ [ [ -71.438911, 41.825958 ], [ -71.433304, 41.828999 ], [ -71.43177, 41.829872 ], [ -71.42836, 41.83149 ], [ -71.428604, 41.831772 ], [ -71.428734, 41.832623 ], [ -71.429253, 41.834396 ], [ -71.430237, 41.834194 ], [ -71.430458, 41.835918 ], [ -71.43045, 41.836231 ], [ -71.427879, 41.836113 ], [ -71.425644, 41.835213 ], [ -71.421974, 41.833767 ], [ -71.41745, 41.832012 ], [ -71.417793, 41.831066 ], [ -71.418289, 41.828037 ], [ -71.418152, 41.827925 ], [ -71.418839, 41.826023 ], [ -71.42009, 41.826218 ], [ -71.425882, 41.825894 ], [ -71.428597, 41.825559 ], [ -71.43364, 41.824219 ], [ -71.435493, 41.824463 ], [ -71.439476, 41.824562 ], [ -71.438911, 41.825958 ] ] ] } },
{ "type": "Feature", "properties": { "geoid": "44007017500", "county_name": "Providence County", "place_name": null, "state_name": "Rhode Island", "state_abbr": "RI", "is_rural": false, "ui_invest_score": 1.0, "ui_invest_quintile": 1, "dci_score": 92.5, "dci_quintile": 1.0, "is_cra_lmi": false, "income_level": "U", "is_persistent_poverty": false, "is_tribal_overlap": false, "tribal_area_name": null, "aian_pct": 0.0003, "has_nmtc": false, "nmtc_projects": 0, "nmtc_total_usd": 0.0 }, "geometry": { "type": "Polygon", "coordinates": [ [ [ -71.533301, 41.993419 ], [ -71.530914, 41.993933 ], [ -71.525172, 41.99788 ], [ -71.5233, 41.996136 ], [ -71.522629, 41.996426 ], [ -71.522026, 41.995209 ], [ -71.521057, 41.99334 ], [ -71.51989, 41.993858 ], [ -71.517815, 41.994167 ], [ -71.518135, 41.992077 ], [ -71.514791, 41.990463 ], [ -71.515709, 41.985863 ], [ -71.515717, 41.985512 ], [ -71.515797, 41.983276 ], [ -71.518066, 41.983696 ], [ -71.522354, 41.985653 ], [ -71.528008, 41.988407 ], [ -71.531662, 41.989556 ], [ -71.531694, 41.989614 ], [ -71.531975, 41.990264 ], [ -71.533301, 41.993419 ] ] ] } },
{ "type": "Feature", "properties": { "geoid": "44007017600", "county_name": "Providence County", "place_name": null, "state_name": "Rhode Island", "state_abbr": "RI", "is_rural": false, "ui_invest_score": 3.0, "ui_invest_quintile": 3, "dci_score": 92.5, "dci_quintile": 1.0, "is_cra_lmi": true, "income_level": "L", "is_persistent_poverty": false, "is_tribal_overlap": false, "tribal_area_name": null, "aian_pct": 0.0, "has_nmtc": true, "nmtc_projects": 1, "nmtc_total_usd": 4669300.0 }, "geometry": { "type": "Polygon", "coordinates": [ [ [ -71.525172, 41.99788 ], [ -71.523038, 41.999442 ], [ -71.522663, 42.001356 ], [ -71.520005, 42.002227 ], [ -71.518615, 42.00181 ], [ -71.518129, 41.998945 ], [ -71.518959, 41.998299 ], [ -71.517059, 41.995754 ], [ -71.513695, 41.99646 ], [ -71.512466, 41.995869 ], [ -71.514351, 41.992596 ], [ -71.514791, 41.990463 ], [ -71.518135, 41.992077 ], [ -71.517815, 41.994167 ], [ -71.51989, 41.993858 ], [ -71.521057, 41.99334 ], [ -71.522026, 41.995209 ], [ -71.522629, 41.996426 ], [ -71.5233, 41.996136 ], [ -71.525172, 41.99788 ] ] ] } },
{ "type": "Feature", "properties": { "geoid": "44007016100", "county_name": "Providence County", "place_name": null, "state_name": "Rhode Island", "state_abbr": "RI", "is_rural": false, "ui_invest_score": 1.0, "ui_invest_quintile": 1, "dci_score": 87.5, "dci_quintile": 2.0, "is_cra_lmi": true, "income_level": "L", "is_persistent_poverty": false, "is_tribal_overlap": false, "tribal_area_name": null, "aian_pct": 0.0004, "has_nmtc": true, "nmtc_projects": 2, "nmtc_total_usd": 2600175.0 }, "geometry": { "type": "Polygon", "coordinates": [ [ [ -71.402066, 41.867351 ], [ -71.400169, 41.870312 ], [ -71.398379, 41.871674 ], [ -71.39871, 41.873391 ], [ -71.398025, 41.874476 ], [ -71.39676, 41.875979 ], [ -71.394944, 41.876992 ], [ -71.389404, 41.880306 ], [ -71.388275, 41.879429 ], [ -71.38774, 41.8788 ], [ -71.388611, 41.878429 ], [ -71.388596, 41.875717 ], [ -71.387337, 41.875713 ], [ -71.387581, 41.873505 ], [ -71.385323, 41.873339 ], [ -71.384699, 41.87343 ], [ -71.384552, 41.872608 ], [ -71.385772, 41.872373 ], [ -71.388229, 41.869698 ], [ -71.388947, 41.870132 ], [ -71.39212, 41.869705 ], [ -71.394501, 41.869316 ], [ -71.398697, 41.868706 ], [ -71.401199, 41.867565 ], [ -71.402066, 41.867351 ] ] ] } },
{ "type": "Feature", "properties": { "geoid": "44007016400", "county_name": "Providence County", "place_name": null, "state_name": "Rhode Island", "state_abbr": "RI", "is_rural": false, "ui_invest_score": 3.0, "ui_invest_quintile": 3, "dci_score": 87.5, "dci_quintile": 2.0, "is_cra_lmi": true, "income_level": "L", "is_persistent_poverty": false, "is_tribal_overlap": false, "tribal_area_name": null, "aian_pct": 0.0, "has_nmtc": true, "nmtc_projects": 2, "nmtc_total_usd": 11880000.0 }, "geometry": { "type": "Polygon", "coordinates": [ [ [ -71.404518, 41.859505 ], [ -71.403999, 41.864128 ], [ -71.402066, 41.867351 ], [ -71.401199, 41.867565 ], [ -71.398697, 41.868706 ], [ -71.394501, 41.869316 ], [ -71.39212, 41.869705 ], [ -71.388947, 41.870132 ], [ -71.388229, 41.869698 ], [ -71.391228, 41.866402 ], [ -71.392677, 41.864799 ], [ -71.395416, 41.861782 ], [ -71.398643, 41.858219 ], [ -71.399101, 41.858028 ], [ -71.399596, 41.856782 ], [ -71.405543, 41.856672 ], [ -71.404518, 41.859505 ] ] ] } },
{ "type": "Feature", "properties": { "geoid": "44007017100", "county_name": "Providence County", "place_name": null, "state_name": "Rhode Island", "state_abbr": "RI", "is_rural": false, "ui_invest_score": 1.0, "ui_invest_quintile": 1, "dci_score": 87.5, "dci_quintile": 2.0, "is_cra_lmi": true, "income_level": "M", "is_persistent_poverty": false, "is_tribal_overlap": false, "tribal_area_name": null, "aian_pct": 0.003, "has_nmtc": true, "nmtc_projects": 1, "nmtc_total_usd": 0.0 }, "geometry": { "type": "Polygon", "coordinates": [ [ [ -71.378599, 41.8637 ], [ -71.375635, 41.86534 ], [ -71.377235, 41.867401 ], [ -71.375862, 41.868107 ], [ -71.373878, 41.86911 ], [ -71.375305, 41.871708 ], [ -71.371811, 41.872589 ], [ -71.372124, 41.873806 ], [ -71.372169, 41.874599 ], [ -71.372208, 41.875298 ], [ -71.373024, 41.87772 ], [ -71.372841, 41.878983 ], [ -71.365615, 41.880652 ], [ -71.364915, 41.880487 ], [ -71.364655, 41.876281 ], [ -71.364381, 41.870407 ], [ -71.364094, 41.865356 ], [ -71.364067, 41.864662 ], [ -71.363744, 41.85854 ], [ -71.365795, 41.858341 ], [ -71.375021, 41.857449 ], [ -71.376699, 41.8575 ], [ -71.378299, 41.8622 ], [ -71.378599, 41.8637 ] ] ] } },
{ "type": "Feature", "properties": { "geoid": "44007000101", "county_name": "Providence County", "place_name": "Providence", "state_name": "Rhode Island", "state_abbr": "RI", "is_rural": false, "ui_invest_score": 3.0, "ui_invest_quintile": 3, "dci_score": 89.2, "dci_quintile": 2.0, "is_cra_lmi": true, "income_level": "L", "is_persistent_poverty": false, "is_tribal_overlap": false, "tribal_area_name": null, "aian_pct": 0.0, "has_nmtc": true, "nmtc_projects": 9, "nmtc_total_usd": 67628000.0 }, "geometry": { "type": "Polygon", "coordinates": [ [ [ -71.404854, 41.796402 ], [ -71.399691, 41.799142 ], [ -71.398949, 41.799488 ], [ -71.390099, 41.8052 ], [ -71.385199, 41.8021 ], [ -71.380799, 41.7963 ], [ -71.377299, 41.7947 ], [ -71.373308, 41.791117 ], [ -71.372711, 41.788518 ], [ -71.372002, 41.789823 ], [ -71.370731, 41.787092 ], [ -71.371008, 41.786694 ], [ -71.369694, 41.783058 ], [ -71.371685333333303, 41.783382666666697 ], [ -71.381287, 41.785303 ], [ -71.382471564250494, 41.785099183389498 ], [ -71.389413, 41.786335 ], [ -71.395042, 41.786148 ], [ -71.397728, 41.78603 ], [ -71.398247, 41.786011 ], [ -71.401657, 41.785889 ], [ -71.402222, 41.786713 ], [ -71.40226, 41.786942 ], [ -71.40377, 41.792591 ], [ -71.404854, 41.796402 ] ] ] } },
{ "type": "Feature", "properties": { "geoid": "44007015400", "county_name": "Providence County", "place_name": null, "state_name": "Rhode Island", "state_abbr": "RI", "is_rural": false, "ui_invest_score": 3.0, "ui_invest_quintile": 3, "dci_score": 87.5, "dci_quintile": 2.0, "is_cra_lmi": true, "income_level": "M", "is_persistent_poverty": false, "is_tribal_overlap": false, "tribal_area_name": null, "aian_pct": 0.0, "has_nmtc": false, "nmtc_projects": 0, "nmtc_total_usd": 0.0 }, "geometry": { "type": "Polygon", "coordinates": [ [ [ -71.373322, 41.890404 ], [ -71.372246, 41.892509 ], [ -71.368362, 41.887601 ], [ -71.367626, 41.886277 ], [ -71.367027, 41.885227 ], [ -71.370224, 41.884907 ], [ -71.370834, 41.884663 ], [ -71.371452, 41.884264 ], [ -71.371582, 41.884312 ], [ -71.371948, 41.884392 ], [ -71.376328, 41.884544 ], [ -71.373322, 41.890404 ] ] ] } },
{ "type": "Feature", "properties": { "geoid": "44007001700", "county_name": "Providence County", "place_name": null, "state_name": "Rhode Island", "state_abbr": "RI", "is_rural": false, "ui_invest_score": 1.0, "ui_invest_quintile": 1, "dci_score": 83.2, "dci_quintile": 2.0, "is_cra_lmi": true, "income_level": "M", "is_persistent_poverty": false, "is_tribal_overlap": false, "tribal_area_name": null, "aian_pct": 0.0, "has_nmtc": false, "nmtc_projects": 0, "nmtc_total_usd": 0.0 }, "geometry": { "type": "Polygon", "coordinates": [ [ [ -71.46492, 41.805874 ], [ -71.462494, 41.809978 ], [ -71.461586, 41.812153 ], [ -71.461288, 41.812256 ], [ -71.458023, 41.812827 ], [ -71.455475, 41.813202 ], [ -71.455414, 41.813213 ], [ -71.454094, 41.810726 ], [ -71.453537, 41.809776 ], [ -71.452728, 41.80735 ], [ -71.452713, 41.807301 ], [ -71.452314, 41.806133 ], [ -71.457703, 41.805569 ], [ -71.461882, 41.805099 ], [ -71.463665, 41.805046 ], [ -71.464583, 41.804991 ], [ -71.46492, 41.805874 ] ] ] } },
{ "type": "Feature", "properties": { "geoid": "44007000500", "county_name": "Providence County", "place_name": null, "state_name": "Rhode Island", "state_abbr": "RI", "is_rural": false, "ui_invest_score": 3.0, "ui_invest_quintile": 3, "dci_score": 89.2, "dci_quintile": 2.0, "is_cra_lmi": true, "income_level": "L", "is_persistent_poverty": false, "is_tribal_overlap": false, "tribal_area_name": null, "aian_pct": 0.0, "has_nmtc": false, "nmtc_projects": 0, "nmtc_total_usd": 0.0 }, "geometry": { "type": "Polygon", "coordinates": [ [ [ -71.417419, 41.800434 ], [ -71.414688, 41.801243 ], [ -71.413124, 41.801582 ], [ -71.410233, 41.802216 ], [ -71.406685, 41.803104 ], [ -71.405838, 41.799946 ], [ -71.404854, 41.796402 ], [ -71.409447, 41.794 ], [ -71.412117, 41.796158 ], [ -71.414665, 41.798199 ], [ -71.415466, 41.798851 ], [ -71.417419, 41.800434 ] ] ] } },
{ "type": "Feature", "properties": { "geoid": "44007000700", "county_name": "Providence County", "place_name": "Providence", "state_name": "Rhode Island", "state_abbr": "RI", "is_rural": false, "ui_invest_score": 3.0, "ui_invest_quintile": 3, "dci_score": 84.0, "dci_quintile": 2.0, "is_cra_lmi": false, "income_level": "NA", "is_persistent_poverty": false, "is_tribal_overlap": false, "tribal_area_name": null, "aian_pct": 0.0716, "has_nmtc": true, "nmtc_projects": 3, "nmtc_total_usd": 19690000.0 }, "geometry": { "type": "Polygon", "coordinates": [ [ [ -71.421898, 41.817478 ], [ -71.418335, 41.819008 ], [ -71.416509, 41.81772 ], [ -71.415329, 41.816929 ], [ -71.413316, 41.81577 ], [ -71.411874, 41.81513 ], [ -71.413719, 41.81488 ], [ -71.412758, 41.81443 ], [ -71.411705, 41.811546 ], [ -71.411209, 41.810226 ], [ -71.412895, 41.810028 ], [ -71.415665, 41.809956 ], [ -71.420296, 41.810616 ], [ -71.42086, 41.810017 ], [ -71.421005, 41.809772 ], [ -71.421272, 41.810753 ], [ -71.421631, 41.812183 ], [ -71.422173, 41.812767 ], [ -71.420662, 41.815285 ], [ -71.422333, 41.817413 ], [ -71.421898, 41.817478 ] ] ] } },
{ "type": "Feature", "properties": { "geoid": "44007000800", "county_name": "Providence County", "place_name": "Woonsocket", "state_name": "Rhode Island", "state_abbr": "RI", "is_rural": false, "ui_invest_score": 1.0, "ui_invest_quintile": 1, "dci_score": 83.4, "dci_quintile": 2.0, "is_cra_lmi": false, "income_level": "U", "is_persistent_poverty": false, "is_tribal_overlap": false, "tribal_area_name": null, "aian_pct": 0.0002, "has_nmtc": true, "nmtc_projects": 10, "nmtc_total_usd": 42975044.0 }, "geometry": { "type": "Polygon", "coordinates": [ [ [ -71.420158, 41.821941 ], [ -71.418839, 41.826023 ], [ -71.418152, 41.827925 ], [ -71.418289, 41.828037 ], [ -71.417793, 41.831066 ], [ -71.41745, 41.832012 ], [ -71.41629, 41.831825 ], [ -71.41229, 41.831468 ], [ -71.411562, 41.831394 ], [ -71.411507, 41.831394 ], [ -71.410629, 41.831528 ], [ -71.409729, 41.828907 ], [ -71.409637, 41.828655 ], [ -71.409447, 41.828136 ], [ -71.40873, 41.826935 ], [ -71.40815, 41.826 ], [ -71.407318, 41.824966 ], [ -71.406731, 41.824078 ], [ -71.405869, 41.823193 ], [ -71.406813, 41.822669 ], [ -71.404888, 41.819997 ], [ -71.408058, 41.81936 ], [ -71.408173, 41.819313 ], [ -71.409103, 41.819126 ], [ -71.411462, 41.818787 ], [ -71.412231, 41.819126 ], [ -71.414421, 41.816891 ], [ -71.415329, 41.816929 ], [ -71.416509, 41.81772 ], [ -71.418335, 41.819008 ], [ -71.419351, 41.819895 ], [ -71.420057, 41.821097 ], [ -71.420158, 41.821941 ] ] ] } },
{ "type": "Feature", "properties": { "geoid": "44007001900", "county_name": "Providence County", "place_name": null, "state_name": "Rhode Island", "state_abbr": "RI", "is_rural": false, "ui_invest_score": 1.0, "ui_invest_quintile": 1, "dci_score": 83.3, "dci_quintile": 2.0, "is_cra_lmi": true, "income_level": "M", "is_persistent_poverty": false, "is_tribal_overlap": false, "tribal_area_name": null, "aian_pct": 0.0, "has_nmtc": true, "nmtc_projects": 5, "nmtc_total_usd": 22850000.0 }, "geometry": { "type": "Polygon", "coordinates": [ [ [ -71.456446, 41.821971 ], [ -71.453934, 41.825092 ], [ -71.453972, 41.825336 ], [ -71.452202, 41.825237 ], [ -71.448631, 41.825066 ], [ -71.444626, 41.824852 ], [ -71.443398, 41.82478 ], [ -71.441566, 41.82468 ], [ -71.439476, 41.824562 ], [ -71.435493, 41.824463 ], [ -71.43364, 41.824219 ], [ -71.435852, 41.822487 ], [ -71.437881, 41.819511 ], [ -71.439534, 41.815962 ], [ -71.441277, 41.816513 ], [ -71.442047, 41.816628 ], [ -71.44355, 41.81675 ], [ -71.443848, 41.816685 ], [ -71.448555, 41.817135 ], [ -71.452339, 41.820858 ], [ -71.45436, 41.821606 ], [ -71.456446, 41.821971 ] ] ] } },
{ "type": "Feature", "properties": { "geoid": "44007000301", "county_name": "Providence County", "place_name": null, "state_name": "Rhode Island", "state_abbr": "RI", "is_rural": false, "ui_invest_score": 3.0, "ui_invest_quintile": 3, "dci_score": 82.7, "dci_quintile": 2.0, "is_cra_lmi": true, "income_level": "L", "is_persistent_poverty": false, "is_tribal_overlap": false, "tribal_area_name": null, "aian_pct": 0.0, "has_nmtc": false, "nmtc_projects": 0, "nmtc_total_usd": 0.0 }, "geometry": { "type": "Polygon", "coordinates": [ [ [ -71.430588, 41.80249 ], [ -71.430214, 41.803864 ], [ -71.429581, 41.805359 ], [ -71.428406, 41.808083 ], [ -71.428162, 41.808643 ], [ -71.428009, 41.809052 ], [ -71.424629, 41.808777 ], [ -71.424858, 41.807175 ], [ -71.424866, 41.807102 ], [ -71.424942, 41.806549 ], [ -71.426186, 41.802002 ], [ -71.426338, 41.801506 ], [ -71.426498, 41.799648 ], [ -71.426033, 41.797836 ], [ -71.425789, 41.797333 ], [ -71.426224, 41.795532 ], [ -71.426459, 41.794973 ], [ -71.42959, 41.799468 ], [ -71.431769, 41.800518 ], [ -71.430588, 41.80249 ] ] ] } },
{ "type": "Feature", "properties": { "geoid": "44007001601", "county_name": "Providence County", "place_name": null, "state_name": "Rhode Island", "state_abbr": "RI", "is_rural": false, "ui_invest_score": 3.0, "ui_invest_quintile": 3, "dci_score": 83.3, "dci_quintile": 2.0, "is_cra_lmi": true, "income_level": "M", "is_persistent_poverty": false, "is_tribal_overlap": false, "tribal_area_name": null, "aian_pct": 0.0126, "has_nmtc": true, "nmtc_projects": 1, "nmtc_total_usd": 16790000.0 }, "geometry": { "type": "Polygon", "coordinates": [ [ [ -71.45578, 41.815258 ], [ -71.453888, 41.81543 ], [ -71.451195, 41.815708 ], [ -71.450104, 41.815826 ], [ -71.449898, 41.817268 ], [ -71.448555, 41.817135 ], [ -71.443848, 41.816685 ], [ -71.44355, 41.81675 ], [ -71.442047, 41.816628 ], [ -71.441277, 41.816513 ], [ -71.439534, 41.815962 ], [ -71.44001, 41.813816 ], [ -71.440809, 41.808641 ], [ -71.441723, 41.808371 ], [ -71.443402, 41.812178 ], [ -71.447571, 41.811111 ], [ -71.449348, 41.810631 ], [ -71.449944, 41.81192 ], [ -71.45079, 41.81366 ], [ -71.452866, 41.813526 ], [ -71.453522, 41.81345 ], [ -71.455414, 41.813213 ], [ -71.455475, 41.813202 ], [ -71.45578, 41.815258 ] ] ] } },
{ "type": "Feature", "properties": { "geoid": "44007001400", "county_name": "Providence County", "place_name": null, "state_name": "Rhode Island", "state_abbr": "RI", "is_rural": false, "ui_invest_score": 3.0, "ui_invest_quintile": 3, "dci_score": 82.8, "dci_quintile": 2.0, "is_cra_lmi": true, "income_level": "M", "is_persistent_poverty": false, "is_tribal_overlap": false, "tribal_area_name": null, "aian_pct": 0.032, "has_nmtc": true, "nmtc_projects": 1, "nmtc_total_usd": 2710000.0 }, "geometry": { "type": "Polygon", "coordinates": [ [ [ -71.441723, 41.808371 ], [ -71.440809, 41.808641 ], [ -71.439835, 41.808876 ], [ -71.439575, 41.808941 ], [ -71.435127, 41.810127 ], [ -71.433449, 41.809635 ], [ -71.433105, 41.809971 ], [ -71.431061, 41.811859 ], [ -71.429588, 41.812603 ], [ -71.429062, 41.81142 ], [ -71.428322, 41.809742 ], [ -71.428009, 41.809052 ], [ -71.428162, 41.808643 ], [ -71.428406, 41.808083 ], [ -71.429581, 41.805359 ], [ -71.430214, 41.803864 ], [ -71.430588, 41.80249 ], [ -71.431769, 41.800518 ], [ -71.438658, 41.802868 ], [ -71.439938, 41.803415 ], [ -71.440252, 41.803705 ], [ -71.440541, 41.803946 ], [ -71.441318, 41.80475 ], [ -71.44193, 41.806222 ], [ -71.441723, 41.808371 ] ] ] } },
{ "type": "Feature", "properties": { "geoid": "44007002900", "county_name": "Providence County", "place_name": "Providence", "state_name": "Rhode Island", "state_abbr": "RI", "is_rural": false, "ui_invest_score": 3.0, "ui_invest_quintile": 3, "dci_score": 59.5, "dci_quintile": 4.0, "is_cra_lmi": true, "income_level": "M", "is_persistent_poverty": false, "is_tribal_overlap": false, "tribal_area_name": null, "aian_pct": 0.0, "has_nmtc": false, "nmtc_projects": 0, "nmtc_total_usd": 0.0 }, "geometry": { "type": "Polygon", "coordinates": [ [ [ -71.429906, 41.861255 ], [ -71.422155, 41.860266 ], [ -71.417418, 41.859666 ], [ -71.411057, 41.858913 ], [ -71.409275, 41.856601 ], [ -71.405543, 41.856672 ], [ -71.409729, 41.852314 ], [ -71.410507, 41.851109 ], [ -71.411171, 41.848949 ], [ -71.411186, 41.845985 ], [ -71.411179, 41.840126 ], [ -71.41188, 41.838802 ], [ -71.415021, 41.836616 ], [ -71.415443, 41.836182 ], [ -71.415688, 41.836838 ], [ -71.417953, 41.840633 ], [ -71.420647, 41.845284 ], [ -71.424454, 41.849792 ], [ -71.425735, 41.851334 ], [ -71.426628, 41.853081 ], [ -71.429451, 41.85923 ], [ -71.429906, 41.861255 ] ] ] } },
{ "type": "Feature", "properties": { "geoid": "44007015300", "county_name": "Providence County", "place_name": null, "state_name": "Rhode Island", "state_abbr": "RI", "is_rural": false, "ui_invest_score": 1.0, "ui_invest_quintile": 1, "dci_score": 86.5, "dci_quintile": 2.0, "is_cra_lmi": true, "income_level": "L", "is_persistent_poverty": false, "is_tribal_overlap": false, "tribal_area_name": null, "aian_pct": 0.0019, "has_nmtc": false, "nmtc_projects": 0, "nmtc_total_usd": 0.0 }, "geometry": { "type": "Polygon", "coordinates": [ [ [ -71.378815, 41.891224 ], [ -71.376496397719706, 41.894013795041801 ], [ -71.376352344061203, 41.894034366788802 ], [ -71.373799, 41.894399 ], [ -71.371190326560196, 41.894585333817098 ], [ -71.372185, 41.89262 ], [ -71.372246, 41.892509 ], [ -71.373322, 41.890404 ], [ -71.376328, 41.884544 ], [ -71.378739, 41.885271 ], [ -71.379082, 41.890156 ], [ -71.378815, 41.891224 ] ] ] } },
{ "type": "Feature", "properties": { "geoid": "44009051504", "county_name": "Washington County", "place_name": "Pawtucket", "state_name": "Rhode Island", "state_abbr": "RI", "is_rural": true, "ui_invest_score": 2.0, "ui_invest_quintile": 2, "dci_score": 17.7, "dci_quintile": 5.0, "is_cra_lmi": false, "income_level": "U", "is_persistent_poverty": false, "is_tribal_overlap": false, "tribal_area_name": null, "aian_pct": 0.0006, "has_nmtc": false, "nmtc_projects": 0, "nmtc_total_usd": 0.0 }, "geometry": { "type": "Polygon", "coordinates": [ [ [ -71.522803613567206, 41.376689882057498 ], [ -71.519392, 41.380204 ], [ -71.517312, 41.382136 ], [ -71.51464, 41.38479 ], [ -71.50839, 41.399198 ], [ -71.504827, 41.407512 ], [ -71.503202, 41.417601 ], [ -71.497101, 41.417502 ], [ -71.495801, 41.422601 ], [ -71.495501, 41.424101 ], [ -71.494802, 41.427301 ], [ -71.491758, 41.429765 ], [ -71.491614, 41.42998 ], [ -71.489991, 41.431714 ], [ -71.48645, 41.431691 ], [ -71.481209, 41.430824 ], [ -71.480808, 41.427112 ], [ -71.481361, 41.422832 ], [ -71.480659, 41.419125 ], [ -71.478325, 41.414936 ], [ -71.478249, 41.412685 ], [ -71.478271, 41.407143 ], [ -71.479362, 41.403252 ], [ -71.479729, 41.39954 ], [ -71.482353, 41.394535 ], [ -71.474663, 41.393185 ], [ -71.4703911739429, 41.391838437389801 ], [ -71.474918, 41.386104 ], [ -71.484203, 41.371842 ], [ -71.48294, 41.365929 ], [ -71.480439, 41.362416 ], [ -71.480702076382002, 41.361107858724203 ], [ -71.480875, 41.360248 ], [ -71.484658, 41.361436 ], [ -71.487696, 41.361487 ], [ -71.489218, 41.362373 ], [ -71.488956, 41.364351 ], [ -71.494898, 41.368275 ], [ -71.497275, 41.371307 ], [ -71.502926, 41.3742 ], [ -71.513401, 41.375237 ], [ -71.520163, 41.376523 ], [ -71.522803613567206, 41.376689882057498 ] ] ] } },
{ "type": "Feature", "properties": { "geoid": "44003021700", "county_name": "Kent County", "place_name": "Cranston", "state_name": "Rhode Island", "state_abbr": "RI", "is_rural": false, "ui_invest_score": 1.0, "ui_invest_quintile": 1, "dci_score": 46.0, "dci_quintile": 5.0, "is_cra_lmi": true, "income_level": "M", "is_persistent_poverty": false, "is_tribal_overlap": false, "tribal_area_name": null, "aian_pct": 0.0103, "has_nmtc": false, "nmtc_projects": 0, "nmtc_total_usd": 0.0 }, "geometry": { "type": "Polygon", "coordinates": [ [ [ -71.420319, 41.704066 ], [ -71.418281, 41.705403 ], [ -71.417616, 41.705591 ], [ -71.407121, 41.702992 ], [ -71.404157, 41.70211 ], [ -71.40183, 41.701341 ], [ -71.399043, 41.70104 ], [ -71.389649, 41.700583 ], [ -71.386963, 41.701418 ], [ -71.386658, 41.70106 ], [ -71.385668, 41.697342 ], [ -71.389197, 41.695479 ], [ -71.39103, 41.692006 ], [ -71.391566, 41.689222 ], [ -71.391914, 41.688499 ], [ -71.391504941994398, 41.684009653962903 ], [ -71.398163, 41.683407 ], [ -71.401308277210305, 41.683533563199298 ], [ -71.40285, 41.686646 ], [ -71.403644, 41.689631 ], [ -71.40398, 41.690475 ], [ -71.407151, 41.694487 ], [ -71.408035, 41.6949 ], [ -71.414303, 41.697769 ], [ -71.416234, 41.699273 ], [ -71.41761, 41.701732 ], [ -71.418388, 41.702868 ], [ -71.420319, 41.704066 ] ] ] } },
{ "type": "Feature", "properties": { "geoid": "44007018000", "county_name": "Providence County", "place_name": "Providence", "state_name": "Rhode Island", "state_abbr": "RI", "is_rural": false, "ui_invest_score": 1.0, "ui_invest_quintile": 1, "dci_score": 92.5, "dci_quintile": 1.0, "is_cra_lmi": true, "income_level": "L", "is_persistent_poverty": false, "is_tribal_overlap": false, "tribal_area_name": null, "aian_pct": 0.0016, "has_nmtc": true, "nmtc_projects": 3, "nmtc_total_usd": 45695918.0 }, "geometry": { "type": "Polygon", "coordinates": [ [ [ -71.519275, 42.003181 ], [ -71.518179, 42.004622 ], [ -71.516539, 42.006769 ], [ -71.514236, 42.010708 ], [ -71.513427, 42.010696 ], [ -71.503532, 42.010521 ], [ -71.501823, 42.010303 ], [ -71.500692, 42.009485 ], [ -71.502425, 42.007653 ], [ -71.503339, 42.00671 ], [ -71.504338, 42.006539 ], [ -71.506619, 42.004921 ], [ -71.510233, 42.003845 ], [ -71.511805, 42.002501 ], [ -71.51241, 42.001993 ], [ -71.513347, 42.000162 ], [ -71.515319, 41.998174 ], [ -71.518129, 41.998945 ], [ -71.518615, 42.00181 ], [ -71.520005, 42.002227 ], [ -71.519275, 42.003181 ] ] ] } },
{ "type": "Feature", "properties": { "geoid": "44007013701", "county_name": "Providence County", "place_name": null, "state_name": "Rhode Island", "state_abbr": "RI", "is_rural": false, "ui_invest_score": 3.0, "ui_invest_quintile": 3, "dci_score": 56.4, "dci_quintile": 4.0, "is_cra_lmi": false, "income_level": "U", "is_persistent_poverty": false, "is_tribal_overlap": false, "tribal_area_name": null, "aian_pct": 0.0105, "has_nmtc": false, "nmtc_projects": 0, "nmtc_total_usd": 0.0 }, "geometry": { "type": "Polygon", "coordinates": [ [ [ -71.437333, 41.774577 ], [ -71.436211, 41.777454 ], [ -71.435692, 41.778915 ], [ -71.435837, 41.778942 ], [ -71.430855, 41.782104 ], [ -71.430679, 41.783062 ], [ -71.431603, 41.786254 ], [ -71.421667, 41.78619 ], [ -71.42061, 41.786184 ], [ -71.422132, 41.78186 ], [ -71.42381, 41.777267 ], [ -71.424121, 41.776613 ], [ -71.425975, 41.771525 ], [ -71.427634, 41.771862 ], [ -71.427933, 41.772671 ], [ -71.428818, 41.771286 ], [ -71.432365, 41.772007 ], [ -71.434013, 41.772709 ], [ -71.436974, 41.772259 ], [ -71.437333, 41.774577 ] ] ] } },
{ "type": "Feature", "properties": { "geoid": "44007000600", "county_name": "Providence County", "place_name": null, "state_name": "Rhode Island", "state_abbr": "RI", "is_rural": false, "ui_invest_score": 2.0, "ui_invest_quintile": 2, "dci_score": 87.0, "dci_quintile": 2.0, "is_cra_lmi": true, "income_level": "L", "is_persistent_poverty": false, "is_tribal_overlap": false, "tribal_area_name": null, "aian_pct": 0.0066, "has_nmtc": true, "nmtc_projects": 6, "nmtc_total_usd": 32351578.0 }, "geometry": { "type": "Polygon", "coordinates": [ [ [ -71.414421, 41.816891 ], [ -71.412231, 41.819126 ], [ -71.411462, 41.818787 ], [ -71.409103, 41.819126 ], [ -71.408173, 41.819313 ], [ -71.408058, 41.81936 ], [ -71.404888, 41.819997 ], [ -71.401719, 41.815514 ], [ -71.3978, 41.8099 ], [ -71.394984, 41.810773 ], [ -71.393499, 41.8071 ], [ -71.390099, 41.8052 ], [ -71.398949, 41.799488 ], [ -71.399691, 41.799142 ], [ -71.404854, 41.796402 ], [ -71.405838, 41.799946 ], [ -71.406685, 41.803104 ], [ -71.410233, 41.802216 ], [ -71.411484, 41.803104 ], [ -71.413109, 41.805939 ], [ -71.413368, 41.806591 ], [ -71.411255, 41.807499 ], [ -71.411865, 41.809464 ], [ -71.412758, 41.809364 ], [ -71.412895, 41.810028 ], [ -71.411209, 41.810226 ], [ -71.411705, 41.811546 ], [ -71.412758, 41.81443 ], [ -71.413719, 41.81488 ], [ -71.411874, 41.81513 ], [ -71.413316, 41.81577 ], [ -71.415329, 41.816929 ], [ -71.414421, 41.816891 ] ] ] } },
{ "type": "Feature", "properties": { "geoid": "44003020102", "county_name": "Kent County", "place_name": null, "state_name": "Rhode Island", "state_abbr": "RI", "is_rural": false, "ui_invest_score": 3.0, "ui_invest_quintile": 3, "dci_score": 44.5, "dci_quintile": 5.0, "is_cra_lmi": true, "income_level": "M", "is_persistent_poverty": false, "is_tribal_overlap": false, "tribal_area_name": null, "aian_pct": 0.0, "has_nmtc": false, "nmtc_projects": 0, "nmtc_total_usd": 0.0 }, "geometry": { "type": "Polygon", "coordinates": [ [ [ -71.532968, 41.680216 ], [ -71.532875, 41.681921 ], [ -71.529144, 41.683381 ], [ -71.527802, 41.685527 ], [ -71.525101, 41.68564 ], [ -71.526768, 41.687416 ], [ -71.526619, 41.689781 ], [ -71.525253, 41.692239 ], [ -71.522754, 41.691732 ], [ -71.522144, 41.695918 ], [ -71.522034, 41.695637 ], [ -71.521332, 41.695774 ], [ -71.518913, 41.695899 ], [ -71.515419, 41.696039 ], [ -71.511574, 41.696087 ], [ -71.506142, 41.696467 ], [ -71.501679, 41.696474 ], [ -71.50103, 41.68759 ], [ -71.500723, 41.685016 ], [ -71.509437, 41.684813 ], [ -71.511658, 41.684805 ], [ -71.51783, 41.684571 ], [ -71.520066, 41.684504 ], [ -71.52298, 41.684395 ], [ -71.523778, 41.684136 ], [ -71.525162, 41.682964 ], [ -71.527687, 41.680545 ], [ -71.532988, 41.679772 ], [ -71.532968, 41.680216 ] ] ] } },
{ "type": "Feature", "properties": { "geoid": "44007017900", "county_name": "Providence County", "place_name": null, "state_name": "Rhode Island", "state_abbr": "RI", "is_rural": false, "ui_invest_score": 3.0, "ui_invest_quintile": 3, "dci_score": 92.5, "dci_quintile": 1.0, "is_cra_lmi": true, "income_level": "L", "is_persistent_poverty": false, "is_tribal_overlap": false, "tribal_area_name": null, "aian_pct": 0.0013, "has_nmtc": false, "nmtc_projects": 0, "nmtc_total_usd": 0.0 }, "geometry": { "type": "Polygon", "coordinates": [ [ [ -71.51241, 42.001993 ], [ -71.511805, 42.002501 ], [ -71.510233, 42.003845 ], [ -71.506619, 42.004921 ], [ -71.504338, 42.006539 ], [ -71.503339, 42.00671 ], [ -71.499899, 42.004978 ], [ -71.498218, 42.003109 ], [ -71.499088, 42.002983 ], [ -71.499367, 42.000008 ], [ -71.498199, 41.998085 ], [ -71.505653, 41.998337 ], [ -71.507034, 41.998402 ], [ -71.507797, 41.998436 ], [ -71.509835, 41.999311 ], [ -71.511984, 42.000144 ], [ -71.513347, 42.000162 ], [ -71.51241, 42.001993 ] ] ] } },
{ "type": "Feature", "properties": { "geoid": "44007001200", "county_name": "Providence County", "place_name": null, "state_name": "Rhode Island", "state_abbr": "RI", "is_rural": false, "ui_invest_score": 1.0, "ui_invest_quintile": 1, "dci_score": 82.8, "dci_quintile": 2.0, "is_cra_lmi": true, "income_level": "L", "is_persistent_poverty": false, "is_tribal_overlap": false, "tribal_area_name": null, "aian_pct": 0.0, "has_nmtc": true, "nmtc_projects": 1, "nmtc_total_usd": 5820000.0 }, "geometry": { "type": "Polygon", "coordinates": [ [ [ -71.430481, 41.816689 ], [ -71.428406, 41.816917 ], [ -71.422333, 41.817413 ], [ -71.420662, 41.815285 ], [ -71.422173, 41.812767 ], [ -71.422569, 41.812073 ], [ -71.424377, 41.809406 ], [ -71.424629, 41.808777 ], [ -71.428009, 41.809052 ], [ -71.428322, 41.809742 ], [ -71.429062, 41.81142 ], [ -71.429588, 41.812603 ], [ -71.431335, 41.816589 ], [ -71.430481, 41.816689 ] ] ] } },
{ "type": "Feature", "properties": { "geoid": "44007011000", "county_name": "Providence County", "place_name": null, "state_name": "Rhode Island", "state_abbr": "RI", "is_rural": false, "ui_invest_score": 1.0, "ui_invest_quintile": 1, "dci_score": 84.1, "dci_quintile": 2.0, "is_cra_lmi": true, "income_level": "L", "is_persistent_poverty": false, "is_tribal_overlap": false, "tribal_area_name": null, "aian_pct": 0.0037, "has_nmtc": false, "nmtc_projects": 0, "nmtc_total_usd": 0.0 }, "geometry": { "type": "Polygon", "coordinates": [ [ [ -71.404568, 41.894824 ], [ -71.397243, 41.896782 ], [ -71.394348, 41.894203 ], [ -71.394592, 41.894009 ], [ -71.394073, 41.893356 ], [ -71.39238, 41.890949 ], [ -71.391953, 41.89035 ], [ -71.390907, 41.888657 ], [ -71.392624, 41.888123 ], [ -71.393799, 41.887001 ], [ -71.395981, 41.885738 ], [ -71.397354, 41.885078 ], [ -71.400459, 41.88818 ], [ -71.398979, 41.888641 ], [ -71.400177, 41.889652 ], [ -71.399651, 41.890038 ], [ -71.403107, 41.89267 ], [ -71.404568, 41.894824 ] ] ] } }
]
}
