{
"type": "FeatureCollection",
"name": "50",
"crs": { "type": "name", "properties": { "name": "urn:ogc:def:crs:OGC:1.3:CRS84" } },
"features": [
{ "type": "Feature", "properties": { "geoid": "50021963100", "county_name": "Rutland County", "place_name": null, "state_name": "Vermont", "state_abbr": "VT", "is_rural": true, "dci_score": 83.5, "dci_quintile": 2.0, "is_cra_lmi": false, "income_level": "U", "is_persistent_poverty": false, "is_tribal_overlap": false, "tribal_area_name": null, "aian_pct": 0.0, "has_nmtc": true, "nmtc_projects": 1, "nmtc_total_usd": 970953.0 }, "geometry": { "type": "Polygon", "coordinates": [ [ [ -72.988015, 43.615534 ], [ -72.983893, 43.61603 ], [ -72.985112, 43.621762 ], [ -72.981178, 43.622745 ], [ -72.98018, 43.61772 ], [ -72.978603, 43.617893 ], [ -72.977206, 43.617043 ], [ -72.973948, 43.617384 ], [ -72.973854, 43.616905 ], [ -72.97321, 43.613388 ], [ -72.972644, 43.610619 ], [ -72.972286, 43.608728 ], [ -72.972015, 43.607285 ], [ -72.971793, 43.606105 ], [ -72.978651, 43.605397 ], [ -72.980184, 43.606652 ], [ -72.980356, 43.606806 ], [ -72.980587, 43.607806 ], [ -72.98212, 43.609227 ], [ -72.982491, 43.611505 ], [ -72.987116, 43.611077 ], [ -72.988015, 43.615534 ] ] ] } },
{ "type": "Feature", "properties": { "geoid": "50025967900", "county_name": "Windham County", "place_name": "Rutland", "state_name": "Vermont", "state_abbr": "VT", "is_rural": true, "dci_score": 53.3, "dci_quintile": 5.0, "is_cra_lmi": false, "income_level": "NA", "is_persistent_poverty": false, "is_tribal_overlap": false, "tribal_area_name": null, "aian_pct": 0.0, "has_nmtc": false, "nmtc_projects": 0, "nmtc_total_usd": 0.0 }, "geometry": { "type": "Polygon", "coordinates": [ [ [ -72.921536, 42.967943 ], [ -72.921247, 42.973169 ], [ -72.920165, 42.992715 ], [ -72.879449, 42.990952 ], [ -72.853506, 42.990007 ], [ -72.754234, 42.98665 ], [ -72.759468, 42.96791 ], [ -72.766178, 42.950216 ], [ -72.772104, 42.931875 ], [ -72.776586, 42.924625 ], [ -72.777044, 42.922327 ], [ -72.797731, 42.922284 ], [ -72.840704, 42.924461 ], [ -72.877974, 42.926066 ], [ -72.92379, 42.927442 ], [ -72.921536, 42.967943 ] ] ] } },
{ "type": "Feature", "properties": { "geoid": "50009950200", "county_name": "Essex County", "place_name": null, "state_name": "Vermont", "state_abbr": "VT", "is_rural": true, "dci_score": 76.8, "dci_quintile": 3.0, "is_cra_lmi": true, "income_level": "M", "is_persistent_poverty": false, "is_tribal_overlap": false, "tribal_area_name": null, "aian_pct": 0.0, "has_nmtc": false, "nmtc_projects": 0, "nmtc_total_usd": 0.0 }, "geometry": { "type": "Polygon", "coordinates": [ [ [ -71.974825, 44.787232 ], [ -71.929316, 44.829639 ], [ -71.91995, 44.836895 ], [ -71.877857, 44.878762 ], [ -71.857966, 44.868073 ], [ -71.834282, 44.855223 ], [ -71.76587, 44.819071 ], [ -71.801892, 44.787057 ], [ -71.803523, 44.785593 ], [ -71.810266, 44.779603 ], [ -71.807204, 44.774148 ], [ -71.834651, 44.750022 ], [ -71.857465, 44.726896 ], [ -71.939292, 44.769441 ], [ -71.974825, 44.787232 ] ] ] } },
{ "type": "Feature", "properties": { "geoid": "50003971200", "county_name": "Bennington County", "place_name": null, "state_name": "Vermont", "state_abbr": "VT", "is_rural": true, "dci_score": 80.5, "dci_quintile": 3.0, "is_cra_lmi": false, "income_level": "U", "is_persistent_poverty": false, "is_tribal_overlap": false, "tribal_area_name": null, "aian_pct": 0.0, "has_nmtc": true, "nmtc_projects": 1, "nmtc_total_usd": 7500000.0 }, "geometry": { "type": "Polygon", "coordinates": [ [ [ -73.213924, 42.88597 ], [ -73.210303, 42.888437 ], [ -73.207137, 42.889782 ], [ -73.205507, 42.893049 ], [ -73.202896, 42.892773 ], [ -73.201455, 42.891721 ], [ -73.202096, 42.893334 ], [ -73.202312, 42.89466 ], [ -73.201213, 42.894297 ], [ -73.193253, 42.89384 ], [ -73.187416, 42.893414 ], [ -73.183892, 42.891732 ], [ -73.183116, 42.886215 ], [ -73.180765, 42.885511 ], [ -73.181787, 42.88389 ], [ -73.181407, 42.883765 ], [ -73.17706, 42.88301 ], [ -73.172652, 42.883886 ], [ -73.170765, 42.883958 ], [ -73.168878, 42.883822 ], [ -73.168201, 42.883836 ], [ -73.167574, 42.884008 ], [ -73.16132, 42.884409 ], [ -73.159232, 42.883272 ], [ -73.163846, 42.883157 ], [ -73.171563, 42.881465 ], [ -73.175543, 42.879832 ], [ -73.186088, 42.878912 ], [ -73.186263, 42.878886 ], [ -73.186656, 42.873204 ], [ -73.188096, 42.874162 ], [ -73.197305, 42.875427 ], [ -73.197329, 42.874397 ], [ -73.204018, 42.874725 ], [ -73.20218, 42.880617 ], [ -73.208397, 42.882724 ], [ -73.209442, 42.883345 ], [ -73.211947, 42.884608 ], [ -73.213338, 42.884232 ], [ -73.213924, 42.88597 ] ] ] } },
{ "type": "Feature", "properties": { "geoid": "50005957300", "county_name": "Caledonia County", "place_name": null, "state_name": "Vermont", "state_abbr": "VT", "is_rural": true, "dci_score": 55.7, "dci_quintile": 4.0, "is_cra_lmi": true, "income_level": "M", "is_persistent_poverty": false, "is_tribal_overlap": false, "tribal_area_name": null, "aian_pct": 0.0, "has_nmtc": false, "nmtc_projects": 0, "nmtc_total_usd": 0.0 }, "geometry": { "type": "Polygon", "coordinates": [ [ [ -72.062348, 44.582639 ], [ -72.057688, 44.598417 ], [ -71.999806, 44.590161 ], [ -71.981695, 44.587641 ], [ -71.981954, 44.585326 ], [ -71.983636, 44.581493 ], [ -71.985616, 44.579939 ], [ -71.986252, 44.575879 ], [ -71.989301, 44.568151 ], [ -71.989525, 44.564152 ], [ -71.992226, 44.561182 ], [ -71.994267, 44.559689 ], [ -71.998066, 44.555171 ], [ -72.001876, 44.551613 ], [ -72.003108, 44.547208 ], [ -72.000135, 44.545308 ], [ -72.00017, 44.543923 ], [ -72.001055, 44.541544 ], [ -72.005887, 44.533974 ], [ -72.002885, 44.533588 ], [ -72.003018, 44.53264 ], [ -72.000381, 44.52729 ], [ -72.001162, 44.524312 ], [ -72.000888, 44.520773 ], [ -72.002042, 44.519671 ], [ -72.003701, 44.518206 ], [ -72.006538, 44.516818 ], [ -72.007106, 44.515333 ], [ -72.011586, 44.509315 ], [ -72.017154, 44.503661 ], [ -72.019236, 44.500682 ], [ -72.083499, 44.510365 ], [ -72.062348, 44.582639 ] ] ] } },
{ "type": "Feature", "properties": { "geoid": "50019951100", "county_name": "Orleans County", "place_name": null, "state_name": "Vermont", "state_abbr": "VT", "is_rural": true, "dci_score": 33.8, "dci_quintile": 5.0, "is_cra_lmi": false, "income_level": "U", "is_persistent_poverty": false, "is_tribal_overlap": false, "tribal_area_name": null, "aian_pct": 0.002, "has_nmtc": false, "nmtc_projects": 0, "nmtc_total_usd": 0.0 }, "geometry": { "type": "Polygon", "coordinates": [ [ [ -72.067412, 44.914352 ], [ -72.097547, 44.930346 ], [ -72.065786, 44.930999 ], [ -72.065527, 44.932374 ], [ -72.051274924743595, 45.0063854624646 ], [ -72.051240100972606, 45.006386103669101 ], [ -72.029739, 45.006782 ], [ -72.023292, 45.006792 ], [ -71.986705, 45.007872 ], [ -71.947201, 45.008359 ], [ -71.915009, 45.007791 ], [ -71.899319218792598, 45.008178680301697 ], [ -71.911939, 44.944603 ], [ -71.914156, 44.93301 ], [ -71.920145, 44.901525 ], [ -71.902822, 44.892235 ], [ -71.877857, 44.878762 ], [ -71.91995, 44.836895 ], [ -71.929316, 44.829639 ], [ -71.974825, 44.787232 ], [ -71.999563, 44.80028 ], [ -72.002529, 44.802041 ], [ -72.0413, 44.82202 ], [ -72.119433, 44.864412 ], [ -72.067412, 44.914352 ] ] ] } },
{ "type": "Feature", "properties": { "geoid": "50007004100", "county_name": "Chittenden County", "place_name": null, "state_name": "Vermont", "state_abbr": "VT", "is_rural": true, "dci_score": 55.1, "dci_quintile": 4.0, "is_cra_lmi": false, "income_level": "NA", "is_persistent_poverty": false, "is_tribal_overlap": false, "tribal_area_name": null, "aian_pct": 0.0, "has_nmtc": true, "nmtc_projects": 1, "nmtc_total_usd": 6750000.0 }, "geometry": { "type": "Polygon", "coordinates": [ [ [ -73.21121, 44.480505 ], [ -73.209334, 44.480559 ], [ -73.205693, 44.480664 ], [ -73.203391, 44.480728 ], [ -73.20306, 44.477634 ], [ -73.202987, 44.476286 ], [ -73.2055, 44.476183 ], [ -73.210998, 44.475996 ], [ -73.211047, 44.477161 ], [ -73.211139, 44.479053 ], [ -73.21121, 44.480505 ] ] ] } },
{ "type": "Feature", "properties": { "geoid": "50009950100", "county_name": "Essex County", "place_name": null, "state_name": "Vermont", "state_abbr": "VT", "is_rural": true, "dci_score": 64.0, "dci_quintile": 4.0, "is_cra_lmi": true, "income_level": "M", "is_persistent_poverty": false, "is_tribal_overlap": false, "tribal_area_name": null, "aian_pct": 0.0, "has_nmtc": false, "nmtc_projects": 0, "nmtc_total_usd": 0.0 }, "geometry": { "type": "Polygon", "coordinates": [ [ [ -71.914156, 44.93301 ], [ -71.911939, 44.944603 ], [ -71.899319218792598, 45.008178680301697 ], [ -71.767452, 45.011437 ], [ -71.697765972269295, 45.011420397986903 ], [ -71.691898, 45.011419 ], [ -71.60984, 45.012709 ], [ -71.560562, 45.012555 ], [ -71.556667458020897, 45.012606993582601 ], [ -71.518801530757301, 45.013112517782197 ], [ -71.501088, 45.013349 ], [ -71.465049961356797, 45.013633098079197 ], [ -71.464555, 45.013637 ], [ -71.465964, 45.011919 ], [ -71.473269, 45.010586 ], [ -71.476676, 45.009179 ], [ -71.478458, 45.007486 ], [ -71.480552, 45.002334 ], [ -71.488547836346001, 45.001287520925402 ], [ -71.489675, 45.00114 ], [ -71.494648, 45.003998 ], [ -71.496864, 45.003947 ], [ -71.501055, 45.006742 ], [ -71.504251, 45.008223 ], [ -71.508129, 45.007937 ], [ -71.513859390190504, 45.004603712775499 ], [ -71.514452, 45.004259 ], [ -71.519996, 45.002417 ], [ -71.524794, 45.001921 ], [ -71.525381697089998, 45.0016448045155 ], [ -71.529305, 44.999801 ], [ -71.529667039440895, 44.999527011412503 ], [ -71.536188, 44.994592 ], [ -71.537091, 44.992611 ], [ -71.533713, 44.991963 ], [ -71.532749, 44.991066 ], [ -71.534008, 44.990414 ], [ -71.538143, 44.98985 ], [ -71.538647, 44.987256 ], [ -71.539989683037703, 44.986160085753703 ], [ -71.541324, 44.985071 ], [ -71.54086, 44.983788 ], [ -71.536602, 44.983372 ], [ -71.532818283385794, 44.978153349610302 ], [ -71.532238, 44.977353 ], [ -71.526607, 44.971265 ], [ -71.522035, 44.968545 ], [ -71.523117, 44.966852 ], [ -71.518947, 44.967869 ], [ -71.51886, 44.966622 ], [ -71.523563, 44.964607 ], [ -71.523376, 44.96396 ], [ -71.520216, 44.963487 ], [ -71.518864, 44.963626 ], [ -71.517674, 44.964383 ], [ -71.516246, 44.964089 ], [ -71.514843, 44.958741 ], [ -71.515857, 44.952758 ], [ -71.518987, 44.950115 ], [ -71.517508, 44.948812 ], [ -71.517288, 44.944692 ], [ -71.514933, 44.944159 ], [ -71.515351695665402, 44.942719691780702 ], [ -71.516183, 44.939862 ], [ -71.517983, 44.938745 ], [ -71.520107, 44.939009 ], [ -71.521127, 44.940357 ], [ -71.522441, 44.940289 ], [ -71.523048, 44.939258 ], [ -71.520128, 44.93664 ], [ -71.517077, 44.935876 ], [ -71.51345, 44.928808 ], [ -71.515605, 44.927992 ], [ -71.515437, 44.926923 ], [ -71.509207, 44.923429 ], [ -71.504483, 44.919062 ], [ -71.500788, 44.914535 ], [ -71.500552, 44.913089 ], [ -71.500548, 44.911956 ], [ -71.499945, 44.911174 ], [ -71.498926, 44.910917 ], [ -71.495326, 44.911794 ], [ -71.494403, 44.911837 ], [ -71.493363, 44.911612 ], [ -71.493268947812595, 44.911204328952898 ], [ -71.493082, 44.910394 ], [ -71.494716, 44.910102 ], [ -71.496017, 44.908898 ], [ -71.495951, 44.90736 ], [ -71.494835, 44.905919 ], [ -71.49491, 44.904299 ], [ -71.495378, 44.903621 ], [ -71.495793, 44.903728 ], [ -71.496609, 44.903603 ], [ -71.497841, 44.904342 ], [ -71.499528, 44.904774 ], [ -71.501088, 44.904433 ], [ -71.502473, 44.90272 ], [ -71.504963272717504, 44.9006947611892 ], [ -71.508642, 44.897703 ], [ -71.5132, 44.894785 ], [ -71.51409, 44.893149 ], [ -71.510669, 44.89043 ], [ -71.515641, 44.885371 ], [ -71.518745, 44.884806 ], [ -71.521915, 44.880405 ], [ -71.521979803135693, 44.880350093577498 ], [ -71.523349, 44.87919 ], [ -71.527343, 44.878277 ], [ -71.528889, 44.876928 ], [ -71.528751, 44.873494 ], [ -71.53433, 44.869465 ], [ -71.539286, 44.86863 ], [ -71.545525, 44.866127 ], [ -71.549741, 44.861458 ], [ -71.549747, 44.859696 ], [ -71.547516, 44.856747 ], [ -71.548358, 44.854686 ], [ -71.553217, 44.851858 ], [ -71.555656, 44.849118 ], [ -71.555482, 44.847006 ], [ -71.551424, 44.84216 ], [ -71.550647, 44.838499 ], [ -71.551114, 44.836965 ], [ -71.553328, 44.835164 ], [ -71.556923, 44.834201 ], [ -71.560811, 44.825221 ], [ -71.561496503264607, 44.824359008540803 ], [ -71.562353, 44.823282 ], [ -71.564533, 44.823548 ], [ -71.568404, 44.822703 ], [ -71.573456, 44.820644 ], [ -71.57489, 44.818109 ], [ -71.576865, 44.815197 ], [ -71.57605, 44.812429 ], [ -71.574135, 44.81162 ], [ -71.568672, 44.807457 ], [ -71.56877, 44.805722 ], [ -71.571888, 44.801415 ], [ -71.573129, 44.797947 ], [ -71.571315, 44.793339 ], [ -71.57972, 44.784725 ], [ -71.584177, 44.784794 ], [ -71.592486, 44.782669 ], [ -71.595164, 44.780152 ], [ -71.595099, 44.775405 ], [ -71.601471, 44.772067 ], [ -71.602229414466905, 44.771022732752101 ], [ -71.604615, 44.767738 ], [ -71.610179, 44.765584 ], [ -71.611767, 44.764345 ], [ -71.612856, 44.758998 ], [ -71.616669, 44.756299 ], [ -71.621157, 44.755772 ], [ -71.625482, 44.753788 ], [ -71.630257, 44.753475 ], [ -71.631883, 44.752463 ], [ -71.632043, 44.750269 ], [ -71.63106, 44.748509 ], [ -71.626986, 44.747014 ], [ -71.625148, 44.74275 ], [ -71.626166, 44.739864 ], [ -71.625013, 44.736299 ], [ -71.626248, 44.72904 ], [ -71.625038, 44.727708 ], [ -71.622234, 44.727538 ], [ -71.619079, 44.729035 ], [ -71.617038, 44.72825 ], [ -71.618732, 44.722471 ], [ -71.612548, 44.719186 ], [ -71.612512, 44.716673 ], [ -71.607551, 44.712317 ], [ -71.603948, 44.707583 ], [ -71.6001, 44.705999 ], [ -71.598792, 44.703274 ], [ -71.600975, 44.699934 ], [ -71.600496, 44.698737 ], [ -71.598656, 44.698005 ], [ -71.594136, 44.696932 ], [ -71.593802, 44.695632 ], [ -71.596497, 44.694609 ], [ -71.597955, 44.691767 ], [ -71.596437, 44.687059 ], [ -71.594224, 44.683815 ], [ -71.594208, 44.68144 ], [ -71.596623, 44.679056 ], [ -71.596089, 44.677637 ], [ -71.586162, 44.67435 ], [ -71.582502, 44.674246 ], [ -71.581463, 44.673204 ], [ -71.582027, 44.672018 ], [ -71.586965, 44.67047 ], [ -71.587339, 44.66877 ], [ -71.585157, 44.666057 ], [ -71.58511, 44.663112 ], [ -71.587198, 44.661475 ], [ -71.587237552770802, 44.6610581564277 ], [ -71.587365, 44.659715 ], [ -71.585748, 44.6579 ], [ -71.581315, 44.65545 ], [ -71.5766, 44.656189 ], [ -71.57449, 44.654832 ], [ -71.576098, 44.652762 ], [ -71.579419, 44.652309 ], [ -71.57881, 44.650982 ], [ -71.571626, 44.649897 ], [ -71.569025, 44.65029 ], [ -71.567708, 44.651536 ], [ -71.567053, 44.653349 ], [ -71.565076, 44.653796 ], [ -71.562806, 44.652356 ], [ -71.561667, 44.646822 ], [ -71.55879, 44.644219 ], [ -71.558068096115505, 44.641874374938098 ], [ -71.557866, 44.641218 ], [ -71.559704, 44.639298 ], [ -71.563599, 44.639049 ], [ -71.563279, 44.636648 ], [ -71.559554, 44.634964 ], [ -71.555791, 44.632047 ], [ -71.55214, 44.630082 ], [ -71.54951, 44.630903 ], [ -71.547226, 44.630355 ], [ -71.546931, 44.62855 ], [ -71.551128, 44.627755 ], [ -71.554837, 44.629631 ], [ -71.55735, 44.628448 ], [ -71.556467, 44.627221 ], [ -71.552945, 44.626747 ], [ -71.54971, 44.625129 ], [ -71.547756, 44.625007 ], [ -71.545978, 44.623118 ], [ -71.546948, 44.622123 ], [ -71.550442, 44.62313 ], [ -71.55415, 44.625419 ], [ -71.555062, 44.624185 ], [ -71.555801, 44.622699 ], [ -71.556531, 44.619575 ], [ -71.5556, 44.614326 ], [ -71.553616, 44.608299 ], [ -71.55386, 44.605598 ], [ -71.555233, 44.604034 ], [ -71.558563, 44.603276 ], [ -71.561903, 44.603128 ], [ -71.5622, 44.601592 ], [ -71.560421, 44.599769 ], [ -71.557279, 44.599381 ], [ -71.551562, 44.601227 ], [ -71.550331, 44.600896 ], [ -71.550634, 44.599591 ], [ -71.554151, 44.597961 ], [ -71.554211, 44.595352 ], [ -71.555402, 44.593842 ], [ -71.553372, 44.593171 ], [ -71.549146, 44.594994 ], [ -71.547253, 44.59684 ], [ -71.546087, 44.597377 ], [ -71.545055, 44.596773 ], [ -71.545463, 44.594624 ], [ -71.547424, 44.591831 ], [ -71.545939, 44.590604 ], [ -71.543918, 44.590985 ], [ -71.540175, 44.59327 ], [ -71.538274, 44.593524 ], [ -71.537976, 44.592018 ], [ -71.539878, 44.589969 ], [ -71.540051, 44.588524 ], [ -71.538449, 44.587479 ], [ -71.535946, 44.587776 ], [ -71.535584114332593, 44.5873389686748 ], [ -71.535397, 44.587113 ], [ -71.537182, 44.585259 ], [ -71.537381, 44.583359 ], [ -71.540463, 44.580841 ], [ -71.544491, 44.578476 ], [ -71.546533, 44.577819 ], [ -71.549405, 44.578171 ], [ -71.550594, 44.580389 ], [ -71.55194, 44.581378 ], [ -71.554444, 44.581336 ], [ -71.554883, 44.579628 ], [ -71.553891, 44.577629 ], [ -71.552243, 44.575447 ], [ -71.548168, 44.572676 ], [ -71.547726, 44.571381 ], [ -71.549374, 44.569641 ], [ -71.552826, 44.569209 ], [ -71.556103, 44.570282 ], [ -71.556802146984694, 44.570276358468099 ], [ -71.556804, 44.570506 ], [ -71.557798, 44.571155 ], [ -71.624682, 44.607015 ], [ -71.632424, 44.61174 ], [ -71.65907, 44.625048 ], [ -71.662078, 44.626669 ], [ -71.735394, 44.665243 ], [ -71.837067, 44.716376 ], [ -71.857465, 44.726896 ], [ -71.834651, 44.750022 ], [ -71.807204, 44.774148 ], [ -71.810266, 44.779603 ], [ -71.803523, 44.785593 ], [ -71.801892, 44.787057 ], [ -71.76587, 44.819071 ], [ -71.834282, 44.855223 ], [ -71.857966, 44.868073 ], [ -71.877857, 44.878762 ], [ -71.902822, 44.892235 ], [ -71.920145, 44.901525 ], [ -71.914156, 44.93301 ] ] ] } },
{ "type": "Feature", "properties": { "geoid": "50021962200", "county_name": "Rutland County", "place_name": null, "state_name": "Vermont", "state_abbr": "VT", "is_rural": true, "dci_score": 62.1, "dci_quintile": 4.0, "is_cra_lmi": false, "income_level": "U", "is_persistent_poverty": false, "is_tribal_overlap": false, "tribal_area_name": null, "aian_pct": 0.0029, "has_nmtc": false, "nmtc_projects": 0, "nmtc_total_usd": 0.0 }, "geometry": { "type": "Polygon", "coordinates": [ [ [ -73.156173, 43.842314 ], [ -73.106115, 43.844245 ], [ -73.084438, 43.844863 ], [ -73.029938, 43.846716 ], [ -73.030091, 43.844927 ], [ -73.033083, 43.844189 ], [ -73.030573, 43.841475 ], [ -73.03012, 43.841659 ], [ -73.02936, 43.84192 ], [ -73.029021, 43.842002 ], [ -73.028106, 43.842118 ], [ -73.026833, 43.842113 ], [ -73.01709, 43.80486 ], [ -73.009042, 43.774405 ], [ -73.007459, 43.768276 ], [ -73.006799, 43.765642 ], [ -73.003516, 43.756939 ], [ -73.048342, 43.755561 ], [ -73.056378, 43.755224 ], [ -73.056379, 43.75357 ], [ -73.058329, 43.753129 ], [ -73.058871, 43.751166 ], [ -73.059977, 43.75074 ], [ -73.06262, 43.751893 ], [ -73.06583, 43.752303 ], [ -73.067548, 43.753088 ], [ -73.068608, 43.755456 ], [ -73.07044, 43.75681 ], [ -73.074907, 43.758465 ], [ -73.077647, 43.758858 ], [ -73.078023, 43.756537 ], [ -73.080302, 43.75554 ], [ -73.080236, 43.75438 ], [ -73.131476, 43.752265 ], [ -73.15558, 43.839666 ], [ -73.156173, 43.842314 ] ] ] } },
{ "type": "Feature", "properties": { "geoid": "50017959101", "county_name": "Orange County", "place_name": null, "state_name": "Vermont", "state_abbr": "VT", "is_rural": true, "dci_score": 35.7, "dci_quintile": 5.0, "is_cra_lmi": true, "income_level": "M", "is_persistent_poverty": false, "is_tribal_overlap": false, "tribal_area_name": null, "aian_pct": 0.0058, "has_nmtc": false, "nmtc_projects": 0, "nmtc_total_usd": 0.0 }, "geometry": { "type": "Polygon", "coordinates": [ [ [ -72.467788, 44.112149 ], [ -72.455538, 44.133344 ], [ -72.444433, 44.129202 ], [ -72.443376, 44.1288 ], [ -72.437413, 44.151153 ], [ -72.434559, 44.162097 ], [ -72.424023, 44.202894 ], [ -72.419197, 44.220781 ], [ -72.36888, 44.203888 ], [ -72.343818, 44.19581 ], [ -72.343711, 44.195775 ], [ -72.343487, 44.1957 ], [ -72.343281, 44.195635 ], [ -72.305201, 44.183087 ], [ -72.306549, 44.17777 ], [ -72.307465, 44.174156 ], [ -72.312544, 44.156713 ], [ -72.331369, 44.092406 ], [ -72.337363, 44.093705 ], [ -72.34878, 44.09626 ], [ -72.349042, 44.093392 ], [ -72.381832, 44.008291 ], [ -72.381898, 44.008163 ], [ -72.382765, 44.008497 ], [ -72.502424, 44.050358 ], [ -72.467788, 44.112149 ] ] ] } },
{ "type": "Feature", "properties": { "geoid": "50021963400", "county_name": "Rutland County", "place_name": null, "state_name": "Vermont", "state_abbr": "VT", "is_rural": true, "dci_score": 52.9, "dci_quintile": 5.0, "is_cra_lmi": false, "income_level": "U", "is_persistent_poverty": false, "is_tribal_overlap": false, "tribal_area_name": null, "aian_pct": 0.0, "has_nmtc": false, "nmtc_projects": 0, "nmtc_total_usd": 0.0 }, "geometry": { "type": "Polygon", "coordinates": [ [ [ -73.034966, 43.570745 ], [ -73.033467, 43.570784 ], [ -73.010591, 43.571729 ], [ -72.969348, 43.573239 ], [ -72.965704, 43.573377 ], [ -72.959054, 43.573629 ], [ -72.934162, 43.574797 ], [ -72.928768, 43.48168 ], [ -72.953927, 43.483619 ], [ -72.955752, 43.483762 ], [ -72.955321, 43.489871 ], [ -72.959278, 43.49028 ], [ -72.958741, 43.493239 ], [ -72.963356, 43.493341 ], [ -72.963323, 43.495055 ], [ -72.969537, 43.49532 ], [ -72.975172, 43.495562 ], [ -72.987192, 43.496077 ], [ -72.987611, 43.491567 ], [ -73.005306, 43.492671 ], [ -73.050768, 43.494174 ], [ -73.034966, 43.570745 ] ] ] } },
{ "type": "Feature", "properties": { "geoid": "50021963200", "county_name": "Rutland County", "place_name": null, "state_name": "Vermont", "state_abbr": "VT", "is_rural": true, "dci_score": 83.5, "dci_quintile": 2.0, "is_cra_lmi": false, "income_level": "U", "is_persistent_poverty": false, "is_tribal_overlap": false, "tribal_area_name": null, "aian_pct": 0.0011, "has_nmtc": false, "nmtc_projects": 0, "nmtc_total_usd": 0.0 }, "geometry": { "type": "Polygon", "coordinates": [ [ [ -73.011502, 43.607251 ], [ -73.009763, 43.606929 ], [ -73.007126, 43.608068 ], [ -73.008509, 43.609847 ], [ -73.007302, 43.61035 ], [ -73.005712, 43.60865 ], [ -73.006889, 43.629723 ], [ -72.994439, 43.629982 ], [ -72.988481, 43.629852 ], [ -72.985851, 43.629852 ], [ -72.977861, 43.631267 ], [ -72.977701, 43.630608 ], [ -72.976302, 43.630568 ], [ -72.975472, 43.627037 ], [ -72.975682, 43.627029 ], [ -72.973948, 43.617384 ], [ -72.977206, 43.617043 ], [ -72.978603, 43.617893 ], [ -72.98018, 43.61772 ], [ -72.981178, 43.622745 ], [ -72.985112, 43.621762 ], [ -72.983893, 43.61603 ], [ -72.988015, 43.615534 ], [ -72.987116, 43.611077 ], [ -72.982491, 43.611505 ], [ -72.98212, 43.609227 ], [ -72.980587, 43.607806 ], [ -72.982899, 43.60758 ], [ -72.983872, 43.607489 ], [ -72.988141, 43.606631 ], [ -72.988041, 43.605526 ], [ -72.99202, 43.601723 ], [ -72.992907, 43.601719 ], [ -72.995492, 43.603 ], [ -73.000134, 43.603382 ], [ -73.002619, 43.602133 ], [ -73.004238, 43.604069 ], [ -73.005787, 43.604043 ], [ -73.007352, 43.604273 ], [ -73.007329, 43.604361 ], [ -73.008761, 43.604533 ], [ -73.009105, 43.605915 ], [ -73.010925, 43.605646 ], [ -73.011502, 43.607251 ] ] ] } },
{ "type": "Feature", "properties": { "geoid": "50007004200", "county_name": "Chittenden County", "place_name": null, "state_name": "Vermont", "state_abbr": "VT", "is_rural": true, "dci_score": 55.1, "dci_quintile": 4.0, "is_cra_lmi": true, "income_level": "M", "is_persistent_poverty": false, "is_tribal_overlap": false, "tribal_area_name": null, "aian_pct": 0.0, "has_nmtc": true, "nmtc_projects": 1, "nmtc_total_usd": 0.0 }, "geometry": { "type": "Polygon", "coordinates": [ [ [ -73.222247, 44.4843 ], [ -73.219288, 44.484541 ], [ -73.217734, 44.484601 ], [ -73.211464, 44.484822 ], [ -73.205911, 44.48492 ], [ -73.205693, 44.480664 ], [ -73.209334, 44.480559 ], [ -73.21121, 44.480505 ], [ -73.217452, 44.480298 ], [ -73.219041, 44.480264 ], [ -73.21916, 44.482046 ], [ -73.220232, 44.482004 ], [ -73.222247, 44.4843 ] ] ] } },
{ "type": "Feature", "properties": { "geoid": "50027966501", "county_name": "Windsor County", "place_name": null, "state_name": "Vermont", "state_abbr": "VT", "is_rural": true, "dci_score": 37.9, "dci_quintile": 5.0, "is_cra_lmi": false, "income_level": "U", "is_persistent_poverty": false, "is_tribal_overlap": false, "tribal_area_name": null, "aian_pct": 0.0, "has_nmtc": false, "nmtc_projects": 0, "nmtc_total_usd": 0.0 }, "geometry": { "type": "Polygon", "coordinates": [ [ [ -72.681442, 43.322429 ], [ -72.679217, 43.351974 ], [ -72.662467, 43.351128 ], [ -72.625617, 43.34921 ], [ -72.607079, 43.348144 ], [ -72.545447, 43.345247 ], [ -72.546478, 43.334947 ], [ -72.546397, 43.331568 ], [ -72.547705, 43.293248 ], [ -72.548013, 43.292278 ], [ -72.548248, 43.279577 ], [ -72.549143, 43.235897 ], [ -72.549911, 43.235825 ], [ -72.552966, 43.235535 ], [ -72.555483, 43.235296 ], [ -72.676243, 43.224083 ], [ -72.676316, 43.222665 ], [ -72.68544, 43.22258 ], [ -72.681442, 43.322429 ] ] ] } },
{ "type": "Feature", "properties": { "geoid": "50003970900", "county_name": "Bennington County", "place_name": "Bennington", "state_name": "Vermont", "state_abbr": "VT", "is_rural": true, "dci_score": 80.5, "dci_quintile": 3.0, "is_cra_lmi": true, "income_level": "M", "is_persistent_poverty": false, "is_tribal_overlap": false, "tribal_area_name": null, "aian_pct": 0.0, "has_nmtc": false, "nmtc_projects": 0, "nmtc_total_usd": 0.0 }, "geometry": { "type": "Polygon", "coordinates": [ [ [ -73.211707, 42.905315 ], [ -73.210721, 42.920365 ], [ -73.210328, 42.92268 ], [ -73.208556, 42.926465 ], [ -73.208484, 42.92791 ], [ -73.210008, 42.930925 ], [ -73.210041, 42.932705 ], [ -73.193258, 42.932231 ], [ -73.187019, 42.93207 ], [ -73.183226, 42.931962 ], [ -73.146004, 42.930974 ], [ -73.150056, 42.887367 ], [ -73.149787, 42.883774 ], [ -73.149849, 42.883188 ], [ -73.152033, 42.882841 ], [ -73.159232, 42.883272 ], [ -73.16132, 42.884409 ], [ -73.167574, 42.884008 ], [ -73.168201, 42.883836 ], [ -73.168878, 42.883822 ], [ -73.170765, 42.883958 ], [ -73.172652, 42.883886 ], [ -73.17706, 42.88301 ], [ -73.181407, 42.883765 ], [ -73.181787, 42.88389 ], [ -73.180765, 42.885511 ], [ -73.183116, 42.886215 ], [ -73.183892, 42.891732 ], [ -73.187416, 42.893414 ], [ -73.193253, 42.89384 ], [ -73.201213, 42.894297 ], [ -73.202312, 42.89466 ], [ -73.212132, 42.900941 ], [ -73.211707, 42.905315 ] ] ] } },
{ "type": "Feature", "properties": { "geoid": "50019951500", "county_name": "Orleans County", "place_name": null, "state_name": "Vermont", "state_abbr": "VT", "is_rural": true, "dci_score": 70.7, "dci_quintile": 3.0, "is_cra_lmi": true, "income_level": "M", "is_persistent_poverty": false, "is_tribal_overlap": false, "tribal_area_name": null, "aian_pct": 0.0, "has_nmtc": false, "nmtc_projects": 0, "nmtc_total_usd": 0.0 }, "geometry": { "type": "Polygon", "coordinates": [ [ [ -72.239591, 44.940676 ], [ -72.238381, 44.943855 ], [ -72.241935, 44.94452 ], [ -72.23975, 44.94664 ], [ -72.242247, 44.947969 ], [ -72.241204, 44.95177 ], [ -72.237158, 44.950699 ], [ -72.233935, 44.950493 ], [ -72.22636, 44.953644 ], [ -72.221295, 44.955756 ], [ -72.22031, 44.956567 ], [ -72.209345, 44.960084 ], [ -72.207502, 44.960304 ], [ -72.202982, 44.96257 ], [ -72.204351, 44.965605 ], [ -72.20219, 44.966181 ], [ -72.201203, 44.963437 ], [ -72.199146, 44.962884 ], [ -72.19483, 44.964607 ], [ -72.192932, 44.963185 ], [ -72.194499, 44.959897 ], [ -72.203571, 44.943608 ], [ -72.206219, 44.937044 ], [ -72.20631, 44.936427 ], [ -72.204598, 44.93641 ], [ -72.206151, 44.933168 ], [ -72.208446, 44.932481 ], [ -72.212737, 44.92935 ], [ -72.212121, 44.927818 ], [ -72.210593, 44.927029 ], [ -72.211718, 44.924608 ], [ -72.21386, 44.925147 ], [ -72.216315, 44.923258 ], [ -72.217209, 44.921812 ], [ -72.215788, 44.922322 ], [ -72.214485, 44.92143 ], [ -72.215088, 44.918529 ], [ -72.213886, 44.914877 ], [ -72.243248, 44.930615 ], [ -72.241494, 44.932289 ], [ -72.239281, 44.934407 ], [ -72.243668, 44.936702 ], [ -72.239591, 44.940676 ] ] ] } },
{ "type": "Feature", "properties": { "geoid": "50023955501", "county_name": "Washington County", "place_name": null, "state_name": "Vermont", "state_abbr": "VT", "is_rural": true, "dci_score": 56.2, "dci_quintile": 4.0, "is_cra_lmi": false, "income_level": "U", "is_persistent_poverty": false, "is_tribal_overlap": false, "tribal_area_name": null, "aian_pct": 0.0, "has_nmtc": false, "nmtc_projects": 0, "nmtc_total_usd": 0.0 }, "geometry": { "type": "Polygon", "coordinates": [ [ [ -72.783065, 44.130264 ], [ -72.763905, 44.149815 ], [ -72.770994, 44.153773 ], [ -72.749273, 44.17674 ], [ -72.754686, 44.180382 ], [ -72.740774, 44.19705 ], [ -72.748377, 44.201186 ], [ -72.74039, 44.210607 ], [ -72.737789, 44.213045 ], [ -72.683684, 44.185267 ], [ -72.670827, 44.181926 ], [ -72.646623, 44.175759 ], [ -72.646725, 44.174697 ], [ -72.650524, 44.174152 ], [ -72.652072, 44.170792 ], [ -72.65643, 44.166437 ], [ -72.656747, 44.161388 ], [ -72.653416, 44.159779 ], [ -72.655339, 44.157367 ], [ -72.655431, 44.154985 ], [ -72.654061, 44.152245 ], [ -72.654855, 44.149233 ], [ -72.655924, 44.149553 ], [ -72.659065, 44.150201 ], [ -72.660475, 44.148742 ], [ -72.661229, 44.146644 ], [ -72.663156, 44.146031 ], [ -72.66311, 44.143747 ], [ -72.666306, 44.141344 ], [ -72.665783, 44.139085 ], [ -72.668698, 44.134822 ], [ -72.667491, 44.134041 ], [ -72.666751, 44.134328 ], [ -72.664781, 44.134121 ], [ -72.665663, 44.132808 ], [ -72.665402, 44.131092 ], [ -72.666069, 44.128735 ], [ -72.665704, 44.128319 ], [ -72.666005, 44.126953 ], [ -72.664893, 44.124249 ], [ -72.665543, 44.122708 ], [ -72.667264, 44.12119 ], [ -72.670122, 44.12125 ], [ -72.67134, 44.11787 ], [ -72.673424, 44.117921 ], [ -72.679271, 44.115978 ], [ -72.679382, 44.114238 ], [ -72.681821, 44.114779 ], [ -72.685252, 44.113322 ], [ -72.686553, 44.110882 ], [ -72.688705, 44.110322 ], [ -72.691709, 44.110491 ], [ -72.694758, 44.112425 ], [ -72.697785, 44.112504 ], [ -72.700673, 44.113588 ], [ -72.703668, 44.11364 ], [ -72.70341, 44.114854 ], [ -72.705015, 44.116584 ], [ -72.707562, 44.115856 ], [ -72.70977, 44.117174 ], [ -72.716692, 44.118119 ], [ -72.719011, 44.117665 ], [ -72.722005, 44.115926 ], [ -72.725528, 44.116512 ], [ -72.728283, 44.115107 ], [ -72.770466, 44.126696 ], [ -72.783065, 44.130264 ] ] ] } },
{ "type": "Feature", "properties": { "geoid": "50007000600", "county_name": "Chittenden County", "place_name": null, "state_name": "Vermont", "state_abbr": "VT", "is_rural": true, "dci_score": 55.1, "dci_quintile": 4.0, "is_cra_lmi": true, "income_level": "M", "is_persistent_poverty": false, "is_tribal_overlap": false, "tribal_area_name": null, "aian_pct": 0.0, "has_nmtc": true, "nmtc_projects": 1, "nmtc_total_usd": 2500000.0 }, "geometry": { "type": "Polygon", "coordinates": [ [ [ -73.206095, 44.488668 ], [ -73.205507, 44.489687 ], [ -73.204557, 44.489645 ], [ -73.202431, 44.488983 ], [ -73.202762, 44.490316 ], [ -73.204045, 44.491127 ], [ -73.201728, 44.491124 ], [ -73.201712, 44.491125 ], [ -73.200447, 44.489831 ], [ -73.200121, 44.489695 ], [ -73.199435, 44.489525 ], [ -73.196841, 44.489173 ], [ -73.195862, 44.489117 ], [ -73.193396, 44.489512 ], [ -73.1924, 44.489867 ], [ -73.191666, 44.489803 ], [ -73.191308, 44.489518 ], [ -73.190933, 44.489158 ], [ -73.189198, 44.488562 ], [ -73.188868, 44.487411 ], [ -73.188101, 44.487473 ], [ -73.186641, 44.489008 ], [ -73.186629, 44.489131 ], [ -73.184808, 44.489087 ], [ -73.182325, 44.48889 ], [ -73.181473, 44.485332 ], [ -73.180126, 44.484386 ], [ -73.176203, 44.484642 ], [ -73.180277, 44.480935 ], [ -73.189955, 44.472532 ], [ -73.190183, 44.472862 ], [ -73.192667, 44.482244 ], [ -73.190408, 44.483195 ], [ -73.192232, 44.484503 ], [ -73.19307, 44.48557 ], [ -73.194988, 44.483945 ], [ -73.196473, 44.483217 ], [ -73.194246, 44.481541 ], [ -73.196026, 44.480808 ], [ -73.203391, 44.480728 ], [ -73.205693, 44.480664 ], [ -73.205911, 44.48492 ], [ -73.206095, 44.488668 ] ] ] } },
{ "type": "Feature", "properties": { "geoid": "50025968500", "county_name": "Windham County", "place_name": null, "state_name": "Vermont", "state_abbr": "VT", "is_rural": true, "dci_score": 64.7, "dci_quintile": 4.0, "is_cra_lmi": true, "income_level": "M", "is_persistent_poverty": false, "is_tribal_overlap": false, "tribal_area_name": null, "aian_pct": 0.0, "has_nmtc": true, "nmtc_projects": 4, "nmtc_total_usd": 20607756.0 }, "geometry": { "type": "Polygon", "coordinates": [ [ [ -72.58938, 42.825832 ], [ -72.589233, 42.829908 ], [ -72.586788, 42.830691 ], [ -72.585535, 42.833233 ], [ -72.584843, 42.836784 ], [ -72.583939, 42.837809 ], [ -72.583218, 42.838782 ], [ -72.582939, 42.844529 ], [ -72.582892, 42.845225 ], [ -72.585615, 42.849506 ], [ -72.585165, 42.850071 ], [ -72.583532, 42.850164 ], [ -72.572192, 42.851713 ], [ -72.569866, 42.852277 ], [ -72.568419, 42.852312 ], [ -72.563826, 42.853264 ], [ -72.559734, 42.853328 ], [ -72.559896, 42.854703 ], [ -72.556270395012007, 42.855292562325303 ], [ -72.557247, 42.853019 ], [ -72.556576630203395, 42.851911951212699 ], [ -72.556282382898104, 42.851426031166497 ], [ -72.553426, 42.846709 ], [ -72.54855, 42.842021 ], [ -72.547402, 42.837587 ], [ -72.547244, 42.834192 ], [ -72.546050090642396, 42.827814628935997 ], [ -72.545669, 42.825779 ], [ -72.5454185789212, 42.824294640234697 ], [ -72.54627, 42.824151 ], [ -72.553348, 42.824005 ], [ -72.561454, 42.824179 ], [ -72.567734, 42.824338 ], [ -72.574714, 42.824517 ], [ -72.583156, 42.824733 ], [ -72.588734, 42.824877 ], [ -72.589415, 42.824896 ], [ -72.58938, 42.825832 ] ] ] } },
{ "type": "Feature", "properties": { "geoid": "50007000300", "county_name": "Chittenden County", "place_name": null, "state_name": "Vermont", "state_abbr": "VT", "is_rural": true, "dci_score": 55.0, "dci_quintile": 4.0, "is_cra_lmi": true, "income_level": "L", "is_persistent_poverty": false, "is_tribal_overlap": false, "tribal_area_name": null, "aian_pct": 0.0012, "has_nmtc": true, "nmtc_projects": 1, "nmtc_total_usd": 10500000.0 }, "geometry": { "type": "Polygon", "coordinates": [ [ [ -73.255485, 44.524796 ], [ -73.253318, 44.524536 ], [ -73.249924, 44.522773 ], [ -73.249888, 44.524966 ], [ -73.248619, 44.526608 ], [ -73.242616, 44.528973 ], [ -73.240638, 44.528225 ], [ -73.240068, 44.525265 ], [ -73.237307, 44.522761 ], [ -73.236944, 44.521897 ], [ -73.23769, 44.519653 ], [ -73.239496, 44.518285 ], [ -73.238308, 44.516435 ], [ -73.235573, 44.515583 ], [ -73.233081, 44.513446 ], [ -73.231975, 44.513159 ], [ -73.229611, 44.513977 ], [ -73.228272, 44.515802 ], [ -73.224618, 44.516739 ], [ -73.220149, 44.516264 ], [ -73.2188, 44.515114 ], [ -73.223985, 44.513431 ], [ -73.226572, 44.513158 ], [ -73.227817, 44.512361 ], [ -73.228706, 44.510408 ], [ -73.228423, 44.509081 ], [ -73.22703, 44.507282 ], [ -73.224041, 44.505971 ], [ -73.223381, 44.506131 ], [ -73.219446, 44.509386 ], [ -73.218984, 44.509607 ], [ -73.218005, 44.509979 ], [ -73.216867, 44.510156 ], [ -73.216517, 44.510126 ], [ -73.215388, 44.509807 ], [ -73.215036, 44.509624 ], [ -73.214468, 44.509192 ], [ -73.212308, 44.505477 ], [ -73.2081, 44.503308 ], [ -73.205476, 44.502606 ], [ -73.203253, 44.501032 ], [ -73.201711, 44.496825 ], [ -73.203141, 44.494352 ], [ -73.202375, 44.492367 ], [ -73.201746, 44.491191 ], [ -73.201712, 44.491125 ], [ -73.201728, 44.491124 ], [ -73.204045, 44.491127 ], [ -73.202762, 44.490316 ], [ -73.202431, 44.488983 ], [ -73.204557, 44.489645 ], [ -73.205507, 44.489687 ], [ -73.206095, 44.488668 ], [ -73.205911, 44.48492 ], [ -73.211464, 44.484822 ], [ -73.217734, 44.484601 ], [ -73.219288, 44.484541 ], [ -73.222247, 44.4843 ], [ -73.223326, 44.483138 ], [ -73.226429, 44.485919 ], [ -73.22688, 44.487779 ], [ -73.226128, 44.489221 ], [ -73.222864, 44.491015 ], [ -73.230183, 44.500431 ], [ -73.230707, 44.502274 ], [ -73.231316, 44.504008 ], [ -73.234147, 44.506878 ], [ -73.233332, 44.509553 ], [ -73.235326, 44.51404 ], [ -73.241335, 44.517602 ], [ -73.244982, 44.520558 ], [ -73.246154, 44.521172 ], [ -73.248196, 44.52176 ], [ -73.251061, 44.521827 ], [ -73.254513, 44.522327 ], [ -73.255485, 44.524796 ] ] ] } },
{ "type": "Feature", "properties": { "geoid": "50025967000", "county_name": "Windham County", "place_name": null, "state_name": "Vermont", "state_abbr": "VT", "is_rural": true, "dci_score": 65.8, "dci_quintile": 4.0, "is_cra_lmi": false, "income_level": "U", "is_persistent_poverty": false, "is_tribal_overlap": false, "tribal_area_name": null, "aian_pct": 0.0053, "has_nmtc": false, "nmtc_projects": 0, "nmtc_total_usd": 0.0 }, "geometry": { "type": "Polygon", "coordinates": [ [ [ -72.476929, 43.138723 ], [ -72.474872, 43.144816 ], [ -72.474943, 43.150556 ], [ -72.473647, 43.154141 ], [ -72.471759, 43.156356 ], [ -72.466679, 43.159945 ], [ -72.464023, 43.162426 ], [ -72.462362, 43.165978 ], [ -72.462288, 43.16884 ], [ -72.463258, 43.178746 ], [ -72.46312, 43.183226 ], [ -72.460039, 43.183029 ], [ -72.459474, 43.18274 ], [ -72.451430916722003, 43.172977426991999 ], [ -72.452556, 43.172117 ], [ -72.451868, 43.170174 ], [ -72.4521, 43.161414 ], [ -72.452093744289201, 43.161342419572598 ], [ -72.451553, 43.155155 ], [ -72.451802, 43.153486 ], [ -72.452801, 43.151977 ], [ -72.456537, 43.149528 ], [ -72.45714, 43.148493 ], [ -72.45689, 43.146558 ], [ -72.451986, 43.138924 ], [ -72.448303, 43.137187 ], [ -72.444214, 43.13737 ], [ -72.441904, 43.136615 ], [ -72.440905, 43.135793 ], [ -72.440872397652299, 43.135376478902401 ], [ -72.440624, 43.132203 ], [ -72.44078, 43.131472 ], [ -72.442746, 43.131152 ], [ -72.442933, 43.130192 ], [ -72.440967, 43.127608 ], [ -72.438274729863295, 43.125345979354499 ], [ -72.4401, 43.12511 ], [ -72.442408, 43.1252 ], [ -72.443249, 43.125234 ], [ -72.449827, 43.125499 ], [ -72.463487, 43.125734 ], [ -72.470919, 43.125808 ], [ -72.47166, 43.125816 ], [ -72.473547, 43.127901 ], [ -72.476678, 43.13284 ], [ -72.477359, 43.135429 ], [ -72.476929, 43.138723 ] ] ] } },
{ "type": "Feature", "properties": { "geoid": "50011010700", "county_name": "Franklin County", "place_name": null, "state_name": "Vermont", "state_abbr": "VT", "is_rural": true, "dci_score": 56.0, "dci_quintile": 4.0, "is_cra_lmi": true, "income_level": "M", "is_persistent_poverty": false, "is_tribal_overlap": false, "tribal_area_name": null, "aian_pct": 0.0305, "has_nmtc": true, "nmtc_projects": 1, "nmtc_total_usd": 0.0 }, "geometry": { "type": "Polygon", "coordinates": [ [ [ -73.101097, 44.81159 ], [ -73.101159, 44.811594 ], [ -73.100406, 44.813143 ], [ -73.09771, 44.819394 ], [ -73.096803, 44.819294 ], [ -73.093915, 44.818954 ], [ -73.090052, 44.824236 ], [ -73.083287, 44.821736 ], [ -73.081156, 44.82294 ], [ -73.082409, 44.816432 ], [ -73.083473, 44.810792 ], [ -73.083552, 44.810366 ], [ -73.084183, 44.807491 ], [ -73.084771, 44.806663 ], [ -73.085768, 44.805385 ], [ -73.094299, 44.794797 ], [ -73.09449, 44.79481 ], [ -73.095185, 44.795031 ], [ -73.091935, 44.799102 ], [ -73.090607, 44.799633 ], [ -73.092437, 44.802296 ], [ -73.096127, 44.80365 ], [ -73.094548, 44.805807 ], [ -73.09663, 44.806583 ], [ -73.101412, 44.808309 ], [ -73.101097, 44.81159 ] ] ] } },
{ "type": "Feature", "properties": { "geoid": "50011010300", "county_name": "Franklin County", "place_name": null, "state_name": "Vermont", "state_abbr": "VT", "is_rural": true, "dci_score": 64.2, "dci_quintile": 4.0, "is_cra_lmi": true, "income_level": "M", "is_persistent_poverty": false, "is_tribal_overlap": false, "tribal_area_name": null, "aian_pct": 0.0023, "has_nmtc": true, "nmtc_projects": 1, "nmtc_total_usd": 422500.0 }, "geometry": { "type": "Polygon", "coordinates": [ [ [ -72.701838182067505, 45.0155682906625 ], [ -72.67477, 45.015459 ], [ -72.58988, 45.013237 ], [ -72.588005827096794, 45.013023698991802 ], [ -72.586752, 45.012881 ], [ -72.582371, 45.011543 ], [ -72.555912, 45.008304 ], [ -72.553880154638605, 45.008265461859096 ], [ -72.536498, 44.926114 ], [ -72.541383, 44.925977 ], [ -72.53328, 44.834081 ], [ -72.579075, 44.780896 ], [ -72.594404, 44.790299 ], [ -72.597899, 44.787055 ], [ -72.616729, 44.795844 ], [ -72.613597, 44.800417 ], [ -72.678379, 44.802482 ], [ -72.678433, 44.839367 ], [ -72.661552, 44.840093 ], [ -72.667009, 44.880727 ], [ -72.667143, 44.881802 ], [ -72.672391, 44.92154 ], [ -72.67616, 44.928441 ], [ -72.69362, 44.987648 ], [ -72.701838182067505, 45.0155682906625 ] ] ] } },
{ "type": "Feature", "properties": { "geoid": "50025968400", "county_name": "Windham County", "place_name": null, "state_name": "Vermont", "state_abbr": "VT", "is_rural": true, "dci_score": 64.7, "dci_quintile": 4.0, "is_cra_lmi": true, "income_level": "M", "is_persistent_poverty": false, "is_tribal_overlap": false, "tribal_area_name": null, "aian_pct": 0.0, "has_nmtc": false, "nmtc_projects": 0, "nmtc_total_usd": 0.0 }, "geometry": { "type": "Polygon", "coordinates": [ [ [ -72.677363, 42.899655 ], [ -72.62216, 42.898197 ], [ -72.600426, 42.897781 ], [ -72.597161, 42.894834 ], [ -72.595839, 42.892638 ], [ -72.594475, 42.887921 ], [ -72.592392, 42.882887 ], [ -72.592453, 42.882261 ], [ -72.59206, 42.881174 ], [ -72.591134, 42.878338 ], [ -72.589397, 42.876977 ], [ -72.591115, 42.872943 ], [ -72.59488, 42.868495 ], [ -72.594225, 42.866166 ], [ -72.592083, 42.86404 ], [ -72.591343, 42.862403 ], [ -72.589216, 42.859804 ], [ -72.588272, 42.859005 ], [ -72.587672, 42.858274 ], [ -72.586157, 42.855549 ], [ -72.584884, 42.854131 ], [ -72.584204, 42.853025 ], [ -72.58379, 42.852365 ], [ -72.583532, 42.850164 ], [ -72.585165, 42.850071 ], [ -72.585615, 42.849506 ], [ -72.582892, 42.845225 ], [ -72.582939, 42.844529 ], [ -72.583218, 42.838782 ], [ -72.583939, 42.837809 ], [ -72.584843, 42.836784 ], [ -72.585535, 42.833233 ], [ -72.586788, 42.830691 ], [ -72.589233, 42.829908 ], [ -72.58938, 42.825832 ], [ -72.589415, 42.824896 ], [ -72.600336, 42.825175 ], [ -72.6532, 42.826941 ], [ -72.680629, 42.827279 ], [ -72.677363, 42.899655 ] ] ] } }
]
}
