{
"type": "FeatureCollection",
"name": "56",
"crs": { "type": "name", "properties": { "name": "urn:ogc:def:crs:OGC:1.3:CRS84" } },
"features": [
{ "type": "Feature", "properties": { "geoid": "56001963500", "county_name": "Albany County", "place_name": "Laramie", "state_name": "Wyoming", "state_abbr": "WY", "is_rural": true, "ui_invest_score": 2.0, "ui_invest_quintile": 2, "dci_score": 40.4, "dci_quintile": 5.0, "is_cra_lmi": true, "income_level": "M", "is_persistent_poverty": false, "is_tribal_overlap": false, "tribal_area_name": null, "aian_pct": 0.0008, "has_nmtc": true, "nmtc_projects": 1, "nmtc_total_usd": 0.0 }, "geometry": { "type": "Polygon", "coordinates": [ [ [ -105.585545, 41.312448 ], [ -105.585174, 41.316198 ], [ -105.583865, 41.316124 ], [ -105.577114, 41.315718 ], [ -105.577099, 41.318562 ], [ -105.567289, 41.318937 ], [ -105.563648, 41.320632 ], [ -105.557669, 41.320728 ], [ -105.557569, 41.313473 ], [ -105.557511, 41.309052 ], [ -105.559806, 41.309141 ], [ -105.564921, 41.309396 ], [ -105.573256, 41.309833 ], [ -105.57792, 41.310064 ], [ -105.577255, 41.310975 ], [ -105.585641, 41.311497 ], [ -105.585545, 41.312448 ] ] ] } },
{ "type": "Feature", "properties": { "geoid": "56013940100", "county_name": "Fremont County", "place_name": null, "state_name": "Wyoming", "state_abbr": "WY", "is_rural": true, "ui_invest_score": 3.0, "ui_invest_quintile": 3, "dci_score": 92.8, "dci_quintile": 1.0, "is_cra_lmi": true, "income_level": "M", "is_persistent_poverty": false, "is_tribal_overlap": true, "tribal_area_name": "Wind River Reservation", "aian_pct": 0.8121, "has_nmtc": true, "nmtc_projects": 1, "nmtc_total_usd": 9000000.0 }, "geometry": { "type": "Polygon", "coordinates": [ [ [ -109.474296, 43.491315 ], [ -109.471832, 43.49239 ], [ -109.471458, 43.493159 ], [ -109.473352, 43.494937 ], [ -109.472895, 43.497431 ], [ -109.470729, 43.498376 ], [ -109.470714, 43.499658 ], [ -109.469175, 43.500752 ], [ -109.470801, 43.502678 ], [ -109.469735, 43.504264 ], [ -109.470441, 43.505309 ], [ -109.466266, 43.508179 ], [ -109.465884, 43.510063 ], [ -109.464148, 43.511654 ], [ -109.465305, 43.513056 ], [ -109.464536, 43.514711 ], [ -109.467531, 43.515898 ], [ -109.467575, 43.516686 ], [ -109.466021, 43.518693 ], [ -109.467467, 43.520233 ], [ -109.4667, 43.52193 ], [ -109.46386, 43.524013 ], [ -109.464911, 43.526695 ], [ -109.463752, 43.527573 ], [ -109.464666, 43.529119 ], [ -109.463742, 43.530134 ], [ -109.464405, 43.532544 ], [ -109.462192, 43.534862 ], [ -109.462176, 43.536012 ], [ -109.463758, 43.536838 ], [ -109.462941, 43.538725 ], [ -109.464127, 43.540418 ], [ -109.46247, 43.540619 ], [ -109.462927, 43.541911 ], [ -109.461767, 43.542943 ], [ -109.459733, 43.543614 ], [ -109.459431, 43.545678 ], [ -109.457942, 43.547181 ], [ -109.45831, 43.549338 ], [ -109.45626, 43.551728 ], [ -109.45631, 43.552791 ], [ -109.458413, 43.555851 ], [ -109.456827, 43.558904 ], [ -109.458239, 43.559286 ], [ -109.457083, 43.560905 ], [ -109.457764, 43.56206 ], [ -109.456255, 43.563591 ], [ -109.456005, 43.566634 ], [ -109.457143, 43.567949 ], [ -109.455692, 43.570975 ], [ -109.455858, 43.572752 ], [ -109.454613, 43.573336 ], [ -109.455143, 43.576292 ], [ -109.454148, 43.577997 ], [ -109.453173, 43.577774 ], [ -109.451998, 43.579393 ], [ -109.452213, 43.581115 ], [ -109.449625, 43.582351 ], [ -109.450589, 43.585997 ], [ -109.446347, 43.587616 ], [ -109.445199, 43.588886 ], [ -109.445522, 43.589799 ], [ -109.443454, 43.589477 ], [ -109.44274, 43.59106 ], [ -109.440623, 43.591143 ], [ -109.44021, 43.592256 ], [ -109.43871, 43.591536 ], [ -109.435923, 43.592253 ], [ -109.43584, 43.593244 ], [ -109.433013, 43.593988 ], [ -109.432433, 43.59486 ], [ -109.429947, 43.595818 ], [ -109.427822, 43.597717 ], [ -109.4253, 43.59894 ], [ -109.4206, 43.599252 ], [ -109.420146, 43.600462 ], [ -109.418168, 43.600742 ], [ -109.413242, 43.602336 ], [ -109.412264, 43.603706 ], [ -109.410867, 43.604147 ], [ -109.410155, 43.602712 ], [ -109.407485, 43.602996 ], [ -109.405001, 43.604583 ], [ -109.403153, 43.604669 ], [ -109.400019, 43.608258 ], [ -109.39848, 43.608292 ], [ -109.397769, 43.610462 ], [ -109.39562, 43.612444 ], [ -109.394335, 43.6123 ], [ -109.393019, 43.614241 ], [ -109.391429, 43.615109 ], [ -109.388887, 43.615271 ], [ -109.387233, 43.61854 ], [ -109.383309, 43.620674 ], [ -109.382462, 43.621789 ], [ -109.382128, 43.623764 ], [ -109.384388, 43.627569 ], [ -109.384039, 43.628304 ], [ -109.385512, 43.628993 ], [ -109.385951, 43.63205 ], [ -109.385166, 43.633316 ], [ -109.383319, 43.633597 ], [ -109.383058, 43.634532 ], [ -109.379313, 43.636537 ], [ -109.378183, 43.637897 ], [ -109.378236, 43.639166 ], [ -109.377041, 43.640133 ], [ -109.374113, 43.641179 ], [ -109.373457, 43.642558 ], [ -109.371544, 43.643251 ], [ -109.370654, 43.644751 ], [ -109.369291, 43.644862 ], [ -109.365126, 43.64801 ], [ -109.363529, 43.650644 ], [ -109.363262, 43.65317 ], [ -109.365595, 43.657237 ], [ -109.365923, 43.659763 ], [ -109.368021, 43.662449 ], [ -109.368104, 43.664882 ], [ -109.368796, 43.6659 ], [ -109.372956, 43.666175 ], [ -109.373445, 43.669172 ], [ -109.371916, 43.672076 ], [ -109.368607, 43.673776 ], [ -109.367997, 43.675235 ], [ -109.368009, 43.676612 ], [ -109.369011, 43.678094 ], [ -109.358952, 43.686453 ], [ -109.304031, 43.720719 ], [ -109.274829, 43.741453 ], [ -109.250695, 43.758745 ], [ -109.249674, 43.759233 ], [ -109.244679, 43.758775 ], [ -109.242837, 43.760024 ], [ -109.239222, 43.760984 ], [ -109.235824, 43.762261 ], [ -109.233656, 43.762132 ], [ -109.229872, 43.758569 ], [ -109.228107, 43.756397 ], [ -109.224306, 43.749955 ], [ -109.222852, 43.74877 ], [ -109.222768, 43.747464 ], [ -109.216195, 43.741358 ], [ -109.214256, 43.737232 ], [ -109.212212, 43.736146 ], [ -109.20935, 43.732942 ], [ -109.208169, 43.730642 ], [ -109.208524, 43.728299 ], [ -109.206639, 43.726154 ], [ -109.206774, 43.723597 ], [ -109.200963, 43.719498 ], [ -109.198549, 43.71603 ], [ -109.197958, 43.713726 ], [ -109.195129, 43.710774 ], [ -109.194206, 43.710203 ], [ -109.189659, 43.709281 ], [ -109.187397, 43.707015 ], [ -109.182693, 43.70539 ], [ -109.182224, 43.703338 ], [ -109.178162, 43.701345 ], [ -109.17553, 43.70134 ], [ -109.17336, 43.699759 ], [ -109.171448, 43.699198 ], [ -109.171638, 43.619764 ], [ -108.934141, 43.619163 ], [ -108.933831, 43.604719 ], [ -108.875679, 43.604446 ], [ -108.814276, 43.605255 ], [ -108.814276, 43.575555 ], [ -108.757529, 43.575424 ], [ -108.694672, 43.575755 ], [ -108.695072, 43.532255 ], [ -108.683924, 43.53228 ], [ -108.685135, 43.529503 ], [ -108.686592, 43.528843 ], [ -108.686307, 43.525639 ], [ -108.687392, 43.524976 ], [ -108.686942, 43.524036 ], [ -108.689917, 43.522328 ], [ -108.692789, 43.521327 ], [ -108.696648, 43.52074 ], [ -108.698045, 43.519721 ], [ -108.698575, 43.517709 ], [ -108.700468, 43.516008 ], [ -108.70034, 43.51456 ], [ -108.702841, 43.511849 ], [ -108.701742, 43.510155 ], [ -108.697101, 43.506964 ], [ -108.692579, 43.502633 ], [ -108.692759, 43.49967 ], [ -108.695225, 43.499052 ], [ -108.691853, 43.496963 ], [ -108.690456, 43.494368 ], [ -108.68833, 43.49271 ], [ -108.684813, 43.487579 ], [ -108.684792, 43.484963 ], [ -108.683996, 43.483186 ], [ -108.68106, 43.479824 ], [ -108.674853, 43.471545 ], [ -108.67021, 43.466902 ], [ -108.663872, 43.458547 ], [ -108.666744, 43.457984 ], [ -108.66858, 43.455904 ], [ -108.673392, 43.449195 ], [ -108.676195, 43.44689 ], [ -108.679998, 43.44446 ], [ -108.684388, 43.437209 ], [ -108.684396, 43.434944 ], [ -108.685981, 43.432763 ], [ -108.686265, 43.429563 ], [ -108.684409, 43.428459 ], [ -108.687486, 43.425804 ], [ -108.691878, 43.421369 ], [ -108.693852, 43.419754 ], [ -108.696836, 43.418417 ], [ -108.702886, 43.416849 ], [ -108.706899, 43.415075 ], [ -108.708486, 43.41391 ], [ -108.709615, 43.412792 ], [ -108.717321, 43.402909 ], [ -108.718644, 43.400268 ], [ -108.721765, 43.373538 ], [ -108.722617, 43.371595 ], [ -108.727798, 43.364189 ], [ -108.728461, 43.361985 ], [ -108.729978, 43.347513 ], [ -108.731179, 43.344736 ], [ -108.735139, 43.339102 ], [ -108.739454, 43.326564 ], [ -108.739682, 43.324981 ], [ -108.739664, 43.324019 ], [ -108.737262, 43.304044 ], [ -108.736292, 43.30159 ], [ -108.727529, 43.284622 ], [ -108.726118, 43.282928 ], [ -108.71088, 43.269807 ], [ -108.704026, 43.260999 ], [ -108.701559, 43.259603 ], [ -108.699408, 43.259218 ], [ -108.699532, 43.257971 ], [ -108.6986, 43.255675 ], [ -108.699985, 43.255536 ], [ -108.706635, 43.251459 ], [ -108.708633, 43.251589 ], [ -108.714053, 43.248324 ], [ -108.720118, 43.244244 ], [ -108.720778, 43.24331 ], [ -108.722948, 43.243321 ], [ -108.728019, 43.241921 ], [ -108.729533, 43.241064 ], [ -108.728219, 43.23775 ], [ -108.729476, 43.234936 ], [ -108.732618, 43.234645 ], [ -108.740504, 43.238207 ], [ -108.74417, 43.237232 ], [ -108.745647, 43.23575 ], [ -108.748952, 43.234546 ], [ -108.751993, 43.235088 ], [ -108.755617, 43.234847 ], [ -108.761724, 43.237764 ], [ -108.763865, 43.237567 ], [ -108.768652, 43.238013 ], [ -108.772558, 43.237189 ], [ -108.774332, 43.235631 ], [ -108.77651, 43.235778 ], [ -108.779058, 43.237858 ], [ -108.780297, 43.239693 ], [ -108.782517, 43.239807 ], [ -108.784124, 43.23573 ], [ -108.783787, 43.233065 ], [ -108.782013, 43.230537 ], [ -108.7795, 43.223633 ], [ -108.781036, 43.221764 ], [ -108.781397, 43.220245 ], [ -108.775429, 43.218643 ], [ -108.775368, 43.217293 ], [ -108.77227, 43.216164 ], [ -108.771068, 43.214056 ], [ -108.766718, 43.21063 ], [ -108.765082, 43.209821 ], [ -108.760863, 43.208878 ], [ -108.758394, 43.206291 ], [ -108.755751, 43.205536 ], [ -108.755731, 43.202071 ], [ -108.75498, 43.200206 ], [ -108.751998, 43.195212 ], [ -108.750252, 43.192844 ], [ -108.748423, 43.192252 ], [ -108.746973, 43.16643 ], [ -108.746964, 43.166122 ], [ -108.744908, 43.129555 ], [ -108.744328, 43.127401 ], [ -108.744612, 43.124262 ], [ -108.743753, 43.109154 ], [ -108.743384, 43.101975 ], [ -108.75268, 43.079661 ], [ -108.756031, 43.071604 ], [ -108.755492, 43.043887 ], [ -108.755515, 43.040924 ], [ -108.755527, 43.037162 ], [ -108.755197, 43.037133 ], [ -108.755477, 42.997283 ], [ -108.756465, 42.995533 ], [ -108.7556, 42.993837 ], [ -108.756447, 42.990973 ], [ -108.754792, 42.986703 ], [ -108.755033, 42.9852 ], [ -108.754063, 42.982777 ], [ -108.753219, 42.982783 ], [ -108.753451, 42.981706 ], [ -108.75535, 42.979248 ], [ -108.755181, 42.95367 ], [ -108.755185, 42.952589 ], [ -108.755094, 42.943183 ], [ -108.755235, 42.942756 ], [ -108.760083, 42.940453 ], [ -108.765284, 42.936652 ], [ -108.767817, 42.934534 ], [ -108.769883, 42.931078 ], [ -108.771053, 42.930005 ], [ -108.77445, 42.928576 ], [ -108.777035, 42.928014 ], [ -108.79476, 42.928028 ], [ -108.794825, 42.90182 ], [ -108.794635, 42.893051 ], [ -108.788524, 42.882975 ], [ -108.790626, 42.882994 ], [ -108.793372, 42.885685 ], [ -108.795459, 42.885627 ], [ -108.796322, 42.886663 ], [ -108.797897, 42.886139 ], [ -108.799543, 42.887529 ], [ -108.802189, 42.888358 ], [ -108.804263, 42.887799 ], [ -108.807097, 42.888291 ], [ -108.813176, 42.88881 ], [ -108.813514, 42.889576 ], [ -108.8172, 42.889709 ], [ -108.820144, 42.889292 ], [ -108.821683, 42.890462 ], [ -108.823837, 42.890265 ], [ -108.824988, 42.891082 ], [ -108.829933, 42.892392 ], [ -108.831197, 42.89171 ], [ -108.835817, 42.891216 ], [ -108.838252, 42.889894 ], [ -108.841875, 42.889578 ], [ -108.845229, 42.88839 ], [ -108.847109, 42.888881 ], [ -108.85172, 42.887263 ], [ -108.852369, 42.886745 ], [ -108.854978, 42.887241 ], [ -108.857701, 42.886362 ], [ -108.859094, 42.886889 ], [ -108.861927, 42.881845 ], [ -108.863556, 42.88142 ], [ -108.864052, 42.880088 ], [ -108.863548, 42.876288 ], [ -108.865664, 42.874128 ], [ -108.866148, 42.873838 ], [ -108.869642, 42.873971 ], [ -108.872824, 42.873058 ], [ -108.877454, 42.872734 ], [ -108.880752, 42.871525 ], [ -108.884519, 42.871271 ], [ -108.886816, 42.86999 ], [ -108.886162, 42.868697 ], [ -109.00067, 42.868244 ], [ -109.003768, 42.868479 ], [ -109.095352, 42.868326 ], [ -109.108208, 42.866533 ], [ -109.115166, 42.868274 ], [ -109.169013, 42.868391 ], [ -109.183684, 42.868048 ], [ -109.189599, 42.867259 ], [ -109.197853, 42.868127 ], [ -109.30419, 42.868832 ], [ -109.318333, 42.868635 ], [ -109.325773, 42.86878 ], [ -109.327613, 42.873385 ], [ -109.330457, 42.874952 ], [ -109.329193, 42.877035 ], [ -109.329836, 42.881802 ], [ -109.331792, 42.883443 ], [ -109.330629, 42.886523 ], [ -109.331843, 42.892468 ], [ -109.331911, 42.89542 ], [ -109.333836, 42.896786 ], [ -109.338533, 42.897512 ], [ -109.34085, 42.903686 ], [ -109.340846, 42.905371 ], [ -109.343128, 42.908004 ], [ -109.344411, 42.912434 ], [ -109.344352, 42.913999 ], [ -109.345453, 42.91592 ], [ -109.345358, 42.918896 ], [ -109.346779, 42.920164 ], [ -109.356412, 42.924745 ], [ -109.35731, 42.929433 ], [ -109.359591, 42.933453 ], [ -109.361613, 42.936141 ], [ -109.364448, 42.93796 ], [ -109.365747, 42.940809 ], [ -109.36834, 42.943055 ], [ -109.370658, 42.945728 ], [ -109.372578, 42.945311 ], [ -109.374768, 42.943287 ], [ -109.37719, 42.941919 ], [ -109.381034, 42.941244 ], [ -109.384112, 42.939288 ], [ -109.38616, 42.938861 ], [ -109.39112, 42.940339 ], [ -109.397757, 42.939198 ], [ -109.399466, 42.940061 ], [ -109.401086, 42.944132 ], [ -109.400155, 42.945743 ], [ -109.402247, 42.947171 ], [ -109.404788, 42.950605 ], [ -109.406967, 42.951694 ], [ -109.408764, 42.953419 ], [ -109.410965, 42.954572 ], [ -109.411206, 42.955459 ], [ -109.416267, 42.956186 ], [ -109.420891, 42.957283 ], [ -109.423005, 42.958896 ], [ -109.428757, 42.960662 ], [ -109.427794, 42.962379 ], [ -109.429645, 42.962911 ], [ -109.431947, 42.965329 ], [ -109.432364, 42.968151 ], [ -109.433821, 42.968627 ], [ -109.437184, 42.967522 ], [ -109.441008, 42.967861 ], [ -109.443486, 42.970352 ], [ -109.447671, 42.970079 ], [ -109.450675, 42.971159 ], [ -109.454235, 42.970272 ], [ -109.455597, 42.975083 ], [ -109.458171, 42.976801 ], [ -109.458808, 43.031029 ], [ -109.458708, 43.032294 ], [ -109.459109, 43.064584 ], [ -109.459634, 43.124408 ], [ -109.460045, 43.12542 ], [ -109.460063, 43.24881 ], [ -109.460173, 43.249955 ], [ -109.460607, 43.360835 ], [ -109.460714, 43.373814 ], [ -109.460436, 43.431566 ], [ -109.459977, 43.441206 ], [ -109.459909, 43.441988 ], [ -109.461272, 43.442702 ], [ -109.460827, 43.444977 ], [ -109.463156, 43.445825 ], [ -109.46177, 43.447938 ], [ -109.464301, 43.448638 ], [ -109.46492, 43.450429 ], [ -109.467464, 43.451196 ], [ -109.466616, 43.454198 ], [ -109.466731, 43.455518 ], [ -109.465559, 43.456433 ], [ -109.465654, 43.458803 ], [ -109.464132, 43.459974 ], [ -109.465967, 43.461266 ], [ -109.465967, 43.462323 ], [ -109.467306, 43.463541 ], [ -109.467124, 43.465507 ], [ -109.465919, 43.46618 ], [ -109.467927, 43.469305 ], [ -109.466959, 43.473984 ], [ -109.467581, 43.475275 ], [ -109.469271, 43.475652 ], [ -109.469527, 43.476725 ], [ -109.46812, 43.480064 ], [ -109.469451, 43.4813 ], [ -109.47195, 43.481707 ], [ -109.473556, 43.483662 ], [ -109.472797, 43.485359 ], [ -109.47381, 43.486814 ], [ -109.472646, 43.487932 ], [ -109.473864, 43.489593 ], [ -109.474296, 43.491315 ] ] ] } },
{ "type": "Feature", "properties": { "geoid": "56041975301", "county_name": "Uinta County", "place_name": null, "state_name": "Wyoming", "state_abbr": "WY", "is_rural": true, "ui_invest_score": 3.0, "ui_invest_quintile": 3, "dci_score": 59.0, "dci_quintile": 4.0, "is_cra_lmi": true, "income_level": "M", "is_persistent_poverty": false, "is_tribal_overlap": false, "tribal_area_name": null, "aian_pct": 0.0, "has_nmtc": false, "nmtc_projects": 0, "nmtc_total_usd": 0.0 }, "geometry": { "type": "Polygon", "coordinates": [ [ [ -111.046615849252007, 41.1560418629794 ], [ -111.046585430988003, 41.200918882352497 ], [ -111.046553444108994, 41.248110128375401 ], [ -111.041252, 41.246796 ], [ -111.024676, 41.246849 ], [ -111.018885, 41.247308 ], [ -111.013229, 41.248609 ], [ -111.007622, 41.250881 ], [ -110.995825, 41.256363 ], [ -110.985633, 41.261215 ], [ -110.986015, 41.259598 ], [ -110.985068, 41.25736 ], [ -110.986332, 41.25536 ], [ -110.986509, 41.248698 ], [ -110.986209, 41.242234 ], [ -110.982576, 41.242587 ], [ -110.977596, 41.247036 ], [ -110.979843, 41.242896 ], [ -110.979725, 41.240288 ], [ -110.980897, 41.238487 ], [ -110.981164, 41.23814 ], [ -110.981287, 41.237306 ], [ -110.98125, 41.23685 ], [ -110.981345, 41.236603 ], [ -110.981611, 41.236385 ], [ -110.981607, 41.23482 ], [ -110.981503, 41.23434 ], [ -110.978558, 41.23477 ], [ -110.972016, 41.232059 ], [ -110.964007, 41.233933 ], [ -110.963985, 41.231659 ], [ -110.966606, 41.229896 ], [ -110.967517, 41.226602 ], [ -110.969905, 41.22328 ], [ -110.971244, 41.222323 ], [ -110.974862, 41.220698 ], [ -110.977704, 41.217972 ], [ -110.982047, 41.215785 ], [ -110.973956, 41.211076 ], [ -110.971429, 41.207485 ], [ -110.967905, 41.206935 ], [ -110.962103, 41.204351 ], [ -110.958382, 41.203455 ], [ -110.955261, 41.203936 ], [ -110.949565, 41.202815 ], [ -110.945808, 41.202564 ], [ -110.942355, 41.203411 ], [ -110.940113, 41.204898 ], [ -110.936841, 41.206271 ], [ -110.935417, 41.208078 ], [ -110.928782, 41.211716 ], [ -110.924298, 41.213409 ], [ -110.921266, 41.215285 ], [ -110.920357, 41.217298 ], [ -110.919054, 41.21787 ], [ -110.918192, 41.219971 ], [ -110.918366, 41.222223 ], [ -110.920518, 41.224102 ], [ -110.928303, 41.231837 ], [ -110.935463, 41.242021 ], [ -110.93723, 41.244593 ], [ -110.9371, 41.244642 ], [ -110.937979, 41.24572 ], [ -110.940974, 41.251376 ], [ -110.945028, 41.257616 ], [ -110.945887, 41.258508 ], [ -110.947954, 41.260588 ], [ -110.95145, 41.262145 ], [ -110.952584, 41.262219 ], [ -110.954629, 41.262112 ], [ -110.951882, 41.265581 ], [ -110.950624, 41.266443 ], [ -110.948027, 41.267295 ], [ -110.945156, 41.267637 ], [ -110.938764, 41.268053 ], [ -110.935182, 41.268028 ], [ -110.928776, 41.267383 ], [ -110.918624, 41.266252 ], [ -110.899752, 41.262843 ], [ -110.898147, 41.265781 ], [ -110.896782, 41.267359 ], [ -110.896902, 41.268411 ], [ -110.898236, 41.268709 ], [ -110.89963, 41.270792 ], [ -110.899659, 41.273239 ], [ -110.898355, 41.274244 ], [ -110.897688, 41.276987 ], [ -110.898143, 41.27861 ], [ -110.897288, 41.28246 ], [ -110.900745, 41.283651 ], [ -110.90484, 41.284339 ], [ -110.912331, 41.286629 ], [ -110.916161, 41.291141 ], [ -110.917551, 41.292022 ], [ -110.921181, 41.292458 ], [ -110.923206, 41.293109 ], [ -110.92502, 41.294535 ], [ -110.92477, 41.295698 ], [ -110.922843, 41.29718 ], [ -110.919642, 41.300356 ], [ -110.93403, 41.300458 ], [ -110.938881, 41.301538 ], [ -110.943941, 41.301739 ], [ -110.947447, 41.301564 ], [ -110.952851, 41.30053 ], [ -110.960577, 41.300522 ], [ -110.967114, 41.300303 ], [ -110.971964, 41.299624 ], [ -110.974366, 41.297738 ], [ -110.97618, 41.297204 ], [ -110.9786, 41.297418 ], [ -110.982105, 41.298966 ], [ -110.983153, 41.298073 ], [ -110.985634, 41.30055 ], [ -110.988972, 41.304613 ], [ -110.991574, 41.308516 ], [ -110.997121, 41.320713 ], [ -111.003157, 41.352613 ], [ -111.004189, 41.356052 ], [ -111.005551, 41.358764 ], [ -111.009856, 41.365014 ], [ -111.009533, 41.3677 ], [ -111.010237, 41.370008 ], [ -111.010252, 41.375404 ], [ -111.011542, 41.378867 ], [ -111.01085, 41.382215 ], [ -111.010417, 41.387411 ], [ -111.01114, 41.392523 ], [ -111.010148, 41.395091 ], [ -111.006915, 41.399187 ], [ -111.006928, 41.402326 ], [ -111.003469, 41.412047 ], [ -111.003448, 41.417891 ], [ -111.002107, 41.421029 ], [ -111.002058, 41.422684 ], [ -111.003783, 41.425799 ], [ -111.005473, 41.430366 ], [ -111.005728, 41.436364 ], [ -111.005543, 41.439152 ], [ -111.004166, 41.446095 ], [ -111.001876, 41.45019 ], [ -111.002556, 41.453523 ], [ -111.002307, 41.457341 ], [ -111.005332, 41.463139 ], [ -111.005048, 41.467168 ], [ -111.006066, 41.470385 ], [ -111.005231, 41.475471 ], [ -111.008139, 41.478946 ], [ -111.008124, 41.479868 ], [ -111.005517, 41.480092 ], [ -111.008291, 41.480703 ], [ -111.007881, 41.482328 ], [ -111.009118, 41.48715 ], [ -111.011053, 41.487909 ], [ -111.011315, 41.489227 ], [ -111.015909, 41.498492 ], [ -111.016819, 41.501635 ], [ -111.016519, 41.503326 ], [ -111.017665, 41.504002 ], [ -111.012966, 41.505676 ], [ -111.010573, 41.505869 ], [ -111.009135, 41.508166 ], [ -111.00608, 41.508302 ], [ -111.004222, 41.510238 ], [ -111.000595, 41.51276 ], [ -110.999217, 41.514292 ], [ -111.000909, 41.518276 ], [ -110.999081, 41.520788 ], [ -111.000744, 41.523776 ], [ -111.003456, 41.523713 ], [ -111.006321, 41.525551 ], [ -111.008478, 41.524695 ], [ -111.011236, 41.525686 ], [ -111.013333, 41.523794 ], [ -111.019247, 41.522598 ], [ -111.020674, 41.521619 ], [ -111.020823, 41.519694 ], [ -111.022031, 41.519638 ], [ -111.026106, 41.52209 ], [ -111.02893, 41.521956 ], [ -111.03242, 41.522474 ], [ -111.033767, 41.521578 ], [ -111.032844, 41.520742 ], [ -111.034111, 41.520096 ], [ -111.036011, 41.522157 ], [ -111.0369, 41.520392 ], [ -111.036334, 41.519253 ], [ -111.038847, 41.519867 ], [ -111.038288, 41.522366 ], [ -111.039184, 41.522939 ], [ -111.040033, 41.521679 ], [ -111.042775, 41.520837 ], [ -111.040896, 41.523235 ], [ -111.041428, 41.523943 ], [ -111.042593, 41.523801 ], [ -111.043308, 41.521726 ], [ -111.045900228888001, 41.521585243338599 ], [ -111.045789, 41.565571 ], [ -111.045819273941007, 41.579844950485899 ], [ -110.584899, 41.579164 ], [ -110.590472, 41.568025 ], [ -110.591353, 41.565532 ], [ -110.591707, 41.562833 ], [ -110.591571, 41.543123 ], [ -110.591958, 41.539263 ], [ -110.592937, 41.536629 ], [ -110.612699, 41.493675 ], [ -110.61319, 41.492462 ], [ -110.613554, 41.491232 ], [ -110.620473, 41.461444 ], [ -110.622232, 41.438676 ], [ -110.622843, 41.434984 ], [ -110.623836, 41.432672 ], [ -110.625278, 41.430515 ], [ -110.628938, 41.426444 ], [ -110.629618, 41.425265 ], [ -110.629997, 41.423987 ], [ -110.630751, 41.416136 ], [ -110.632353, 41.412357 ], [ -110.634101, 41.410056 ], [ -110.672235, 41.367022 ], [ -110.673341, 41.366023 ], [ -110.680625, 41.360713 ], [ -110.682857, 41.358782 ], [ -110.684677, 41.356591 ], [ -110.690645, 41.348474 ], [ -110.720503, 41.314877 ], [ -110.723316, 41.31215 ], [ -110.730889, 41.308151 ], [ -110.735443, 41.305865 ], [ -110.737643, 41.303937 ], [ -110.741095, 41.298153 ], [ -110.7421, 41.295955 ], [ -110.742716, 41.293171 ], [ -110.742886, 41.288809 ], [ -110.739191, 41.287489 ], [ -110.737839, 41.286157 ], [ -110.736533, 41.28347 ], [ -110.730885, 41.277858 ], [ -110.729273, 41.273689 ], [ -110.731465, 41.268931 ], [ -110.731314, 41.267467 ], [ -110.729431, 41.265722 ], [ -110.726653, 41.265365 ], [ -110.721524, 41.26686 ], [ -110.716285, 41.267641 ], [ -110.71405, 41.26929 ], [ -110.712213, 41.270044 ], [ -110.707691, 41.270987 ], [ -110.703789, 41.271456 ], [ -110.701121, 41.271275 ], [ -110.695797, 41.27243 ], [ -110.689784, 41.271424 ], [ -110.686091, 41.270047 ], [ -110.666326, 41.266113 ], [ -110.665124, 41.266046 ], [ -110.657517, 41.268153 ], [ -110.652405, 41.270351 ], [ -110.648755, 41.271246 ], [ -110.632972, 41.278311 ], [ -110.626113, 41.278886 ], [ -110.618173, 41.280823 ], [ -110.601696, 41.286618 ], [ -110.6001, 41.287742 ], [ -110.598524, 41.291094 ], [ -110.597527, 41.29174 ], [ -110.590077, 41.293471 ], [ -110.58748, 41.29341 ], [ -110.584269, 41.292584 ], [ -110.574985, 41.291025 ], [ -110.570814, 41.291324 ], [ -110.564726, 41.295355 ], [ -110.561197, 41.296549 ], [ -110.552622, 41.295189 ], [ -110.545964, 41.295001 ], [ -110.541281, 41.294883 ], [ -110.538456, 41.295359 ], [ -110.534363, 41.294666 ], [ -110.525367, 41.294202 ], [ -110.525131, 41.293736 ], [ -110.525432, 41.230059 ], [ -110.525563, 41.228669 ], [ -110.531192, 41.219206 ], [ -110.533718, 41.213134 ], [ -110.54009, 41.204417 ], [ -110.538905, 41.203695 ], [ -110.53513, 41.203497 ], [ -110.53122, 41.20234 ], [ -110.530353, 41.201449 ], [ -110.531245, 41.199741 ], [ -110.527506, 41.20079 ], [ -110.519861, 41.198637 ], [ -110.515053, 41.196105 ], [ -110.5125, 41.194214 ], [ -110.506988, 41.192825 ], [ -110.498698, 41.190084 ], [ -110.48528, 41.184666 ], [ -110.478128, 41.184982 ], [ -110.483575, 41.178089 ], [ -110.488965, 41.174682 ], [ -110.49142, 41.172122 ], [ -110.491811, 41.171062 ], [ -110.494897, 41.167958 ], [ -110.497055, 41.166853 ], [ -110.496974, 41.165909 ], [ -110.502068, 41.162705 ], [ -110.504214, 41.160466 ], [ -110.504513, 41.158791 ], [ -110.506447, 41.157442 ], [ -110.506986, 41.155701 ], [ -110.509859, 41.15243 ], [ -110.510777, 41.148669 ], [ -110.51372, 41.147742 ], [ -110.513206, 41.146418 ], [ -110.51456, 41.144485 ], [ -110.518464, 41.14158 ], [ -110.518249, 41.138724 ], [ -110.520908, 41.133518 ], [ -110.523036, 41.132951 ], [ -110.523006, 41.130805 ], [ -110.52894, 41.128146 ], [ -110.530631, 41.127106 ], [ -110.531868, 41.12523 ], [ -110.533051, 41.125044 ], [ -110.535095, 41.122463 ], [ -110.536213, 41.1222 ], [ -110.537951, 41.119909 ], [ -110.538821, 41.117024 ], [ -110.540934, 41.114356 ], [ -110.540623, 41.112551 ], [ -110.543318, 41.1103 ], [ -110.542718, 41.108554 ], [ -110.545932, 41.104223 ], [ -110.545466, 41.102483 ], [ -110.545759, 41.101686 ], [ -110.547053, 41.098648 ], [ -110.549526, 41.097006 ], [ -110.54925, 41.095929 ], [ -110.550846, 41.093463 ], [ -110.55268, 41.092357 ], [ -110.553422, 41.089268 ], [ -110.555752, 41.088312 ], [ -110.55876, 41.084671 ], [ -110.5605, 41.0819 ], [ -110.559849, 41.08006 ], [ -110.561489, 41.079037 ], [ -110.562099, 41.076913 ], [ -110.564259, 41.075005 ], [ -110.564453, 41.073253 ], [ -110.565548, 41.072061 ], [ -110.565001, 41.070235 ], [ -110.565914, 41.068624 ], [ -110.567773, 41.067464 ], [ -110.568846, 41.064499 ], [ -110.570844, 41.061717 ], [ -110.570586, 41.060321 ], [ -110.572283, 41.058742 ], [ -110.574066, 41.058065 ], [ -110.575967, 41.055026 ], [ -110.579265, 41.051921 ], [ -110.581091, 41.049429 ], [ -110.580632, 41.047555 ], [ -110.582264, 41.045861 ], [ -110.582265, 41.044648 ], [ -110.583932, 41.04277 ], [ -110.584351, 41.039064 ], [ -110.582906, 41.03582 ], [ -110.581698, 41.03524 ], [ -110.579114, 41.032399 ], [ -110.579495, 41.027753 ], [ -110.580783, 41.026013 ], [ -110.586124, 41.027982 ], [ -110.589004, 41.023969 ], [ -110.589143, 41.021408 ], [ -110.587892, 41.019438 ], [ -110.58761, 41.016259 ], [ -110.588948, 41.012125 ], [ -110.589432, 41.007529 ], [ -110.592005, 41.004139 ], [ -110.592093, 41.002957 ], [ -110.593739, 41.001534 ], [ -110.595929, 41.00063 ], [ -110.602361, 40.999947 ], [ -110.606358, 40.998738 ], [ -110.606820908805005, 40.996346382415702 ], [ -110.715026, 40.996347 ], [ -110.729799349356995, 40.996553903859201 ], [ -110.750727, 40.996847 ], [ -110.864763724197999, 40.997275414023498 ], [ -110.872056647565998, 40.997302812132901 ], [ -111.033831339271003, 40.997910568511998 ], [ -111.046723, 40.997959 ], [ -111.046615849252007, 41.1560418629794 ] ] ] } },
{ "type": "Feature", "properties": { "geoid": "56037971100", "county_name": "Sweetwater County", "place_name": null, "state_name": "Wyoming", "state_abbr": "WY", "is_rural": true, "ui_invest_score": 3.0, "ui_invest_quintile": 3, "dci_score": 62.2, "dci_quintile": 4.0, "is_cra_lmi": false, "income_level": "U", "is_persistent_poverty": false, "is_tribal_overlap": false, "tribal_area_name": null, "aian_pct": 0.0003, "has_nmtc": false, "nmtc_projects": 0, "nmtc_total_usd": 0.0 }, "geometry": { "type": "Polygon", "coordinates": [ [ [ -109.222444, 41.58586 ], [ -109.221265, 41.586511 ], [ -109.215416, 41.589365 ], [ -109.2135, 41.58878 ], [ -109.21464, 41.58657 ], [ -109.21314, 41.58518 ], [ -109.21293, 41.58505 ], [ -109.21104, 41.58335 ], [ -109.21091, 41.57968 ], [ -109.20853, 41.57966 ], [ -109.2069, 41.57678 ], [ -109.20508, 41.57695 ], [ -109.20383, 41.57756 ], [ -109.2018, 41.57619 ], [ -109.193998, 41.573735 ], [ -109.18595, 41.57111 ], [ -109.18325, 41.56983 ], [ -109.17543, 41.5654 ], [ -109.17251, 41.56392 ], [ -109.16761, 41.56294 ], [ -109.16275, 41.56141 ], [ -109.15951, 41.56009 ], [ -109.15736, 41.55889 ], [ -109.14976, 41.55332 ], [ -109.155443, 41.553409 ], [ -109.16061, 41.55238 ], [ -109.16277, 41.55065 ], [ -109.16327, 41.5495 ], [ -109.16586, 41.55044 ], [ -109.16781, 41.5494 ], [ -109.17134, 41.54925 ], [ -109.17851, 41.54806 ], [ -109.18018, 41.54891 ], [ -109.18232, 41.54869 ], [ -109.186022, 41.547554 ], [ -109.18979, 41.54883 ], [ -109.19428, 41.54833 ], [ -109.19656, 41.54769 ], [ -109.19774, 41.54838 ], [ -109.20085, 41.54835 ], [ -109.20386, 41.55047 ], [ -109.20529, 41.55201 ], [ -109.20983, 41.55297 ], [ -109.212309, 41.554881 ], [ -109.21593, 41.559636 ], [ -109.21693, 41.56219 ], [ -109.2173, 41.56297 ], [ -109.21701, 41.56479 ], [ -109.21487, 41.56681 ], [ -109.21647, 41.567236 ], [ -109.21954, 41.56982 ], [ -109.218219, 41.570741 ], [ -109.218185, 41.572582 ], [ -109.21822, 41.57806 ], [ -109.21823, 41.57929 ], [ -109.21625, 41.57927 ], [ -109.22215, 41.58548 ], [ -109.222444, 41.58586 ] ] ] } },
{ "type": "Feature", "properties": { "geoid": "56025001200", "county_name": "Natrona County", "place_name": null, "state_name": "Wyoming", "state_abbr": "WY", "is_rural": false, "ui_invest_score": 1.0, "ui_invest_quintile": 1, "dci_score": 43.5, "dci_quintile": 5.0, "is_cra_lmi": true, "income_level": "M", "is_persistent_poverty": false, "is_tribal_overlap": false, "tribal_area_name": null, "aian_pct": 0.0039, "has_nmtc": false, "nmtc_projects": 0, "nmtc_total_usd": 0.0 }, "geometry": { "type": "Polygon", "coordinates": [ [ [ -106.41733, 42.856049 ], [ -106.41751, 42.86315 ], [ -106.40709, 42.86328 ], [ -106.40611, 42.86396 ], [ -106.400488, 42.860708 ], [ -106.39993, 42.861282 ], [ -106.398964, 42.8619 ], [ -106.39596, 42.86255 ], [ -106.382131, 42.862708 ], [ -106.38177, 42.86271 ], [ -106.37656, 42.86279 ], [ -106.36072, 42.86483 ], [ -106.347926, 42.866471 ], [ -106.345179, 42.867375 ], [ -106.344194, 42.867814 ], [ -106.343987, 42.866362 ], [ -106.342127, 42.864325 ], [ -106.340725, 42.862745 ], [ -106.33512, 42.85846 ], [ -106.33359, 42.85768 ], [ -106.334706, 42.855775 ], [ -106.33753, 42.85396 ], [ -106.33724, 42.85186 ], [ -106.336754, 42.847957 ], [ -106.336786, 42.846967 ], [ -106.348782, 42.844587 ], [ -106.352299, 42.844973 ], [ -106.357002, 42.844373 ], [ -106.357375, 42.844814 ], [ -106.357243, 42.844901 ], [ -106.357483, 42.844942 ], [ -106.35778, 42.845367 ], [ -106.364306, 42.846459 ], [ -106.371399, 42.847053 ], [ -106.382744, 42.850736 ], [ -106.38419, 42.8495 ], [ -106.39019, 42.84628 ], [ -106.395063, 42.844667 ], [ -106.40482, 42.8429 ], [ -106.414736, 42.842721 ], [ -106.415733, 42.848632 ], [ -106.41675, 42.849286 ], [ -106.418254, 42.850481 ], [ -106.41733, 42.856049 ] ] ] } },
{ "type": "Feature", "properties": { "geoid": "56013940202", "county_name": "Fremont County", "place_name": null, "state_name": "Wyoming", "state_abbr": "WY", "is_rural": true, "ui_invest_score": 3.0, "ui_invest_quintile": 3, "dci_score": 73.9, "dci_quintile": 3.0, "is_cra_lmi": true, "income_level": "M", "is_persistent_poverty": false, "is_tribal_overlap": true, "tribal_area_name": "Wind River Reservation", "aian_pct": 0.5074, "has_nmtc": false, "nmtc_projects": 0, "nmtc_total_usd": 0.0 }, "geometry": { "type": "Polygon", "coordinates": [ [ [ -108.79476, 42.928028 ], [ -108.777035, 42.928014 ], [ -108.77445, 42.928576 ], [ -108.771053, 42.930005 ], [ -108.769883, 42.931078 ], [ -108.767817, 42.934534 ], [ -108.765284, 42.936652 ], [ -108.760083, 42.940453 ], [ -108.755235, 42.942756 ], [ -108.755094, 42.943183 ], [ -108.755185, 42.952589 ], [ -108.755181, 42.95367 ], [ -108.75535, 42.979248 ], [ -108.753451, 42.981706 ], [ -108.753219, 42.982783 ], [ -108.754063, 42.982777 ], [ -108.755033, 42.9852 ], [ -108.754792, 42.986703 ], [ -108.756447, 42.990973 ], [ -108.7556, 42.993837 ], [ -108.756465, 42.995533 ], [ -108.755477, 42.997283 ], [ -108.755197, 43.037133 ], [ -108.755527, 43.037162 ], [ -108.755515, 43.040924 ], [ -108.755492, 43.043887 ], [ -108.756031, 43.071604 ], [ -108.75268, 43.079661 ], [ -108.743384, 43.101975 ], [ -108.743753, 43.109154 ], [ -108.744612, 43.124262 ], [ -108.744328, 43.127401 ], [ -108.744908, 43.129555 ], [ -108.746964, 43.166122 ], [ -108.746973, 43.16643 ], [ -108.748423, 43.192252 ], [ -108.745315, 43.190372 ], [ -108.73543, 43.181216 ], [ -108.732596, 43.178229 ], [ -108.727574, 43.171876 ], [ -108.725579, 43.169963 ], [ -108.707722, 43.159303 ], [ -108.704429, 43.157851 ], [ -108.701498, 43.157004 ], [ -108.695091, 43.155719 ], [ -108.683037, 43.153264 ], [ -108.657434, 43.145437 ], [ -108.653301, 43.144207 ], [ -108.638021, 43.141957 ], [ -108.625134, 43.139435 ], [ -108.622972, 43.138838 ], [ -108.606054, 43.13338 ], [ -108.587227, 43.125128 ], [ -108.584691, 43.123718 ], [ -108.573854, 43.116309 ], [ -108.525841, 43.088268 ], [ -108.523032, 43.086747 ], [ -108.518737, 43.085097 ], [ -108.518634, 43.085065 ], [ -108.497806, 43.077393 ], [ -108.48885, 43.073289 ], [ -108.4877, 43.072743 ], [ -108.484249, 43.071111 ], [ -108.482732, 43.07034 ], [ -108.481462, 43.069516 ], [ -108.480738, 43.068887 ], [ -108.479935, 43.067987 ], [ -108.479557, 43.067469 ], [ -108.47892, 43.066182 ], [ -108.477599, 43.062671 ], [ -108.476426, 43.05951 ], [ -108.47444, 43.054846 ], [ -108.473316, 43.053529 ], [ -108.469635, 43.051187 ], [ -108.461625, 43.048231 ], [ -108.451582, 43.044988 ], [ -108.44122, 43.037483 ], [ -108.440323, 43.036697 ], [ -108.439608, 43.035929 ], [ -108.437858, 43.033664 ], [ -108.438101, 43.033504 ], [ -108.440714, 43.032526 ], [ -108.444581, 43.034594 ], [ -108.44681, 43.034682 ], [ -108.447007, 43.036075 ], [ -108.450636, 43.03937 ], [ -108.452511, 43.040275 ], [ -108.458263, 43.040524 ], [ -108.460836, 43.041531 ], [ -108.461987, 43.040555 ], [ -108.46595, 43.040026 ], [ -108.465309, 43.037738 ], [ -108.466399, 43.037303 ], [ -108.468301, 43.038103 ], [ -108.471106, 43.037363 ], [ -108.472202, 43.039455 ], [ -108.475291, 43.040415 ], [ -108.478415, 43.038479 ], [ -108.480604, 43.041293 ], [ -108.485039, 43.040178 ], [ -108.486332, 43.03922 ], [ -108.486165, 43.035468 ], [ -108.486715, 43.03374 ], [ -108.488193, 43.032223 ], [ -108.486359, 43.031489 ], [ -108.482205, 43.028541 ], [ -108.483409, 43.027009 ], [ -108.483959, 43.024459 ], [ -108.482635, 43.023964 ], [ -108.481674, 43.023151 ], [ -108.479584, 43.022282 ], [ -108.477318, 43.02103 ], [ -108.475403, 43.01902 ], [ -108.474075, 43.01849 ], [ -108.469567, 43.018921 ], [ -108.466797, 43.020348 ], [ -108.464485, 43.020191 ], [ -108.462608, 43.019501 ], [ -108.459518, 43.018505 ], [ -108.454376, 43.017807 ], [ -108.453407, 43.017181 ], [ -108.451866, 43.016792 ], [ -108.449982, 43.017342 ], [ -108.445107, 43.014725 ], [ -108.443962, 43.014759 ], [ -108.439796, 43.015575 ], [ -108.438515, 43.01516 ], [ -108.437531, 43.015507 ], [ -108.433098, 43.014389 ], [ -108.429199, 43.012936 ], [ -108.428345, 43.012058 ], [ -108.425522, 43.011429 ], [ -108.424187, 43.011765 ], [ -108.421753, 43.012924 ], [ -108.419739, 43.012497 ], [ -108.414139, 43.012405 ], [ -108.41143, 43.0126 ], [ -108.409958, 43.012379 ], [ -108.409103, 43.011372 ], [ -108.408714, 43.011189 ], [ -108.407204, 43.0112 ], [ -108.406731, 43.011448 ], [ -108.406517, 43.013283 ], [ -108.403221, 43.013504 ], [ -108.402224, 43.0131 ], [ -108.402068, 43.013028 ], [ -108.397439, 43.01043 ], [ -108.397027, 43.011398 ], [ -108.396353, 43.012046 ], [ -108.394887, 43.012541 ], [ -108.392828, 43.012491 ], [ -108.391045, 43.010823 ], [ -108.388924, 43.013569 ], [ -108.386846, 43.014233 ], [ -108.386848, 43.014068 ], [ -108.385469, 43.012382 ], [ -108.384525, 43.01237 ], [ -108.384334, 43.012371 ], [ -108.381134, 43.008553 ], [ -108.380455, 43.008679 ], [ -108.379295, 43.008884 ], [ -108.37764, 43.01022 ], [ -108.376908, 43.010312 ], [ -108.373573, 43.008404 ], [ -108.371979, 43.006538 ], [ -108.365555, 43.006744 ], [ -108.362104, 43.00905 ], [ -108.357205, 43.010173 ], [ -108.354961, 43.008775 ], [ -108.352556, 43.007836 ], [ -108.349904, 43.008035 ], [ -108.346867, 43.011393 ], [ -108.350117, 43.012865 ], [ -108.350221, 43.015743 ], [ -108.349768, 43.016118 ], [ -108.345888, 43.016157 ], [ -108.342323, 43.016742 ], [ -108.341792, 43.018245 ], [ -108.343957, 43.020167 ], [ -108.344024, 43.02273 ], [ -108.341317, 43.023768 ], [ -108.338224, 43.023282 ], [ -108.336545, 43.024309 ], [ -108.336203, 43.026021 ], [ -108.337937, 43.027645 ], [ -108.340191, 43.028496 ], [ -108.341052, 43.029634 ], [ -108.340876, 43.031953 ], [ -108.338534, 43.033765 ], [ -108.337451, 43.036239 ], [ -108.337252, 43.038846 ], [ -108.334226, 43.038946 ], [ -108.333386, 43.039785 ], [ -108.334756, 43.042459 ], [ -108.33522, 43.044579 ], [ -108.338909, 43.049109 ], [ -108.34305, 43.050254 ], [ -108.343762, 43.05163 ], [ -108.342694, 43.053137 ], [ -108.339122, 43.053014 ], [ -108.337324, 43.053345 ], [ -108.335281, 43.054788 ], [ -108.333948, 43.057014 ], [ -108.331917, 43.057455 ], [ -108.333459, 43.060218 ], [ -108.336311, 43.062412 ], [ -108.336088, 43.064412 ], [ -108.334298, 43.065239 ], [ -108.328273, 43.066671 ], [ -108.327557, 43.067832 ], [ -108.32852, 43.070412 ], [ -108.326212, 43.072461 ], [ -108.322774, 43.072887 ], [ -108.322199, 43.074355 ], [ -108.322502, 43.075853 ], [ -108.320399, 43.07726 ], [ -108.318916, 43.077638 ], [ -108.315739, 43.076201 ], [ -108.311412, 43.077925 ], [ -108.310611, 43.078759 ], [ -108.310232, 43.081216 ], [ -108.309067, 43.083213 ], [ -108.310459, 43.084121 ], [ -108.313575, 43.084045 ], [ -108.315179, 43.085437 ], [ -108.314967, 43.087389 ], [ -108.314271, 43.088932 ], [ -108.312607, 43.089659 ], [ -108.310232, 43.089659 ], [ -108.307766, 43.090211 ], [ -108.307403, 43.09189 ], [ -108.308733, 43.094077 ], [ -108.317055, 43.092618 ], [ -108.317455, 43.093142 ], [ -108.321272, 43.09325 ], [ -108.326885, 43.092002 ], [ -108.341371, 43.092202 ], [ -108.341385, 43.099703 ], [ -108.348199, 43.099501 ], [ -108.35515, 43.099353 ], [ -108.355689, 43.099544 ], [ -108.347463, 43.105372 ], [ -108.30867, 43.129011 ], [ -108.295188, 43.138423 ], [ -108.289956, 43.142495 ], [ -108.279349, 43.150677 ], [ -108.27692, 43.15272 ], [ -108.275366, 43.154205 ], [ -108.245791, 43.185566 ], [ -108.219342, 43.213484 ], [ -108.213942, 43.217737 ], [ -108.210554, 43.219837 ], [ -108.208049, 43.220601 ], [ -108.204681, 43.220884 ], [ -108.184788, 43.219055 ], [ -108.179468, 43.218784 ], [ -108.177561, 43.219223 ], [ -108.155284, 43.225685 ], [ -108.154676, 43.148539 ], [ -108.154654, 43.141914 ], [ -108.154542, 43.124221 ], [ -108.154744, 43.081439 ], [ -108.155232, 43.076825 ], [ -108.154761, 43.067361 ], [ -108.15447, 43.008465 ], [ -108.153728, 42.999958 ], [ -108.153679, 42.990929 ], [ -108.153521, 42.990134 ], [ -108.154267, 42.905389 ], [ -108.15427, 42.90509 ], [ -108.261284, 42.904931 ], [ -108.290986, 42.903918 ], [ -108.36599, 42.904958 ], [ -108.375659, 42.904939 ], [ -108.386355, 42.905456 ], [ -108.391232, 42.905693 ], [ -108.499037, 42.904791 ], [ -108.500664, 42.904774 ], [ -108.509121, 42.905192 ], [ -108.532042, 42.906087 ], [ -108.541524, 42.906054 ], [ -108.552996, 42.905789 ], [ -108.572066, 42.905777 ], [ -108.572515, 42.905748 ], [ -108.577648, 42.905769 ], [ -108.578199, 42.905767 ], [ -108.585975, 42.905775 ], [ -108.588926, 42.905746 ], [ -108.589431, 42.905858 ], [ -108.589076, 42.904851 ], [ -108.590442, 42.905339 ], [ -108.592014, 42.904501 ], [ -108.592174, 42.90347 ], [ -108.597177, 42.905789 ], [ -108.597601, 42.904569 ], [ -108.599652, 42.904925 ], [ -108.598725, 42.903775 ], [ -108.600687, 42.902678 ], [ -108.602229, 42.903624 ], [ -108.603781, 42.902322 ], [ -108.603139, 42.901171 ], [ -108.604446, 42.900203 ], [ -108.606437, 42.899861 ], [ -108.606692, 42.898537 ], [ -108.608827, 42.898014 ], [ -108.60888, 42.896131 ], [ -108.609736, 42.894171 ], [ -108.610655, 42.894147 ], [ -108.611144, 42.891857 ], [ -108.614064, 42.89232 ], [ -108.615403, 42.889658 ], [ -108.616045, 42.887045 ], [ -108.613968, 42.885438 ], [ -108.614313, 42.884428 ], [ -108.616984, 42.884217 ], [ -108.618361, 42.883454 ], [ -108.617408, 42.881277 ], [ -108.619158, 42.880846 ], [ -108.621032, 42.88221 ], [ -108.622118, 42.880872 ], [ -108.621651, 42.878878 ], [ -108.623021, 42.879089 ], [ -108.624404, 42.880551 ], [ -108.628366, 42.879753 ], [ -108.629746, 42.880986 ], [ -108.631196, 42.880834 ], [ -108.630412, 42.87983 ], [ -108.630605, 42.878158 ], [ -108.628521, 42.877437 ], [ -108.628443, 42.876678 ], [ -108.630244, 42.876061 ], [ -108.633628, 42.875688 ], [ -108.63548, 42.873681 ], [ -108.636934, 42.874864 ], [ -108.639777, 42.874311 ], [ -108.639069, 42.872973 ], [ -108.639687, 42.87188 ], [ -108.641501, 42.871957 ], [ -108.643405, 42.870169 ], [ -108.647651, 42.872391 ], [ -108.647843, 42.873591 ], [ -108.650261, 42.872523 ], [ -108.653147, 42.872246 ], [ -108.655482, 42.872949 ], [ -108.655766, 42.871517 ], [ -108.657292, 42.871903 ], [ -108.659109, 42.871281 ], [ -108.658611, 42.872894 ], [ -108.660978, 42.873327 ], [ -108.66319, 42.874427 ], [ -108.664129, 42.873276 ], [ -108.667963, 42.873617 ], [ -108.668638, 42.872459 ], [ -108.667268, 42.869648 ], [ -108.669487, 42.869757 ], [ -108.669462, 42.871018 ], [ -108.670838, 42.870015 ], [ -108.671777, 42.870484 ], [ -108.673816, 42.869809 ], [ -108.675289, 42.870864 ], [ -108.679239, 42.870362 ], [ -108.680165, 42.871095 ], [ -108.683818, 42.870799 ], [ -108.684235, 42.870322 ], [ -108.685371, 42.865058 ], [ -108.68852, 42.862749 ], [ -108.688205, 42.861592 ], [ -108.690501, 42.859585 ], [ -108.69228, 42.859088 ], [ -108.692216, 42.857299 ], [ -108.693038, 42.856386 ], [ -108.695116, 42.85676 ], [ -108.694966, 42.85421 ], [ -108.697385, 42.854463 ], [ -108.699452, 42.853889 ], [ -108.700194, 42.854907 ], [ -108.701284, 42.854068 ], [ -108.703094, 42.854341 ], [ -108.704007, 42.855403 ], [ -108.703767, 42.856851 ], [ -108.705579, 42.857068 ], [ -108.706734, 42.856227 ], [ -108.707526, 42.857516 ], [ -108.70994, 42.856671 ], [ -108.71059, 42.858651 ], [ -108.712048, 42.858338 ], [ -108.715467, 42.859698 ], [ -108.718014, 42.860984 ], [ -108.717213, 42.862042 ], [ -108.718531, 42.862885 ], [ -108.718557, 42.863931 ], [ -108.720114, 42.864437 ], [ -108.720182, 42.866633 ], [ -108.719128, 42.867543 ], [ -108.719503, 42.868576 ], [ -108.721463, 42.869566 ], [ -108.719864, 42.871857 ], [ -108.720083, 42.872835 ], [ -108.721801, 42.874047 ], [ -108.720874, 42.87449 ], [ -108.721611, 42.876241 ], [ -108.723964, 42.876734 ], [ -108.724922, 42.878508 ], [ -108.724523, 42.879746 ], [ -108.725899, 42.880354 ], [ -108.727779, 42.87985 ], [ -108.728542, 42.881985 ], [ -108.729855, 42.882364 ], [ -108.729186, 42.883669 ], [ -108.731612, 42.883727 ], [ -108.730954, 42.8855 ], [ -108.7326, 42.887251 ], [ -108.732329, 42.888465 ], [ -108.733107, 42.888807 ], [ -108.736146, 42.888245 ], [ -108.736568, 42.889431 ], [ -108.738187, 42.889084 ], [ -108.738728, 42.887875 ], [ -108.740161, 42.888859 ], [ -108.741118, 42.88757 ], [ -108.742584, 42.889099 ], [ -108.743363, 42.88806 ], [ -108.745018, 42.88787 ], [ -108.747326, 42.889031 ], [ -108.752997, 42.889421 ], [ -108.755447, 42.888262 ], [ -108.755772, 42.889672 ], [ -108.75778, 42.888791 ], [ -108.757386, 42.889936 ], [ -108.758556, 42.890532 ], [ -108.760761, 42.889734 ], [ -108.761434, 42.890624 ], [ -108.764614, 42.890301 ], [ -108.765269, 42.891351 ], [ -108.768237, 42.890631 ], [ -108.768191, 42.888547 ], [ -108.769527, 42.888412 ], [ -108.771854, 42.886097 ], [ -108.770052, 42.88448 ], [ -108.77205, 42.883338 ], [ -108.775703, 42.882422 ], [ -108.77516, 42.880524 ], [ -108.776972, 42.879453 ], [ -108.782243, 42.879345 ], [ -108.783121, 42.880882 ], [ -108.785574, 42.881229 ], [ -108.788524, 42.882975 ], [ -108.794635, 42.893051 ], [ -108.794825, 42.90182 ], [ -108.79476, 42.928028 ] ] ] } },
{ "type": "Feature", "properties": { "geoid": "56013940301", "county_name": "Fremont County", "place_name": null, "state_name": "Wyoming", "state_abbr": "WY", "is_rural": true, "ui_invest_score": 2.0, "ui_invest_quintile": 2, "dci_score": 63.9, "dci_quintile": 4.0, "is_cra_lmi": true, "income_level": "M", "is_persistent_poverty": false, "is_tribal_overlap": true, "tribal_area_name": "Wind River Reservation", "aian_pct": 0.1696, "has_nmtc": false, "nmtc_projects": 0, "nmtc_total_usd": 0.0 }, "geometry": { "type": "Polygon", "coordinates": [ [ [ -108.399437, 43.015564 ], [ -108.397761, 43.017295 ], [ -108.395667, 43.019394 ], [ -108.38056, 43.019443 ], [ -108.380571, 43.0224 ], [ -108.380582, 43.025731 ], [ -108.380593, 43.026776 ], [ -108.37569, 43.026782 ], [ -108.371848, 43.026787 ], [ -108.370672, 43.026785 ], [ -108.369497, 43.026782 ], [ -108.369301, 43.026882 ], [ -108.360723, 43.026885 ], [ -108.360703, 43.019636 ], [ -108.360703, 43.019554 ], [ -108.359847, 43.01956 ], [ -108.358321, 43.019543 ], [ -108.350064, 43.01944 ], [ -108.349982, 43.019388 ], [ -108.349331, 43.018938 ], [ -108.345183, 43.017075 ], [ -108.345888, 43.016157 ], [ -108.349768, 43.016118 ], [ -108.350221, 43.015743 ], [ -108.350117, 43.012865 ], [ -108.346867, 43.011393 ], [ -108.349904, 43.008035 ], [ -108.352556, 43.007836 ], [ -108.354961, 43.008775 ], [ -108.357205, 43.010173 ], [ -108.362104, 43.00905 ], [ -108.365555, 43.006744 ], [ -108.371979, 43.006538 ], [ -108.373573, 43.008404 ], [ -108.376908, 43.010312 ], [ -108.37764, 43.01022 ], [ -108.379295, 43.008884 ], [ -108.380455, 43.008679 ], [ -108.381134, 43.008553 ], [ -108.384334, 43.012371 ], [ -108.384525, 43.01237 ], [ -108.385469, 43.012382 ], [ -108.386848, 43.014068 ], [ -108.386846, 43.014233 ], [ -108.388924, 43.013569 ], [ -108.391045, 43.010823 ], [ -108.392828, 43.012491 ], [ -108.394887, 43.012541 ], [ -108.396353, 43.012046 ], [ -108.397027, 43.011398 ], [ -108.397439, 43.01043 ], [ -108.402068, 43.013028 ], [ -108.399437, 43.015564 ] ] ] } },
{ "type": "Feature", "properties": { "geoid": "56025000200", "county_name": "Natrona County", "place_name": null, "state_name": "Wyoming", "state_abbr": "WY", "is_rural": false, "ui_invest_score": 3.0, "ui_invest_quintile": 3, "dci_score": 52.0, "dci_quintile": 5.0, "is_cra_lmi": true, "income_level": "M", "is_persistent_poverty": false, "is_tribal_overlap": false, "tribal_area_name": null, "aian_pct": 0.0147, "has_nmtc": true, "nmtc_projects": 1, "nmtc_total_usd": 911939.0 }, "geometry": { "type": "Polygon", "coordinates": [ [ [ -106.33753, 42.85396 ], [ -106.334706, 42.855775 ], [ -106.33359, 42.85768 ], [ -106.330998, 42.857083 ], [ -106.328444, 42.857049 ], [ -106.327218, 42.858283 ], [ -106.327579, 42.860887 ], [ -106.328653, 42.864171 ], [ -106.327222, 42.865037 ], [ -106.322632, 42.865448 ], [ -106.311865, 42.862566 ], [ -106.30733, 42.864119 ], [ -106.307317, 42.864307 ], [ -106.306664, 42.864311 ], [ -106.303643, 42.865565 ], [ -106.30238, 42.865426 ], [ -106.29828, 42.865365 ], [ -106.297625, 42.865219 ], [ -106.297384, 42.865166 ], [ -106.2974, 42.8647 ], [ -106.297494, 42.860812 ], [ -106.297583, 42.858109 ], [ -106.297633, 42.856423 ], [ -106.297636, 42.856147 ], [ -106.297667, 42.854294 ], [ -106.304505, 42.853632 ], [ -106.31238, 42.851365 ], [ -106.31385, 42.85097 ], [ -106.318058, 42.849454 ], [ -106.32233, 42.84872 ], [ -106.32374, 42.8463 ], [ -106.32376, 42.84361 ], [ -106.32796, 42.84362 ], [ -106.32797, 42.84476 ], [ -106.33703, 42.84152 ], [ -106.336786, 42.846967 ], [ -106.336754, 42.847957 ], [ -106.33724, 42.85186 ], [ -106.33753, 42.85396 ] ] ] } },
{ "type": "Feature", "properties": { "geoid": "56037970800", "county_name": "Sweetwater County", "place_name": null, "state_name": "Wyoming", "state_abbr": "WY", "is_rural": true, "ui_invest_score": 3.0, "ui_invest_quintile": 3, "dci_score": 62.2, "dci_quintile": 4.0, "is_cra_lmi": false, "income_level": "U", "is_persistent_poverty": false, "is_tribal_overlap": false, "tribal_area_name": null, "aian_pct": 0.0, "has_nmtc": false, "nmtc_projects": 0, "nmtc_total_usd": 0.0 }, "geometry": { "type": "Polygon", "coordinates": [ [ [ -109.233055, 41.625371 ], [ -109.22974, 41.63696 ], [ -109.22903, 41.63996 ], [ -109.227786, 41.648699 ], [ -109.227421, 41.651536 ], [ -109.22685, 41.65474 ], [ -109.22499, 41.65684 ], [ -109.22474, 41.65757 ], [ -109.22481, 41.665172 ], [ -109.22217, 41.67632 ], [ -109.22074, 41.6868 ], [ -109.21685, 41.69744 ], [ -109.21248, 41.71705 ], [ -109.212065, 41.717987 ], [ -109.21049, 41.72107 ], [ -109.20778, 41.72488 ], [ -109.20596, 41.72823 ], [ -109.20524, 41.72855 ], [ -109.20119, 41.72848 ], [ -109.19499, 41.72779 ], [ -109.19427, 41.72785 ], [ -109.18365, 41.73066 ], [ -109.17676, 41.73278 ], [ -109.173995, 41.733079 ], [ -109.161532, 41.732666 ], [ -109.156438, 41.730229 ], [ -109.154425, 41.730361 ], [ -109.152075, 41.729715 ], [ -109.146369, 41.730045 ], [ -109.142035, 41.730812 ], [ -109.134468, 41.730772 ], [ -109.1287, 41.731258 ], [ -109.124359, 41.730689 ], [ -109.120711, 41.730548 ], [ -109.1153, 41.732215 ], [ -109.114836, 41.731815 ], [ -109.110441, 41.730951 ], [ -109.109411, 41.730268 ], [ -109.108632, 41.729349 ], [ -109.1087, 41.72465 ], [ -109.11108, 41.72153 ], [ -109.11175, 41.71799 ], [ -109.11191, 41.71473 ], [ -109.11149, 41.71363 ], [ -109.11189, 41.70814 ], [ -109.111, 41.70524 ], [ -109.109319, 41.701603 ], [ -109.109155, 41.700471 ], [ -109.107105, 41.697295 ], [ -109.106342, 41.694772 ], [ -109.10462, 41.69412 ], [ -109.10658, 41.6834 ], [ -109.10708, 41.67616 ], [ -109.11086, 41.66706 ], [ -109.115, 41.64312 ], [ -109.11544, 41.63157 ], [ -109.11577, 41.63015 ], [ -109.11823, 41.6239 ], [ -109.11918, 41.61766 ], [ -109.12033, 41.61655 ], [ -109.12348, 41.61533 ], [ -109.12588, 41.61523 ], [ -109.12724, 41.61374 ], [ -109.12733, 41.61179 ], [ -109.13373, 41.60948 ], [ -109.134747, 41.608176 ], [ -109.13268, 41.604369 ], [ -109.12858, 41.603178 ], [ -109.130099, 41.602113 ], [ -109.131267, 41.602968 ], [ -109.13406, 41.603574 ], [ -109.13657, 41.602297 ], [ -109.141495, 41.602654 ], [ -109.140867, 41.601496 ], [ -109.144244, 41.600835 ], [ -109.144482, 41.599797 ], [ -109.146949, 41.598119 ], [ -109.146267, 41.596247 ], [ -109.148551, 41.596539 ], [ -109.149785, 41.593779 ], [ -109.150726, 41.595327 ], [ -109.151993, 41.595305 ], [ -109.152177, 41.593725 ], [ -109.153389, 41.594732 ], [ -109.157728, 41.592221 ], [ -109.159417, 41.593758 ], [ -109.160012, 41.591355 ], [ -109.16327, 41.592751 ], [ -109.162166, 41.593996 ], [ -109.164233, 41.592177 ], [ -109.164947, 41.593693 ], [ -109.165715, 41.592567 ], [ -109.169265, 41.59471 ], [ -109.17157, 41.593519 ], [ -109.172653, 41.594872 ], [ -109.173702, 41.59326 ], [ -109.174384, 41.594667 ], [ -109.176873, 41.593054 ], [ -109.181417, 41.591608 ], [ -109.18519, 41.589698 ], [ -109.186938, 41.590457 ], [ -109.187187, 41.589483 ], [ -109.189395, 41.590024 ], [ -109.190645, 41.58854 ], [ -109.194264, 41.589361 ], [ -109.19468, 41.589712 ], [ -109.195933, 41.589823 ], [ -109.196555, 41.59268 ], [ -109.198088, 41.593181 ], [ -109.204322, 41.594871 ], [ -109.20733, 41.595367 ], [ -109.214062, 41.592567 ], [ -109.213587, 41.591088 ], [ -109.215416, 41.589365 ], [ -109.221265, 41.586511 ], [ -109.222444, 41.58586 ], [ -109.22362, 41.59123 ], [ -109.224857, 41.59247 ], [ -109.22723, 41.59483 ], [ -109.22808, 41.59537 ], [ -109.230553, 41.596712 ], [ -109.229246, 41.600707 ], [ -109.2295, 41.60786 ], [ -109.23302, 41.62104 ], [ -109.23322, 41.623078 ], [ -109.233055, 41.625371 ] ] ] } },
{ "type": "Feature", "properties": { "geoid": "56001963700", "county_name": "Albany County", "place_name": null, "state_name": "Wyoming", "state_abbr": "WY", "is_rural": true, "ui_invest_score": 2.0, "ui_invest_quintile": 2, "dci_score": 31.9, "dci_quintile": 5.0, "is_cra_lmi": false, "income_level": "U", "is_persistent_poverty": false, "is_tribal_overlap": false, "tribal_area_name": null, "aian_pct": 0.0, "has_nmtc": true, "nmtc_projects": 1, "nmtc_total_usd": 0.0 }, "geometry": { "type": "Polygon", "coordinates": [ [ [ -105.597715, 41.298802 ], [ -105.59731, 41.306514 ], [ -105.596086, 41.307361 ], [ -105.594012, 41.307297 ], [ -105.594756, 41.30073 ], [ -105.587868, 41.303096 ], [ -105.5786, 41.302876 ], [ -105.577083, 41.302869 ], [ -105.575187, 41.302969 ], [ -105.570949, 41.30331 ], [ -105.570063, 41.303895 ], [ -105.564736, 41.304171 ], [ -105.560304, 41.304722 ], [ -105.559819, 41.307934 ], [ -105.559806, 41.309141 ], [ -105.557511, 41.309052 ], [ -105.557569, 41.313473 ], [ -105.557669, 41.320728 ], [ -105.546951, 41.320746 ], [ -105.543675, 41.321539 ], [ -105.538307, 41.320767 ], [ -105.538048, 41.320771 ], [ -105.537756, 41.31777 ], [ -105.53745, 41.318385 ], [ -105.533057, 41.320932 ], [ -105.531906, 41.321135 ], [ -105.529793, 41.321062 ], [ -105.526126, 41.320166 ], [ -105.523986, 41.319178 ], [ -105.523403, 41.317809 ], [ -105.520498, 41.315919 ], [ -105.51813, 41.315623 ], [ -105.516743, 41.314241 ], [ -105.515737, 41.311869 ], [ -105.508514, 41.312667 ], [ -105.506207, 41.313787 ], [ -105.501958, 41.3147 ], [ -105.498094, 41.314013 ], [ -105.494756, 41.313878 ], [ -105.493088, 41.314611 ], [ -105.491724, 41.316785 ], [ -105.487963, 41.319623 ], [ -105.484383, 41.321089 ], [ -105.48062, 41.321045 ], [ -105.47106, 41.322352 ], [ -105.463837, 41.321302 ], [ -105.46241, 41.320547 ], [ -105.457379, 41.316595 ], [ -105.458066, 41.315987 ], [ -105.458225, 41.312646 ], [ -105.459143, 41.309768 ], [ -105.456563, 41.308305 ], [ -105.452885, 41.307097 ], [ -105.44989, 41.307223 ], [ -105.451178, 41.304315 ], [ -105.450872, 41.302558 ], [ -105.452686, 41.298804 ], [ -105.452404, 41.297761 ], [ -105.450497, 41.296203 ], [ -105.445537, 41.295936 ], [ -105.444592, 41.29363 ], [ -105.44079, 41.290807 ], [ -105.440428, 41.287633 ], [ -105.441871, 41.286541 ], [ -105.441596, 41.285474 ], [ -105.444133, 41.28432 ], [ -105.447294, 41.285363 ], [ -105.446267, 41.286338 ], [ -105.443349, 41.290504 ], [ -105.449481, 41.291994 ], [ -105.45458, 41.294118 ], [ -105.4597, 41.294899 ], [ -105.462748, 41.296099 ], [ -105.466087, 41.296517 ], [ -105.468182, 41.298108 ], [ -105.471095, 41.298916 ], [ -105.474274, 41.298731 ], [ -105.475292, 41.299146 ], [ -105.477786, 41.298879 ], [ -105.47898, 41.299343 ], [ -105.483185, 41.299825 ], [ -105.48638, 41.298807 ], [ -105.490943, 41.298162 ], [ -105.493501, 41.296629 ], [ -105.497353, 41.29772 ], [ -105.502329, 41.296129 ], [ -105.504432, 41.29647 ], [ -105.5068, 41.294429 ], [ -105.508716, 41.294205 ], [ -105.509153, 41.293271 ], [ -105.515241, 41.291594 ], [ -105.516704, 41.292281 ], [ -105.519943, 41.291215 ], [ -105.523558, 41.288759 ], [ -105.524802, 41.288884 ], [ -105.526898, 41.290359 ], [ -105.529842, 41.291061 ], [ -105.538226, 41.291089 ], [ -105.565395, 41.291126 ], [ -105.568019, 41.29127 ], [ -105.574188, 41.292079 ], [ -105.576765, 41.292646 ], [ -105.580296, 41.293562 ], [ -105.581357, 41.292011 ], [ -105.577423, 41.291781 ], [ -105.577412, 41.290286 ], [ -105.575906, 41.290218 ], [ -105.575007, 41.290071 ], [ -105.575073, 41.289187 ], [ -105.573395, 41.286634 ], [ -105.57313, 41.285071 ], [ -105.572013, 41.284581 ], [ -105.543131, 41.284326 ], [ -105.543003, 41.280764 ], [ -105.547015, 41.27769 ], [ -105.5506, 41.273043 ], [ -105.551986, 41.272309 ], [ -105.555324, 41.271773 ], [ -105.557147, 41.269929 ], [ -105.566919, 41.269757 ], [ -105.567099, 41.277373 ], [ -105.578258, 41.277392 ], [ -105.588113, 41.287713 ], [ -105.592135, 41.292236 ], [ -105.593002, 41.292782 ], [ -105.593255, 41.295595 ], [ -105.594662, 41.297432 ], [ -105.596395, 41.29788 ], [ -105.597779, 41.298229 ], [ -105.597715, 41.298802 ] ] ] } },
{ "type": "Feature", "properties": { "geoid": "56001963400", "county_name": "Albany County", "place_name": null, "state_name": "Wyoming", "state_abbr": "WY", "is_rural": true, "ui_invest_score": 2.0, "ui_invest_quintile": 2, "dci_score": 40.1, "dci_quintile": 5.0, "is_cra_lmi": false, "income_level": "U", "is_persistent_poverty": false, "is_tribal_overlap": false, "tribal_area_name": null, "aian_pct": 0.0268, "has_nmtc": false, "nmtc_projects": 0, "nmtc_total_usd": 0.0 }, "geometry": { "type": "Polygon", "coordinates": [ [ [ -105.596202, 41.314985 ], [ -105.590562, 41.314617 ], [ -105.590412, 41.316495 ], [ -105.590022, 41.320277 ], [ -105.584755, 41.319968 ], [ -105.583448, 41.319895 ], [ -105.577117, 41.31952 ], [ -105.577099, 41.318562 ], [ -105.577114, 41.315718 ], [ -105.583865, 41.316124 ], [ -105.585174, 41.316198 ], [ -105.585545, 41.312448 ], [ -105.585641, 41.311497 ], [ -105.586107, 41.306846 ], [ -105.592722, 41.307204 ], [ -105.59392, 41.308227 ], [ -105.594012, 41.307297 ], [ -105.596086, 41.307361 ], [ -105.59731, 41.306514 ], [ -105.596202, 41.314985 ] ] ] } },
{ "type": "Feature", "properties": { "geoid": "56009956500", "county_name": "Converse County", "place_name": null, "state_name": "Wyoming", "state_abbr": "WY", "is_rural": true, "ui_invest_score": 3.0, "ui_invest_quintile": 3, "dci_score": 57.8, "dci_quintile": 4.0, "is_cra_lmi": false, "income_level": "U", "is_persistent_poverty": false, "is_tribal_overlap": false, "tribal_area_name": null, "aian_pct": 0.0185, "has_nmtc": false, "nmtc_projects": 0, "nmtc_total_usd": 0.0 }, "geometry": { "type": "Polygon", "coordinates": [ [ [ -105.47186, 42.72656 ], [ -105.46908, 42.73977 ], [ -105.46831, 42.74126 ], [ -105.46241, 42.74455 ], [ -105.46156, 42.74634 ], [ -105.4621, 42.74807 ], [ -105.46147, 42.74945 ], [ -105.46157, 42.76536 ], [ -105.443575, 42.766222 ], [ -105.444323, 42.768111 ], [ -105.443444, 42.769626 ], [ -105.441574, 42.770779 ], [ -105.444156, 42.77181 ], [ -105.444241, 42.772942 ], [ -105.442423, 42.773738 ], [ -105.43875, 42.772871 ], [ -105.435976, 42.774226 ], [ -105.43827, 42.77744 ], [ -105.43836, 42.77909 ], [ -105.43617, 42.7832 ], [ -105.43588, 42.78684 ], [ -105.435896, 42.799129 ], [ -105.424742, 42.790901 ], [ -105.419327, 42.787625 ], [ -105.420228, 42.786649 ], [ -105.420663, 42.784993 ], [ -105.418525, 42.781993 ], [ -105.415717, 42.780534 ], [ -105.415068, 42.778331 ], [ -105.41296, 42.775838 ], [ -105.405001, 42.771637 ], [ -105.403178, 42.771259 ], [ -105.402054, 42.771168 ], [ -105.400487, 42.771263 ], [ -105.397771, 42.77181 ], [ -105.395004, 42.77188 ], [ -105.392521, 42.768628 ], [ -105.393, 42.76702 ], [ -105.393289, 42.766548 ], [ -105.39447, 42.762781 ], [ -105.3957, 42.760856 ], [ -105.395479, 42.756726 ], [ -105.394349, 42.755627 ], [ -105.392612, 42.753293 ], [ -105.392243, 42.749713 ], [ -105.392998, 42.74905 ], [ -105.393299, 42.748332 ], [ -105.395639, 42.746431 ], [ -105.396611, 42.74591 ], [ -105.398042, 42.744888 ], [ -105.398952, 42.743914 ], [ -105.399374, 42.743 ], [ -105.399853, 42.742284 ], [ -105.400036, 42.74198 ], [ -105.400934, 42.739307 ], [ -105.398956, 42.736405 ], [ -105.393112, 42.733095 ], [ -105.391399, 42.731359 ], [ -105.390786, 42.728229 ], [ -105.391803, 42.723523 ], [ -105.390088, 42.720505 ], [ -105.390565, 42.720319 ], [ -105.39684, 42.71788 ], [ -105.39692, 42.70799 ], [ -105.413411, 42.707959 ], [ -105.41705, 42.709986 ], [ -105.41845, 42.710293 ], [ -105.41801, 42.712775 ], [ -105.419208, 42.712841 ], [ -105.422305, 42.714395 ], [ -105.422632, 42.715959 ], [ -105.424032, 42.714993 ], [ -105.425602, 42.715142 ], [ -105.42488, 42.716371 ], [ -105.427009, 42.716734 ], [ -105.429228, 42.718128 ], [ -105.42998, 42.71742 ], [ -105.433196, 42.718205 ], [ -105.432771, 42.71966 ], [ -105.434253, 42.720237 ], [ -105.433784, 42.721143 ], [ -105.434729, 42.72274 ], [ -105.436836, 42.72319 ], [ -105.438929, 42.725304 ], [ -105.440068, 42.724656 ], [ -105.440128, 42.726078 ], [ -105.441847, 42.727033 ], [ -105.444903, 42.726966 ], [ -105.445326, 42.727563 ], [ -105.45547, 42.72527 ], [ -105.47331, 42.72462 ], [ -105.47186, 42.72656 ] ] ] } },
{ "type": "Feature", "properties": { "geoid": "56005000103", "county_name": "Campbell County", "place_name": null, "state_name": "Wyoming", "state_abbr": "WY", "is_rural": true, "ui_invest_score": 3.0, "ui_invest_quintile": 3, "dci_score": 79.5, "dci_quintile": 3.0, "is_cra_lmi": false, "income_level": "U", "is_persistent_poverty": false, "is_tribal_overlap": false, "tribal_area_name": null, "aian_pct": 0.0, "has_nmtc": false, "nmtc_projects": 0, "nmtc_total_usd": 0.0 }, "geometry": { "type": "Polygon", "coordinates": [ [ [ -106.018862, 43.624972 ], [ -106.017598, 43.821489 ], [ -106.009201, 43.821579 ], [ -106.009932, 44.030464 ], [ -106.00777, 44.03057 ], [ -106.00333, 44.03181 ], [ -105.99778, 44.02943 ], [ -105.99374, 44.03022 ], [ -105.99139, 44.02938 ], [ -105.98728, 44.02564 ], [ -105.9845, 44.02346 ], [ -105.98343, 44.02321 ], [ -105.97988, 44.02376 ], [ -105.97308, 44.01919 ], [ -105.96718, 44.01836 ], [ -105.96353, 44.01724 ], [ -105.95695, 44.01654 ], [ -105.95113, 44.01404 ], [ -105.94614, 44.0136 ], [ -105.93945, 44.01256 ], [ -105.93705, 44.01144 ], [ -105.93482, 44.0096 ], [ -105.92959, 44.00884 ], [ -105.92154, 44.00655 ], [ -105.91938, 44.00531 ], [ -105.91383, 44.0034 ], [ -105.90883, 44.00392 ], [ -105.90435, 44.00329 ], [ -105.90202, 44.00509 ], [ -105.89982, 44.00594 ], [ -105.89474, 44.00334 ], [ -105.89276, 44.00051 ], [ -105.88995, 43.99851 ], [ -105.8886, 43.9984 ], [ -105.8744, 43.99844 ], [ -105.86923, 44.00007 ], [ -105.86829, 44.00005 ], [ -105.86604, 43.99953 ], [ -105.86158, 43.99781 ], [ -105.85514, 43.99265 ], [ -105.85231, 43.99013 ], [ -105.8484, 43.98763 ], [ -105.84285, 43.98478 ], [ -105.8408, 43.98259 ], [ -105.83923, 43.98 ], [ -105.83738, 43.97805 ], [ -105.8344, 43.97572 ], [ -105.82775, 43.97266 ], [ -105.8253, 43.96991 ], [ -105.82059, 43.96702 ], [ -105.81403, 43.96397 ], [ -105.81148, 43.96389 ], [ -105.80752, 43.96262 ], [ -105.80381, 43.96058 ], [ -105.80079, 43.95729 ], [ -105.79883, 43.95577 ], [ -105.79556, 43.95429 ], [ -105.79327, 43.95188 ], [ -105.7918, 43.94814 ], [ -105.78726, 43.94592 ], [ -105.77619, 43.95519 ], [ -105.76539, 43.96242 ], [ -105.76384, 43.96371 ], [ -105.75712, 43.97061 ], [ -105.75575, 43.97179 ], [ -105.75144, 43.97407 ], [ -105.74963, 43.97556 ], [ -105.74785, 43.97849 ], [ -105.7389, 43.982 ], [ -105.73262, 43.98347 ], [ -105.72908, 43.98384 ], [ -105.72404, 43.98387 ], [ -105.720811, 43.982038 ], [ -105.718844, 43.979865 ], [ -105.71441, 43.978676 ], [ -105.712668, 43.97703 ], [ -105.707726, 43.974561 ], [ -105.706047, 43.974081 ], [ -105.702387, 43.974337 ], [ -105.699294, 43.972943 ], [ -105.697918, 43.973558 ], [ -105.695448, 43.973032 ], [ -105.694506, 43.971852 ], [ -105.692256, 43.970886 ], [ -105.691268, 43.971133 ], [ -105.689216, 43.969931 ], [ -105.687962, 43.970875 ], [ -105.684748, 43.969964 ], [ -105.681237, 43.968312 ], [ -105.679846, 43.96858 ], [ -105.67974, 43.966182 ], [ -105.676625, 43.965693 ], [ -105.675029, 43.964853 ], [ -105.675482, 43.963705 ], [ -105.675176, 43.959035 ], [ -105.674068, 43.95629 ], [ -105.67365, 43.948372 ], [ -105.673227, 43.947373 ], [ -105.671063, 43.945222 ], [ -105.668209, 43.944574 ], [ -105.663245, 43.945654 ], [ -105.649225, 43.943981 ], [ -105.644952, 43.944199 ], [ -105.637701, 43.943895 ], [ -105.631357, 43.943129 ], [ -105.62767, 43.943514 ], [ -105.618728, 43.943447 ], [ -105.613596, 43.941205 ], [ -105.611, 43.940483 ], [ -105.60597, 43.940525 ], [ -105.603407, 43.941556 ], [ -105.59958, 43.944576 ], [ -105.597681, 43.944485 ], [ -105.594515, 43.942679 ], [ -105.592173, 43.942039 ], [ -105.588248, 43.94236 ], [ -105.584133, 43.942087 ], [ -105.581419, 43.940993 ], [ -105.578912, 43.940841 ], [ -105.575007, 43.942244 ], [ -105.571399, 43.941406 ], [ -105.563439, 43.94124 ], [ -105.5582, 43.94074 ], [ -105.55783, 43.93767 ], [ -105.55853, 43.93529 ], [ -105.55386, 43.93438 ], [ -105.55129, 43.93324 ], [ -105.5404, 43.9337 ], [ -105.53784, 43.93403 ], [ -105.53456, 43.93562 ], [ -105.53289, 43.93694 ], [ -105.52792, 43.93569 ], [ -105.52462, 43.93567 ], [ -105.52189, 43.9344 ], [ -105.51774, 43.93412 ], [ -105.51456, 43.93535 ], [ -105.51172, 43.93591 ], [ -105.49993, 43.93736 ], [ -105.48775, 43.93927 ], [ -105.48335, 43.93966 ], [ -105.47802, 43.94213 ], [ -105.46911, 43.9433 ], [ -105.46278, 43.94436 ], [ -105.4595, 43.94551 ], [ -105.4456, 43.9455 ], [ -105.44735, 43.92523 ], [ -105.45162, 43.89247 ], [ -105.45733, 43.86574 ], [ -105.46481, 43.84321 ], [ -105.46505, 43.84208 ], [ -105.46934, 43.80697 ], [ -105.46975, 43.80529 ], [ -105.47638, 43.78598 ], [ -105.4767, 43.7839 ], [ -105.475807, 43.763193 ], [ -105.475636, 43.759259 ], [ -105.474815, 43.741889 ], [ -105.47253, 43.69412 ], [ -105.46955, 43.6781 ], [ -105.46941, 43.67662 ], [ -105.46799, 43.63463 ], [ -105.46817, 43.63298 ], [ -105.46879, 43.63074 ], [ -105.47768, 43.61239 ], [ -105.47861, 43.60968 ], [ -105.47871, 43.60552 ], [ -105.47772, 43.60078 ], [ -105.46254, 43.56761 ], [ -105.45369, 43.53598 ], [ -105.45124, 43.52125 ], [ -105.44797, 43.51074 ], [ -105.44686, 43.496703 ], [ -105.495864, 43.496833 ], [ -105.500545, 43.496561 ], [ -105.685006, 43.495823 ], [ -105.923204, 43.495006 ], [ -106.000566, 43.4948 ], [ -106.001876, 43.495046 ], [ -106.017366, 43.494969 ], [ -106.017998, 43.619583 ], [ -106.018862, 43.624972 ] ] ] } },
{ "type": "Feature", "properties": { "geoid": "56021000701", "county_name": "Laramie County", "place_name": null, "state_name": "Wyoming", "state_abbr": "WY", "is_rural": false, "ui_invest_score": 1.0, "ui_invest_quintile": 1, "dci_score": 23.4, "dci_quintile": 5.0, "is_cra_lmi": true, "income_level": "M", "is_persistent_poverty": false, "is_tribal_overlap": false, "tribal_area_name": null, "aian_pct": 0.0247, "has_nmtc": false, "nmtc_projects": 0, "nmtc_total_usd": 0.0 }, "geometry": { "type": "Polygon", "coordinates": [ [ [ -104.818311, 41.145965 ], [ -104.809391, 41.145921 ], [ -104.800728, 41.145869 ], [ -104.800218, 41.14586 ], [ -104.798557, 41.143369 ], [ -104.797939, 41.142432 ], [ -104.79517, 41.138174 ], [ -104.794168, 41.136646 ], [ -104.793336, 41.135176 ], [ -104.793787, 41.134224 ], [ -104.794261, 41.133646 ], [ -104.795011, 41.132439 ], [ -104.80157, 41.134692 ], [ -104.802704, 41.134877 ], [ -104.805298, 41.134769 ], [ -104.810023, 41.133138 ], [ -104.814248, 41.139726 ], [ -104.815406, 41.141476 ], [ -104.818311, 41.145965 ] ] ] } },
{ "type": "Feature", "properties": { "geoid": "56019955201", "county_name": "Johnson County", "place_name": null, "state_name": "Wyoming", "state_abbr": "WY", "is_rural": true, "ui_invest_score": 3.0, "ui_invest_quintile": 3, "dci_score": 50.8, "dci_quintile": 5.0, "is_cra_lmi": false, "income_level": "U", "is_persistent_poverty": false, "is_tribal_overlap": false, "tribal_area_name": null, "aian_pct": 0.0156, "has_nmtc": false, "nmtc_projects": 0, "nmtc_total_usd": 0.0 }, "geometry": { "type": "Polygon", "coordinates": [ [ [ -106.75363, 44.308472 ], [ -106.752872, 44.310719 ], [ -106.750605, 44.313868 ], [ -106.748049, 44.315151 ], [ -106.748111, 44.316557 ], [ -106.747333, 44.317046 ], [ -106.743059, 44.317395 ], [ -106.740711, 44.318021 ], [ -106.738603, 44.32053 ], [ -106.732702, 44.322535 ], [ -106.728089, 44.3245 ], [ -106.727791, 44.324844 ], [ -106.727359, 44.325314 ], [ -106.725352, 44.326356 ], [ -106.724306, 44.32702 ], [ -106.724034, 44.327228 ], [ -106.72391, 44.327413 ], [ -106.723727, 44.328133 ], [ -106.719838, 44.331605 ], [ -106.714877, 44.333964 ], [ -106.713567, 44.336238 ], [ -106.708873, 44.341293 ], [ -106.706276, 44.34282 ], [ -106.706613, 44.344688 ], [ -106.705736, 44.348264 ], [ -106.705248, 44.348257 ], [ -106.699091, 44.3482 ], [ -106.697472, 44.35421 ], [ -106.691758, 44.354192 ], [ -106.690402, 44.354192 ], [ -106.687764, 44.354191 ], [ -106.687534, 44.35419 ], [ -106.683183, 44.354177 ], [ -106.679962, 44.354169 ], [ -106.674807, 44.354148 ], [ -106.668912, 44.354126 ], [ -106.668815, 44.353391 ], [ -106.671078, 44.352019 ], [ -106.675166, 44.352145 ], [ -106.675816, 44.351071 ], [ -106.675809, 44.348037 ], [ -106.675213, 44.347049 ], [ -106.6723, 44.345748 ], [ -106.671276, 44.343361 ], [ -106.672094, 44.341924 ], [ -106.674235, 44.340766 ], [ -106.673945, 44.33901 ], [ -106.67172, 44.338917 ], [ -106.671819, 44.340371 ], [ -106.670137, 44.340623 ], [ -106.669977, 44.338083 ], [ -106.667431, 44.33699 ], [ -106.668189, 44.334302 ], [ -106.669925, 44.332513 ], [ -106.667685, 44.331805 ], [ -106.668114, 44.329896 ], [ -106.669781, 44.328628 ], [ -106.668588, 44.327849 ], [ -106.668253, 44.323448 ], [ -106.671136, 44.320299 ], [ -106.670639, 44.319465 ], [ -106.673477, 44.318311 ], [ -106.67308, 44.316291 ], [ -106.6766, 44.315407 ], [ -106.677457, 44.314626 ], [ -106.681693, 44.313407 ], [ -106.68195, 44.310348 ], [ -106.697604, 44.310546 ], [ -106.70013, 44.311724 ], [ -106.702588, 44.309905 ], [ -106.705961, 44.309013 ], [ -106.706269, 44.306527 ], [ -106.708068, 44.305532 ], [ -106.710278, 44.306311 ], [ -106.712572, 44.303526 ], [ -106.71374, 44.304491 ], [ -106.715869, 44.302633 ], [ -106.71793, 44.299049 ], [ -106.720083, 44.296821 ], [ -106.720145, 44.298 ], [ -106.722674, 44.298488 ], [ -106.720781, 44.300233 ], [ -106.721753, 44.303772 ], [ -106.720852, 44.304985 ], [ -106.721128, 44.306631 ], [ -106.719571, 44.309759 ], [ -106.719668, 44.311573 ], [ -106.720932, 44.30882 ], [ -106.722835, 44.30726 ], [ -106.724, 44.304915 ], [ -106.726387, 44.301935 ], [ -106.729742, 44.298643 ], [ -106.735207, 44.297416 ], [ -106.736842, 44.296277 ], [ -106.739931, 44.291955 ], [ -106.740294, 44.295454 ], [ -106.742297, 44.296576 ], [ -106.742713, 44.299551 ], [ -106.745055, 44.301182 ], [ -106.74459, 44.302691 ], [ -106.746189, 44.301554 ], [ -106.751124, 44.301226 ], [ -106.752983, 44.304528 ], [ -106.752959, 44.307521 ], [ -106.75363, 44.308472 ] ] ] } },
{ "type": "Feature", "properties": { "geoid": "56001963102", "county_name": "Albany County", "place_name": null, "state_name": "Wyoming", "state_abbr": "WY", "is_rural": true, "ui_invest_score": 2.0, "ui_invest_quintile": 2, "dci_score": 43.6, "dci_quintile": 5.0, "is_cra_lmi": false, "income_level": "U", "is_persistent_poverty": false, "is_tribal_overlap": false, "tribal_area_name": null, "aian_pct": 0.0017, "has_nmtc": false, "nmtc_projects": 0, "nmtc_total_usd": 0.0 }, "geometry": { "type": "Polygon", "coordinates": [ [ [ -105.584185, 41.3254 ], [ -105.583946, 41.326231 ], [ -105.582357, 41.328602 ], [ -105.581988, 41.331692 ], [ -105.576632, 41.331704 ], [ -105.576736, 41.324947 ], [ -105.572041, 41.324957 ], [ -105.557555, 41.324995 ], [ -105.557669, 41.320728 ], [ -105.563648, 41.320632 ], [ -105.567289, 41.318937 ], [ -105.577099, 41.318562 ], [ -105.577117, 41.31952 ], [ -105.583448, 41.319895 ], [ -105.584755, 41.319968 ], [ -105.584185, 41.3254 ] ] ] } },
{ "type": "Feature", "properties": { "geoid": "56021000200", "county_name": "Laramie County", "place_name": null, "state_name": "Wyoming", "state_abbr": "WY", "is_rural": false, "ui_invest_score": 3.0, "ui_invest_quintile": 3, "dci_score": 54.6, "dci_quintile": 4.0, "is_cra_lmi": true, "income_level": "M", "is_persistent_poverty": false, "is_tribal_overlap": false, "tribal_area_name": null, "aian_pct": 0.0093, "has_nmtc": false, "nmtc_projects": 0, "nmtc_total_usd": 0.0 }, "geometry": { "type": "Polygon", "coordinates": [ [ [ -104.851091, 41.117868 ], [ -104.84013, 41.122731 ], [ -104.837336, 41.123528 ], [ -104.831696, 41.124896 ], [ -104.824146, 41.12771 ], [ -104.822018, 41.128574 ], [ -104.810023, 41.133138 ], [ -104.805298, 41.134769 ], [ -104.802704, 41.134877 ], [ -104.80157, 41.134692 ], [ -104.795011, 41.132439 ], [ -104.790304, 41.130852 ], [ -104.786582, 41.130083 ], [ -104.784827, 41.129894 ], [ -104.766829, 41.128902 ], [ -104.766299, 41.128875 ], [ -104.766514, 41.128355 ], [ -104.767057, 41.126604 ], [ -104.767017, 41.124165 ], [ -104.770479, 41.123999 ], [ -104.780439, 41.122659 ], [ -104.793487, 41.120764 ], [ -104.800613, 41.119733 ], [ -104.80266, 41.11944 ], [ -104.80488, 41.119095 ], [ -104.809546, 41.118403 ], [ -104.81894, 41.117043 ], [ -104.822159, 41.116589 ], [ -104.823771, 41.116468 ], [ -104.835618, 41.116439 ], [ -104.839105, 41.116323 ], [ -104.843484, 41.115579 ], [ -104.850979, 41.11389 ], [ -104.851062, 41.117055 ], [ -104.851091, 41.117868 ] ] ] } },
{ "type": "Feature", "properties": { "geoid": "56037971000", "county_name": "Sweetwater County", "place_name": null, "state_name": "Wyoming", "state_abbr": "WY", "is_rural": true, "ui_invest_score": 3.0, "ui_invest_quintile": 3, "dci_score": 62.2, "dci_quintile": 4.0, "is_cra_lmi": false, "income_level": "U", "is_persistent_poverty": false, "is_tribal_overlap": false, "tribal_area_name": null, "aian_pct": 0.0165, "has_nmtc": false, "nmtc_projects": 0, "nmtc_total_usd": 0.0 }, "geometry": { "type": "Polygon", "coordinates": [ [ [ -109.305381, 41.505179 ], [ -109.295936, 41.526878 ], [ -109.295119, 41.52987 ], [ -109.29516, 41.5314 ], [ -109.295689, 41.533533 ], [ -109.29725, 41.53611 ], [ -109.30089, 41.53972 ], [ -109.302566, 41.542028 ], [ -109.30417, 41.547497 ], [ -109.300891, 41.548796 ], [ -109.29781, 41.55171 ], [ -109.29371, 41.5546 ], [ -109.291881, 41.555233 ], [ -109.28616, 41.55572 ], [ -109.281905, 41.556504 ], [ -109.279465, 41.557331 ], [ -109.274143, 41.560652 ], [ -109.269414, 41.562291 ], [ -109.265178, 41.564439 ], [ -109.263593, 41.564773 ], [ -109.25807, 41.56476 ], [ -109.25352, 41.56558 ], [ -109.24932, 41.56702 ], [ -109.245405, 41.569133 ], [ -109.241619, 41.570041 ], [ -109.2392, 41.56979 ], [ -109.237342, 41.569956 ], [ -109.233535, 41.571785 ], [ -109.232893, 41.574004 ], [ -109.230997, 41.575233 ], [ -109.234453, 41.576343 ], [ -109.23548, 41.57714 ], [ -109.23167, 41.57914 ], [ -109.22733, 41.58424 ], [ -109.226693, 41.584521 ], [ -109.227074, 41.587736 ], [ -109.226891, 41.590903 ], [ -109.225135, 41.592329 ], [ -109.224857, 41.59247 ], [ -109.22362, 41.59123 ], [ -109.222444, 41.58586 ], [ -109.22215, 41.58548 ], [ -109.21625, 41.57927 ], [ -109.21823, 41.57929 ], [ -109.21822, 41.57806 ], [ -109.218185, 41.572582 ], [ -109.218219, 41.570741 ], [ -109.21954, 41.56982 ], [ -109.21647, 41.567236 ], [ -109.21487, 41.56681 ], [ -109.21701, 41.56479 ], [ -109.2173, 41.56297 ], [ -109.21693, 41.56219 ], [ -109.21593, 41.559636 ], [ -109.212309, 41.554881 ], [ -109.20983, 41.55297 ], [ -109.20529, 41.55201 ], [ -109.20386, 41.55047 ], [ -109.20085, 41.54835 ], [ -109.19774, 41.54838 ], [ -109.19656, 41.54769 ], [ -109.19428, 41.54833 ], [ -109.18979, 41.54883 ], [ -109.186022, 41.547554 ], [ -109.18232, 41.54869 ], [ -109.18018, 41.54891 ], [ -109.17851, 41.54806 ], [ -109.17134, 41.54925 ], [ -109.16781, 41.5494 ], [ -109.16586, 41.55044 ], [ -109.16327, 41.5495 ], [ -109.16277, 41.55065 ], [ -109.16061, 41.55238 ], [ -109.155443, 41.553409 ], [ -109.14976, 41.55332 ], [ -109.14106, 41.54679 ], [ -109.13739, 41.54271 ], [ -109.13988, 41.54149 ], [ -109.14353, 41.53797 ], [ -109.14705, 41.53323 ], [ -109.155359, 41.529797 ], [ -109.15757, 41.52807 ], [ -109.1579, 41.52718 ], [ -109.15782, 41.51572 ], [ -109.1581, 41.50949 ], [ -109.164935, 41.496197 ], [ -109.169846, 41.486817 ], [ -109.17753, 41.47228 ], [ -109.17865, 41.46677 ], [ -109.18096, 41.46071 ], [ -109.18262, 41.45864 ], [ -109.18389, 41.45601 ], [ -109.18473, 41.45555 ], [ -109.18694, 41.45515 ], [ -109.1905, 41.45514 ], [ -109.19443, 41.45567 ], [ -109.19646, 41.45526 ], [ -109.2013, 41.45263 ], [ -109.20714, 41.45082 ], [ -109.21601, 41.44692 ], [ -109.21913, 41.44616 ], [ -109.22808, 41.44452 ], [ -109.23242, 41.44259 ], [ -109.234039, 41.441438 ], [ -109.24335, 41.44003 ], [ -109.24932, 41.43791 ], [ -109.255821, 41.436233 ], [ -109.25863, 41.436172 ], [ -109.259559, 41.436939 ], [ -109.25915, 41.44488 ], [ -109.26009, 41.44712 ], [ -109.26402, 41.4507 ], [ -109.2654, 41.45279 ], [ -109.26555, 41.45445 ], [ -109.26676, 41.45839 ], [ -109.26787, 41.46321 ], [ -109.26774, 41.46907 ], [ -109.26928, 41.47624 ], [ -109.26923, 41.4791 ], [ -109.26767, 41.48134 ], [ -109.26743, 41.48297 ], [ -109.26805, 41.48435 ], [ -109.27021, 41.48593 ], [ -109.271254, 41.487742 ], [ -109.27116, 41.48904 ], [ -109.26606, 41.49468 ], [ -109.26653, 41.50018 ], [ -109.267258, 41.501386 ], [ -109.268308, 41.498179 ], [ -109.269807, 41.496556 ], [ -109.275613, 41.496014 ], [ -109.279937, 41.495341 ], [ -109.283676, 41.495484 ], [ -109.286117, 41.496339 ], [ -109.288991, 41.498567 ], [ -109.291773, 41.498729 ], [ -109.295665, 41.499797 ], [ -109.299053, 41.50129 ], [ -109.301049, 41.500866 ], [ -109.305011, 41.502802 ], [ -109.30581, 41.503813 ], [ -109.305381, 41.505179 ] ] ] } },
{ "type": "Feature", "properties": { "geoid": "56001963600", "county_name": "Albany County", "place_name": null, "state_name": "Wyoming", "state_abbr": "WY", "is_rural": true, "ui_invest_score": 2.0, "ui_invest_quintile": 2, "dci_score": 30.6, "dci_quintile": 5.0, "is_cra_lmi": false, "income_level": "U", "is_persistent_poverty": false, "is_tribal_overlap": false, "tribal_area_name": null, "aian_pct": 0.0007, "has_nmtc": false, "nmtc_projects": 0, "nmtc_total_usd": 0.0 }, "geometry": { "type": "Polygon", "coordinates": [ [ [ -105.594012, 41.307297 ], [ -105.59392, 41.308227 ], [ -105.592722, 41.307204 ], [ -105.586107, 41.306846 ], [ -105.585641, 41.311497 ], [ -105.577255, 41.310975 ], [ -105.57792, 41.310064 ], [ -105.573256, 41.309833 ], [ -105.564921, 41.309396 ], [ -105.559806, 41.309141 ], [ -105.559819, 41.307934 ], [ -105.560304, 41.304722 ], [ -105.564736, 41.304171 ], [ -105.570063, 41.303895 ], [ -105.570949, 41.30331 ], [ -105.575187, 41.302969 ], [ -105.577083, 41.302869 ], [ -105.5786, 41.302876 ], [ -105.587868, 41.303096 ], [ -105.594756, 41.30073 ], [ -105.594012, 41.307297 ] ] ] } },
{ "type": "Feature", "properties": { "geoid": "56001963000", "county_name": "Albany County", "place_name": null, "state_name": "Wyoming", "state_abbr": "WY", "is_rural": true, "ui_invest_score": 3.0, "ui_invest_quintile": 3, "dci_score": 43.6, "dci_quintile": 5.0, "is_cra_lmi": false, "income_level": "NA", "is_persistent_poverty": false, "is_tribal_overlap": false, "tribal_area_name": null, "aian_pct": 0.0044, "has_nmtc": false, "nmtc_projects": 0, "nmtc_total_usd": 0.0 }, "geometry": { "type": "Polygon", "coordinates": [ [ [ -105.598129, 41.346024 ], [ -105.594169, 41.35315 ], [ -105.592217, 41.352644 ], [ -105.591717, 41.353549 ], [ -105.589049, 41.353466 ], [ -105.58702, 41.372028 ], [ -105.58701, 41.37537 ], [ -105.58011, 41.373033 ], [ -105.560354, 41.35341 ], [ -105.561804, 41.350244 ], [ -105.569074, 41.34395 ], [ -105.570494, 41.343504 ], [ -105.57444, 41.343446 ], [ -105.577261, 41.341998 ], [ -105.582884, 41.336221 ], [ -105.583397, 41.334956 ], [ -105.583405, 41.331699 ], [ -105.581988, 41.331692 ], [ -105.582357, 41.328602 ], [ -105.583946, 41.326231 ], [ -105.584185, 41.3254 ], [ -105.584755, 41.319968 ], [ -105.590022, 41.320277 ], [ -105.590412, 41.316495 ], [ -105.590562, 41.314617 ], [ -105.596202, 41.314985 ], [ -105.595737, 41.324216 ], [ -105.596042, 41.326976 ], [ -105.593458, 41.327102 ], [ -105.591894, 41.327002 ], [ -105.591792, 41.327949 ], [ -105.59047, 41.340184 ], [ -105.594989, 41.340499 ], [ -105.596021, 41.340602 ], [ -105.597578, 41.341234 ], [ -105.596867, 41.344103 ], [ -105.598795, 41.345607 ], [ -105.598129, 41.346024 ] ] ] } }
]
}
