{
"type": "FeatureCollection",
"name": "60",
"crs": { "type": "name", "properties": { "name": "urn:ogc:def:crs:OGC:1.3:CRS84" } },
"features": [
{ "type": "Feature", "properties": { "geoid": "60010950100", "county_name": "Eastern District", "place_name": "Onenoa", "state_name": "American Samoa", "state_abbr": "AS", "is_rural": true, "dci_score": null, "dci_quintile": null, "is_cra_lmi": false, "income_level": "U", "is_persistent_poverty": false, "is_tribal_overlap": false, "tribal_area_name": null, "aian_pct": 0.0, "has_nmtc": false, "nmtc_projects": 0, "nmtc_total_usd": 0.0 }, "geometry": { "type": "MultiPolygon", "coordinates": [ [ [ [ -170.59622, -14.270741 ], [ -170.59014, -14.253058 ], [ -170.590256, -14.198059 ], [ -170.581658, -14.1964 ], [ -170.559218, -14.198385 ], [ -170.536778, -14.20434 ], [ -170.510598, -14.23213 ], [ -170.506457, -14.2543 ], [ -170.49472, -14.265964 ], [ -170.490341, -14.282475 ], [ -170.491495, -14.301691 ], [ -170.5, -14.317616 ], [ -170.509439, -14.328763 ], [ -170.519675, -14.333156 ], [ -170.53809, -14.336129 ], [ -170.539058, -14.294852 ], [ -170.543629, -14.282697 ], [ -170.547428, -14.278237 ], [ -170.561415, -14.27554 ], [ -170.567168, -14.26799 ], [ -170.578232, -14.261875 ], [ -170.580143, -14.265155 ], [ -170.593942, -14.272013 ], [ -170.59622, -14.270741 ] ] ], [ [ [ -170.70392, -14.203366 ], [ -170.702795, -14.196863 ], [ -170.687092, -14.18224 ], [ -170.67664, -14.178337 ], [ -170.655315, -14.175545 ], [ -170.636626, -14.17874 ], [ -170.628085, -14.182835 ], [ -170.602228, -14.20037 ], [ -170.600149, -14.199966 ], [ -170.637873, -14.237102 ], [ -170.65278, -14.248519 ], [ -170.656965, -14.257916 ], [ -170.660374, -14.261184 ], [ -170.659729, -14.264167 ], [ -170.680454, -14.263281 ], [ -170.686036, -14.264637 ], [ -170.689804, -14.2586 ], [ -170.692107, -14.245743 ], [ -170.706074, -14.20498 ], [ -170.70392, -14.203366 ] ] ] ] } },
{ "type": "Feature", "properties": { "geoid": "60010950200", "county_name": "Eastern District", "place_name": "Amouli", "state_name": "American Samoa", "state_abbr": "AS", "is_rural": true, "dci_score": null, "dci_quintile": null, "is_cra_lmi": false, "income_level": "U", "is_persistent_poverty": false, "is_tribal_overlap": false, "tribal_area_name": null, "aian_pct": 0.0, "has_nmtc": false, "nmtc_projects": 0, "nmtc_total_usd": 0.0 }, "geometry": { "type": "Polygon", "coordinates": [ [ [ -170.614778, -14.299678 ], [ -170.608746, -14.28084 ], [ -170.610297, -14.272039 ], [ -170.606212, -14.267071 ], [ -170.603302, -14.264676 ], [ -170.593942, -14.272013 ], [ -170.580143, -14.265155 ], [ -170.578232, -14.261875 ], [ -170.567168, -14.26799 ], [ -170.561415, -14.27554 ], [ -170.547428, -14.278237 ], [ -170.543629, -14.282697 ], [ -170.539058, -14.294852 ], [ -170.53809, -14.336129 ], [ -170.559541, -14.338046 ], [ -170.572833, -14.336744 ], [ -170.58142, -14.334824 ], [ -170.586502, -14.331034 ], [ -170.603494, -14.334305 ], [ -170.608341, -14.312935 ], [ -170.614778, -14.299678 ] ] ] } },
{ "type": "Feature", "properties": { "geoid": "60010950300", "county_name": "Eastern District", "place_name": "Auto", "state_name": "American Samoa", "state_abbr": "AS", "is_rural": true, "dci_score": null, "dci_quintile": null, "is_cra_lmi": false, "income_level": "U", "is_persistent_poverty": false, "is_tribal_overlap": false, "tribal_area_name": null, "aian_pct": 0.0, "has_nmtc": false, "nmtc_projects": 0, "nmtc_total_usd": 0.0 }, "geometry": { "type": "Polygon", "coordinates": [ [ [ -170.673918, -14.299364 ], [ -170.669316, -14.297388 ], [ -170.668658, -14.2915 ], [ -170.66184, -14.28661 ], [ -170.654415, -14.272948 ], [ -170.656258, -14.265368 ], [ -170.659248, -14.264092 ], [ -170.660374, -14.261184 ], [ -170.656965, -14.257916 ], [ -170.65278, -14.248519 ], [ -170.637873, -14.237102 ], [ -170.600149, -14.199966 ], [ -170.590256, -14.198059 ], [ -170.59014, -14.253058 ], [ -170.596255, -14.270847 ], [ -170.603302, -14.264676 ], [ -170.610297, -14.272039 ], [ -170.608746, -14.28084 ], [ -170.614778, -14.299678 ], [ -170.608341, -14.312935 ], [ -170.603494, -14.334305 ], [ -170.61645, -14.334216 ], [ -170.637463, -14.336914 ], [ -170.642786, -14.340321 ], [ -170.648176, -14.347451 ], [ -170.65187, -14.356187 ], [ -170.669335, -14.305041 ], [ -170.673918, -14.299364 ] ] ] } },
{ "type": "Feature", "properties": { "geoid": "60010950500", "county_name": "Eastern District", "place_name": "Aua", "state_name": "American Samoa", "state_abbr": "AS", "is_rural": true, "dci_score": null, "dci_quintile": null, "is_cra_lmi": false, "income_level": "U", "is_persistent_poverty": false, "is_tribal_overlap": false, "tribal_area_name": null, "aian_pct": 0.0, "has_nmtc": false, "nmtc_projects": 0, "nmtc_total_usd": 0.0 }, "geometry": { "type": "Polygon", "coordinates": [ [ [ -170.689785, -14.264842 ], [ -170.680454, -14.263281 ], [ -170.659248, -14.264092 ], [ -170.656258, -14.265368 ], [ -170.653858, -14.271424 ], [ -170.66184, -14.28661 ], [ -170.668658, -14.2915 ], [ -170.671631, -14.282639 ], [ -170.677918, -14.280182 ], [ -170.682629, -14.272799 ], [ -170.689228, -14.274294 ], [ -170.689785, -14.264842 ] ] ] } },
{ "type": "Feature", "properties": { "geoid": "60010950600", "county_name": "Eastern District", "place_name": "Pago Pago", "state_name": "American Samoa", "state_abbr": "AS", "is_rural": true, "dci_score": null, "dci_quintile": null, "is_cra_lmi": false, "income_level": "U", "is_persistent_poverty": false, "is_tribal_overlap": false, "tribal_area_name": null, "aian_pct": 0.0, "has_nmtc": false, "nmtc_projects": 0, "nmtc_total_usd": 0.0 }, "geometry": { "type": "Polygon", "coordinates": [ [ [ -170.747496, -14.236581 ], [ -170.737232, -14.225831 ], [ -170.726287, -14.222683 ], [ -170.720325, -14.214726 ], [ -170.706074, -14.20498 ], [ -170.692107, -14.245743 ], [ -170.689804, -14.2586 ], [ -170.686036, -14.264637 ], [ -170.689785, -14.264842 ], [ -170.689228, -14.274294 ], [ -170.693658, -14.273801 ], [ -170.696162, -14.275399 ], [ -170.698521, -14.285386 ], [ -170.696377, -14.287799 ], [ -170.702417, -14.290306 ], [ -170.7037, -14.29506 ], [ -170.719303, -14.297379 ], [ -170.711584, -14.284947 ], [ -170.715211, -14.27841 ], [ -170.728663, -14.266079 ], [ -170.747496, -14.236581 ] ] ] } },
{ "type": "Feature", "properties": { "geoid": "60010950700", "county_name": "Eastern District", "place_name": "Utulei", "state_name": "American Samoa", "state_abbr": "AS", "is_rural": true, "dci_score": null, "dci_quintile": null, "is_cra_lmi": false, "income_level": "U", "is_persistent_poverty": false, "is_tribal_overlap": false, "tribal_area_name": null, "aian_pct": 0.0, "has_nmtc": false, "nmtc_projects": 0, "nmtc_total_usd": 0.0 }, "geometry": { "type": "Polygon", "coordinates": [ [ [ -170.703674, -14.294965 ], [ -170.702417, -14.290306 ], [ -170.696377, -14.287799 ], [ -170.698521, -14.285386 ], [ -170.697794, -14.279855 ], [ -170.695369, -14.274227 ], [ -170.69266, -14.273642 ], [ -170.686802, -14.274337 ], [ -170.682629, -14.272799 ], [ -170.677918, -14.280182 ], [ -170.671631, -14.282639 ], [ -170.668847, -14.289438 ], [ -170.669316, -14.297388 ], [ -170.67192, -14.299178 ], [ -170.68056, -14.29749 ], [ -170.680039, -14.295224 ], [ -170.690066, -14.294608 ], [ -170.696404, -14.290974 ], [ -170.698627, -14.291004 ], [ -170.703674, -14.294965 ] ] ] } },
{ "type": "Feature", "properties": { "geoid": "60010950900", "county_name": "Eastern District", "place_name": "Nu'uuli", "state_name": "American Samoa", "state_abbr": "AS", "is_rural": true, "dci_score": null, "dci_quintile": null, "is_cra_lmi": false, "income_level": "U", "is_persistent_poverty": false, "is_tribal_overlap": false, "tribal_area_name": null, "aian_pct": 0.0, "has_nmtc": false, "nmtc_projects": 0, "nmtc_total_usd": 0.0 }, "geometry": { "type": "Polygon", "coordinates": [ [ [ -170.797156, -14.246637 ], [ -170.75, -14.241235 ], [ -170.747496, -14.236581 ], [ -170.728046, -14.266935 ], [ -170.715211, -14.27841 ], [ -170.711584, -14.284947 ], [ -170.719303, -14.297379 ], [ -170.7037, -14.29506 ], [ -170.697786, -14.290793 ], [ -170.690066, -14.294608 ], [ -170.680039, -14.295224 ], [ -170.68056, -14.29749 ], [ -170.673918, -14.299364 ], [ -170.669335, -14.305041 ], [ -170.65187, -14.356187 ], [ -170.654493, -14.364252 ], [ -170.66039, -14.371381 ], [ -170.666331, -14.375776 ], [ -170.73215, -14.297595 ], [ -170.797156, -14.246637 ] ] ] } },
{ "type": "Feature", "properties": { "geoid": "60020951800", "county_name": "Manu'a District", "place_name": "Luma", "state_name": "American Samoa", "state_abbr": "AS", "is_rural": true, "dci_score": null, "dci_quintile": null, "is_cra_lmi": false, "income_level": "U", "is_persistent_poverty": false, "is_tribal_overlap": false, "tribal_area_name": null, "aian_pct": 0.0, "has_nmtc": true, "nmtc_projects": 1, "nmtc_total_usd": 294800.0 }, "geometry": { "type": "Polygon", "coordinates": [ [ [ -169.725797, -14.180972 ], [ -169.725269, -14.155623 ], [ -169.720453, -14.137715 ], [ -169.717322, -14.133307 ], [ -169.702316, -14.120345 ], [ -169.678021, -14.111522 ], [ -169.665747, -14.10937 ], [ -169.630488, -14.113715 ], [ -169.625, -14.110461 ], [ -169.609891, -14.105941 ], [ -169.599242, -14.105392 ], [ -169.59001, -14.107523 ], [ -169.575712, -14.113586 ], [ -169.562366, -14.125 ], [ -169.554716, -14.142581 ], [ -169.554272, -14.151691 ], [ -169.547615, -14.163584 ], [ -169.548256, -14.178007 ], [ -169.547009, -14.184333 ], [ -169.542553, -14.179779 ], [ -169.523798, -14.174718 ], [ -169.506058, -14.166874 ], [ -169.5, -14.166052 ], [ -169.46045, -14.169501 ], [ -169.458065, -14.167279 ], [ -169.432119, -14.171256 ], [ -169.412104, -14.168637 ], [ -169.395182, -14.170007 ], [ -169.385643, -14.174606 ], [ -169.377205, -14.181256 ], [ -169.3692, -14.193777 ], [ -169.366896, -14.202075 ], [ -169.367518, -14.261303 ], [ -169.370674, -14.279525 ], [ -169.375, -14.288486 ], [ -169.380242, -14.294816 ], [ -169.397398, -14.307179 ], [ -169.419498, -14.311415 ], [ -169.430213, -14.309859 ], [ -169.445973, -14.304832 ], [ -169.453772, -14.309519 ], [ -169.473243, -14.316359 ], [ -169.482692, -14.317249 ], [ -169.5, -14.313015 ], [ -169.513397, -14.307785 ], [ -169.518884, -14.301802 ], [ -169.527691, -14.281714 ], [ -169.532902, -14.274007 ], [ -169.539188, -14.269002 ], [ -169.553377, -14.263912 ], [ -169.558872, -14.258917 ], [ -169.563814, -14.25 ], [ -169.566847, -14.221479 ], [ -169.588332, -14.23377 ], [ -169.608646, -14.237915 ], [ -169.622815, -14.235689 ], [ -169.631351, -14.227966 ], [ -169.646727, -14.232575 ], [ -169.66061, -14.233827 ], [ -169.672671, -14.232886 ], [ -169.680352, -14.230597 ], [ -169.69284, -14.221604 ], [ -169.714193, -14.200733 ], [ -169.722804, -14.18937 ], [ -169.725797, -14.180972 ] ] ] } },
{ "type": "Feature", "properties": { "geoid": "60050951000", "county_name": "Western District", "place_name": null, "state_name": "American Samoa", "state_abbr": "AS", "is_rural": true, "dci_score": null, "dci_quintile": null, "is_cra_lmi": false, "income_level": "U", "is_persistent_poverty": false, "is_tribal_overlap": false, "tribal_area_name": null, "aian_pct": 0.0, "has_nmtc": false, "nmtc_projects": 0, "nmtc_total_usd": 0.0 }, "geometry": { "type": "Polygon", "coordinates": [ [ [ -170.746781, -14.319092 ], [ -170.744239, -14.316025 ], [ -170.743923, -14.311155 ], [ -170.739854, -14.30431 ], [ -170.739183, -14.300011 ], [ -170.73215, -14.297595 ], [ -170.723799, -14.30727 ], [ -170.715242, -14.318242 ], [ -170.71718, -14.317448 ], [ -170.723081, -14.320218 ], [ -170.7237, -14.323114 ], [ -170.727954, -14.321736 ], [ -170.7278, -14.320539 ], [ -170.731118, -14.321739 ], [ -170.733232, -14.320134 ], [ -170.734869, -14.324397 ], [ -170.740046, -14.325534 ], [ -170.742851, -14.323502 ], [ -170.744276, -14.324154 ], [ -170.746781, -14.319092 ] ] ] } },
{ "type": "Feature", "properties": { "geoid": "60050951100", "county_name": "Western District", "place_name": null, "state_name": "American Samoa", "state_abbr": "AS", "is_rural": true, "dci_score": null, "dci_quintile": null, "is_cra_lmi": false, "income_level": "U", "is_persistent_poverty": false, "is_tribal_overlap": false, "tribal_area_name": null, "aian_pct": 0.0, "has_nmtc": false, "nmtc_projects": 0, "nmtc_total_usd": 0.0 }, "geometry": { "type": "Polygon", "coordinates": [ [ [ -170.762892, -14.321333 ], [ -170.760847, -14.316988 ], [ -170.759682, -14.318303 ], [ -170.758899, -14.316282 ], [ -170.749558, -14.314398 ], [ -170.744276, -14.324154 ], [ -170.739144, -14.325464 ], [ -170.740131, -14.330598 ], [ -170.74669, -14.337873 ], [ -170.746897, -14.340018 ], [ -170.750419, -14.340949 ], [ -170.758459, -14.338068 ], [ -170.762892, -14.321333 ] ] ] } },
{ "type": "Feature", "properties": { "geoid": "60050951201", "county_name": "Western District", "place_name": "Malaeimi", "state_name": "American Samoa", "state_abbr": "AS", "is_rural": true, "dci_score": null, "dci_quintile": null, "is_cra_lmi": false, "income_level": "U", "is_persistent_poverty": false, "is_tribal_overlap": false, "tribal_area_name": null, "aian_pct": 0.0, "has_nmtc": true, "nmtc_projects": 1, "nmtc_total_usd": 10860000.0 }, "geometry": { "type": "Polygon", "coordinates": [ [ [ -170.73453, -14.326168 ], [ -170.733232, -14.320134 ], [ -170.731118, -14.321739 ], [ -170.7278, -14.320539 ], [ -170.727954, -14.321736 ], [ -170.7237, -14.323114 ], [ -170.723081, -14.320218 ], [ -170.71718, -14.317448 ], [ -170.715281, -14.318194 ], [ -170.666331, -14.375776 ], [ -170.693656, -14.394545 ], [ -170.723239, -14.337358 ], [ -170.723885, -14.335524 ], [ -170.720826, -14.333794 ], [ -170.723875, -14.33008 ], [ -170.73072, -14.330588 ], [ -170.732043, -14.324449 ], [ -170.73453, -14.326168 ] ] ] } },
{ "type": "Feature", "properties": { "geoid": "60050951202", "county_name": "Western District", "place_name": "Pava'ia'i", "state_name": "American Samoa", "state_abbr": "AS", "is_rural": true, "dci_score": null, "dci_quintile": null, "is_cra_lmi": false, "income_level": "U", "is_persistent_poverty": false, "is_tribal_overlap": false, "tribal_area_name": null, "aian_pct": 0.0, "has_nmtc": false, "nmtc_projects": 0, "nmtc_total_usd": 0.0 }, "geometry": { "type": "Polygon", "coordinates": [ [ [ -170.743618, -14.334779 ], [ -170.740131, -14.330598 ], [ -170.738851, -14.324333 ], [ -170.735647, -14.324398 ], [ -170.73453, -14.326168 ], [ -170.732043, -14.324449 ], [ -170.73072, -14.330588 ], [ -170.723875, -14.33008 ], [ -170.720826, -14.333794 ], [ -170.723885, -14.335524 ], [ -170.722922, -14.337912 ], [ -170.733191, -14.34075 ], [ -170.737706, -14.338076 ], [ -170.738615, -14.335284 ], [ -170.743618, -14.334779 ] ] ] } },
{ "type": "Feature", "properties": { "geoid": "60050951203", "county_name": "Western District", "place_name": "Tafuna", "state_name": "American Samoa", "state_abbr": "AS", "is_rural": true, "dci_score": null, "dci_quintile": null, "is_cra_lmi": false, "income_level": "U", "is_persistent_poverty": false, "is_tribal_overlap": false, "tribal_area_name": null, "aian_pct": 0.0, "has_nmtc": false, "nmtc_projects": 0, "nmtc_total_usd": 0.0 }, "geometry": { "type": "Polygon", "coordinates": [ [ [ -170.756021, -14.344747 ], [ -170.754918, -14.339925 ], [ -170.746897, -14.340018 ], [ -170.743638, -14.334869 ], [ -170.738615, -14.335284 ], [ -170.737706, -14.338076 ], [ -170.733191, -14.34075 ], [ -170.722922, -14.337912 ], [ -170.693656, -14.394545 ], [ -170.725755, -14.415942 ], [ -170.73902, -14.41995 ], [ -170.743587, -14.419554 ], [ -170.753842, -14.352452 ], [ -170.756037, -14.350947 ], [ -170.753877, -14.350131 ], [ -170.753917, -14.346718 ], [ -170.756021, -14.344747 ] ] ] } },
{ "type": "Feature", "properties": { "geoid": "60050951300", "county_name": "Western District", "place_name": "Tafuna", "state_name": "American Samoa", "state_abbr": "AS", "is_rural": true, "dci_score": null, "dci_quintile": null, "is_cra_lmi": false, "income_level": "U", "is_persistent_poverty": false, "is_tribal_overlap": false, "tribal_area_name": null, "aian_pct": 0.0, "has_nmtc": false, "nmtc_projects": 0, "nmtc_total_usd": 0.0 }, "geometry": { "type": "Polygon", "coordinates": [ [ [ -170.794676, -14.398945 ], [ -170.790911, -14.346186 ], [ -170.787318, -14.345785 ], [ -170.78445, -14.347467 ], [ -170.782436, -14.344944 ], [ -170.777886, -14.351614 ], [ -170.772169, -14.347652 ], [ -170.764357, -14.349388 ], [ -170.761848, -14.346027 ], [ -170.767474, -14.345799 ], [ -170.771145, -14.342362 ], [ -170.770884, -14.338924 ], [ -170.766062, -14.341038 ], [ -170.762305, -14.339566 ], [ -170.757367, -14.341737 ], [ -170.753917, -14.346718 ], [ -170.753877, -14.350131 ], [ -170.756037, -14.350947 ], [ -170.753842, -14.352452 ], [ -170.743587, -14.419554 ], [ -170.759852, -14.418136 ], [ -170.774344, -14.413142 ], [ -170.781144, -14.40746 ], [ -170.785869, -14.400524 ], [ -170.794676, -14.398945 ] ] ] } },
{ "type": "Feature", "properties": { "geoid": "60050951500", "county_name": "Western District", "place_name": "Vaitogi", "state_name": "American Samoa", "state_abbr": "AS", "is_rural": true, "dci_score": null, "dci_quintile": null, "is_cra_lmi": false, "income_level": "U", "is_persistent_poverty": false, "is_tribal_overlap": false, "tribal_area_name": null, "aian_pct": 0.0, "has_nmtc": false, "nmtc_projects": 0, "nmtc_total_usd": 0.0 }, "geometry": { "type": "Polygon", "coordinates": [ [ [ -170.794563, -14.290816 ], [ -170.793544, -14.249491 ], [ -170.73215, -14.297595 ], [ -170.739183, -14.300011 ], [ -170.739854, -14.30431 ], [ -170.743923, -14.311155 ], [ -170.744239, -14.316025 ], [ -170.746781, -14.319092 ], [ -170.749558, -14.314398 ], [ -170.758899, -14.316282 ], [ -170.759682, -14.318303 ], [ -170.760847, -14.316988 ], [ -170.762936, -14.322868 ], [ -170.758831, -14.337494 ], [ -170.754918, -14.339925 ], [ -170.756293, -14.341692 ], [ -170.764256, -14.3393 ], [ -170.766347, -14.341005 ], [ -170.770884, -14.338924 ], [ -170.771131, -14.341251 ], [ -170.776015, -14.341052 ], [ -170.777076, -14.336853 ], [ -170.776626, -14.334188 ], [ -170.774905, -14.334188 ], [ -170.777461, -14.32888 ], [ -170.767958, -14.318838 ], [ -170.783534, -14.314331 ], [ -170.790244, -14.310721 ], [ -170.791658, -14.297227 ], [ -170.794563, -14.290816 ] ] ] } },
{ "type": "Feature", "properties": { "geoid": "60050951600", "county_name": "Western District", "place_name": "Futiga", "state_name": "American Samoa", "state_abbr": "AS", "is_rural": true, "dci_score": null, "dci_quintile": null, "is_cra_lmi": false, "income_level": "U", "is_persistent_poverty": false, "is_tribal_overlap": false, "tribal_area_name": null, "aian_pct": 0.0, "has_nmtc": false, "nmtc_projects": 0, "nmtc_total_usd": 0.0 }, "geometry": { "type": "Polygon", "coordinates": [ [ [ -170.890291, -14.317194 ], [ -170.881845, -14.298484 ], [ -170.875, -14.287597 ], [ -170.850454, -14.264712 ], [ -170.840271, -14.258018 ], [ -170.829502, -14.257687 ], [ -170.823258, -14.25 ], [ -170.816778, -14.247654 ], [ -170.797156, -14.246637 ], [ -170.793544, -14.249491 ], [ -170.794637, -14.292848 ], [ -170.791658, -14.297227 ], [ -170.790244, -14.310721 ], [ -170.783534, -14.314331 ], [ -170.767958, -14.318838 ], [ -170.777461, -14.32888 ], [ -170.774905, -14.334188 ], [ -170.776626, -14.334188 ], [ -170.776982, -14.337568 ], [ -170.776015, -14.341052 ], [ -170.771131, -14.341251 ], [ -170.767474, -14.345799 ], [ -170.761848, -14.346027 ], [ -170.764357, -14.349388 ], [ -170.772169, -14.347652 ], [ -170.777886, -14.351614 ], [ -170.782436, -14.344944 ], [ -170.78445, -14.347467 ], [ -170.787318, -14.345785 ], [ -170.790911, -14.346186 ], [ -170.794676, -14.398945 ], [ -170.803958, -14.395747 ], [ -170.812269, -14.388775 ], [ -170.820746, -14.377464 ], [ -170.823099, -14.371787 ], [ -170.838101, -14.370225 ], [ -170.852334, -14.366351 ], [ -170.865943, -14.358576 ], [ -170.883698, -14.342694 ], [ -170.889252, -14.330902 ], [ -170.890291, -14.317194 ] ] ] } }
]
}
