{
"type": "FeatureCollection",
"name": "66",
"crs": { "type": "name", "properties": { "name": "urn:ogc:def:crs:OGC:1.3:CRS84" } },
"features": [
{ "type": "Feature", "properties": { "geoid": "66010956300", "county_name": "Guam", "place_name": null, "state_name": "Guam", "state_abbr": "GU", "is_rural": true, "ui_invest_score": null, "ui_invest_quintile": null, "dci_score": null, "dci_quintile": null, "is_cra_lmi": false, "income_level": "U", "is_persistent_poverty": false, "is_tribal_overlap": false, "tribal_area_name": null, "aian_pct": 0.0, "has_nmtc": false, "nmtc_projects": 0, "nmtc_total_usd": 0.0 }, "geometry": { "type": "Polygon", "coordinates": [ [ [ 144.869013, 13.490547 ], [ 144.870844, 13.492289 ], [ 144.870751, 13.519571 ], [ 144.882769, 13.524764 ], [ 144.88283, 13.50737 ], [ 144.89556, 13.52419 ], [ 144.90263, 13.52803 ], [ 144.90958, 13.54163 ], [ 144.91301, 13.54386 ], [ 144.916482, 13.556805 ], [ 144.937763, 13.547998 ], [ 144.93246, 13.539279 ], [ 144.932212, 13.533941 ], [ 144.925816, 13.52107 ], [ 144.913598, 13.515455 ], [ 144.902753, 13.513022 ], [ 144.89746, 13.509654 ], [ 144.896047, 13.507022 ], [ 144.891984, 13.50639 ], [ 144.891975, 13.498217 ], [ 144.885306, 13.491462 ], [ 144.876797, 13.489659 ], [ 144.871112, 13.485951 ], [ 144.869013, 13.490547 ] ] ] } },
{ "type": "Feature", "properties": { "geoid": "66010950402", "county_name": "Guam", "place_name": "Anao", "state_name": "Guam", "state_abbr": "GU", "is_rural": true, "ui_invest_score": null, "ui_invest_quintile": null, "dci_score": null, "dci_quintile": null, "is_cra_lmi": false, "income_level": "U", "is_persistent_poverty": false, "is_tribal_overlap": false, "tribal_area_name": null, "aian_pct": 0.0, "has_nmtc": false, "nmtc_projects": 0, "nmtc_total_usd": 0.0 }, "geometry": { "type": "Polygon", "coordinates": [ [ [ 144.848582, 13.572515 ], [ 144.85935, 13.58631 ], [ 144.86415, 13.58886 ], [ 144.86743, 13.58863 ], [ 144.87181, 13.58583 ], [ 144.873449, 13.577085 ], [ 144.875943, 13.575566 ], [ 144.875722, 13.559628 ], [ 144.86913, 13.55979 ], [ 144.86876, 13.55752 ], [ 144.86416, 13.55749 ], [ 144.864327, 13.568234 ], [ 144.85929, 13.57033 ], [ 144.85349, 13.56895 ], [ 144.848582, 13.572515 ] ] ] } },
{ "type": "Feature", "properties": { "geoid": "66010950802", "county_name": "Guam", "place_name": "Machananao East", "state_name": "Guam", "state_abbr": "GU", "is_rural": true, "ui_invest_score": null, "ui_invest_quintile": null, "dci_score": null, "dci_quintile": null, "is_cra_lmi": true, "income_level": "M", "is_persistent_poverty": false, "is_tribal_overlap": false, "tribal_area_name": null, "aian_pct": 0.0, "has_nmtc": false, "nmtc_projects": 0, "nmtc_total_usd": 0.0 }, "geometry": { "type": "Polygon", "coordinates": [ [ [ 144.82354, 13.52382 ], [ 144.8286, 13.53568 ], [ 144.83322, 13.54184 ], [ 144.85427, 13.54153 ], [ 144.84538, 13.52214 ], [ 144.83598, 13.52374 ], [ 144.82771, 13.52096 ], [ 144.82354, 13.52382 ] ] ] } },
{ "type": "Feature", "properties": { "geoid": "66010950401", "county_name": "Guam", "place_name": "Ukudu", "state_name": "Guam", "state_abbr": "GU", "is_rural": true, "ui_invest_score": null, "ui_invest_quintile": null, "dci_score": null, "dci_quintile": null, "is_cra_lmi": false, "income_level": "U", "is_persistent_poverty": false, "is_tribal_overlap": false, "tribal_area_name": null, "aian_pct": 0.0, "has_nmtc": false, "nmtc_projects": 0, "nmtc_total_usd": 0.0 }, "geometry": { "type": "Polygon", "coordinates": [ [ [ 144.840824, 13.557706 ], [ 144.848582, 13.572515 ], [ 144.85349, 13.56895 ], [ 144.85929, 13.57033 ], [ 144.86437, 13.56818 ], [ 144.86416, 13.55749 ], [ 144.840824, 13.557706 ] ] ] } },
{ "type": "Feature", "properties": { "geoid": "66010950702", "county_name": "Guam", "place_name": null, "state_name": "Guam", "state_abbr": "GU", "is_rural": true, "ui_invest_score": null, "ui_invest_quintile": null, "dci_score": null, "dci_quintile": null, "is_cra_lmi": false, "income_level": "U", "is_persistent_poverty": false, "is_tribal_overlap": false, "tribal_area_name": null, "aian_pct": 0.0, "has_nmtc": false, "nmtc_projects": 0, "nmtc_total_usd": 0.0 }, "geometry": { "type": "Polygon", "coordinates": [ [ [ 144.849271, 13.530475 ], [ 144.85494, 13.54331 ], [ 144.85498, 13.55749 ], [ 144.86876, 13.55752 ], [ 144.86892, 13.55975 ], [ 144.875722, 13.559628 ], [ 144.877836, 13.547203 ], [ 144.874889, 13.5304 ], [ 144.87605, 13.52126 ], [ 144.863728, 13.517268 ], [ 144.865025, 13.532693 ], [ 144.85729, 13.53035 ], [ 144.849271, 13.530475 ] ] ] } },
{ "type": "Feature", "properties": { "geoid": "66010950801", "county_name": "Guam", "place_name": null, "state_name": "Guam", "state_abbr": "GU", "is_rural": true, "ui_invest_score": null, "ui_invest_quintile": null, "dci_score": null, "dci_quintile": null, "is_cra_lmi": false, "income_level": "U", "is_persistent_poverty": false, "is_tribal_overlap": false, "tribal_area_name": null, "aian_pct": 0.0, "has_nmtc": false, "nmtc_projects": 0, "nmtc_total_usd": 0.0 }, "geometry": { "type": "Polygon", "coordinates": [ [ [ 144.833254, 13.541987 ], [ 144.84073, 13.55753 ], [ 144.85498, 13.55749 ], [ 144.85427, 13.54153 ], [ 144.833254, 13.541987 ] ] ] } },
{ "type": "Feature", "properties": { "geoid": "66010950501", "county_name": "Guam", "place_name": "Machanao", "state_name": "Guam", "state_abbr": "GU", "is_rural": true, "ui_invest_score": null, "ui_invest_quintile": null, "dci_score": null, "dci_quintile": null, "is_cra_lmi": true, "income_level": "M", "is_persistent_poverty": false, "is_tribal_overlap": false, "tribal_area_name": null, "aian_pct": 0.0, "has_nmtc": false, "nmtc_projects": 0, "nmtc_total_usd": 0.0 }, "geometry": { "type": "Polygon", "coordinates": [ [ [ 144.87181, 13.58583 ], [ 144.88802, 13.58306 ], [ 144.89181, 13.57953 ], [ 144.878886, 13.569866 ], [ 144.881153, 13.567124 ], [ 144.88049, 13.56432 ], [ 144.875765, 13.564088 ], [ 144.875943, 13.575566 ], [ 144.873449, 13.577085 ], [ 144.87181, 13.58583 ] ] ] } },
{ "type": "Feature", "properties": { "geoid": "66010956000", "county_name": "Guam", "place_name": null, "state_name": "Guam", "state_abbr": "GU", "is_rural": true, "ui_invest_score": null, "ui_invest_quintile": null, "dci_score": null, "dci_quintile": null, "is_cra_lmi": false, "income_level": "U", "is_persistent_poverty": false, "is_tribal_overlap": false, "tribal_area_name": null, "aian_pct": 0.0, "has_nmtc": false, "nmtc_projects": 0, "nmtc_total_usd": 0.0 }, "geometry": { "type": "Polygon", "coordinates": [ [ [ 144.76859, 13.47602 ], [ 144.768703, 13.479491 ], [ 144.77055, 13.481087 ], [ 144.779713, 13.481711 ], [ 144.78032, 13.47497 ], [ 144.785737, 13.466125 ], [ 144.784394, 13.461709 ], [ 144.77259, 13.46036 ], [ 144.77799, 13.46861 ], [ 144.77563, 13.46866 ], [ 144.776706, 13.471929 ], [ 144.77547, 13.47575 ], [ 144.76859, 13.47602 ] ] ] } },
{ "type": "Feature", "properties": { "geoid": "66010954500", "county_name": "Guam", "place_name": "Y Sengsong", "state_name": "Guam", "state_abbr": "GU", "is_rural": true, "ui_invest_score": null, "ui_invest_quintile": null, "dci_score": null, "dci_quintile": null, "is_cra_lmi": true, "income_level": "L", "is_persistent_poverty": false, "is_tribal_overlap": false, "tribal_area_name": null, "aian_pct": 0.0, "has_nmtc": false, "nmtc_projects": 0, "nmtc_total_usd": 0.0 }, "geometry": { "type": "MultiPolygon", "coordinates": [ [ [ [ 144.64682, 13.413074 ], [ 144.646495, 13.414986 ], [ 144.648293, 13.41354 ], [ 144.64682, 13.413074 ] ] ], [ [ [ 144.61807, 13.447813 ], [ 144.623961, 13.454684 ], [ 144.666797, 13.445752 ], [ 144.666977, 13.436427 ], [ 144.676346, 13.428162 ], [ 144.677738, 13.424237 ], [ 144.67572, 13.42165 ], [ 144.67841, 13.41658 ], [ 144.67611, 13.41093 ], [ 144.663078, 13.401057 ], [ 144.658012, 13.412639 ], [ 144.652892, 13.415287 ], [ 144.648099, 13.414506 ], [ 144.647213, 13.418087 ], [ 144.642369, 13.418545 ], [ 144.639718, 13.421205 ], [ 144.638646, 13.430662 ], [ 144.624243, 13.437738 ], [ 144.621233, 13.440599 ], [ 144.61807, 13.447813 ] ] ] ] } },
{ "type": "Feature", "properties": { "geoid": "66010953000", "county_name": "Guam", "place_name": "Astumbo", "state_name": "Guam", "state_abbr": "GU", "is_rural": true, "ui_invest_score": null, "ui_invest_quintile": null, "dci_score": null, "dci_quintile": null, "is_cra_lmi": false, "income_level": "U", "is_persistent_poverty": false, "is_tribal_overlap": false, "tribal_area_name": null, "aian_pct": 0.0, "has_nmtc": false, "nmtc_projects": 0, "nmtc_total_usd": 0.0 }, "geometry": { "type": "Polygon", "coordinates": [ [ [ 144.792317, 13.437863 ], [ 144.79775, 13.43908 ], [ 144.80032, 13.44153 ], [ 144.80985, 13.44164 ], [ 144.816645, 13.439773 ], [ 144.805759, 13.426466 ], [ 144.800431, 13.42673 ], [ 144.797693, 13.428612 ], [ 144.792782, 13.426506 ], [ 144.792317, 13.437863 ] ] ] } },
{ "type": "Feature", "properties": { "geoid": "66010980100", "county_name": "Guam", "place_name": null, "state_name": "Guam", "state_abbr": "GU", "is_rural": true, "ui_invest_score": null, "ui_invest_quintile": null, "dci_score": null, "dci_quintile": null, "is_cra_lmi": false, "income_level": "U", "is_persistent_poverty": false, "is_tribal_overlap": false, "tribal_area_name": null, "aian_pct": 0.0, "has_nmtc": false, "nmtc_projects": 0, "nmtc_total_usd": 0.0 }, "geometry": { "type": "Polygon", "coordinates": [ [ [ 144.670275, 13.38174 ], [ 144.676596, 13.384578 ], [ 144.676921, 13.387154 ], [ 144.678712, 13.3869 ], [ 144.679267, 13.388409 ], [ 144.686691, 13.388172 ], [ 144.68839, 13.39223 ], [ 144.689617, 13.391282 ], [ 144.692162, 13.394141 ], [ 144.7095, 13.393932 ], [ 144.709615, 13.388025 ], [ 144.72226, 13.38773 ], [ 144.722104, 13.357588 ], [ 144.720275, 13.358972 ], [ 144.708269, 13.358446 ], [ 144.706597, 13.357982 ], [ 144.706516, 13.353494 ], [ 144.702216, 13.352441 ], [ 144.670275, 13.38174 ] ] ] } },
{ "type": "Feature", "properties": { "geoid": "66010950100", "county_name": "Guam", "place_name": null, "state_name": "Guam", "state_abbr": "GU", "is_rural": true, "ui_invest_score": null, "ui_invest_quintile": null, "dci_score": null, "dci_quintile": null, "is_cra_lmi": true, "income_level": "M", "is_persistent_poverty": false, "is_tribal_overlap": false, "tribal_area_name": null, "aian_pct": 0.0, "has_nmtc": false, "nmtc_projects": 0, "nmtc_total_usd": 0.0 }, "geometry": { "type": "Polygon", "coordinates": [ [ [ 144.89645, 13.60409 ], [ 144.90083, 13.60777 ], [ 144.90371, 13.60446 ], [ 144.907735, 13.605387 ], [ 144.927124, 13.60003 ], [ 144.931488, 13.601664 ], [ 144.938553, 13.600092 ], [ 144.951126, 13.600989 ], [ 144.956085, 13.599404 ], [ 144.956619, 13.596118 ], [ 144.951782, 13.587514 ], [ 144.949768, 13.577081 ], [ 144.946723, 13.572315 ], [ 144.940325, 13.567955 ], [ 144.938203, 13.55757 ], [ 144.940168, 13.552622 ], [ 144.938025, 13.54817 ], [ 144.916482, 13.556805 ], [ 144.91754, 13.55993 ], [ 144.92399, 13.56361 ], [ 144.91995, 13.56588 ], [ 144.91735, 13.56987 ], [ 144.91229, 13.57119 ], [ 144.90879, 13.58131 ], [ 144.91097, 13.58472 ], [ 144.90591, 13.59089 ], [ 144.89906, 13.59447 ], [ 144.89847, 13.60135 ], [ 144.89645, 13.60409 ] ] ] } },
{ "type": "Feature", "properties": { "geoid": "66010951000", "county_name": "Guam", "place_name": "Chaguian", "state_name": "Guam", "state_abbr": "GU", "is_rural": true, "ui_invest_score": null, "ui_invest_quintile": null, "dci_score": null, "dci_quintile": null, "is_cra_lmi": false, "income_level": "U", "is_persistent_poverty": false, "is_tribal_overlap": false, "tribal_area_name": null, "aian_pct": 0.0, "has_nmtc": false, "nmtc_projects": 0, "nmtc_total_usd": 0.0 }, "geometry": { "type": "Polygon", "coordinates": [ [ [ 144.82771, 13.52096 ], [ 144.83598, 13.52374 ], [ 144.84538, 13.52214 ], [ 144.84365, 13.51434 ], [ 144.83511, 13.51535 ], [ 144.82771, 13.52096 ] ] ] } },
{ "type": "Feature", "properties": { "geoid": "66010953900", "county_name": "Guam", "place_name": null, "state_name": "Guam", "state_abbr": "GU", "is_rural": true, "ui_invest_score": null, "ui_invest_quintile": null, "dci_score": null, "dci_quintile": null, "is_cra_lmi": false, "income_level": "U", "is_persistent_poverty": false, "is_tribal_overlap": false, "tribal_area_name": null, "aian_pct": 0.0, "has_nmtc": false, "nmtc_projects": 0, "nmtc_total_usd": 0.0 }, "geometry": { "type": "Polygon", "coordinates": [ [ [ 144.699612, 13.422203 ], [ 144.701139, 13.423753 ], [ 144.700744, 13.425861 ], [ 144.705823, 13.430198 ], [ 144.70835, 13.436421 ], [ 144.710776, 13.436887 ], [ 144.711541, 13.434954 ], [ 144.716393, 13.439926 ], [ 144.720531, 13.440281 ], [ 144.724627, 13.443433 ], [ 144.728581, 13.442709 ], [ 144.728417, 13.444472 ], [ 144.733068, 13.44022 ], [ 144.735502, 13.441335 ], [ 144.735921, 13.43991 ], [ 144.73773, 13.440427 ], [ 144.736875, 13.438266 ], [ 144.740488, 13.435044 ], [ 144.743538, 13.436466 ], [ 144.747684, 13.43449 ], [ 144.750992, 13.436037 ], [ 144.75163, 13.434718 ], [ 144.756776, 13.437394 ], [ 144.760736, 13.43203 ], [ 144.762717, 13.43284 ], [ 144.765653, 13.426475 ], [ 144.768966, 13.426683 ], [ 144.768441, 13.424798 ], [ 144.776717, 13.423338 ], [ 144.778443, 13.420031 ], [ 144.782867, 13.42272 ], [ 144.785147, 13.416642 ], [ 144.788186, 13.415496 ], [ 144.788905, 13.413514 ], [ 144.78361, 13.409981 ], [ 144.781378, 13.404853 ], [ 144.781667, 13.400724 ], [ 144.776484, 13.394969 ], [ 144.772906, 13.39527 ], [ 144.771571, 13.393285 ], [ 144.764562, 13.394321 ], [ 144.764001, 13.391772 ], [ 144.762433, 13.391349 ], [ 144.753797, 13.400627 ], [ 144.751334, 13.397325 ], [ 144.754252, 13.392917 ], [ 144.746769, 13.38675 ], [ 144.746277, 13.388176 ], [ 144.740016, 13.387736 ], [ 144.734305, 13.399474 ], [ 144.731793, 13.398156 ], [ 144.727022, 13.399062 ], [ 144.720066, 13.397795 ], [ 144.717703, 13.394605 ], [ 144.699612, 13.422203 ] ] ] } },
{ "type": "Feature", "properties": { "geoid": "66010955200", "county_name": "Guam", "place_name": null, "state_name": "Guam", "state_abbr": "GU", "is_rural": true, "ui_invest_score": null, "ui_invest_quintile": null, "dci_score": null, "dci_quintile": null, "is_cra_lmi": false, "income_level": "U", "is_persistent_poverty": false, "is_tribal_overlap": false, "tribal_area_name": null, "aian_pct": 0.0, "has_nmtc": false, "nmtc_projects": 0, "nmtc_total_usd": 0.0 }, "geometry": { "type": "MultiPolygon", "coordinates": [ [ [ [ 144.744817, 13.268386 ], [ 144.744813, 13.269308 ], [ 144.745574, 13.268563 ], [ 144.744817, 13.268386 ] ] ], [ [ [ 144.73188, 13.249807 ], [ 144.731901, 13.250774 ], [ 144.732283, 13.250688 ], [ 144.73188, 13.249807 ] ] ], [ [ [ 144.72562, 13.246197 ], [ 144.725358, 13.246327 ], [ 144.725972, 13.247952 ], [ 144.72562, 13.246197 ] ] ], [ [ [ 144.688378, 13.299979 ], [ 144.696747, 13.304559 ], [ 144.707003, 13.301888 ], [ 144.707971, 13.304711 ], [ 144.710641, 13.305432 ], [ 144.714658, 13.310136 ], [ 144.719082, 13.306386 ], [ 144.720002, 13.307987 ], [ 144.722624, 13.307885 ], [ 144.722344, 13.30924 ], [ 144.727877, 13.310515 ], [ 144.727512, 13.31313 ], [ 144.728907, 13.312825 ], [ 144.731828, 13.320411 ], [ 144.734129, 13.32095 ], [ 144.733276, 13.322396 ], [ 144.736796, 13.32296 ], [ 144.738542, 13.324952 ], [ 144.737891, 13.326888 ], [ 144.739655, 13.327887 ], [ 144.742827, 13.326494 ], [ 144.746126, 13.328666 ], [ 144.749466, 13.327588 ], [ 144.750509, 13.329204 ], [ 144.747343, 13.332341 ], [ 144.753727, 13.335925 ], [ 144.754116, 13.337918 ], [ 144.758303, 13.33537 ], [ 144.761289, 13.339361 ], [ 144.76175, 13.33786 ], [ 144.770221, 13.336402 ], [ 144.771309, 13.334143 ], [ 144.772884, 13.328261 ], [ 144.771276, 13.314777 ], [ 144.772405, 13.303605 ], [ 144.769786, 13.296098 ], [ 144.763624, 13.291057 ], [ 144.762933, 13.283925 ], [ 144.760998, 13.282235 ], [ 144.758134, 13.283084 ], [ 144.759829, 13.280092 ], [ 144.757086, 13.277318 ], [ 144.753824, 13.275037 ], [ 144.748487, 13.278916 ], [ 144.747638, 13.276694 ], [ 144.750627, 13.274717 ], [ 144.750237, 13.272337 ], [ 144.742887, 13.268606 ], [ 144.738253, 13.268137 ], [ 144.738411, 13.266813 ], [ 144.742572, 13.266873 ], [ 144.743532, 13.26491 ], [ 144.741301, 13.262616 ], [ 144.738306, 13.263071 ], [ 144.7378, 13.259042 ], [ 144.73527, 13.257738 ], [ 144.733165, 13.252279 ], [ 144.731505, 13.252693 ], [ 144.731453, 13.250942 ], [ 144.726835, 13.249094 ], [ 144.727325, 13.246506 ], [ 144.726132, 13.248121 ], [ 144.724012, 13.246109 ], [ 144.720691, 13.247953 ], [ 144.720932, 13.249509 ], [ 144.71781, 13.251883 ], [ 144.717798, 13.256692 ], [ 144.712235, 13.26196 ], [ 144.709411, 13.269977 ], [ 144.70561, 13.269425 ], [ 144.699134, 13.276088 ], [ 144.693371, 13.277878 ], [ 144.688378, 13.299979 ] ] ] ] } },
{ "type": "Feature", "properties": { "geoid": "66010950200", "county_name": "Guam", "place_name": null, "state_name": "Guam", "state_abbr": "GU", "is_rural": true, "ui_invest_score": null, "ui_invest_quintile": null, "dci_score": null, "dci_quintile": null, "is_cra_lmi": true, "income_level": "M", "is_persistent_poverty": false, "is_tribal_overlap": false, "tribal_area_name": null, "aian_pct": 0.0, "has_nmtc": false, "nmtc_projects": 0, "nmtc_total_usd": 0.0 }, "geometry": { "type": "Polygon", "coordinates": [ [ [ 144.859858, 13.654351 ], [ 144.86825, 13.652602 ], [ 144.878799, 13.645733 ], [ 144.90226, 13.617157 ], [ 144.905541, 13.606961 ], [ 144.907735, 13.605387 ], [ 144.90371, 13.60446 ], [ 144.90083, 13.60777 ], [ 144.89681, 13.60479 ], [ 144.89906, 13.59447 ], [ 144.90591, 13.59089 ], [ 144.91097, 13.58472 ], [ 144.90879, 13.58131 ], [ 144.91229, 13.57119 ], [ 144.91735, 13.56987 ], [ 144.91995, 13.56588 ], [ 144.92399, 13.56361 ], [ 144.91754, 13.55993 ], [ 144.916482, 13.556805 ], [ 144.89923, 13.5634 ], [ 144.89641, 13.57324 ], [ 144.88867, 13.5828 ], [ 144.87181, 13.58583 ], [ 144.859858, 13.654351 ] ] ] } },
{ "type": "Feature", "properties": { "geoid": "66010955300", "county_name": "Guam", "place_name": "Toto", "state_name": "Guam", "state_abbr": "GU", "is_rural": true, "ui_invest_score": null, "ui_invest_quintile": null, "dci_score": null, "dci_quintile": null, "is_cra_lmi": false, "income_level": "U", "is_persistent_poverty": false, "is_tribal_overlap": false, "tribal_area_name": null, "aian_pct": 0.0, "has_nmtc": false, "nmtc_projects": 0, "nmtc_total_usd": 0.0 }, "geometry": { "type": "MultiPolygon", "coordinates": [ [ [ [ 144.716128, 13.24691 ], [ 144.717057, 13.248837 ], [ 144.717346, 13.248938 ], [ 144.717524, 13.246987 ], [ 144.716128, 13.24691 ] ] ], [ [ [ 144.708124, 13.24316 ], [ 144.708634, 13.245324 ], [ 144.708526, 13.243001 ], [ 144.708124, 13.24316 ] ] ], [ [ [ 144.705615, 13.24442 ], [ 144.706059, 13.244884 ], [ 144.706733, 13.244129 ], [ 144.705615, 13.24442 ] ] ], [ [ [ 144.705418, 13.243919 ], [ 144.706986, 13.244151 ], [ 144.707086, 13.244024 ], [ 144.706766, 13.243712 ], [ 144.705418, 13.243919 ] ] ], [ [ [ 144.700885, 13.244827 ], [ 144.701282, 13.245265 ], [ 144.70121, 13.244841 ], [ 144.700885, 13.244827 ] ] ], [ [ [ 144.697311, 13.244708 ], [ 144.697403, 13.245136 ], [ 144.697713, 13.245068 ], [ 144.697311, 13.244708 ] ] ], [ [ [ 144.671973, 13.240071 ], [ 144.678382, 13.241001 ], [ 144.678496, 13.2408 ], [ 144.675288, 13.239935 ], [ 144.671973, 13.240071 ] ] ], [ [ [ 144.661898, 13.271497 ], [ 144.663828, 13.275904 ], [ 144.662048, 13.28053 ], [ 144.662747, 13.28565 ], [ 144.668538, 13.286473 ], [ 144.672751, 13.283462 ], [ 144.67889, 13.286833 ], [ 144.678824, 13.283869 ], [ 144.699134, 13.276088 ], [ 144.70561, 13.269425 ], [ 144.709411, 13.269977 ], [ 144.712235, 13.26196 ], [ 144.717798, 13.256692 ], [ 144.71781, 13.251883 ], [ 144.719065, 13.251085 ], [ 144.715006, 13.248051 ], [ 144.706194, 13.246262 ], [ 144.689055, 13.251009 ], [ 144.686172, 13.256242 ], [ 144.684263, 13.255847 ], [ 144.683637, 13.253895 ], [ 144.677493, 13.254466 ], [ 144.674728, 13.257022 ], [ 144.673478, 13.262481 ], [ 144.664612, 13.267663 ], [ 144.661898, 13.271497 ] ] ], [ [ [ 144.643302, 13.23413 ], [ 144.657201, 13.242623 ], [ 144.659005, 13.241293 ], [ 144.649839, 13.235575 ], [ 144.643302, 13.23413 ] ] ] ] } },
{ "type": "Feature", "properties": { "geoid": "66010953300", "county_name": "Guam", "place_name": null, "state_name": "Guam", "state_abbr": "GU", "is_rural": true, "ui_invest_score": null, "ui_invest_quintile": null, "dci_score": null, "dci_quintile": null, "is_cra_lmi": false, "income_level": "U", "is_persistent_poverty": false, "is_tribal_overlap": false, "tribal_area_name": null, "aian_pct": 0.0, "has_nmtc": false, "nmtc_projects": 0, "nmtc_total_usd": 0.0 }, "geometry": { "type": "Polygon", "coordinates": [ [ [ 144.758409, 13.474466 ], [ 144.75927, 13.47707 ], [ 144.768703, 13.479491 ], [ 144.76859, 13.47583 ], [ 144.77547, 13.47575 ], [ 144.776706, 13.471929 ], [ 144.77563, 13.46866 ], [ 144.77799, 13.46861 ], [ 144.772348, 13.460339 ], [ 144.763401, 13.467355 ], [ 144.761364, 13.466579 ], [ 144.758409, 13.474466 ] ] ] } },
{ "type": "Feature", "properties": { "geoid": "66010954700", "county_name": "Guam", "place_name": null, "state_name": "Guam", "state_abbr": "GU", "is_rural": true, "ui_invest_score": null, "ui_invest_quintile": null, "dci_score": null, "dci_quintile": null, "is_cra_lmi": false, "income_level": "U", "is_persistent_poverty": false, "is_tribal_overlap": false, "tribal_area_name": null, "aian_pct": 0.0, "has_nmtc": false, "nmtc_projects": 0, "nmtc_total_usd": 0.0 }, "geometry": { "type": "MultiPolygon", "coordinates": [ [ [ [ 144.660393, 13.401813 ], [ 144.66042, 13.402249 ], [ 144.660748, 13.402045 ], [ 144.660393, 13.401813 ] ] ], [ [ [ 144.659987, 13.401238 ], [ 144.660351, 13.401599 ], [ 144.660294, 13.401169 ], [ 144.659987, 13.401238 ] ] ], [ [ [ 144.65538, 13.386234 ], [ 144.654459, 13.38747 ], [ 144.65572, 13.386532 ], [ 144.65538, 13.386234 ] ] ], [ [ [ 144.653891, 13.381656 ], [ 144.655744, 13.386179 ], [ 144.66055, 13.390425 ], [ 144.663078, 13.401057 ], [ 144.664241, 13.400986 ], [ 144.667914, 13.397154 ], [ 144.667462, 13.393581 ], [ 144.669533, 13.392356 ], [ 144.666043, 13.391201 ], [ 144.668083, 13.384316 ], [ 144.66449, 13.38446 ], [ 144.66102, 13.38045 ], [ 144.65726, 13.38282 ], [ 144.653891, 13.381656 ] ] ] ] } },
{ "type": "Feature", "properties": { "geoid": "66010954800", "county_name": "Guam", "place_name": "Apra Harbor", "state_name": "Guam", "state_abbr": "GU", "is_rural": true, "ui_invest_score": null, "ui_invest_quintile": null, "dci_score": null, "dci_quintile": null, "is_cra_lmi": false, "income_level": "U", "is_persistent_poverty": false, "is_tribal_overlap": false, "tribal_area_name": null, "aian_pct": 0.0, "has_nmtc": false, "nmtc_projects": 0, "nmtc_total_usd": 0.0 }, "geometry": { "type": "MultiPolygon", "coordinates": [ [ [ [ 144.651249, 13.379458 ], [ 144.651296, 13.379963 ], [ 144.651461, 13.379673 ], [ 144.651249, 13.379458 ] ] ], [ [ [ 144.650486, 13.376906 ], [ 144.65038, 13.377752 ], [ 144.651018, 13.37795 ], [ 144.650486, 13.376906 ] ] ], [ [ [ 144.646992, 13.379876 ], [ 144.646859, 13.381279 ], [ 144.647975, 13.381318 ], [ 144.646992, 13.379876 ] ] ], [ [ [ 144.635775, 13.357634 ], [ 144.637539, 13.358889 ], [ 144.638308, 13.358614 ], [ 144.63683, 13.356564 ], [ 144.635775, 13.357634 ] ] ], [ [ [ 144.63545, 13.341412 ], [ 144.639376, 13.343213 ], [ 144.643325, 13.34914 ], [ 144.649397, 13.362493 ], [ 144.648924, 13.365152 ], [ 144.652354, 13.372806 ], [ 144.651488, 13.377474 ], [ 144.653891, 13.381656 ], [ 144.65726, 13.38282 ], [ 144.66102, 13.38045 ], [ 144.66449, 13.38446 ], [ 144.668083, 13.384316 ], [ 144.669687, 13.374651 ], [ 144.66849, 13.349551 ], [ 144.672024, 13.345183 ], [ 144.669378, 13.339231 ], [ 144.666079, 13.341443 ], [ 144.663969, 13.339761 ], [ 144.670933, 13.329917 ], [ 144.63545, 13.341412 ] ] ], [ [ [ 144.63253, 13.341079 ], [ 144.633084, 13.341989 ], [ 144.63346, 13.341451 ], [ 144.63253, 13.341079 ] ] ] ] } }
]
}
