{
"type": "FeatureCollection",
"name": "69",
"crs": { "type": "name", "properties": { "name": "urn:ogc:def:crs:OGC:1.3:CRS84" } },
"features": [
{ "type": "Feature", "properties": { "geoid": "69085950100", "county_name": "Northern Islands Municipality", "place_name": null, "state_name": "Commonwealth of the Northern Mariana Islands", "state_abbr": "MP", "is_rural": true, "dci_score": null, "dci_quintile": null, "is_cra_lmi": false, "income_level": "NA", "is_persistent_poverty": false, "is_tribal_overlap": false, "tribal_area_name": null, "aian_pct": 0.0, "has_nmtc": false, "nmtc_projects": 0, "nmtc_total_usd": 0.0 }, "geometry": { "type": "MultiPolygon", "coordinates": [ [ [ [ 146.001994, 16.028784 ], [ 146.014254, 16.057442 ], [ 146.030366, 16.077234 ], [ 146.050775, 16.093368 ], [ 146.094034, 16.097283 ], [ 146.125, 16.085477 ], [ 146.13818, 16.074652 ], [ 146.15192, 16.051873 ], [ 146.154418, 16.022768 ], [ 146.15067, 16.006317 ], [ 146.133159, 15.981021 ], [ 146.08816, 15.952955 ], [ 146.044442, 15.947893 ], [ 146.010714, 15.97067 ], [ 146.00322, 16.0 ], [ 146.001994, 16.028784 ] ] ], [ [ [ 145.761308, 17.336307 ], [ 145.76906, 17.352721 ], [ 145.780684, 17.36719 ], [ 145.801572, 17.386987 ], [ 145.823588, 17.393227 ], [ 145.828542, 17.396175 ], [ 145.850541, 17.401189 ], [ 145.875, 17.391566 ], [ 145.896409, 17.388388 ], [ 145.904533, 17.375 ], [ 145.916096, 17.372077 ], [ 145.921548, 17.366749 ], [ 145.936555, 17.340371 ], [ 145.926012, 17.333294 ], [ 145.927236, 17.321313 ], [ 145.925816, 17.297129 ], [ 145.923192, 17.288603 ], [ 145.912142, 17.270758 ], [ 145.903713, 17.260825 ], [ 145.895636, 17.256401 ], [ 145.892151, 17.25 ], [ 145.890718, 17.243312 ], [ 145.865607, 17.230717 ], [ 145.846816, 17.225265 ], [ 145.827383, 17.228676 ], [ 145.805478, 17.241103 ], [ 145.793614, 17.25 ], [ 145.791459, 17.254939 ], [ 145.77421, 17.273078 ], [ 145.766051, 17.290616 ], [ 145.763378, 17.305855 ], [ 145.76239, 17.324674 ], [ 145.764751, 17.329749 ], [ 145.761308, 17.336307 ] ] ], [ [ [ 145.746659, 17.599369 ], [ 145.75, 17.608558 ], [ 145.785435, 17.668522 ], [ 145.800108, 17.684088 ], [ 145.828118, 17.690817 ], [ 145.856873, 17.690546 ], [ 145.893935, 17.680303 ], [ 145.910843, 17.667661 ], [ 145.917701, 17.654632 ], [ 145.923242, 17.625 ], [ 145.924448, 17.599122 ], [ 145.918333, 17.56724 ], [ 145.909552, 17.547959 ], [ 145.896662, 17.533538 ], [ 145.875, 17.520473 ], [ 145.867656, 17.517716 ], [ 145.832356, 17.512916 ], [ 145.817791, 17.514456 ], [ 145.801133, 17.520508 ], [ 145.776726, 17.535967 ], [ 145.758838, 17.551948 ], [ 145.75, 17.564259 ], [ 145.746783, 17.576812 ], [ 145.746659, 17.599369 ] ] ], [ [ [ 145.700027, 16.710897 ], [ 145.702167, 16.735708 ], [ 145.708296, 16.75 ], [ 145.72009, 16.758768 ], [ 145.722186, 16.763996 ], [ 145.730739, 16.769882 ], [ 145.769772, 16.787745 ], [ 145.792386, 16.791971 ], [ 145.823189, 16.78212 ], [ 145.84355, 16.765874 ], [ 145.867898, 16.741755 ], [ 145.867632, 16.690521 ], [ 145.861516, 16.673005 ], [ 145.854937, 16.660125 ], [ 145.842076, 16.647923 ], [ 145.821906, 16.637065 ], [ 145.802676, 16.632365 ], [ 145.781234, 16.63047 ], [ 145.762957, 16.632237 ], [ 145.75, 16.639222 ], [ 145.738307, 16.64095 ], [ 145.721845, 16.651846 ], [ 145.711746, 16.665675 ], [ 145.704424, 16.688155 ], [ 145.700027, 16.710897 ] ] ], [ [ [ 145.643752, 18.057948 ], [ 145.654749, 18.090939 ], [ 145.654488, 18.09766 ], [ 145.660321, 18.119199 ], [ 145.668456, 18.137209 ], [ 145.685486, 18.153618 ], [ 145.684775, 18.171116 ], [ 145.691308, 18.189048 ], [ 145.70003, 18.199744 ], [ 145.722685, 18.217563 ], [ 145.739668, 18.230223 ], [ 145.759523, 18.241087 ], [ 145.794047, 18.243074 ], [ 145.806037, 18.239603 ], [ 145.81807, 18.23963 ], [ 145.840024, 18.233831 ], [ 145.855991, 18.223203 ], [ 145.880287, 18.18637 ], [ 145.890652, 18.155066 ], [ 145.887685, 18.1479 ], [ 145.88781, 18.138233 ], [ 145.885187, 18.132029 ], [ 145.883473, 18.109332 ], [ 145.875, 18.086595 ], [ 145.864223, 18.068626 ], [ 145.844237, 18.045535 ], [ 145.80925, 18.029516 ], [ 145.777863, 18.003432 ], [ 145.7441, 17.98604 ], [ 145.721616, 17.98604 ], [ 145.695386, 17.989836 ], [ 145.664022, 18.009252 ], [ 145.657528, 18.018865 ], [ 145.656269, 18.024694 ], [ 145.645604, 18.045696 ], [ 145.645677, 18.052715 ], [ 145.643752, 18.057948 ] ] ], [ [ [ 145.563143, 18.778823 ], [ 145.564075, 18.792401 ], [ 145.575397, 18.820429 ], [ 145.598098, 18.856844 ], [ 145.607845, 18.865858 ], [ 145.625, 18.875 ], [ 145.639663, 18.878371 ], [ 145.662184, 18.880999 ], [ 145.676085, 18.880547 ], [ 145.704192, 18.875 ], [ 145.709974, 18.872403 ], [ 145.72572, 18.859827 ], [ 145.75, 18.827095 ], [ 145.764922, 18.795566 ], [ 145.76893, 18.778131 ], [ 145.77066, 18.76072 ], [ 145.769805, 18.75 ], [ 145.76433, 18.731632 ], [ 145.736617, 18.687905 ], [ 145.700285, 18.664278 ], [ 145.684624, 18.65784 ], [ 145.661198, 18.659173 ], [ 145.654435, 18.66041 ], [ 145.625, 18.672664 ], [ 145.60861, 18.682278 ], [ 145.592257, 18.702483 ], [ 145.576893, 18.729651 ], [ 145.563143, 18.778823 ] ] ], [ [ [ 145.558836, 16.374152 ], [ 145.571326, 16.401993 ], [ 145.597558, 16.423507 ], [ 145.625, 16.442499 ], [ 145.65461, 16.451096 ], [ 145.67571, 16.452348 ], [ 145.720754, 16.448284 ], [ 145.75, 16.437652 ], [ 145.764785, 16.422374 ], [ 145.770876, 16.41228 ], [ 145.780122, 16.383505 ], [ 145.782822, 16.359917 ], [ 145.767637, 16.323965 ], [ 145.732906, 16.29331 ], [ 145.702308, 16.276576 ], [ 145.693195, 16.273995 ], [ 145.649909, 16.273765 ], [ 145.625, 16.280545 ], [ 145.603802, 16.289364 ], [ 145.575072, 16.305815 ], [ 145.560084, 16.341249 ], [ 145.558836, 16.374152 ] ] ], [ [ [ 145.306333, 19.698405 ], [ 145.315903, 19.714037 ], [ 145.341187, 19.740725 ], [ 145.359687, 19.756413 ], [ 145.384969, 19.764117 ], [ 145.396921, 19.764708 ], [ 145.424334, 19.760153 ], [ 145.435278, 19.755615 ], [ 145.47271, 19.72673 ], [ 145.478813, 19.715625 ], [ 145.489837, 19.703581 ], [ 145.493201, 19.695473 ], [ 145.495623, 19.679918 ], [ 145.490565, 19.670702 ], [ 145.488406, 19.656979 ], [ 145.467615, 19.626987 ], [ 145.454978, 19.604879 ], [ 145.427498, 19.590959 ], [ 145.400016, 19.588428 ], [ 145.369141, 19.596708 ], [ 145.34306, 19.607699 ], [ 145.330327, 19.615001 ], [ 145.327738, 19.625 ], [ 145.312964, 19.653688 ], [ 145.310418, 19.669106 ], [ 145.304867, 19.684526 ], [ 145.306333, 19.698405 ] ] ], [ [ [ 145.131885, 20.039561 ], [ 145.136235, 20.055988 ], [ 145.146166, 20.076389 ], [ 145.160935, 20.086159 ], [ 145.178652, 20.096513 ], [ 145.203203, 20.101805 ], [ 145.233609, 20.102666 ], [ 145.265148, 20.095363 ], [ 145.285568, 20.081935 ], [ 145.299716, 20.065836 ], [ 145.314965, 20.032962 ], [ 145.310086, 20.016493 ], [ 145.304151, 20.003582 ], [ 145.305683, 20.0 ], [ 145.302163, 19.992812 ], [ 145.292543, 19.979303 ], [ 145.282238, 19.96878 ], [ 145.25, 19.948546 ], [ 145.212143, 19.947337 ], [ 145.183121, 19.951911 ], [ 145.172734, 19.959148 ], [ 145.155197, 19.977571 ], [ 145.142601, 19.986255 ], [ 145.131885, 20.039561 ] ] ], [ [ [ 144.815443, 20.562823 ], [ 144.821067, 20.578102 ], [ 144.833433, 20.595141 ], [ 144.846104, 20.605158 ], [ 144.86329, 20.612995 ], [ 144.875, 20.614472 ], [ 144.899134, 20.616556 ], [ 144.923036, 20.614367 ], [ 144.941414, 20.608322 ], [ 144.95928, 20.594403 ], [ 144.971092, 20.581185 ], [ 144.977486, 20.562255 ], [ 144.979355, 20.547376 ], [ 144.979146, 20.525863 ], [ 144.971428, 20.510531 ], [ 144.963849, 20.5 ], [ 144.952974, 20.48999 ], [ 144.926431, 20.470093 ], [ 144.887114, 20.462914 ], [ 144.862474, 20.467095 ], [ 144.853506, 20.472272 ], [ 144.845055, 20.474069 ], [ 144.831399, 20.484895 ], [ 144.826761, 20.491766 ], [ 144.826128, 20.5 ], [ 144.816038, 20.523295 ], [ 144.813338, 20.544762 ], [ 144.815443, 20.562823 ] ] ] ] } },
{ "type": "Feature", "properties": { "geoid": "69100950100", "county_name": "Rota Municipality", "place_name": "Ginalangan (Chudan)", "state_name": "Commonwealth of the Northern Mariana Islands", "state_abbr": "MP", "is_rural": true, "dci_score": null, "dci_quintile": null, "is_cra_lmi": false, "income_level": "U", "is_persistent_poverty": false, "is_tribal_overlap": false, "tribal_area_name": null, "aian_pct": 0.0, "has_nmtc": false, "nmtc_projects": 0, "nmtc_total_usd": 0.0 }, "geometry": { "type": "MultiPolygon", "coordinates": [ [ [ [ 145.143127, 14.146393 ], [ 145.142578, 14.147115 ], [ 145.143326, 14.147494 ], [ 145.143127, 14.146393 ] ] ], [ [ [ 145.121369, 14.118983 ], [ 145.123051, 14.127159 ], [ 145.132536, 14.134153 ], [ 145.130451, 14.13561 ], [ 145.133106, 14.136903 ], [ 145.133038, 14.134425 ], [ 145.142329, 14.144239 ], [ 145.145611, 14.151653 ], [ 145.158237, 14.164091 ], [ 145.159845, 14.168218 ], [ 145.173847, 14.167002 ], [ 145.19101, 14.173667 ], [ 145.196479, 14.174086 ], [ 145.204543, 14.177739 ], [ 145.206874, 14.181094 ], [ 145.219052, 14.189371 ], [ 145.241319, 14.20026 ], [ 145.261589, 14.199114 ], [ 145.275571, 14.196259 ], [ 145.288416, 14.191941 ], [ 145.290273, 14.189441 ], [ 145.290024, 14.186264 ], [ 145.284442, 14.175956 ], [ 145.284106, 14.163208 ], [ 145.282268, 14.159996 ], [ 145.268238, 14.151821 ], [ 145.25811, 14.154715 ], [ 145.24104, 14.151357 ], [ 145.229234, 14.141071 ], [ 145.228686, 14.135902 ], [ 145.230899, 14.131016 ], [ 145.221557, 14.126051 ], [ 145.218864, 14.120024 ], [ 145.214616, 14.116128 ], [ 145.204739, 14.115897 ], [ 145.19837, 14.112635 ], [ 145.19547, 14.115188 ], [ 145.184113, 14.116196 ], [ 145.178941, 14.114673 ], [ 145.175716, 14.111037 ], [ 145.169922, 14.110522 ], [ 145.167109, 14.112128 ], [ 145.1694, 14.118653 ], [ 145.166262, 14.128998 ], [ 145.151821, 14.137806 ], [ 145.144183, 14.139574 ], [ 145.137423, 14.134567 ], [ 145.129822, 14.122241 ], [ 145.122734, 14.117344 ], [ 145.121369, 14.118983 ] ] ] ] } },
{ "type": "Feature", "properties": { "geoid": "69110000100", "county_name": "Saipan Municipality", "place_name": null, "state_name": "Commonwealth of the Northern Mariana Islands", "state_abbr": "MP", "is_rural": true, "dci_score": null, "dci_quintile": null, "is_cra_lmi": false, "income_level": "U", "is_persistent_poverty": false, "is_tribal_overlap": false, "tribal_area_name": null, "aian_pct": 0.0, "has_nmtc": false, "nmtc_projects": 0, "nmtc_total_usd": 0.0 }, "geometry": { "type": "MultiPolygon", "coordinates": [ [ [ [ 145.813965, 15.256849 ], [ 145.81347, 15.258203 ], [ 145.81425, 15.257974 ], [ 145.813965, 15.256849 ] ] ], [ [ [ 145.768268, 15.248009 ], [ 145.769383, 15.250214 ], [ 145.777195, 15.252995 ], [ 145.781603, 15.257125 ], [ 145.782355, 15.261155 ], [ 145.786375, 15.267051 ], [ 145.810265, 15.290055 ], [ 145.814762, 15.286864 ], [ 145.818753, 15.286592 ], [ 145.826754, 15.274539 ], [ 145.830224, 15.273011 ], [ 145.829395, 15.264225 ], [ 145.826655, 15.259432 ], [ 145.818243, 15.25967 ], [ 145.815817, 15.261242 ], [ 145.810527, 15.25804 ], [ 145.812217, 15.251971 ], [ 145.809124, 15.249906 ], [ 145.807389, 15.244341 ], [ 145.810353, 15.24153 ], [ 145.806315, 15.236867 ], [ 145.801961, 15.236219 ], [ 145.802714, 15.234304 ], [ 145.798468, 15.228605 ], [ 145.792949, 15.22833 ], [ 145.789814, 15.225713 ], [ 145.768268, 15.248009 ] ] ] ] } },
{ "type": "Feature", "properties": { "geoid": "69110000200", "county_name": "Saipan Municipality", "place_name": "Fanonchuluyan", "state_name": "Commonwealth of the Northern Mariana Islands", "state_abbr": "MP", "is_rural": true, "dci_score": null, "dci_quintile": null, "is_cra_lmi": false, "income_level": "U", "is_persistent_poverty": false, "is_tribal_overlap": false, "tribal_area_name": null, "aian_pct": 0.0, "has_nmtc": false, "nmtc_projects": 0, "nmtc_total_usd": 0.0 }, "geometry": { "type": "Polygon", "coordinates": [ [ [ 145.743993, 15.22552 ], [ 145.74924, 15.231 ], [ 145.747005, 15.237083 ], [ 145.752683, 15.240213 ], [ 145.754285, 15.242968 ], [ 145.76815, 15.247877 ], [ 145.77163, 15.244112 ], [ 145.75129, 15.22996 ], [ 145.747282, 15.222483 ], [ 145.743993, 15.22552 ] ] ] } },
{ "type": "Feature", "properties": { "geoid": "69110000400", "county_name": "Saipan Municipality", "place_name": "As Mahetog", "state_name": "Commonwealth of the Northern Mariana Islands", "state_abbr": "MP", "is_rural": true, "dci_score": null, "dci_quintile": null, "is_cra_lmi": false, "income_level": "U", "is_persistent_poverty": false, "is_tribal_overlap": false, "tribal_area_name": null, "aian_pct": 0.0, "has_nmtc": false, "nmtc_projects": 0, "nmtc_total_usd": 0.0 }, "geometry": { "type": "Polygon", "coordinates": [ [ [ 145.714864, 15.202515 ], [ 145.716313, 15.204447 ], [ 145.716134, 15.217821 ], [ 145.72435, 15.212543 ], [ 145.720327, 15.20541 ], [ 145.719864, 15.194049 ], [ 145.716712, 15.195041 ], [ 145.716199, 15.202165 ], [ 145.714864, 15.202515 ] ] ] } },
{ "type": "Feature", "properties": { "geoid": "69110000500", "county_name": "Saipan Municipality", "place_name": null, "state_name": "Commonwealth of the Northern Mariana Islands", "state_abbr": "MP", "is_rural": true, "dci_score": null, "dci_quintile": null, "is_cra_lmi": false, "income_level": "U", "is_persistent_poverty": false, "is_tribal_overlap": false, "tribal_area_name": null, "aian_pct": 0.0, "has_nmtc": false, "nmtc_projects": 0, "nmtc_total_usd": 0.0 }, "geometry": { "type": "Polygon", "coordinates": [ [ [ 145.719843, 15.20133 ], [ 145.720913, 15.207221 ], [ 145.72435, 15.212543 ], [ 145.725621, 15.210085 ], [ 145.72936, 15.20836 ], [ 145.737702, 15.212541 ], [ 145.743796, 15.211576 ], [ 145.746964, 15.212715 ], [ 145.746406, 15.208382 ], [ 145.742775, 15.207234 ], [ 145.741246, 15.204895 ], [ 145.741655, 15.185499 ], [ 145.728517, 15.185333 ], [ 145.728516, 15.193152 ], [ 145.733171, 15.200661 ], [ 145.719843, 15.20133 ] ] ] } },
{ "type": "Feature", "properties": { "geoid": "69110000600", "county_name": "Saipan Municipality", "place_name": "Garapan", "state_name": "Commonwealth of the Northern Mariana Islands", "state_abbr": "MP", "is_rural": true, "dci_score": null, "dci_quintile": null, "is_cra_lmi": false, "income_level": "U", "is_persistent_poverty": false, "is_tribal_overlap": false, "tribal_area_name": null, "aian_pct": 0.0, "has_nmtc": false, "nmtc_projects": 0, "nmtc_total_usd": 0.0 }, "geometry": { "type": "Polygon", "coordinates": [ [ [ 145.714298, 15.184867 ], [ 145.716712, 15.195041 ], [ 145.719864, 15.194049 ], [ 145.719845, 15.201083 ], [ 145.733171, 15.200661 ], [ 145.728516, 15.193152 ], [ 145.730069, 15.176626 ], [ 145.722238, 15.177567 ], [ 145.722159, 15.184394 ], [ 145.714298, 15.184867 ] ] ] } },
{ "type": "Feature", "properties": { "geoid": "69110000700", "county_name": "Saipan Municipality", "place_name": "As Falipe", "state_name": "Commonwealth of the Northern Mariana Islands", "state_abbr": "MP", "is_rural": true, "dci_score": null, "dci_quintile": null, "is_cra_lmi": false, "income_level": "U", "is_persistent_poverty": false, "is_tribal_overlap": false, "tribal_area_name": null, "aian_pct": 0.0, "has_nmtc": false, "nmtc_projects": 0, "nmtc_total_usd": 0.0 }, "geometry": { "type": "Polygon", "coordinates": [ [ [ 145.708997, 15.166867 ], [ 145.714262, 15.184652 ], [ 145.722159, 15.184394 ], [ 145.722238, 15.177567 ], [ 145.730069, 15.176626 ], [ 145.728517, 15.185333 ], [ 145.741168, 15.185506 ], [ 145.728919, 15.167618 ], [ 145.724634, 15.158791 ], [ 145.722553, 15.16003 ], [ 145.720063, 15.156693 ], [ 145.722547, 15.153623 ], [ 145.721373, 15.152687 ], [ 145.718237, 15.154552 ], [ 145.712335, 15.162136 ], [ 145.712024, 15.164813 ], [ 145.708997, 15.166867 ] ] ] } },
{ "type": "Feature", "properties": { "geoid": "69110000800", "county_name": "Saipan Municipality", "place_name": "Gualo Rai", "state_name": "Commonwealth of the Northern Mariana Islands", "state_abbr": "MP", "is_rural": true, "dci_score": null, "dci_quintile": null, "is_cra_lmi": true, "income_level": "M", "is_persistent_poverty": false, "is_tribal_overlap": false, "tribal_area_name": null, "aian_pct": 0.0, "has_nmtc": false, "nmtc_projects": 0, "nmtc_total_usd": 0.0 }, "geometry": { "type": "Polygon", "coordinates": [ [ [ 145.699193, 15.151425 ], [ 145.700544, 15.152474 ], [ 145.700197, 15.15677 ], [ 145.708746, 15.1663 ], [ 145.712024, 15.164813 ], [ 145.712335, 15.162136 ], [ 145.718237, 15.154552 ], [ 145.71358, 15.149107 ], [ 145.71091, 15.150285 ], [ 145.710245, 15.152833 ], [ 145.699193, 15.151425 ] ] ] } },
{ "type": "Feature", "properties": { "geoid": "69110000900", "county_name": "Saipan Municipality", "place_name": "Chalan Rueda", "state_name": "Commonwealth of the Northern Mariana Islands", "state_abbr": "MP", "is_rural": true, "dci_score": null, "dci_quintile": null, "is_cra_lmi": true, "income_level": "M", "is_persistent_poverty": false, "is_tribal_overlap": false, "tribal_area_name": null, "aian_pct": 0.0, "has_nmtc": false, "nmtc_projects": 0, "nmtc_total_usd": 0.0 }, "geometry": { "type": "Polygon", "coordinates": [ [ [ 145.699348, 15.145311 ], [ 145.700326, 15.148165 ], [ 145.6992, 15.151342 ], [ 145.710245, 15.152833 ], [ 145.71218, 15.149747 ], [ 145.709974, 15.146158 ], [ 145.711753, 15.145231 ], [ 145.706789, 15.136685 ], [ 145.700693, 15.141969 ], [ 145.701144, 15.144354 ], [ 145.699348, 15.145311 ] ] ] } },
{ "type": "Feature", "properties": { "geoid": "69110001100", "county_name": "Saipan Municipality", "place_name": "Susupe", "state_name": "Commonwealth of the Northern Mariana Islands", "state_abbr": "MP", "is_rural": true, "dci_score": null, "dci_quintile": null, "is_cra_lmi": false, "income_level": "U", "is_persistent_poverty": false, "is_tribal_overlap": false, "tribal_area_name": null, "aian_pct": 0.0, "has_nmtc": false, "nmtc_projects": 0, "nmtc_total_usd": 0.0 }, "geometry": { "type": "Polygon", "coordinates": [ [ [ 145.696305, 15.137068 ], [ 145.699085, 15.144717 ], [ 145.701144, 15.144354 ], [ 145.700693, 15.141969 ], [ 145.71242, 15.13025 ], [ 145.704323, 15.126337 ], [ 145.6974, 15.13355 ], [ 145.698567, 15.136341 ], [ 145.696305, 15.137068 ] ] ] } },
{ "type": "Feature", "properties": { "geoid": "69110001200", "county_name": "Saipan Municipality", "place_name": "Chalan Kanoa I", "state_name": "Commonwealth of the Northern Mariana Islands", "state_abbr": "MP", "is_rural": true, "dci_score": null, "dci_quintile": null, "is_cra_lmi": true, "income_level": "M", "is_persistent_poverty": false, "is_tribal_overlap": false, "tribal_area_name": null, "aian_pct": 0.0, "has_nmtc": false, "nmtc_projects": 0, "nmtc_total_usd": 0.0 }, "geometry": { "type": "Polygon", "coordinates": [ [ [ 145.692323, 15.130302 ], [ 145.696305, 15.137068 ], [ 145.698567, 15.136341 ], [ 145.6974, 15.13355 ], [ 145.704323, 15.126337 ], [ 145.69763, 15.12421 ], [ 145.696502, 15.120714 ], [ 145.692323, 15.130302 ] ] ] } },
{ "type": "Feature", "properties": { "geoid": "69110001300", "county_name": "Saipan Municipality", "place_name": "Chalan Piao", "state_name": "Commonwealth of the Northern Mariana Islands", "state_abbr": "MP", "is_rural": true, "dci_score": null, "dci_quintile": null, "is_cra_lmi": false, "income_level": "U", "is_persistent_poverty": false, "is_tribal_overlap": false, "tribal_area_name": null, "aian_pct": 0.0, "has_nmtc": false, "nmtc_projects": 0, "nmtc_total_usd": 0.0 }, "geometry": { "type": "Polygon", "coordinates": [ [ [ 145.689582, 15.120221 ], [ 145.694187, 15.124614 ], [ 145.696502, 15.120714 ], [ 145.69763, 15.12421 ], [ 145.71242, 15.13025 ], [ 145.71748, 15.12863 ], [ 145.719557, 15.123899 ], [ 145.718903, 15.12122 ], [ 145.7213, 15.12087 ], [ 145.72455, 15.12703 ], [ 145.72977, 15.13217 ], [ 145.73474, 15.12798 ], [ 145.73929, 15.13028 ], [ 145.743717, 15.124149 ], [ 145.748125, 15.125721 ], [ 145.75208, 15.123275 ], [ 145.754859, 15.123535 ], [ 145.756956, 15.120957 ], [ 145.756571, 15.112228 ], [ 145.752609, 15.106131 ], [ 145.751146, 15.09475 ], [ 145.747795, 15.091932 ], [ 145.744963, 15.100103 ], [ 145.740634, 15.105142 ], [ 145.733218, 15.106355 ], [ 145.731417, 15.105119 ], [ 145.717081, 15.10784 ], [ 145.715261, 15.106365 ], [ 145.708183, 15.105797 ], [ 145.706609, 15.11047 ], [ 145.702149, 15.114434 ], [ 145.689582, 15.120221 ] ] ] } },
{ "type": "Feature", "properties": { "geoid": "69110001400", "county_name": "Saipan Municipality", "place_name": "Afetnas", "state_name": "Commonwealth of the Northern Mariana Islands", "state_abbr": "MP", "is_rural": true, "dci_score": null, "dci_quintile": null, "is_cra_lmi": false, "income_level": "U", "is_persistent_poverty": false, "is_tribal_overlap": false, "tribal_area_name": null, "aian_pct": 0.0, "has_nmtc": false, "nmtc_projects": 0, "nmtc_total_usd": 0.0 }, "geometry": { "type": "Polygon", "coordinates": [ [ [ 145.71242, 15.13025 ], [ 145.720083, 15.136274 ], [ 145.722004, 15.142018 ], [ 145.729804, 15.151501 ], [ 145.735465, 15.145272 ], [ 145.73743, 15.14594 ], [ 145.743373, 15.143675 ], [ 145.741116, 15.137697 ], [ 145.748125, 15.125721 ], [ 145.743717, 15.124149 ], [ 145.73929, 15.13028 ], [ 145.73474, 15.12798 ], [ 145.7319, 15.13155 ], [ 145.72941, 15.13217 ], [ 145.72142, 15.12096 ], [ 145.719484, 15.12083 ], [ 145.71759, 15.12851 ], [ 145.71242, 15.13025 ] ] ] } },
{ "type": "Feature", "properties": { "geoid": "69110001500", "county_name": "Saipan Municipality", "place_name": "I Fadang", "state_name": "Commonwealth of the Northern Mariana Islands", "state_abbr": "MP", "is_rural": true, "dci_score": null, "dci_quintile": null, "is_cra_lmi": false, "income_level": "U", "is_persistent_poverty": false, "is_tribal_overlap": false, "tribal_area_name": null, "aian_pct": 0.0, "has_nmtc": false, "nmtc_projects": 0, "nmtc_total_usd": 0.0 }, "geometry": { "type": "Polygon", "coordinates": [ [ [ 145.720063, 15.156693 ], [ 145.722553, 15.16003 ], [ 145.724634, 15.158791 ], [ 145.728919, 15.167618 ], [ 145.741168, 15.185506 ], [ 145.758398, 15.184073 ], [ 145.765129, 15.176527 ], [ 145.761001, 15.175319 ], [ 145.763621, 15.16839 ], [ 145.76487, 15.16669 ], [ 145.767809, 15.168147 ], [ 145.770143, 15.163678 ], [ 145.767557, 15.161492 ], [ 145.761114, 15.163432 ], [ 145.759158, 15.16148 ], [ 145.751253, 15.160274 ], [ 145.743373, 15.143675 ], [ 145.73743, 15.14594 ], [ 145.735465, 15.145272 ], [ 145.731067, 15.150889 ], [ 145.723208, 15.152959 ], [ 145.720063, 15.156693 ] ] ] } },
{ "type": "Feature", "properties": { "geoid": "69110001600", "county_name": "Saipan Municipality", "place_name": "Dandan", "state_name": "Commonwealth of the Northern Mariana Islands", "state_abbr": "MP", "is_rural": true, "dci_score": null, "dci_quintile": null, "is_cra_lmi": false, "income_level": "U", "is_persistent_poverty": false, "is_tribal_overlap": false, "tribal_area_name": null, "aian_pct": 0.0, "has_nmtc": false, "nmtc_projects": 0, "nmtc_total_usd": 0.0 }, "geometry": { "type": "MultiPolygon", "coordinates": [ [ [ [ 145.789636, 15.150758 ], [ 145.791659, 15.150777 ], [ 145.792805, 15.149465 ], [ 145.790366, 15.149861 ], [ 145.789636, 15.150758 ] ] ], [ [ [ 145.761001, 15.175319 ], [ 145.765129, 15.176527 ], [ 145.772671, 15.183072 ], [ 145.772142, 15.184666 ], [ 145.776471, 15.183801 ], [ 145.779703, 15.186509 ], [ 145.78178, 15.183048 ], [ 145.784414, 15.182514 ], [ 145.786971, 15.173219 ], [ 145.797638, 15.166701 ], [ 145.792236, 15.163455 ], [ 145.791433, 15.156458 ], [ 145.788326, 15.154428 ], [ 145.78925, 15.150372 ], [ 145.782616, 15.1519 ], [ 145.781522, 15.150215 ], [ 145.776656, 15.150764 ], [ 145.772325, 15.153206 ], [ 145.767508, 15.161363 ], [ 145.770143, 15.163678 ], [ 145.768874, 15.166428 ], [ 145.767809, 15.168147 ], [ 145.76466, 15.16684 ], [ 145.761001, 15.175319 ] ] ] ] } },
{ "type": "Feature", "properties": { "geoid": "69120950201", "county_name": "Tinian Municipality", "place_name": "Laulau Bay", "state_name": "Commonwealth of the Northern Mariana Islands", "state_abbr": "MP", "is_rural": true, "dci_score": null, "dci_quintile": null, "is_cra_lmi": false, "income_level": "U", "is_persistent_poverty": false, "is_tribal_overlap": false, "tribal_area_name": null, "aian_pct": 0.0, "has_nmtc": false, "nmtc_projects": 0, "nmtc_total_usd": 0.0 }, "geometry": { "type": "Polygon", "coordinates": [ [ [ 145.628361, 14.942236 ], [ 145.631677, 14.951657 ], [ 145.630275, 14.954855 ], [ 145.632061, 14.95484 ], [ 145.632507, 14.957112 ], [ 145.636544, 14.956766 ], [ 145.637567, 14.968147 ], [ 145.641417, 14.969981 ], [ 145.631443, 14.970768 ], [ 145.637384, 15.034905 ], [ 145.645566, 15.034136 ], [ 145.645996, 15.032012 ], [ 145.650382, 15.031582 ], [ 145.65726, 15.018909 ], [ 145.664457, 15.018669 ], [ 145.668316, 15.016224 ], [ 145.671085, 15.009261 ], [ 145.673796, 15.006517 ], [ 145.668075, 14.982687 ], [ 145.663507, 14.977055 ], [ 145.665371, 14.970063 ], [ 145.661642, 14.965181 ], [ 145.661616, 14.957514 ], [ 145.665925, 14.949611 ], [ 145.664667, 14.947872 ], [ 145.659908, 14.948815 ], [ 145.654572, 14.945856 ], [ 145.651465, 14.941273 ], [ 145.652272, 14.937164 ], [ 145.645288, 14.926361 ], [ 145.639106, 14.922679 ], [ 145.63528, 14.922757 ], [ 145.632105, 14.925034 ], [ 145.628361, 14.942236 ] ] ] } },
{ "type": "Feature", "properties": { "geoid": "69120950101", "county_name": "Tinian Municipality", "place_name": "Kagman III", "state_name": "Commonwealth of the Northern Mariana Islands", "state_abbr": "MP", "is_rural": true, "dci_score": null, "dci_quintile": null, "is_cra_lmi": false, "income_level": "U", "is_persistent_poverty": false, "is_tribal_overlap": false, "tribal_area_name": null, "aian_pct": 0.0, "has_nmtc": false, "nmtc_projects": 0, "nmtc_total_usd": 0.0 }, "geometry": { "type": "Polygon", "coordinates": [ [ [ 145.611563, 14.974133 ], [ 145.612905, 14.981679 ], [ 145.616482, 14.981708 ], [ 145.617076, 14.983048 ], [ 145.632399, 14.980884 ], [ 145.631443, 14.970768 ], [ 145.641417, 14.969981 ], [ 145.637567, 14.968147 ], [ 145.636544, 14.956766 ], [ 145.632507, 14.957112 ], [ 145.632061, 14.95484 ], [ 145.629523, 14.954366 ], [ 145.621209, 14.958763 ], [ 145.613522, 14.966682 ], [ 145.611563, 14.974133 ] ] ] } },
{ "type": "Feature", "properties": { "geoid": "69110001000", "county_name": "Saipan Municipality", "place_name": null, "state_name": "Commonwealth of the Northern Mariana Islands", "state_abbr": "MP", "is_rural": true, "dci_score": null, "dci_quintile": null, "is_cra_lmi": false, "income_level": "U", "is_persistent_poverty": false, "is_tribal_overlap": false, "tribal_area_name": null, "aian_pct": 0.0, "has_nmtc": false, "nmtc_projects": 0, "nmtc_total_usd": 0.0 }, "geometry": { "type": "Polygon", "coordinates": [ [ [ 145.706571, 15.136625 ], [ 145.711753, 15.145231 ], [ 145.709974, 15.146158 ], [ 145.71218, 15.149747 ], [ 145.713843, 15.149238 ], [ 145.718461, 15.154814 ], [ 145.721373, 15.152687 ], [ 145.722547, 15.153623 ], [ 145.729804, 15.151501 ], [ 145.722004, 15.142018 ], [ 145.720083, 15.136274 ], [ 145.71242, 15.13025 ], [ 145.706571, 15.136625 ] ] ] } }
]
}
