{
"type": "FeatureCollection",
"name": "78",
"crs": { "type": "name", "properties": { "name": "urn:ogc:def:crs:OGC:1.3:CRS84" } },
"features": [
{ "type": "Feature", "properties": { "geoid": "78020950200", "county_name": "St. John Island", "place_name": null, "state_name": "United States Virgin Islands", "state_abbr": "VI", "is_rural": true, "dci_score": null, "dci_quintile": null, "is_cra_lmi": false, "income_level": "U", "is_persistent_poverty": false, "is_tribal_overlap": false, "tribal_area_name": null, "aian_pct": 0.0, "has_nmtc": false, "nmtc_projects": 0, "nmtc_total_usd": 0.0 }, "geometry": { "type": "MultiPolygon", "coordinates": [ [ [ [ -64.799794, 18.326681 ], [ -64.798774, 18.333244 ], [ -64.793132, 18.332283 ], [ -64.788249, 18.333417 ], [ -64.787156, 18.336662 ], [ -64.77334, 18.33718 ], [ -64.77332, 18.334735 ], [ -64.770274, 18.333644 ], [ -64.769386, 18.330785 ], [ -64.764583, 18.329683 ], [ -64.759925, 18.326328 ], [ -64.756316, 18.326182 ], [ -64.756271, 18.316591 ], [ -64.765977, 18.31055 ], [ -64.781459, 18.31053 ], [ -64.78474, 18.313445 ], [ -64.791205, 18.314449 ], [ -64.795936, 18.324613 ], [ -64.799794, 18.326681 ] ] ], [ [ [ -64.800827, 18.325679 ], [ -64.800781, 18.325741 ], [ -64.800766, 18.325682 ], [ -64.800827, 18.325679 ] ] ], [ [ [ -64.805023, 18.328346 ], [ -64.804924, 18.328462 ], [ -64.804916, 18.328409 ], [ -64.805023, 18.328346 ] ] ], [ [ [ -64.807511, 18.329439 ], [ -64.807177, 18.331075 ], [ -64.806785, 18.328602 ], [ -64.807511, 18.329439 ] ] ] ] } },
{ "type": "Feature", "properties": { "geoid": "78010970300", "county_name": "St. Croix Island", "place_name": "Cruz Bay", "state_name": "United States Virgin Islands", "state_abbr": "VI", "is_rural": true, "dci_score": null, "dci_quintile": null, "is_cra_lmi": true, "income_level": "M", "is_persistent_poverty": false, "is_tribal_overlap": false, "tribal_area_name": null, "aian_pct": 0.0, "has_nmtc": false, "nmtc_projects": 0, "nmtc_total_usd": 0.0 }, "geometry": { "type": "Polygon", "coordinates": [ [ [ -64.745176, 17.755435 ], [ -64.739566, 17.757119 ], [ -64.742309, 17.765537 ], [ -64.736286, 17.767518 ], [ -64.731535, 17.762466 ], [ -64.724651, 17.759444 ], [ -64.719083, 17.753457 ], [ -64.713579, 17.751984 ], [ -64.711419, 17.74879 ], [ -64.715606, 17.745434 ], [ -64.712588, 17.742025 ], [ -64.713129, 17.740174 ], [ -64.721331, 17.740128 ], [ -64.722789, 17.744344 ], [ -64.725527, 17.743373 ], [ -64.730625, 17.746411 ], [ -64.73117, 17.75078 ], [ -64.74242, 17.74729 ], [ -64.745176, 17.755435 ] ] ] } },
{ "type": "Feature", "properties": { "geoid": "78010970800", "county_name": "St. Croix Island", "place_name": null, "state_name": "United States Virgin Islands", "state_abbr": "VI", "is_rural": true, "dci_score": null, "dci_quintile": null, "is_cra_lmi": true, "income_level": "M", "is_persistent_poverty": false, "is_tribal_overlap": false, "tribal_area_name": null, "aian_pct": 0.0, "has_nmtc": false, "nmtc_projects": 0, "nmtc_total_usd": 0.0 }, "geometry": { "type": "Polygon", "coordinates": [ [ [ -64.813221, 17.752518 ], [ -64.791274, 17.759247 ], [ -64.788824, 17.750954 ], [ -64.793456, 17.749503 ], [ -64.79076, 17.74134 ], [ -64.77254, 17.74703 ], [ -64.77655, 17.7368 ], [ -64.771041, 17.720406 ], [ -64.776738, 17.718579 ], [ -64.77574, 17.715626 ], [ -64.781045, 17.713849 ], [ -64.78345, 17.710664 ], [ -64.785152, 17.715782 ], [ -64.793816, 17.713357 ], [ -64.796568, 17.72152 ], [ -64.80219, 17.71976 ], [ -64.813221, 17.752518 ] ] ] } },
{ "type": "Feature", "properties": { "geoid": "78010971200", "county_name": "St. Croix Island", "place_name": null, "state_name": "United States Virgin Islands", "state_abbr": "VI", "is_rural": true, "dci_score": null, "dci_quintile": null, "is_cra_lmi": false, "income_level": "U", "is_persistent_poverty": false, "is_tribal_overlap": false, "tribal_area_name": null, "aian_pct": 0.0, "has_nmtc": false, "nmtc_projects": 0, "nmtc_total_usd": 0.0 }, "geometry": { "type": "Polygon", "coordinates": [ [ [ -64.88201, 17.69513 ], [ -64.85923, 17.70228 ], [ -64.861917, 17.710327 ], [ -64.85637, 17.712082 ], [ -64.850849, 17.69584 ], [ -64.84513, 17.69762 ], [ -64.838864, 17.682659 ], [ -64.83912, 17.6799 ], [ -64.853965, 17.686767 ], [ -64.860598, 17.68527 ], [ -64.868852, 17.686324 ], [ -64.878273, 17.684104 ], [ -64.88201, 17.69513 ] ] ] } },
{ "type": "Feature", "properties": { "geoid": "78010971400", "county_name": "St. Croix Island", "place_name": null, "state_name": "United States Virgin Islands", "state_abbr": "VI", "is_rural": true, "dci_score": null, "dci_quintile": null, "is_cra_lmi": true, "income_level": "M", "is_persistent_poverty": false, "is_tribal_overlap": false, "tribal_area_name": null, "aian_pct": 0.0, "has_nmtc": false, "nmtc_projects": 0, "nmtc_total_usd": 0.0 }, "geometry": { "type": "Polygon", "coordinates": [ [ [ -64.836374, 17.70936 ], [ -64.796568, 17.72152 ], [ -64.793816, 17.713357 ], [ -64.785152, 17.715782 ], [ -64.78345, 17.710664 ], [ -64.781045, 17.713849 ], [ -64.77574, 17.715626 ], [ -64.776738, 17.718579 ], [ -64.765486, 17.722154 ], [ -64.763931, 17.718018 ], [ -64.758336, 17.719447 ], [ -64.757118, 17.715386 ], [ -64.745537, 17.718935 ], [ -64.739613, 17.701007 ], [ -64.732307, 17.704502 ], [ -64.727377, 17.703574 ], [ -64.717574, 17.698362 ], [ -64.74037, 17.687715 ], [ -64.761325, 17.682359 ], [ -64.763628, 17.683303 ], [ -64.766321, 17.689804 ], [ -64.789259, 17.695851 ], [ -64.794423, 17.693187 ], [ -64.808827, 17.691888 ], [ -64.822172, 17.686801 ], [ -64.827864, 17.702923 ], [ -64.833643, 17.701172 ], [ -64.836374, 17.70936 ] ] ] } },
{ "type": "Feature", "properties": { "geoid": "78010971300", "county_name": "St. Croix Island", "place_name": null, "state_name": "United States Virgin Islands", "state_abbr": "VI", "is_rural": true, "dci_score": null, "dci_quintile": null, "is_cra_lmi": false, "income_level": "U", "is_persistent_poverty": false, "is_tribal_overlap": false, "tribal_area_name": null, "aian_pct": 0.0, "has_nmtc": false, "nmtc_projects": 0, "nmtc_total_usd": 0.0 }, "geometry": { "type": "Polygon", "coordinates": [ [ [ -64.859166, 17.720306 ], [ -64.841885, 17.725465 ], [ -64.833643, 17.701172 ], [ -64.827864, 17.702923 ], [ -64.822107, 17.686172 ], [ -64.839208, 17.679768 ], [ -64.838864, 17.682659 ], [ -64.84513, 17.69762 ], [ -64.850849, 17.69584 ], [ -64.859166, 17.720306 ] ] ] } },
{ "type": "Feature", "properties": { "geoid": "78010970200", "county_name": "St. Croix Island", "place_name": null, "state_name": "United States Virgin Islands", "state_abbr": "VI", "is_rural": true, "dci_score": null, "dci_quintile": null, "is_cra_lmi": true, "income_level": "M", "is_persistent_poverty": false, "is_tribal_overlap": false, "tribal_area_name": null, "aian_pct": 0.0, "has_nmtc": true, "nmtc_projects": 1, "nmtc_total_usd": 7425000.0 }, "geometry": { "type": "MultiPolygon", "coordinates": [ [ [ [ -64.702667, 17.74859 ], [ -64.703174, 17.750641 ], [ -64.701859, 17.750637 ], [ -64.702667, 17.74859 ] ] ], [ [ [ -64.715184, 17.745777 ], [ -64.711419, 17.74879 ], [ -64.708762, 17.746861 ], [ -64.698302, 17.74769 ], [ -64.693309, 17.750868 ], [ -64.692325, 17.753736 ], [ -64.689515, 17.751951 ], [ -64.683403, 17.753465 ], [ -64.682155, 17.751698 ], [ -64.679646, 17.752184 ], [ -64.679696, 17.748484 ], [ -64.683581, 17.74726 ], [ -64.683566, 17.748787 ], [ -64.686814, 17.750218 ], [ -64.680128, 17.731614 ], [ -64.691365, 17.727912 ], [ -64.692369, 17.731043 ], [ -64.694959, 17.730162 ], [ -64.69601, 17.733456 ], [ -64.700655, 17.733215 ], [ -64.702118, 17.737237 ], [ -64.709736, 17.734903 ], [ -64.71335, 17.736544 ], [ -64.714155, 17.739598 ], [ -64.712588, 17.742025 ], [ -64.715184, 17.745777 ] ] ] ] } },
{ "type": "Feature", "properties": { "geoid": "78010971100", "county_name": "St. Croix Island", "place_name": null, "state_name": "United States Virgin Islands", "state_abbr": "VI", "is_rural": true, "dci_score": null, "dci_quintile": null, "is_cra_lmi": true, "income_level": "M", "is_persistent_poverty": false, "is_tribal_overlap": false, "tribal_area_name": null, "aian_pct": 0.0, "has_nmtc": false, "nmtc_projects": 0, "nmtc_total_usd": 0.0 }, "geometry": { "type": "Polygon", "coordinates": [ [ [ -64.903808, 17.679739 ], [ -64.888702, 17.713421 ], [ -64.89038, 17.71402 ], [ -64.888356, 17.714192 ], [ -64.885193, 17.721329 ], [ -64.867711, 17.72692 ], [ -64.864762, 17.71846 ], [ -64.859166, 17.720306 ], [ -64.85637, 17.712082 ], [ -64.861917, 17.710327 ], [ -64.85923, 17.70228 ], [ -64.88201, 17.69513 ], [ -64.878273, 17.684104 ], [ -64.884911, 17.685542 ], [ -64.900449, 17.67394 ], [ -64.903808, 17.679739 ] ] ] } },
{ "type": "Feature", "properties": { "geoid": "78010971000", "county_name": "St. Croix Island", "place_name": null, "state_name": "United States Virgin Islands", "state_abbr": "VI", "is_rural": true, "dci_score": null, "dci_quintile": null, "is_cra_lmi": false, "income_level": "U", "is_persistent_poverty": false, "is_tribal_overlap": false, "tribal_area_name": null, "aian_pct": 0.0, "has_nmtc": false, "nmtc_projects": 0, "nmtc_total_usd": 0.0 }, "geometry": { "type": "Polygon", "coordinates": [ [ [ -64.894289, 17.745284 ], [ -64.888602, 17.760779 ], [ -64.882291, 17.764013 ], [ -64.881842, 17.767365 ], [ -64.877902, 17.769872 ], [ -64.874922, 17.769272 ], [ -64.871788, 17.771165 ], [ -64.85618, 17.764535 ], [ -64.848279, 17.764948 ], [ -64.844692, 17.762769 ], [ -64.842884, 17.764066 ], [ -64.841111, 17.762009 ], [ -64.836553, 17.761568 ], [ -64.816823, 17.769358 ], [ -64.814284, 17.761164 ], [ -64.820622, 17.759213 ], [ -64.817864, 17.75105 ], [ -64.813206, 17.752385 ], [ -64.804942, 17.728025 ], [ -64.827576, 17.721012 ], [ -64.832685, 17.737843 ], [ -64.839139, 17.735988 ], [ -64.838399, 17.733774 ], [ -64.844789, 17.731929 ], [ -64.842529, 17.725244 ], [ -64.847397, 17.723579 ], [ -64.864762, 17.71846 ], [ -64.867711, 17.72692 ], [ -64.885193, 17.721329 ], [ -64.894289, 17.745284 ] ] ] } },
{ "type": "Feature", "properties": { "geoid": "78010970900", "county_name": "St. Croix Island", "place_name": null, "state_name": "United States Virgin Islands", "state_abbr": "VI", "is_rural": true, "dci_score": null, "dci_quintile": null, "is_cra_lmi": true, "income_level": "M", "is_persistent_poverty": false, "is_tribal_overlap": false, "tribal_area_name": null, "aian_pct": 0.0, "has_nmtc": false, "nmtc_projects": 0, "nmtc_total_usd": 0.0 }, "geometry": { "type": "Polygon", "coordinates": [ [ [ -64.844789, 17.731929 ], [ -64.838399, 17.733774 ], [ -64.839139, 17.735988 ], [ -64.832685, 17.737843 ], [ -64.827576, 17.721012 ], [ -64.804942, 17.728025 ], [ -64.80219, 17.71976 ], [ -64.836374, 17.70936 ], [ -64.844789, 17.731929 ] ] ] } },
{ "type": "Feature", "properties": { "geoid": "78030960600", "county_name": "St. Thomas Island", "place_name": null, "state_name": "United States Virgin Islands", "state_abbr": "VI", "is_rural": true, "dci_score": null, "dci_quintile": null, "is_cra_lmi": false, "income_level": "U", "is_persistent_poverty": false, "is_tribal_overlap": false, "tribal_area_name": null, "aian_pct": 0.0, "has_nmtc": false, "nmtc_projects": 0, "nmtc_total_usd": 0.0 }, "geometry": { "type": "Polygon", "coordinates": [ [ [ -64.964106, 18.354601 ], [ -64.954913, 18.35222 ], [ -64.954281, 18.360479 ], [ -64.950852, 18.361487 ], [ -64.950852, 18.356792 ], [ -64.941953, 18.354392 ], [ -64.938597, 18.344117 ], [ -64.948085, 18.345143 ], [ -64.947422, 18.33777 ], [ -64.953098, 18.337074 ], [ -64.95613, 18.34476 ], [ -64.95515, 18.34519 ], [ -64.96093, 18.35087 ], [ -64.963934, 18.35161 ], [ -64.964106, 18.354601 ] ] ] } },
{ "type": "Feature", "properties": { "geoid": "78030961100", "county_name": "St. Thomas Island", "place_name": "Frederiksted Southeast", "state_name": "United States Virgin Islands", "state_abbr": "VI", "is_rural": true, "dci_score": null, "dci_quintile": null, "is_cra_lmi": true, "income_level": "M", "is_persistent_poverty": false, "is_tribal_overlap": false, "tribal_area_name": null, "aian_pct": 0.0, "has_nmtc": false, "nmtc_projects": 0, "nmtc_total_usd": 0.0 }, "geometry": { "type": "Polygon", "coordinates": [ [ [ -64.926506, 18.3303 ], [ -64.919421, 18.334598 ], [ -64.922709, 18.337432 ], [ -64.921285, 18.341489 ], [ -64.923639, 18.342338 ], [ -64.92136, 18.350362 ], [ -64.915039, 18.347109 ], [ -64.910011, 18.346505 ], [ -64.909708, 18.344645 ], [ -64.904759, 18.344012 ], [ -64.906163, 18.327471 ], [ -64.913094, 18.330077 ], [ -64.918458, 18.329009 ], [ -64.92147, 18.33137 ], [ -64.923007, 18.32995 ], [ -64.924768, 18.331162 ], [ -64.926506, 18.3303 ] ] ] } },
{ "type": "Feature", "properties": { "geoid": "78030960200", "county_name": "St. Thomas Island", "place_name": null, "state_name": "United States Virgin Islands", "state_abbr": "VI", "is_rural": true, "dci_score": null, "dci_quintile": null, "is_cra_lmi": false, "income_level": "U", "is_persistent_poverty": false, "is_tribal_overlap": false, "tribal_area_name": null, "aian_pct": 0.0, "has_nmtc": false, "nmtc_projects": 0, "nmtc_total_usd": 0.0 }, "geometry": { "type": "Polygon", "coordinates": [ [ [ -64.906163, 18.327471 ], [ -64.904759, 18.344012 ], [ -64.900923, 18.343517 ], [ -64.900158, 18.34479 ], [ -64.894772, 18.342019 ], [ -64.88819, 18.34142 ], [ -64.88754, 18.34004 ], [ -64.878478, 18.344188 ], [ -64.877503, 18.339802 ], [ -64.871751, 18.337372 ], [ -64.871472, 18.335085 ], [ -64.866862, 18.333855 ], [ -64.86678, 18.32549 ], [ -64.878564, 18.323731 ], [ -64.88311, 18.32899 ], [ -64.888953, 18.325261 ], [ -64.894941, 18.325582 ], [ -64.895258, 18.322708 ], [ -64.900249, 18.323881 ], [ -64.899466, 18.325548 ], [ -64.901878, 18.327152 ], [ -64.906163, 18.327471 ] ] ] } },
{ "type": "Feature", "properties": { "geoid": "78030960900", "county_name": "St. Thomas Island", "place_name": null, "state_name": "United States Virgin Islands", "state_abbr": "VI", "is_rural": true, "dci_score": null, "dci_quintile": null, "is_cra_lmi": false, "income_level": "U", "is_persistent_poverty": false, "is_tribal_overlap": false, "tribal_area_name": null, "aian_pct": 0.0, "has_nmtc": false, "nmtc_projects": 0, "nmtc_total_usd": 0.0 }, "geometry": { "type": "MultiPolygon", "coordinates": [ [ [ [ -64.853713, 18.232326 ], [ -64.851898, 18.232538 ], [ -64.850845, 18.230466 ], [ -64.852767, 18.230798 ], [ -64.853713, 18.232326 ] ] ], [ [ [ -64.898896, 18.277179 ], [ -64.893662, 18.279802 ], [ -64.885603, 18.276282 ], [ -64.886746, 18.273955 ], [ -64.896418, 18.274186 ], [ -64.898896, 18.277179 ] ] ], [ [ [ -64.908076, 18.30915 ], [ -64.908018, 18.309407 ], [ -64.907843, 18.309374 ], [ -64.908076, 18.30915 ] ] ], [ [ [ -64.908065, 18.309552 ], [ -64.90832, 18.310092 ], [ -64.907899, 18.310225 ], [ -64.908065, 18.309552 ] ] ], [ [ [ -64.918159, 18.31314 ], [ -64.918136, 18.313209 ], [ -64.918113, 18.313133 ], [ -64.918159, 18.31314 ] ] ], [ [ [ -64.928827, 18.328851 ], [ -64.924768, 18.331162 ], [ -64.923007, 18.32995 ], [ -64.92131, 18.33133 ], [ -64.918458, 18.329009 ], [ -64.913094, 18.330077 ], [ -64.908497, 18.32744 ], [ -64.901878, 18.327152 ], [ -64.899466, 18.325548 ], [ -64.900249, 18.323881 ], [ -64.895258, 18.322708 ], [ -64.894941, 18.325582 ], [ -64.888953, 18.325261 ], [ -64.88311, 18.32899 ], [ -64.878564, 18.323731 ], [ -64.881472, 18.317088 ], [ -64.875366, 18.316132 ], [ -64.872116, 18.318857 ], [ -64.869438, 18.318769 ], [ -64.865166, 18.315559 ], [ -64.862375, 18.317449 ], [ -64.862242, 18.307027 ], [ -64.87855, 18.302689 ], [ -64.879356, 18.306004 ], [ -64.887617, 18.310674 ], [ -64.894687, 18.311555 ], [ -64.898269, 18.309673 ], [ -64.906143, 18.310874 ], [ -64.916535, 18.318682 ], [ -64.927219, 18.320881 ], [ -64.928827, 18.328851 ] ] ] ] } },
{ "type": "Feature", "properties": { "geoid": "78030961200", "county_name": "St. Thomas Island", "place_name": null, "state_name": "United States Virgin Islands", "state_abbr": "VI", "is_rural": true, "dci_score": null, "dci_quintile": null, "is_cra_lmi": true, "income_level": "M", "is_persistent_poverty": false, "is_tribal_overlap": false, "tribal_area_name": null, "aian_pct": 0.0, "has_nmtc": false, "nmtc_projects": 0, "nmtc_total_usd": 0.0 }, "geometry": { "type": "Polygon", "coordinates": [ [ [ -64.931385, 18.339708 ], [ -64.930344, 18.340103 ], [ -64.931285, 18.345846 ], [ -64.92924, 18.34478 ], [ -64.928597, 18.351489 ], [ -64.92136, 18.350362 ], [ -64.923639, 18.342338 ], [ -64.921285, 18.341489 ], [ -64.922709, 18.337432 ], [ -64.919421, 18.334598 ], [ -64.928827, 18.328851 ], [ -64.931385, 18.339708 ] ] ] } },
{ "type": "Feature", "properties": { "geoid": "78030960800", "county_name": "St. Thomas Island", "place_name": null, "state_name": "United States Virgin Islands", "state_abbr": "VI", "is_rural": true, "dci_score": null, "dci_quintile": null, "is_cra_lmi": false, "income_level": "U", "is_persistent_poverty": false, "is_tribal_overlap": false, "tribal_area_name": null, "aian_pct": 0.0, "has_nmtc": false, "nmtc_projects": 0, "nmtc_total_usd": 0.0 }, "geometry": { "type": "MultiPolygon", "coordinates": [ [ [ [ -64.957582, 18.30614 ], [ -64.957409, 18.306202 ], [ -64.957418, 18.306122 ], [ -64.957582, 18.30614 ] ] ], [ [ [ -64.985793, 18.345225 ], [ -64.980187, 18.345276 ], [ -64.977074, 18.349456 ], [ -64.975837, 18.347789 ], [ -64.971067, 18.346791 ], [ -64.970759, 18.356987 ], [ -64.964106, 18.354601 ], [ -64.963934, 18.35161 ], [ -64.96093, 18.35087 ], [ -64.95515, 18.34519 ], [ -64.95613, 18.34476 ], [ -64.953098, 18.337074 ], [ -64.945095, 18.338026 ], [ -64.943357, 18.334239 ], [ -64.944778, 18.333759 ], [ -64.944345, 18.329797 ], [ -64.941813, 18.327055 ], [ -64.94014, 18.317439 ], [ -64.951205, 18.317124 ], [ -64.953631, 18.30748 ], [ -64.957701, 18.306246 ], [ -64.960177, 18.307624 ], [ -64.96122, 18.313669 ], [ -64.958792, 18.318549 ], [ -64.963828, 18.324728 ], [ -64.972387, 18.329335 ], [ -64.97477, 18.3353 ], [ -64.983902, 18.335649 ], [ -64.985793, 18.345225 ] ] ] ] } },
{ "type": "Feature", "properties": { "geoid": "78030960100", "county_name": "St. Thomas Island", "place_name": null, "state_name": "United States Virgin Islands", "state_abbr": "VI", "is_rural": true, "dci_score": null, "dci_quintile": null, "is_cra_lmi": false, "income_level": "U", "is_persistent_poverty": false, "is_tribal_overlap": false, "tribal_area_name": null, "aian_pct": 0.0, "has_nmtc": false, "nmtc_projects": 0, "nmtc_total_usd": 0.0 }, "geometry": { "type": "MultiPolygon", "coordinates": [ [ [ [ -64.84441, 18.337235 ], [ -64.844721, 18.33756 ], [ -64.844086, 18.337601 ], [ -64.84441, 18.337235 ] ] ], [ [ [ -64.858429, 18.346411 ], [ -64.858391, 18.346566 ], [ -64.858304, 18.346546 ], [ -64.858429, 18.346411 ] ] ], [ [ [ -64.876348, 18.360521 ], [ -64.876058, 18.360943 ], [ -64.87579, 18.360775 ], [ -64.876348, 18.360521 ] ] ], [ [ [ -64.889435, 18.354476 ], [ -64.886455, 18.358204 ], [ -64.883408, 18.354986 ], [ -64.879697, 18.354556 ], [ -64.875931, 18.360622 ], [ -64.870606, 18.361023 ], [ -64.870757, 18.363413 ], [ -64.865224, 18.360375 ], [ -64.857068, 18.359662 ], [ -64.853804, 18.360621 ], [ -64.853655, 18.363044 ], [ -64.85296, 18.360522 ], [ -64.849478, 18.360589 ], [ -64.847361, 18.357478 ], [ -64.862625, 18.349441 ], [ -64.861622, 18.344437 ], [ -64.857435, 18.339892 ], [ -64.850032, 18.339352 ], [ -64.844948, 18.329503 ], [ -64.852934, 18.324569 ], [ -64.852655, 18.328799 ], [ -64.86164, 18.329649 ], [ -64.861264, 18.334587 ], [ -64.869254, 18.333896 ], [ -64.871472, 18.335085 ], [ -64.871751, 18.337372 ], [ -64.877503, 18.339802 ], [ -64.878478, 18.344188 ], [ -64.88138, 18.34283 ], [ -64.87988, 18.34459 ], [ -64.88198, 18.3481 ], [ -64.88482, 18.34994 ], [ -64.888419, 18.349814 ], [ -64.889435, 18.354476 ] ] ] ] } },
{ "type": "Feature", "properties": { "geoid": "78030961000", "county_name": "St. Thomas Island", "place_name": null, "state_name": "United States Virgin Islands", "state_abbr": "VI", "is_rural": true, "dci_score": null, "dci_quintile": null, "is_cra_lmi": true, "income_level": "M", "is_persistent_poverty": false, "is_tribal_overlap": false, "tribal_area_name": null, "aian_pct": 0.0, "has_nmtc": false, "nmtc_projects": 0, "nmtc_total_usd": 0.0 }, "geometry": { "type": "Polygon", "coordinates": [ [ [ -64.948002, 18.345176 ], [ -64.938597, 18.344117 ], [ -64.938869, 18.345429 ], [ -64.931101, 18.346267 ], [ -64.930344, 18.340103 ], [ -64.931392, 18.339624 ], [ -64.927219, 18.320881 ], [ -64.932938, 18.32247 ], [ -64.940239, 18.317571 ], [ -64.941813, 18.327055 ], [ -64.944345, 18.329797 ], [ -64.944778, 18.333759 ], [ -64.943375, 18.33435 ], [ -64.945095, 18.338026 ], [ -64.947422, 18.33777 ], [ -64.948002, 18.345176 ] ] ] } }
]
}
