{
"type": "FeatureCollection",
"name": "state-32-outline",
"crs": { "type": "name", "properties": { "name": "urn:ogc:def:crs:OGC:1.3:CRS84" } },
"features": [
{ "type": "Feature", "properties": { "state_fips": "32", "state_abbr": "NV", "state_name": "Nevada" }, "geometry": { "type": "Polygon", "coordinates": [ [ [ -119.905571734595995, 38.934185008562501 ], [ -119.914623285207, 38.940386367707397 ], [ -119.935829414362004, 38.954915019053601 ], [ -119.938755501694004, 38.956919727331197 ], [ -119.942066544512002, 38.959188174644098 ], [ -119.949569352460003, 38.964328465924602 ], [ -119.951291245785001, 38.965508162020399 ], [ -119.951367991493996, 38.965560741708302 ], [ -120.001014, 38.999574 ], [ -120.002461, 39.067489 ], [ -120.003402381369995, 39.112687055111003 ], [ -120.004504420333006, 39.165598679866399 ], [ -120.005596410685996, 39.218027845910797 ], [ -120.005674538978994, 39.2217789790827 ], [ -120.005691822331002, 39.222608795681303 ], [ -120.005746, 39.22521 ], [ -120.006033435293006, 39.244257757116799 ], [ -120.006063731405007, 39.246265419357201 ], [ -120.006455, 39.272194 ], [ -120.006452848096998, 39.272878107631399 ], [ -120.006431805950996, 39.279567579691602 ], [ -120.006427841401006, 39.280827942880997 ], [ -120.006419937635997, 39.283340615179597 ], [ -120.006315645404001, 39.316495976865703 ], [ -120.006237, 39.341498 ], [ -120.005159640789003, 39.388648955653402 ], [ -120.004898733771995, 39.400067631128401 ], [ -120.004081, 39.435856 ], [ -120.003871869172997, 39.445057041725001 ], [ -120.003459629600997, 39.463194174112502 ], [ -120.002916374213001, 39.487095554701497 ], [ -120.002744289093997, 39.494666711870003 ], [ -120.002724790420004, 39.495524586890497 ], [ -120.002718336640996, 39.495808531118399 ], [ -120.002702554872002, 39.496502875030401 ], [ -120.002523734030007, 39.504370380969803 ], [ -120.002499696542998, 39.505427948265996 ], [ -120.001840137867006, 39.5344462760374 ], [ -120.001787261442004, 39.5367726580454 ], [ -120.00174, 39.538852 ], [ -120.001717356499, 39.548725211720601 ], [ -120.001584097915995, 39.606829752403598 ], [ -120.001517666218007, 39.635795866150303 ], [ -120.001484414068997, 39.650294750900599 ], [ -120.001430866104002, 39.673643189982101 ], [ -120.001319, 39.72242 ], [ -120.001151854493003, 39.734190971706802 ], [ -120.000502, 39.779956 ], [ -120.000607, 39.780779 ], [ -119.999733, 39.851406 ], [ -119.998293046585005, 39.9235058875664 ], [ -119.997634, 39.956505 ], [ -119.997291, 40.071803 ], [ -119.997175, 40.077245 ], [ -119.997234, 40.091591 ], [ -119.997233377794004, 40.091787684848697 ], [ -119.997124, 40.126363 ], [ -119.996911084358999, 40.157157253856603 ], [ -119.996183, 40.262461 ], [ -119.996182, 40.263532 ], [ -119.996155, 40.32125 ], [ -119.996155, 40.321838 ], [ -119.996051487426996, 40.4023260320755 ], [ -119.995926, 40.499901 ], [ -119.997533, 40.720992 ], [ -119.998479, 40.749899 ], [ -119.998539514040004, 40.759233612529698 ], [ -119.999231, 40.865899 ], [ -119.999232, 40.867454 ], [ -119.999358, 40.873101 ], [ -119.999601049562997, 41.021836328374697 ], [ -119.999866, 41.183974 ], [ -119.999471, 41.499894 ], [ -119.998890665307997, 41.55781588512 ], [ -119.99828, 41.618765 ], [ -119.998855, 41.624893 ], [ -119.998287, 41.749892 ], [ -119.999342, 41.875296 ], [ -119.999234, 41.994944 ], [ -119.986801, 41.995709 ], [ -119.876054, 41.997199 ], [ -119.872929, 41.997641 ], [ -119.848907, 41.997281 ], [ -119.790087, 41.997544 ], [ -119.72573, 41.996296 ], [ -119.444598, 41.995478 ], [ -119.360177, 41.994384 ], [ -119.360121480893, 41.994383724805402 ], [ -119.324182599297998, 41.994205584596699 ], [ -119.251033, 41.993843 ], [ -119.231876, 41.994212 ], [ -119.20828, 41.993177 ], [ -119.001022, 41.993793 ], [ -118.829630206432995, 41.992625690135803 ], [ -118.795612, 41.992394 ], [ -118.777228, 41.992671 ], [ -118.775869, 41.992692 ], [ -118.696409, 41.991794 ], [ -118.644698465629006, 41.992942418472097 ], [ -118.628692114981007, 41.9932978970796 ], [ -118.601806, 41.993895 ], [ -118.501002, 41.995446 ], [ -118.197369215928006, 41.9969940811635 ], [ -118.197189, 41.996995 ], [ -118.123944939373999, 41.9972981831054 ], [ -117.873467, 41.998335 ], [ -117.737792142868003, 41.998207270674399 ], [ -117.705780984811, 41.998177134186903 ], [ -117.625973, 41.998102 ], [ -117.623731, 41.998467 ], [ -117.617188034099996, 41.998510168531098 ], [ -117.613207836252002, 41.998536428685497 ], [ -117.530197396565995, 41.999084106727203 ], [ -117.506681810353001, 41.999239255528401 ], [ -117.443062, 41.999659 ], [ -117.403613, 41.99929 ], [ -117.217551, 41.999887 ], [ -117.197798, 42.00038 ], [ -117.068613, 42.000035 ], [ -117.055402, 41.99989 ], [ -117.04891, 41.998983 ], [ -117.040906, 41.99989 ], [ -117.026197, 41.99989 ], [ -117.018294, 41.999358 ], [ -117.018208514199003, 41.999346357891199 ], [ -117.009255, 41.998127 ], [ -116.969156, 41.998991 ], [ -116.862274392900005, 41.9986036007652 ], [ -116.62677, 41.99775 ], [ -116.625947, 41.997379 ], [ -116.586937, 41.99737 ], [ -116.582217, 41.997834 ], [ -116.525319, 41.997558 ], [ -116.501741, 41.997334 ], [ -116.498188, 41.997443 ], [ -116.484389, 41.99721 ], [ -116.467134, 41.996991 ], [ -116.409882, 41.996648 ], [ -116.378087960334, 41.996366181514901 ], [ -116.368478, 41.996281 ], [ -116.332763, 41.997283 ], [ -116.163931, 41.997555 ], [ -116.160833, 41.997508 ], [ -116.146723905157003, 41.997501156846504 ], [ -116.117642900064993, 41.997487052059199 ], [ -116.065991, 41.997462 ], [ -116.047136, 41.996344 ], [ -115.986173927767993, 41.9964341412606 ], [ -115.986168884885998, 41.996434148717199 ], [ -115.941634, 41.9965 ], [ -115.870181, 41.996766 ], [ -115.733245719568998, 41.997129827275003 ], [ -115.711103055967001, 41.997188658753203 ], [ -115.625914, 41.997415 ], [ -115.586849, 41.996884 ], [ -115.569975183905001, 41.996835722336499 ], [ -115.313877, 41.996103 ], [ -115.254333, 41.996721 ], [ -115.250795, 41.996156 ], [ -115.038157180221006, 41.996012307429098 ], [ -115.031783, 41.996008 ], [ -114.972429224259997, 41.997976936691401 ], [ -114.914187, 41.999909 ], [ -114.89921, 41.999909 ], [ -114.875877, 42.001319 ], [ -114.831077, 42.002207 ], [ -114.806384, 42.001822 ], [ -114.721046250472, 41.998244885074499 ], [ -114.720715, 41.998231 ], [ -114.674840555383994, 41.996837323223097 ], [ -114.669330239626007, 41.996669918491101 ], [ -114.651085792028994, 41.996115647739003 ], [ -114.598267, 41.994511 ], [ -114.498259, 41.994599 ], [ -114.498243, 41.994636 ], [ -114.467581, 41.995492 ], [ -114.281855, 41.994214 ], [ -114.281799324163003, 41.994213920520998 ], [ -114.107428, 41.993965 ], [ -114.107259, 41.993831 ], [ -114.061763, 41.993939 ], [ -114.061774, 41.993797 ], [ -114.048257, 41.993814 ], [ -114.041477, 41.993873 ], [ -114.039648, 41.884816 ], [ -114.041107, 41.850573 ], [ -114.041152, 41.850595 ], [ -114.039901, 41.753781 ], [ -114.039968, 41.62492 ], [ -114.040437, 41.615377 ], [ -114.040439387994994, 41.614831042761701 ], [ -114.040942, 41.499921 ], [ -114.040231, 41.49169 ], [ -114.041396, 41.219958 ], [ -114.042553, 41.210923 ], [ -114.041447, 41.207752 ], [ -114.042145, 40.999926 ], [ -114.042145133139002, 40.999896524568399 ], [ -114.042406540382999, 40.942024104864601 ], [ -114.043176, 40.771675 ], [ -114.043803, 40.759205 ], [ -114.043831, 40.758666 ], [ -114.043799599183004, 40.755547686934001 ], [ -114.043720674455997, 40.7477099288975 ], [ -114.043639104049007, 40.739609437055201 ], [ -114.043505, 40.726292 ], [ -114.043507102207002, 40.726031939526102 ], [ -114.043800324697003, 40.6897578740234 ], [ -114.045281, 40.506586 ], [ -114.045577, 40.495801 ], [ -114.045518, 40.494474 ], [ -114.045218, 40.430282 ], [ -114.045826, 40.424823 ], [ -114.046178, 40.398313 ], [ -114.046153, 40.231971 ], [ -114.046682520363007, 40.116935402872699 ], [ -114.046741, 40.104231 ], [ -114.046386, 40.097896 ], [ -114.046835, 40.030131 ], [ -114.046555, 39.996899 ], [ -114.046658941852996, 39.980587489394203 ], [ -114.047133613292004, 39.906097685744299 ], [ -114.047134, 39.906037 ], [ -114.047214, 39.821024 ], [ -114.047783, 39.79416 ], [ -114.047566451232001, 39.779406235182101 ], [ -114.047273, 39.759413 ], [ -114.047345688543999, 39.724798715431596 ], [ -114.047728, 39.542742 ], [ -114.047923, 39.455766 ], [ -114.049104, 39.005509 ], [ -114.049465, 38.874949 ], [ -114.049168, 38.749951 ], [ -114.049749, 38.72921 ], [ -114.049883347847, 38.677365 ], [ -114.050153858879995, 38.572974458300898 ], [ -114.050154, 38.57292 ], [ -114.049862, 38.547764 ], [ -114.049834, 38.543784 ], [ -114.050485, 38.499955 ], [ -114.050091, 38.404673 ], [ -114.05012, 38.404536 ], [ -114.049417, 38.2647 ], [ -114.050138, 38.24996 ], [ -114.049903375658005, 38.148763026670601 ], [ -114.049903, 38.148601 ], [ -114.050423, 37.999961 ], [ -114.050047854371002, 37.941804600544799 ], [ -114.049658, 37.881368 ], [ -114.049928, 37.852508 ], [ -114.049677, 37.823645 ], [ -114.048473, 37.809861 ], [ -114.049919, 37.765586 ], [ -114.051109, 37.756276 ], [ -114.05167, 37.746958 ], [ -114.051785, 37.746249 ], [ -114.051728, 37.745997 ], [ -114.051843685201007, 37.724038425076898 ], [ -114.052472, 37.604776 ], [ -114.052962, 37.592783 ], [ -114.052736983833, 37.531028013672803 ], [ -114.052689, 37.517859 ], [ -114.052718, 37.517264 ], [ -114.052685, 37.502513 ], [ -114.052701, 37.492014 ], [ -114.052618830474003, 37.472340731632201 ], [ -114.052448, 37.43144 ], [ -114.051765, 37.418083 ], [ -114.051927, 37.370734 ], [ -114.051927, 37.370459 ], [ -114.051888698848998, 37.347263883257902 ], [ -114.0518, 37.293548 ], [ -114.0518, 37.293044 ], [ -114.051974, 37.284511 ], [ -114.051974, 37.283848 ], [ -114.051405, 37.233854 ], [ -114.051673, 37.172368 ], [ -114.052179, 37.14711 ], [ -114.051867, 37.134292 ], [ -114.052827, 37.103961 ], [ -114.051822, 37.090976 ], [ -114.051749, 37.088434 ], [ -114.0506, 37.000396 ], [ -114.049995, 36.957769 ], [ -114.050618928071998, 36.843141214516699 ], [ -114.050619, 36.843128 ], [ -114.050418354149002, 36.817818404400299 ], [ -114.050416303909003, 36.817559785773803 ], [ -114.050339272274996, 36.807842966409098 ], [ -114.050273857475005, 36.799591501789401 ], [ -114.050060351168995, 36.772659680109697 ], [ -114.049396, 36.688858 ], [ -114.048173, 36.639583 ], [ -114.04774, 36.620005 ], [ -114.044897, 36.496078 ], [ -114.043133, 36.469716 ], [ -114.042819, 36.438277 ], [ -114.043196, 36.379405 ], [ -114.044763, 36.33169 ], [ -114.044108, 36.3154 ], [ -114.045453, 36.291713 ], [ -114.045459, 36.273284 ], [ -114.044744, 36.259522 ], [ -114.043965, 36.246989 ], [ -114.043944, 36.19335 ], [ -114.05779, 36.188633 ], [ -114.068222, 36.177687 ], [ -114.081234, 36.150208 ], [ -114.091701, 36.137303 ], [ -114.092753, 36.132356 ], [ -114.096994, 36.120823 ], [ -114.099217, 36.119685 ], [ -114.107419, 36.119401 ], [ -114.117025, 36.11485 ], [ -114.121284, 36.109519 ], [ -114.121033, 36.103885 ], [ -114.115208, 36.099878 ], [ -114.1119, 36.095845 ], [ -114.119648, 36.085822 ], [ -114.124019, 36.075563 ], [ -114.131212, 36.065765 ], [ -114.136206, 36.053232 ], [ -114.134841, 36.043873 ], [ -114.13826, 36.03719 ], [ -114.144666, 36.034272 ], [ -114.145907, 36.027229 ], [ -114.15139, 36.023133 ], [ -114.164425, 36.026853 ], [ -114.173267, 36.026752 ], [ -114.191221, 36.020019 ], [ -114.211932, 36.014834 ], [ -114.221453, 36.01416 ], [ -114.226459, 36.014606 ], [ -114.233443, 36.012835 ], [ -114.242139, 36.015187 ], [ -114.261403, 36.025454 ], [ -114.265001, 36.028848 ], [ -114.26922, 36.036807 ], [ -114.268896, 36.04094 ], [ -114.270862, 36.045523 ], [ -114.273911, 36.046529 ], [ -114.278166, 36.045819 ], [ -114.280202, 36.046362 ], [ -114.290867, 36.050511 ], [ -114.293435, 36.0545 ], [ -114.295941, 36.056168 ], [ -114.299755, 36.057359 ], [ -114.308476, 36.056985 ], [ -114.311904, 36.057661 ], [ -114.313591, 36.059048 ], [ -114.314427, 36.060523 ], [ -114.314328, 36.062016 ], [ -114.31242, 36.066117 ], [ -114.307485, 36.069672 ], [ -114.304171, 36.07558 ], [ -114.306939, 36.082487 ], [ -114.328777, 36.105501 ], [ -114.334632, 36.106784 ], [ -114.337264, 36.110428 ], [ -114.345022, 36.118472 ], [ -114.358968, 36.127795 ], [ -114.370181, 36.142624 ], [ -114.37449, 36.143659 ], [ -114.375301403311994, 36.143390815474199 ], [ -114.381479, 36.141349 ], [ -114.398373, 36.145799 ], [ -114.40914, 36.147 ], [ -114.415253, 36.145123 ], [ -114.423114, 36.13735 ], [ -114.443736, 36.125593 ], [ -114.447135, 36.126022 ], [ -114.452071, 36.130958 ], [ -114.456487, 36.138032 ], [ -114.463637, 36.139695 ], [ -114.468674, 36.138889 ], [ -114.483827, 36.12972 ], [ -114.498849, 36.126612 ], [ -114.504715, 36.127188 ], [ -114.508467, 36.129913 ], [ -114.50921, 36.133247 ], [ -114.507175, 36.13634 ], [ -114.503213, 36.139242 ], [ -114.500339, 36.1407 ], [ -114.500236, 36.143226 ], [ -114.501049, 36.144516 ], [ -114.508104, 36.149713 ], [ -114.51428, 36.150795 ], [ -114.52885, 36.147751 ], [ -114.532308, 36.14804 ], [ -114.532924, 36.149282 ], [ -114.539233, 36.151764 ], [ -114.543232, 36.151871 ], [ -114.548742, 36.150697 ], [ -114.555373, 36.152371 ], [ -114.561173, 36.150921 ], [ -114.57109, 36.151099 ], [ -114.57706, 36.148845 ], [ -114.579578, 36.1467 ], [ -114.596474, 36.141537 ], [ -114.610639, 36.131558 ], [ -114.615455, 36.129653 ], [ -114.620605, 36.131759 ], [ -114.623837, 36.137144 ], [ -114.628462, 36.141822 ], [ -114.630474, 36.142218 ], [ -114.636862, 36.135552 ], [ -114.640125, 36.135126 ], [ -114.658131, 36.124127 ], [ -114.662144, 36.117742 ], [ -114.664343, 36.1163 ], [ -114.671867, 36.115964 ], [ -114.675106, 36.114111 ], [ -114.679775, 36.109874 ], [ -114.68267, 36.109146 ], [ -114.685079, 36.109771 ], [ -114.688074, 36.111457 ], [ -114.691631, 36.112535 ], [ -114.693655, 36.112482 ], [ -114.696527, 36.11049 ], [ -114.703737, 36.108348 ], [ -114.709771, 36.107742 ], [ -114.717293, 36.107686 ], [ -114.736165, 36.104367 ], [ -114.747079, 36.097005 ], [ -114.749534, 36.093027 ], [ -114.753196, 36.089513 ], [ -114.754798, 36.084704 ], [ -114.751147, 36.079007 ], [ -114.743342, 36.070535 ], [ -114.740554803334007, 36.065791379210197 ], [ -114.736253, 36.05847 ], [ -114.735701, 36.053393 ], [ -114.740375, 36.049258 ], [ -114.742487, 36.045558 ], [ -114.742105, 36.039792 ], [ -114.740018, 36.037467 ], [ -114.735739, 36.038033 ], [ -114.732484, 36.037428 ], [ -114.727602, 36.033099 ], [ -114.723673, 36.03123 ], [ -114.722096, 36.028952 ], [ -114.722859, 36.027165 ], [ -114.729069, 36.021264 ], [ -114.737006524519998, 36.015769483768999 ], [ -114.740522, 36.013336 ], [ -114.742779, 36.009963 ], [ -114.743243, 36.00653 ], [ -114.739855, 35.992107 ], [ -114.743756, 35.985095 ], [ -114.740595, 35.975656 ], [ -114.729941, 35.962183 ], [ -114.72959, 35.959622 ], [ -114.720259, 35.944692 ], [ -114.712544, 35.931861 ], [ -114.707526, 35.92806 ], [ -114.708516, 35.912313 ], [ -114.700271, 35.901772 ], [ -114.677984, 35.884707 ], [ -114.672009, 35.878018 ], [ -114.667194, 35.874787 ], [ -114.663214, 35.873692 ], [ -114.661636, 35.871067 ], [ -114.662623, 35.869213 ], [ -114.669687, 35.865084 ], [ -114.68201, 35.863284 ], [ -114.691456, 35.858661 ], [ -114.69437, 35.854463 ], [ -114.697737, 35.853681 ], [ -114.703599, 35.852595 ], [ -114.706532, 35.849027 ], [ -114.702293, 35.840792 ], [ -114.69641, 35.833784 ], [ -114.695249, 35.832285 ], [ -114.696177, 35.828741 ], [ -114.70371, 35.814585 ], [ -114.70991, 35.810185 ], [ -114.71211, 35.806185 ], [ -114.69891, 35.790185 ], [ -114.701409, 35.769086 ], [ -114.695709, 35.755986 ], [ -114.697309, 35.733686 ], [ -114.705447, 35.711757 ], [ -114.705409, 35.708287 ], [ -114.701416, 35.701084 ], [ -114.69607, 35.696451 ], [ -114.682657, 35.688571 ], [ -114.680631, 35.684046 ], [ -114.682207, 35.678188 ], [ -114.683226219334998, 35.676529525075999 ], [ -114.690214, 35.665159 ], [ -114.689001, 35.65028 ], [ -114.677615, 35.641774 ], [ -114.668587, 35.628055 ], [ -114.6661, 35.622389 ], [ -114.663647, 35.620773 ], [ -114.661175, 35.620477 ], [ -114.659461, 35.619552 ], [ -114.657241, 35.617046 ], [ -114.653406, 35.610789 ], [ -114.654306, 35.59759 ], [ -114.658827361666994, 35.588319008406103 ], [ -114.659238, 35.587477 ], [ -114.661234, 35.586428 ], [ -114.664209, 35.585944 ], [ -114.674973, 35.580664 ], [ -114.675751, 35.579459 ], [ -114.674881, 35.578379 ], [ -114.671567, 35.576217 ], [ -114.668393, 35.574331 ], [ -114.663226, 35.565164 ], [ -114.663114, 35.562593 ], [ -114.661401, 35.550238 ], [ -114.66157, 35.545692 ], [ -114.660517, 35.540981 ], [ -114.657405, 35.536391 ], [ -114.657163, 35.532301 ], [ -114.660542, 35.527466 ], [ -114.663983, 35.522161 ], [ -114.671244, 35.519522 ], [ -114.677156, 35.51287 ], [ -114.678371936966002, 35.5018571520433 ], [ -114.678715, 35.49875 ], [ -114.677706071187998, 35.495192473158298 ], [ -114.675816, 35.488528 ], [ -114.671907, 35.482087 ], [ -114.673164, 35.474814 ], [ -114.665988, 35.467985 ], [ -114.666936, 35.459478 ], [ -114.66388, 35.454657 ], [ -114.663541, 35.447797 ], [ -114.654014, 35.435871 ], [ -114.652752, 35.430819 ], [ -114.626765, 35.409644 ], [ -114.620887, 35.396867 ], [ -114.617698, 35.380131 ], [ -114.611206, 35.370119 ], [ -114.605748, 35.358454 ], [ -114.595162, 35.324238 ], [ -114.597503, 35.296954 ], [ -114.587129, 35.262376 ], [ -114.582926, 35.232102 ], [ -114.580312, 35.220095 ], [ -114.579963, 35.20964 ], [ -114.574835, 35.205898 ], [ -114.572119, 35.200591 ], [ -114.571940594471002, 35.199531403677497 ], [ -114.571932778180994, 35.199484980717799 ], [ -114.569238, 35.18348 ], [ -114.569393076579999, 35.172202042420999 ], [ -114.569529, 35.162317 ], [ -114.573943, 35.143892 ], [ -114.573493314472003, 35.142443718599601 ], [ -114.572597, 35.139557 ], [ -114.578263, 35.12881 ], [ -114.582106632109998, 35.126754141770697 ], [ -114.585317, 35.125037 ], [ -114.597794, 35.121735 ], [ -114.600693420485996, 35.1216628928657 ], [ -114.604015164228002, 35.121580282763702 ], [ -114.612982149626006, 35.121357278331203 ], [ -114.621357, 35.121149 ], [ -114.623662102287994, 35.120292156028199 ], [ -114.632282, 35.117088 ], [ -114.635117811759997, 35.114460351389802 ], [ -114.644352, 35.105904 ], [ -114.646759, 35.101872 ], [ -114.643612993866, 35.097571870943497 ], [ -114.642831, 35.096503 ], [ -114.635559086268003, 35.093710791320902 ], [ -114.622517, 35.088703 ], [ -114.613132, 35.083097 ], [ -114.608380021439999, 35.0784180330213 ], [ -114.604736, 35.07483 ], [ -114.603010556127998, 35.068938194392601 ], [ -114.602908, 35.068588 ], [ -114.603619, 35.064226 ], [ -114.606694, 35.058941 ], [ -114.617254902827, 35.051590239441701 ], [ -114.617361077000993, 35.051516338474997 ], [ -114.627124, 35.044721 ], [ -114.630452238955002, 35.0402446597652 ], [ -114.632429, 35.037586 ], [ -114.636893, 35.028367 ], [ -114.638023, 35.020556 ], [ -114.636738467734006, 35.009368476212998 ], [ -114.636674, 35.008807 ], [ -114.633487, 35.001857 ], [ -114.653691062424997, 35.018244085034098 ], [ -114.653752742578007, 35.0182941124934 ], [ -114.675370870427997, 35.035828115898298 ], [ -114.717522, 35.070016 ], [ -114.787878, 35.127253 ], [ -114.827811, 35.159237 ], [ -114.849034517979007, 35.1761603982549 ], [ -114.849453348490002, 35.1764943690671 ], [ -114.887097, 35.206511 ], [ -114.92548, 35.237054 ], [ -114.947620196418995, 35.254800782192802 ], [ -114.948153772976994, 35.255228477899898 ], [ -114.994666, 35.292511 ], [ -115.043266, 35.330606 ], [ -115.084002, 35.363394 ], [ -115.103264, 35.377534 ], [ -115.124157, 35.394335 ], [ -115.147151, 35.412798 ], [ -115.159944, 35.423065 ], [ -115.164904, 35.427867 ], [ -115.225219233508994, 35.475916658908702 ], [ -115.271342, 35.51266 ], [ -115.303743, 35.538207 ], [ -115.369326914710996, 35.589800396728698 ], [ -115.391516320532006, 35.607256305280799 ], [ -115.391535, 35.607271 ], [ -115.393996, 35.609344 ], [ -115.404537, 35.617605 ], [ -115.406079, 35.618613 ], [ -115.412908, 35.624981 ], [ -115.500832, 35.693382 ], [ -115.549827718296001, 35.7320401179404 ], [ -115.621147587326007, 35.788312216898099 ], [ -115.625838, 35.792013 ], [ -115.627386, 35.793846 ], [ -115.647202, 35.808995 ], [ -115.647683, 35.809358 ], [ -115.648020311818001, 35.809629421951698 ], [ -115.669005, 35.826515 ], [ -115.689302, 35.842003 ], [ -115.689542874178997, 35.842188068647097 ], [ -115.750844, 35.889287 ], [ -115.758251255443994, 35.895120039482997 ], [ -115.845983929593004, 35.964207457371501 ], [ -115.852908, 35.96966 ], [ -115.892975, 35.999967 ], [ -115.912858, 36.015359 ], [ -115.962506116070003, 36.053937972959098 ], [ -115.974979125087003, 36.063630100589997 ], [ -116.093601, 36.155805 ], [ -116.097216, 36.158346 ], [ -116.108558026441997, 36.167102995456702 ], [ -116.122076588850007, 36.1775404591843 ], [ -116.123997168120994, 36.1790233074246 ], [ -116.197331934890002, 36.235643896583802 ], [ -116.250869, 36.276979 ], [ -116.375875, 36.372562 ], [ -116.38034, 36.374955 ], [ -116.422301247438, 36.407679118171899 ], [ -116.488233, 36.459097 ], [ -116.500882, 36.468223 ], [ -116.541983, 36.499952 ], [ -116.614603584351002, 36.554980474398903 ], [ -116.710286350581995, 36.627484389081197 ], [ -116.889361378187999, 36.763179050039703 ], [ -116.928004333275993, 36.792460869839999 ], [ -117.000895, 36.847694 ], [ -117.064475841068997, 36.894689332529701 ], [ -117.066728, 36.896354 ], [ -117.131975, 36.945777 ], [ -117.166000489853005, 36.971223964383498 ], [ -117.244917, 37.030244 ], [ -117.266046, 37.04491 ], [ -117.286049617108006, 37.059828726371997 ], [ -117.375905, 37.126843 ], [ -117.479034303217006, 37.204503818882202 ], [ -117.500117, 37.22038 ], [ -117.500909, 37.220282 ], [ -117.540885, 37.249931 ], [ -117.581418, 37.278936 ], [ -117.68061, 37.353399 ], [ -117.712358, 37.374931 ], [ -117.832726, 37.464929 ], [ -117.866144978700007, 37.489944692534898 ], [ -117.875927, 37.497267 ], [ -117.904625, 37.515836 ], [ -117.975438964575005, 37.569039779346603 ], [ -117.975776, 37.569293 ], [ -118.039849, 37.615245 ], [ -118.039798, 37.615273 ], [ -118.052189, 37.62493 ], [ -118.100922930579998, 37.660160700395998 ], [ -118.250947, 37.768616 ], [ -118.427800363847993, 37.896229894581801 ], [ -118.500958, 37.949019 ], [ -118.571958, 37.99993 ], [ -118.62159, 38.034389 ], [ -118.714312, 38.102185 ], [ -118.746598, 38.124926 ], [ -118.771867, 38.141871 ], [ -118.797668618521001, 38.160489166302 ], [ -118.797713397633999, 38.160521478421103 ], [ -118.859087, 38.204808 ], [ -118.922518, 38.249919 ], [ -118.949673, 38.26894 ], [ -118.949709976064995, 38.268965035351499 ], [ -119.000975, 38.303675 ], [ -119.030078, 38.325181 ], [ -119.082358, 38.361267 ], [ -119.097161, 38.372853 ], [ -119.125982, 38.39317 ], [ -119.155569132771006, 38.4137556228129 ], [ -119.234966, 38.468997 ], [ -119.250988, 38.48078 ], [ -119.279262, 38.499914 ], [ -119.329668253590995, 38.535664924566099 ], [ -119.330063278438999, 38.535945098206099 ], [ -119.333423, 38.538328 ], [ -119.370117, 38.563281 ], [ -119.375994, 38.566793 ], [ -119.450623, 38.619965 ], [ -119.450612, 38.619964 ], [ -119.453909730670006, 38.622225539784402 ], [ -119.494022, 38.649734 ], [ -119.494183, 38.649852 ], [ -119.540890787891996, 38.682282418840103 ], [ -119.542730770385006, 38.683559966024397 ], [ -119.546295663909007, 38.686035163316198 ], [ -119.547658852002996, 38.686981659882399 ], [ -119.548520911132002, 38.687580209715001 ], [ -119.548528229363995, 38.687585290951802 ], [ -119.551575735328001, 38.689701252749302 ], [ -119.552575459815003, 38.690395387181802 ], [ -119.585437, 38.713212 ], [ -119.587066, 38.714345 ], [ -119.587679, 38.714734 ], [ -119.619332460231007, 38.736585999999697 ], [ -119.625863, 38.741094365087903 ], [ -119.630755122308003, 38.744471646936098 ], [ -119.634932032912005, 38.747355181622503 ], [ -119.635047, 38.747434549274203 ], [ -119.65664296384, 38.762343345923199 ], [ -119.661352111802003, 38.765594311236498 ], [ -119.677078, 38.776450694911503 ], [ -119.677184272481995, 38.776524060232703 ], [ -119.682228259460999, 38.780006182018198 ], [ -119.682455416322995, 38.780163 ], [ -119.691009, 38.786067975606102 ], [ -119.691120751637001, 38.786145123467698 ], [ -119.779164783796006, 38.846926414886298 ], [ -119.843879064091993, 38.891601987246702 ], [ -119.900597596910004, 38.930757686815497 ], [ -119.904315, 38.933324 ], [ -119.905571734595995, 38.934185008562501 ] ] ] } }
]
}
