{
"type": "FeatureCollection",
"name": "state-35-outline",
"crs": { "type": "name", "properties": { "name": "urn:ogc:def:crs:OGC:1.3:CRS84" } },
"features": [
{ "type": "Feature", "properties": { "state_fips": "35", "state_abbr": "NM", "state_name": "New Mexico" }, "geometry": { "type": "Polygon", "coordinates": [ [ [ -109.049106, 31.843715 ], [ -109.048769, 31.861383 ], [ -109.048591937496994, 31.870689167752499 ], [ -109.04859, 31.870791 ], [ -109.048593139572006, 31.920626478680401 ], [ -109.048598999055997, 32.013636014237797 ], [ -109.048599, 32.013651 ], [ -109.048731, 32.028174 ], [ -109.048309035589, 32.082417282546501 ], [ -109.048296, 32.084093 ], [ -109.048286, 32.089114 ], [ -109.047612, 32.426377 ], [ -109.047647480094994, 32.647047615745002 ], [ -109.047653, 32.681379 ], [ -109.047653, 32.686327 ], [ -109.047645, 32.689988 ], [ -109.047638, 32.693439 ], [ -109.047117, 32.77757 ], [ -109.047117279572007, 32.777794004252002 ], [ -109.047165772631004, 32.816648566905698 ], [ -109.047365205559998, 32.9764421407749 ], [ -109.04748, 33.06842 ], [ -109.047453, 33.069427 ], [ -109.046905, 33.091931 ], [ -109.047013, 33.092917 ], [ -109.047046719674, 33.107391170134697 ], [ -109.047117, 33.137559 ], [ -109.047116, 33.137995 ], [ -109.047236880653003, 33.208894999829802 ], [ -109.047237, 33.208965 ], [ -109.047415074922995, 33.240374970805703 ], [ -109.04747, 33.250063 ], [ -109.046827, 33.365272 ], [ -109.046909, 33.36557 ], [ -109.047045, 33.36928 ], [ -109.04687, 33.372654 ], [ -109.046564, 33.37506 ], [ -109.047298, 33.409783 ], [ -109.046685358782995, 33.6171485661079 ], [ -109.046662, 33.625055 ], [ -109.047145, 33.74001 ], [ -109.046945877251005, 33.777409074143698 ], [ -109.046426, 33.875052 ], [ -109.046579013810998, 33.908028586841297 ], [ -109.046805137709995, 33.9567614060498 ], [ -109.047006, 34.00005 ], [ -109.046882249386996, 34.078496925401602 ], [ -109.046868362466995, 34.087300002149298 ], [ -109.046749674444996, 34.162537693304103 ], [ -109.046742728295996, 34.1669409364711 ], [ -109.046395080561993, 34.387318801361097 ], [ -109.046251577673999, 34.478286918880897 ], [ -109.046182, 34.522393 ], [ -109.046182, 34.522553 ], [ -109.046156, 34.579291 ], [ -109.046113211721007, 34.696485039143703 ], [ -109.046086, 34.771016 ], [ -109.045363, 34.785406 ], [ -109.046104, 34.799981 ], [ -109.045624, 34.814226 ], [ -109.046072, 34.828566 ], [ -109.046023139152993, 34.857562370198004 ], [ -109.046001207114003, 34.870577894189701 ], [ -109.045944617480998, 34.904160896566303 ], [ -109.045851, 34.959718 ], [ -109.045851080673003, 34.959818515320002 ], [ -109.045899431484997, 35.020061344969399 ], [ -109.046017276826007, 35.1668910756255 ], [ -109.046024192748007, 35.175507987806299 ], [ -109.046035905875002, 35.190101990444397 ], [ -109.046048985767001, 35.206398918948899 ], [ -109.046055373710004, 35.214357993835897 ], [ -109.046059589726994, 35.219610952173397 ], [ -109.046071637565007, 35.234621989054503 ], [ -109.046083050335994, 35.248841763452603 ], [ -109.046084, 35.250025 ], [ -109.046168794558994, 35.263551756810301 ], [ -109.046255675319003, 35.277411312483302 ], [ -109.046349251739997, 35.292338985884598 ], [ -109.046440987194998, 35.306972981274299 ], [ -109.046566510782995, 35.326996990529402 ], [ -109.046588331975002, 35.330477991650298 ], [ -109.046625122674996, 35.336346986693698 ], [ -109.046744417873995, 35.355377419332697 ], [ -109.046783588042004, 35.361625996313798 ], [ -109.046789562070003, 35.3625789964766 ], [ -109.046792104787002, 35.362984620509302 ], [ -109.046794221037004, 35.363322212850001 ], [ -109.046796, 35.363606 ], [ -109.046768539509003, 35.379534828535199 ], [ -109.046768531325995, 35.379539575166397 ], [ -109.046721586011998, 35.406770837872301 ], [ -109.046692478815004, 35.4236548600135 ], [ -109.046683821279004, 35.428676780750301 ], [ -109.046668672151995, 35.437464236317901 ], [ -109.046645737351994, 35.450767876438903 ], [ -109.046619928072005, 35.465738897776802 ], [ -109.046596188097993, 35.479509589827998 ], [ -109.046570960812005, 35.494143017171901 ], [ -109.046556741656005, 35.502391030585699 ], [ -109.046546370390999, 35.508407023049898 ], [ -109.046498165315995, 35.536369027022197 ], [ -109.046481, 35.546326 ], [ -109.046509, 35.54644 ], [ -109.046489233401999, 35.552732923853704 ], [ -109.046488416279999, 35.552993064129197 ], [ -109.046466687261002, 35.559910747065302 ], [ -109.046442364778997, 35.567654089096102 ], [ -109.04639829864, 35.581683051195398 ], [ -109.046352661975007, 35.596212008361498 ], [ -109.046309353, 35.609999918831598 ], [ -109.046296, 35.614251 ], [ -109.046295, 35.616517 ], [ -109.046263839201004, 35.646790464157498 ], [ -109.046250670605005, 35.659584070861598 ], [ -109.046249628984, 35.660596030497402 ], [ -109.046247972624997, 35.662205222543399 ], [ -109.046244599934994, 35.665481872225001 ], [ -109.046214021100994, 35.695189942380303 ], [ -109.046199506820997, 35.709290914059601 ], [ -109.046199483668005, 35.7093134074956 ], [ -109.046183194337999, 35.725138882858602 ], [ -109.046150827823993, 35.7565837270554 ], [ -109.046134187006999, 35.772750680076904 ], [ -109.046129325775993, 35.7774734825921 ], [ -109.046099792934996, 35.806165346174602 ], [ -109.046084003147996, 35.821505502632199 ], [ -109.046076563948006, 35.8287328637361 ], [ -109.046074703219006, 35.830540606497799 ], [ -109.046024, 35.8798 ], [ -109.046047670641002, 35.886611799597603 ], [ -109.046055, 35.888721 ], [ -109.046054885052996, 35.8929900016932 ], [ -109.046054445435004, 35.909317001600598 ], [ -109.046054076679994, 35.923012196463901 ], [ -109.046054, 35.92586 ], [ -109.046011, 35.925896 ], [ -109.045987504891002, 35.973159502993703 ], [ -109.045987494716002, 35.9731799714136 ], [ -109.045973, 36.002338 ], [ -109.045972227077996, 36.0027013051401 ], [ -109.045729, 36.117028 ], [ -109.045896927496003, 36.1409680249402 ], [ -109.045897309457004, 36.141022477890502 ], [ -109.045901303202001, 36.141591832814001 ], [ -109.046183, 36.181751 ], [ -109.046020343267998, 36.250588107626498 ], [ -109.046004876650997, 36.257133654030802 ], [ -109.046000527366999, 36.2589742918856 ], [ -109.045982147111005, 36.266752904379103 ], [ -109.045950563453999, 36.280119258889897 ], [ -109.045950499195001, 36.2801464537473 ], [ -109.045877469081006, 36.311053147609599 ], [ -109.045877462229996, 36.311056046937999 ], [ -109.045835225849999, 36.328930685299603 ], [ -109.045754035160002, 36.363290974090901 ], [ -109.045748804615002, 36.365504565728401 ], [ -109.045612584354998, 36.4231536318322 ], [ -109.045512221562007, 36.465627646085203 ], [ -109.045494475509003, 36.473137860620703 ], [ -109.045494076777999, 36.473306605573399 ], [ -109.045431, 36.500001 ], [ -109.0454311461, 36.527364677998101 ], [ -109.045431159545998, 36.529883000853403 ], [ -109.045432436864004, 36.769116999613203 ], [ -109.045432461920996, 36.773809999591698 ], [ -109.045432462383005, 36.773896612257197 ], [ -109.045432713365003, 36.820903999617101 ], [ -109.045432905428996, 36.856876470791498 ], [ -109.045432905911994, 36.856966999450599 ], [ -109.045432958332995, 36.866784999706603 ], [ -109.045432980610002, 36.870957399054802 ], [ -109.045433, 36.874589 ], [ -109.045407, 36.874998 ], [ -109.045406646017994, 36.875244143302197 ], [ -109.045373650608994, 36.898187684415703 ], [ -109.045286570607999, 36.958739246571902 ], [ -109.045286537731997, 36.958762107193699 ], [ -109.045272, 36.968871 ], [ -109.045244, 36.969489 ], [ -109.045229139822993, 36.990431235385699 ], [ -109.045223, 36.999084 ], [ -109.033803815073995, 36.999061387752597 ], [ -109.005109884023994, 36.999004568087202 ], [ -109.004746883467007, 36.999003849274203 ], [ -108.958868, 36.998913 ], [ -108.954404, 36.998906 ], [ -108.749603341609003, 36.999139553482799 ], [ -108.646006153605995, 36.999257695115098 ], [ -108.620309, 36.999287 ], [ -108.619689, 36.999249 ], [ -108.536412308880998, 36.999321700812096 ], [ -108.379302869797996, 36.999458857844303 ], [ -108.320721, 36.99951 ], [ -108.320464, 36.999499 ], [ -108.2884, 36.99952 ], [ -108.288086, 36.999555 ], [ -108.250635, 36.999561 ], [ -108.249838706324994, 36.999220533009598 ], [ -108.249358, 36.999015 ], [ -108.196595304933993, 36.999224154390603 ], [ -108.186841763968999, 36.999262817994001 ], [ -108.186673126928994, 36.999263486480999 ], [ -108.047368367462994, 36.999815698645897 ], [ -108.037842453726, 36.999853459921702 ], [ -108.033460486905994, 36.999870830292899 ], [ -108.000623, 37.000001 ], [ -107.878144002007005, 37.000001845105302 ], [ -107.869547127686999, 37.000001904423698 ], [ -107.867189001876, 37.0000019206948 ], [ -107.866511001855997, 37.000001925372999 ], [ -107.866259286054998, 37.0000019271098 ], [ -107.780576407328994, 37.000002518321899 ], [ -107.766849999597, 37.000002613034098 ], [ -107.712404494354004, 37.000002988708196 ], [ -107.661804503604998, 37.000003337848199 ], [ -107.613802000321996, 37.000003669065599 ], [ -107.601127853150999, 37.000003756517202 ], [ -107.600529000205, 37.0000037606493 ], [ -107.534212984950003, 37.000004218229897 ], [ -107.481736999155004, 37.000004580314297 ], [ -107.478605081658003, 37.000004601924502 ], [ -107.442359998647007, 37.000004852015699 ], [ -107.420913, 37.000005 ], [ -107.410836951806004, 37.000007483698099 ], [ -107.333767990012007, 37.000026480831899 ], [ -107.254955868726995, 37.000045907646303 ], [ -107.244045425300996, 37.000048597018903 ], [ -107.196889008189004, 37.000060220852198 ], [ -106.985514007228005, 37.000112323788102 ], [ -106.963597454587998, 37.000117726114503 ], [ -106.877292, 37.000139 ], [ -106.869796, 36.992426 ], [ -106.781877981448005, 36.992451813771602 ], [ -106.781812086732998, 36.992451833119098 ], [ -106.750591, 36.992461 ], [ -106.707668044537996, 36.992840043507201 ], [ -106.675626, 36.993123 ], [ -106.661344, 36.993243 ], [ -106.628733, 36.993161 ], [ -106.628652, 36.993175 ], [ -106.617125, 36.993004 ], [ -106.617159, 36.992967 ], [ -106.500589, 36.993768 ], [ -106.500032867461996, 36.993769631840202 ], [ -106.476275022520994, 36.993839343649398 ], [ -106.475522858421002, 36.9938415506981 ], [ -106.412053832702, 36.9940277856291 ], [ -106.343139, 36.99423 ], [ -106.339734364893999, 36.994206783475001 ], [ -106.293279, 36.99389 ], [ -106.248675, 36.994288 ], [ -106.247705, 36.994266 ], [ -106.201469, 36.994122 ], [ -106.100010801920007, 36.994757822413099 ], [ -106.006634, 36.995343 ], [ -106.006316634542998, 36.995345563309698 ], [ -105.997472, 36.995417 ], [ -105.996159, 36.995418 ], [ -105.718469674138007, 36.995845920037503 ], [ -105.718463007598004, 36.995845930310701 ], [ -105.716471, 36.995849 ], [ -105.66472, 36.995874 ], [ -105.62747, 36.995679 ], [ -105.547929583826004, 36.995845651575301 ], [ -105.533922, 36.995875 ], [ -105.522324624049006, 36.995821982187699 ], [ -105.512485, 36.995777 ], [ -105.508836, 36.995895 ], [ -105.465182, 36.995991 ], [ -105.447255, 36.996017 ], [ -105.442459, 36.995994 ], [ -105.419665893396001, 36.995858121616003 ], [ -105.41931, 36.995856 ], [ -105.251296, 36.995605 ], [ -105.220613, 36.995169 ], [ -105.220506506712994, 36.995169276334401 ], [ -105.155042271642003, 36.995339146360102 ], [ -105.136447566708, 36.995387396874399 ], [ -105.1208, 36.995428 ], [ -105.029228, 36.992729 ], [ -105.000554, 36.993264 ], [ -104.755368410276006, 36.9934649463396 ], [ -104.73212, 36.993484 ], [ -104.732031, 36.993447 ], [ -104.705788056160998, 36.9934261871092 ], [ -104.645029, 36.993378 ], [ -104.631416324019995, 36.993532403684597 ], [ -104.625545, 36.993599 ], [ -104.624556, 36.994377 ], [ -104.519257, 36.993766 ], [ -104.519194990228996, 36.9937659206078 ], [ -104.480592108, 36.993716496663097 ], [ -104.480578185032996, 36.9937164788373 ], [ -104.468486183088999, 36.993700997235898 ], [ -104.433987103926995, 36.993656827461997 ], [ -104.366369863958994, 36.993570255928098 ], [ -104.338833, 36.993535 ], [ -104.250536, 36.994644 ], [ -104.232262986009999, 36.994764097812798 ], [ -104.215024533719998, 36.994877396057902 ], [ -104.007855, 36.996239 ], [ -103.734364, 36.998041 ], [ -103.733247, 36.998016 ], [ -103.471821814883, 36.999019452492497 ], [ -103.425683721902999, 36.999196548606498 ], [ -103.408134681063004, 36.999263908714802 ], [ -103.155922, 37.000232 ], [ -103.086102011771004, 37.000173863231304 ], [ -103.002199, 37.000104 ], [ -103.002247, 36.911587 ], [ -103.001964, 36.909573 ], [ -103.002143744581005, 36.763514396807302 ], [ -103.002198, 36.719427 ], [ -103.002518, 36.675186 ], [ -103.002252, 36.61718 ], [ -103.002188, 36.602716 ], [ -103.002565, 36.526588 ], [ -103.002434, 36.500397 ], [ -103.041924, 36.500439 ], [ -103.041923915598005, 36.500353102813399 ], [ -103.041745, 36.318267 ], [ -103.041674, 36.317534 ], [ -103.041387166568995, 36.229019565229599 ], [ -103.040824, 36.055231 ], [ -103.041305, 35.837694 ], [ -103.042186, 35.825217 ], [ -103.041716, 35.814072 ], [ -103.041917, 35.796441 ], [ -103.041146, 35.791583 ], [ -103.041271829563996, 35.739432813800804 ], [ -103.041484995686005, 35.651085905415002 ], [ -103.041554, 35.622487 ], [ -103.042050534490002, 35.394747053491798 ], [ -103.042050683906993, 35.394678522065099 ], [ -103.042366, 35.250056 ], [ -103.042775, 35.241237 ], [ -103.042497, 35.211862 ], [ -103.042377, 35.183149 ], [ -103.042366, 35.182786 ], [ -103.042339, 35.181922 ], [ -103.042395, 35.178573 ], [ -103.042568, 35.159318 ], [ -103.042711, 35.144735 ], [ -103.0426, 35.142766 ], [ -103.04252, 35.135596 ], [ -103.043261, 35.125058 ], [ -103.042642, 35.109913 ], [ -103.042617639748002, 35.067560990429101 ], [ -103.042612809138006, 35.059162635442298 ], [ -103.042552402864004, 34.954142085470899 ], [ -103.042521, 34.899546 ], [ -103.042781, 34.850243 ], [ -103.042775480950993, 34.8211330279686 ], [ -103.04277, 34.792224 ], [ -103.042769, 34.747361 ], [ -103.042800237601995, 34.706335795357703 ], [ -103.042827, 34.671188 ], [ -103.043286, 34.653099 ], [ -103.043277470411994, 34.651771054786799 ], [ -103.043277454332994, 34.651768551522501 ], [ -103.043268998041995, 34.6504520175788 ], [ -103.043072, 34.619782 ], [ -103.043386657767002, 34.525070012152 ], [ -103.043594, 34.46266 ], [ -103.043589, 34.459774 ], [ -103.043588, 34.459662 ], [ -103.043582, 34.455657 ], [ -103.043575550184997, 34.448299226558603 ], [ -103.043549915640995, 34.4190560386443 ], [ -103.043538, 34.405463 ], [ -103.043583, 34.400678 ], [ -103.043610217744003, 34.3972048214656 ], [ -103.043611, 34.397105 ], [ -103.043585, 34.393716 ], [ -103.043606062015996, 34.391253248544999 ], [ -103.043612422947007, 34.390509473989802 ], [ -103.043613, 34.390442 ], [ -103.043613, 34.388679 ], [ -103.043614, 34.384969 ], [ -103.04363, 34.38469 ], [ -103.043693, 34.383578 ], [ -103.043776222217005, 34.382597745387301 ], [ -103.043919, 34.380916 ], [ -103.043944, 34.37966 ], [ -103.043946, 34.379555 ], [ -103.043947462899993, 34.376594133629901 ], [ -103.043947594325999, 34.376328131718502 ], [ -103.043955125638007, 34.361084985692401 ], [ -103.043979, 34.312764 ], [ -103.043978936987003, 34.312749083575 ], [ -103.043936266136001, 34.302648 ], [ -103.043936, 34.302585 ], [ -103.043719, 34.289441 ], [ -103.043644, 34.256903 ], [ -103.043625133872993, 34.214402396072202 ], [ -103.043605809335006, 34.170869106621197 ], [ -103.043580047453005, 34.112834113618 ], [ -103.043569, 34.087947 ], [ -103.043516, 34.079382 ], [ -103.043529825066003, 34.078056094885298 ], [ -103.043686, 34.063078 ], [ -103.043744, 34.049986 ], [ -103.043767, 34.043545 ], [ -103.043721, 34.04232 ], [ -103.043771, 34.041538 ], [ -103.043746, 34.037294 ], [ -103.043555, 34.032714 ], [ -103.043531, 34.018014 ], [ -103.043571877651004, 34.011178401257098 ], [ -103.043617, 34.003633 ], [ -103.04395, 33.974629 ], [ -103.044893, 33.945617 ], [ -103.045698, 33.906299 ], [ -103.045644, 33.901537 ], [ -103.046907, 33.8503 ], [ -103.047346, 33.824675 ], [ -103.047978426841993, 33.7963404705621 ], [ -103.049096, 33.74627 ], [ -103.049608, 33.737766 ], [ -103.049956532261007, 33.714662829094003 ], [ -103.050148, 33.701971 ], [ -103.050532, 33.672408 ], [ -103.051087, 33.658186 ], [ -103.051535, 33.650487 ], [ -103.051363, 33.64195 ], [ -103.051664, 33.629489 ], [ -103.05261, 33.570599 ], [ -103.052610538094001, 33.5705747676868 ], [ -103.056655, 33.388438 ], [ -103.056655304752994, 33.388416403174197 ], [ -103.057487, 33.329477 ], [ -103.057856, 33.315234 ], [ -103.059242, 33.260371 ], [ -103.05972, 33.256262 ], [ -103.060103, 33.219225 ], [ -103.061161622041993, 33.169894103857402 ], [ -103.061784167753004, 33.140883997705899 ], [ -103.062891682924999, 33.089274722838702 ], [ -103.063386467328996, 33.066218186051699 ], [ -103.063905, 33.042055 ], [ -103.06398, 33.038693 ], [ -103.063998336845998, 33.037589564763998 ], [ -103.064216230317001, 33.024477640498901 ], [ -103.064452, 33.01029 ], [ -103.064625, 32.999899 ], [ -103.064679, 32.964373 ], [ -103.064657, 32.959097 ], [ -103.064569, 32.900014 ], [ -103.064569836801994, 32.899883034147699 ], [ -103.064701, 32.879355 ], [ -103.064862, 32.868346 ], [ -103.064807, 32.857696 ], [ -103.064916, 32.85726 ], [ -103.064889, 32.849359 ], [ -103.064672, 32.82847 ], [ -103.064699, 32.827531 ], [ -103.064707152224997, 32.798360981317899 ], [ -103.064711, 32.784593 ], [ -103.064698, 32.783602 ], [ -103.064807, 32.777303 ], [ -103.064821217266996, 32.74128 ], [ -103.064826868943996, 32.726960061517097 ], [ -103.064826872699001, 32.726950547661403 ], [ -103.064827, 32.726628 ], [ -103.064807003376998, 32.713820162719301 ], [ -103.064799, 32.708694 ], [ -103.064798, 32.690761 ], [ -103.064864, 32.682647 ], [ -103.064633, 32.64642 ], [ -103.064815, 32.624537 ], [ -103.064761, 32.601863 ], [ -103.064788, 32.600397 ], [ -103.064761, 32.587983 ], [ -103.064735532948006, 32.562206425458001 ], [ -103.064725713734006, 32.552267869715898 ], [ -103.064712043390998, 32.538431379830897 ], [ -103.064696, 32.522193 ], [ -103.064695803863998, 32.5219230001425 ], [ -103.064559766108005, 32.334654120030898 ], [ -103.064513353785003, 32.270763153746202 ], [ -103.064422, 32.145006 ], [ -103.064348, 32.123041 ], [ -103.064344, 32.087051 ], [ -103.064423, 32.000518 ], [ -103.085876, 32.000465 ], [ -103.088698, 32.000453 ], [ -103.165128923371, 32.000489125311397 ], [ -103.215641, 32.000513 ], [ -103.267633, 32.000475 ], [ -103.267708, 32.000324 ], [ -103.270383, 32.000326 ], [ -103.278521, 32.000419 ], [ -103.326501, 32.00037 ], [ -103.722882014869995, 32.000208371388098 ], [ -103.748317, 32.000198 ], [ -103.875476, 32.000554 ], [ -103.980179, 32.000125 ], [ -104.024521, 32.00001 ], [ -104.329638023971, 32.000074363700399 ], [ -104.531756, 32.000117 ], [ -104.66646, 32.000412 ], [ -104.754556, 32.000527 ], [ -104.754787, 31.997773 ], [ -104.772106, 31.997486 ], [ -104.832893, 32.000007 ], [ -104.847741610843997, 32.000077969148897 ], [ -104.918359749141999, 32.000415489555998 ], [ -104.918885, 32.000418 ], [ -105.077046, 32.000579 ], [ -105.078605, 32.000533 ], [ -105.11804, 32.000485 ], [ -105.131377, 32.000524 ], [ -105.132916, 32.000518 ], [ -105.14824, 32.000485 ], [ -105.15031, 32.000497 ], [ -105.153994, 32.000497 ], [ -105.390396, 32.000607 ], [ -105.427049, 32.000638 ], [ -105.428582, 32.0006 ], [ -105.429281, 32.000577 ], [ -105.473262033978003, 32.000720700797302 ], [ -105.731362, 32.001564 ], [ -105.750527, 32.002206 ], [ -105.854061, 32.00235 ], [ -105.886159, 32.00197 ], [ -105.9006, 32.0021 ], [ -105.998003, 32.002328 ], [ -106.099737346294006, 32.002491533109499 ], [ -106.125534, 32.002533 ], [ -106.18184, 32.00205 ], [ -106.200682849112994, 32.001785226946602 ], [ -106.200699, 32.001785 ], [ -106.205915, 32.001762 ], [ -106.267860017968999, 32.001617796944899 ], [ -106.313307, 32.001512 ], [ -106.323369075398006, 32.001458170097301 ], [ -106.323469336526003, 32.001457633722197 ], [ -106.326502039229993, 32.001441409426 ], [ -106.327377040936, 32.0014367283583 ], [ -106.340645302761004, 32.001365746059498 ], [ -106.356808566918005, 32.001279276131299 ], [ -106.360959545230003, 32.001257069305197 ], [ -106.376861, 32.001172 ], [ -106.377179820505006, 32.0011777046509 ], [ -106.394298, 32.001484 ], [ -106.408964681989005, 32.0013528679562 ], [ -106.411075, 32.001334 ], [ -106.411089898857995, 32.0013339421712 ], [ -106.443916071922004, 32.001206529736997 ], [ -106.462788584465997, 32.001133277434398 ], [ -106.476664052092005, 32.001079420802903 ], [ -106.513986530032994, 32.0009345562842 ], [ -106.517061631199994, 32.0009226204998 ], [ -106.562214799928995, 32.000747361716897 ], [ -106.565142, 32.000736 ], [ -106.566056, 32.000759 ], [ -106.570448009123993, 32.000756995980502 ], [ -106.582131596828006, 32.000751664903802 ], [ -106.582636656977002, 32.000751434451097 ], [ -106.582639021187006, 32.000751433372301 ], [ -106.587972, 32.000749 ], [ -106.591890839803, 32.000764438982998 ], [ -106.595333, 32.000778 ], [ -106.598587847317006, 32.0007543713443 ], [ -106.598639, 32.000754 ], [ -106.599096, 32.000731 ], [ -106.607003960449006, 32.000634750455603 ], [ -106.618486, 32.000495 ], [ -106.618582490047999, 31.999917062725899 ], [ -106.619448, 31.994733 ], [ -106.623568, 31.990999 ], [ -106.626910882874995, 31.990476537349402 ], [ -106.629395469947994, 31.9900882186448 ], [ -106.629738267253998, 31.990034642496401 ], [ -106.631182, 31.989809 ], [ -106.636492, 31.985719 ], [ -106.639529, 31.980348 ], [ -106.638186, 31.97682 ], [ -106.630114, 31.971258 ], [ -106.626466, 31.97069 ], [ -106.623216, 31.97291 ], [ -106.621873, 31.972933 ], [ -106.619569, 31.971578 ], [ -106.618745, 31.966955 ], [ -106.619371, 31.964777 ], [ -106.620454, 31.963403 ], [ -106.624299, 31.961054 ], [ -106.625479651191, 31.957636224950299 ], [ -106.625535, 31.957476 ], [ -106.625123, 31.954531 ], [ -106.622819, 31.952891 ], [ -106.617708, 31.956008 ], [ -106.614702, 31.956 ], [ -106.616136, 31.948439 ], [ -106.623659, 31.94551 ], [ -106.622377, 31.940863 ], [ -106.622117, 31.936621 ], [ -106.622529, 31.934863 ], [ -106.624063688275001, 31.9322200173285 ], [ -106.625322, 31.930053 ], [ -106.629747, 31.92657 ], [ -106.628663, 31.923614 ], [ -106.623933, 31.925335 ], [ -106.616219945086996, 31.9219325007201 ], [ -106.611846, 31.920003 ], [ -106.614346, 31.918003 ], [ -106.614773615005006, 31.917816473573499 ], [ -106.618870841296001, 31.916029256170599 ], [ -106.623445, 31.914034 ], [ -106.625947, 31.912227 ], [ -106.633668, 31.90979 ], [ -106.64084, 31.904598 ], [ -106.645479, 31.89867 ], [ -106.645646, 31.895649 ], [ -106.645296, 31.894859 ], [ -106.6429, 31.892933 ], [ -106.638154, 31.891663 ], [ -106.633927, 31.889184 ], [ -106.630692, 31.886411 ], [ -106.630370691536996, 31.885832 ], [ -106.630352870140001, 31.885799885723898 ], [ -106.629197, 31.883717 ], [ -106.630256993624002, 31.8810570909056 ], [ -106.630799, 31.879697 ], [ -106.631315897573003, 31.879034828072498 ], [ -106.631344967302994, 31.878997588278001 ], [ -106.634873, 31.874478 ], [ -106.63588, 31.871514 ], [ -106.635926, 31.866235 ], [ -106.633548142476002, 31.864582391949899 ], [ -106.629701387774006, 31.8619089021707 ], [ -106.627808, 31.860593 ], [ -106.625763, 31.856276 ], [ -106.621857, 31.852854 ], [ -106.614637, 31.84649 ], [ -106.612810724433999, 31.8464515717721 ], [ -106.605845, 31.846305 ], [ -106.605746, 31.846239 ], [ -106.605245, 31.845905 ], [ -106.602045, 31.844405 ], [ -106.601945, 31.839605 ], [ -106.603424989632998, 31.834395632517801 ], [ -106.605267, 31.827912 ], [ -106.602727, 31.825024 ], [ -106.601232944887002, 31.8250033541424 ], [ -106.593826, 31.824901 ], [ -106.590129357199999, 31.823203838120499 ], [ -106.589045, 31.822706 ], [ -106.588045, 31.822106 ], [ -106.582144, 31.815506 ], [ -106.581344, 31.813906 ], [ -106.577244, 31.810406 ], [ -106.570944, 31.810206 ], [ -106.569009504541995, 31.8116686672975 ], [ -106.566844, 31.813306 ], [ -106.563444, 31.812606 ], [ -106.562945, 31.811104 ], [ -106.558444, 31.810406 ], [ -106.550827224242994, 31.808315767998 ], [ -106.548532193957001, 31.807685954819501 ], [ -106.547144, 31.807305 ], [ -106.546576524958994, 31.806580523530901 ], [ -106.545344, 31.805007 ], [ -106.544714, 31.804287 ], [ -106.542144, 31.802107 ], [ -106.542097, 31.802146 ], [ -106.535843, 31.798607 ], [ -106.535343, 31.797507 ], [ -106.535154, 31.797089 ], [ -106.534743, 31.796107 ], [ -106.533043, 31.791907 ], [ -106.533, 31.791829 ], [ -106.53248, 31.791914 ], [ -106.530515, 31.792103 ], [ -106.527943, 31.790507 ], [ -106.527738, 31.789761 ], [ -106.527623, 31.789119 ], [ -106.527997, 31.786945 ], [ -106.528124, 31.784985 ], [ -106.528041, 31.78398 ], [ -106.528242, 31.783148 ], [ -106.531696, 31.783904 ], [ -106.569310996352996, 31.783869968767402 ], [ -106.599576979722002, 31.783842586371598 ], [ -106.601788977007004, 31.7838405851221 ], [ -106.750547, 31.783706 ], [ -106.750547, 31.783898 ], [ -106.993544, 31.783689 ], [ -106.998235, 31.783671 ], [ -107.00056, 31.783679 ], [ -107.00056, 31.783513 ], [ -107.296793744203001, 31.783761974571 ], [ -107.296824, 31.783762 ], [ -107.422246, 31.783599 ], [ -107.422495, 31.783599 ], [ -107.620553, 31.783599 ], [ -107.627934, 31.783599 ], [ -107.640253, 31.783599 ], [ -107.865857, 31.783599 ], [ -108.208394, 31.783599 ], [ -108.208087, 31.613489 ], [ -108.208521, 31.499798 ], [ -108.208572, 31.499742 ], [ -108.208573, 31.333395 ], [ -108.707657, 31.333191 ], [ -108.788711, 31.332365 ], [ -108.851105, 31.332301 ], [ -108.861028, 31.332315 ], [ -109.050044, 31.332502 ], [ -109.050173, 31.480004 ], [ -109.049843, 31.499515 ], [ -109.049813, 31.499528 ], [ -109.049542012250996, 31.552515575943598 ], [ -109.049112, 31.636598 ], [ -109.049195, 31.796551 ], [ -109.048763, 31.810776 ], [ -109.048772775906002, 31.8117148005187 ], [ -109.049084802023998, 31.841679314457199 ], [ -109.049106, 31.843715 ] ] ] } }
]
}
