{
"type": "FeatureCollection",
"name": "state-31-outline",
"crs": { "type": "name", "properties": { "name": "urn:ogc:def:crs:OGC:1.3:CRS84" } },
"features": [
{ "type": "Feature", "properties": { "state_fips": "31", "state_abbr": "NE", "state_name": "Nebraska" }, "geometry": { "type": "Polygon", "coordinates": [ [ [ -99.731959, 40.001827 ], [ -99.741160349697196, 40.0018226091453 ], [ -99.746628, 40.00182 ], [ -99.756835, 40.001342 ], [ -99.764214, 40.001551 ], [ -99.772121, 40.001804 ], [ -99.77564, 40.001647 ], [ -99.813401, 40.0014 ], [ -99.832215481070406, 40.001422595857498 ], [ -99.850080901053701, 40.001444051909402 ], [ -99.854601174766103, 40.001449480677799 ], [ -99.906658, 40.001512 ], [ -99.930433, 40.001516 ], [ -99.944417, 40.001584 ], [ -99.948167, 40.001813 ], [ -99.957698998566499, 40.001747790458303 ], [ -99.986611, 40.00155 ], [ -99.990926, 40.001503 ], [ -100.032247054945998, 40.001522898098699 ], [ -100.042975064497, 40.001528064157299 ], [ -100.080715024444004, 40.001546237784503 ], [ -100.099189029792001, 40.001555133917002 ], [ -100.127210044962993, 40.001568627399301 ], [ -100.131523507268, 40.001570704541301 ], [ -100.137250032522999, 40.001573462141899 ], [ -100.145890034852997, 40.001577622723403 ], [ -100.177794883236004, 40.001592986460402 ], [ -100.177823, 40.001593 ], [ -100.188181, 40.001541 ], [ -100.190323, 40.001586 ], [ -100.19359, 40.001573 ], [ -100.196959, 40.001494 ], [ -100.215406, 40.001629 ], [ -100.229479, 40.001693 ], [ -100.231652, 40.001623 ], [ -100.290114922095995, 40.001691637510497 ], [ -100.307189232831007, 40.001711683347096 ], [ -100.39008, 40.001809 ], [ -100.40245092792, 40.001800163803203 ], [ -100.420010724232, 40.001787621347503 ], [ -100.439081, 40.001774 ], [ -100.447072, 40.001795 ], [ -100.457549388275993, 40.001760720724 ], [ -100.463463171906994, 40.0017413723697 ], [ -100.468773, 40.001724 ], [ -100.475854, 40.001768 ], [ -100.477018, 40.001752 ], [ -100.487159, 40.001767 ], [ -100.511065, 40.00184 ], [ -100.514415939423003, 40.001844022342198 ], [ -100.532916063344004, 40.001866229198299 ], [ -100.551780028961005, 40.0018888727963 ], [ -100.551886, 40.001889 ], [ -100.567238, 40.001889 ], [ -100.594757, 40.001977 ], [ -100.599342975479999, 40.001924381341503 ], [ -100.600945, 40.001906 ], [ -100.608894334389007, 40.001901891355303 ], [ -100.626769823933998, 40.001892652338199 ], [ -100.627121902040997, 40.001892470365199 ], [ -100.645445, 40.001883 ], [ -100.645917008652006, 40.001891907028302 ], [ -100.66023, 40.002162 ], [ -100.665095842903995, 40.002177097637997 ], [ -100.683435, 40.002234 ], [ -100.6916442797, 40.002198064119298 ], [ -100.702721168408004, 40.002149575364498 ], [ -100.721128, 40.002069 ], [ -100.729904, 40.002111 ], [ -100.733296, 40.00227 ], [ -100.738825845251995, 40.002228424417503 ], [ -100.749622287449, 40.0021472524584 ], [ -100.752183, 40.002128 ], [ -100.75883, 40.002302 ], [ -100.871047256419004, 40.002203352714403 ], [ -100.937427, 40.002145 ], [ -100.962267826122002, 40.002175549105303 ], [ -100.984844104147001, 40.002203313282401 ], [ -101.027686, 40.002256 ], [ -101.060317, 40.002307 ], [ -101.098029118811993, 40.002371108999199 ], [ -101.130907, 40.002427 ], [ -101.168704, 40.002547 ], [ -101.178805, 40.002468 ], [ -101.186891998514994, 40.002481866182002 ], [ -101.192219, 40.002491 ], [ -101.210263053318997, 40.002541618892501 ], [ -101.215033, 40.002555 ], [ -101.248673, 40.002543 ], [ -101.286555, 40.002559 ], [ -101.293991, 40.002559 ], [ -101.324036, 40.002696 ], [ -101.342859, 40.00258 ], [ -101.374326, 40.002521 ], [ -101.409953, 40.002354 ], [ -101.411042549952995, 40.002364511093802 ], [ -101.417209, 40.002424 ], [ -101.531311103864994, 40.002592784695999 ], [ -101.542273, 40.002609 ], [ -101.579637359187998, 40.002654623020497 ], [ -101.597806045257002, 40.002676807539501 ], [ -101.625809, 40.002711 ], [ -101.627071, 40.00262 ], [ -101.748481056436006, 40.0027101402627 ], [ -101.783414597765997, 40.002736076488098 ], [ -101.804862, 40.002752 ], [ -101.807687, 40.002798 ], [ -101.812806131076002, 40.0028262374232 ], [ -101.832161, 40.002933 ], [ -101.841025, 40.002784 ], [ -101.861740696376003, 40.002907996979097 ], [ -101.904176, 40.003162 ], [ -101.916696, 40.003142 ], [ -102.051744, 40.003078 ], [ -102.051852724175006, 40.064539310800299 ], [ -102.052001, 40.148359 ], [ -102.051909, 40.162674 ], [ -102.051894, 40.229193 ], [ -102.051922, 40.235344 ], [ -102.051740446915005, 40.265860615438697 ], [ -102.051309, 40.338381 ], [ -102.051553251675998, 40.349213986395299 ], [ -102.051798, 40.360069 ], [ -102.051572, 40.39308 ], [ -102.05184, 40.396396 ], [ -102.051838622543002, 40.396556196416903 ], [ -102.051465, 40.440008 ], [ -102.051519, 40.520094 ], [ -102.051725, 40.537839 ], [ -102.051502304051994, 40.6467450333393 ], [ -102.051398432507, 40.697541816873397 ], [ -102.051292, 40.749591 ], [ -102.051300072993001, 40.755928700729903 ], [ -102.051318769483004, 40.770606373931003 ], [ -102.051429902476002, 40.857851296065299 ], [ -102.051559553748007, 40.959633987133202 ], [ -102.051614, 41.002377 ], [ -102.051717530057999, 41.002377250862999 ], [ -102.070598, 41.002423 ], [ -102.124972, 41.002338 ], [ -102.19121, 41.002326 ], [ -102.20908406209, 41.002440230136202 ], [ -102.209361, 41.002442 ], [ -102.2122, 41.002462 ], [ -102.231931, 41.002327 ], [ -102.233078774700999, 41.002328791348702 ], [ -102.240179012683996, 41.002339872793698 ], [ -102.259839042831004, 41.002370556489502 ], [ -102.267812, 41.002383 ], [ -102.2721, 41.002245 ], [ -102.277862204233003, 41.002233627622303 ], [ -102.291354, 41.002207 ], [ -102.292553, 41.002207 ], [ -102.292622, 41.00223 ], [ -102.292833, 41.002207 ], [ -102.344872066294997, 41.002182891943498 ], [ -102.364066, 41.002174 ], [ -102.379593, 41.002301 ], [ -102.380219188199007, 41.002301859323303 ], [ -102.469223, 41.002424 ], [ -102.470537, 41.002382 ], [ -102.487955, 41.002445 ], [ -102.556789, 41.002219 ], [ -102.566048, 41.0022 ], [ -102.575496, 41.0022 ], [ -102.575738, 41.002268 ], [ -102.578696, 41.002291 ], [ -102.621033, 41.002597 ], [ -102.653463, 41.002332 ], [ -102.735703727631005, 41.002234640937097 ], [ -102.739624, 41.00223 ], [ -102.754617, 41.002361 ], [ -102.766723, 41.002275 ], [ -102.773546, 41.002414 ], [ -102.792814999089998, 41.002316819467097 ], [ -102.82728, 41.002143 ], [ -102.830303, 41.002351 ], [ -102.846455, 41.002256 ], [ -102.849263, 41.002301 ], [ -102.865784, 41.001988 ], [ -102.867822, 41.002183 ], [ -102.885590018835003, 41.002131452522903 ], [ -102.885746, 41.002131 ], [ -102.887407, 41.002178 ], [ -102.904796, 41.002207 ], [ -102.904874916861004, 41.0022101098021 ], [ -102.906547, 41.002276 ], [ -102.924029, 41.002142 ], [ -102.925568, 41.00228 ], [ -102.943109, 41.002051 ], [ -102.94483, 41.002303 ], [ -102.959624, 41.002095 ], [ -102.960706, 41.002059 ], [ -102.962522, 41.002072 ], [ -102.963669, 41.002186 ], [ -102.981483, 41.002112 ], [ -102.98269, 41.002157 ], [ -103.000102, 41.0024 ], [ -103.002026, 41.002486 ], [ -103.038704, 41.002251 ], [ -103.043444, 41.002344 ], [ -103.057998, 41.002368 ], [ -103.059538, 41.002368 ], [ -103.076536, 41.002253 ], [ -103.077804, 41.002298 ], [ -103.306245438101001, 41.0019343201091 ], [ -103.362979, 41.001844 ], [ -103.365314, 41.001846 ], [ -103.382492446889003, 41.00223211782 ], [ -103.396991, 41.002558 ], [ -103.421925, 41.001969 ], [ -103.421975, 41.002007 ], [ -103.486697, 41.001914 ], [ -103.497447, 41.001635 ], [ -103.534888759756001, 41.001676777377099 ], [ -103.573773995351999, 41.001720165379197 ], [ -103.574522, 41.001721 ], [ -103.591595351783994, 41.001753307963298 ], [ -103.750498, 41.002054 ], [ -103.76333905125, 41.002009630683197 ], [ -103.858449, 41.001681 ], [ -103.877967, 41.001673 ], [ -103.878254416545005, 41.001674213326403 ], [ -103.896207, 41.00175 ], [ -103.906324, 41.001387 ], [ -103.914844319284995, 41.001424726885702 ], [ -103.953525, 41.001596 ], [ -103.971373, 41.001524 ], [ -103.972642, 41.001615 ], [ -104.010959930078002, 41.001616681311503 ], [ -104.018223, 41.001617 ], [ -104.023383, 41.001887 ], [ -104.039238, 41.001502 ], [ -104.053249, 41.001406 ], [ -104.053158, 41.016809 ], [ -104.053097, 41.018045 ], [ -104.053177, 41.089725 ], [ -104.053025, 41.090274 ], [ -104.053083, 41.104985 ], [ -104.053142, 41.114457 ], [ -104.053514, 41.157257 ], [ -104.053418545070997, 41.170538967983298 ], [ -104.053207191563004, 41.199947512673901 ], [ -104.053201909275003, 41.200682510645102 ], [ -104.052666, 41.275251 ], [ -104.052574, 41.278019 ], [ -104.052453, 41.278202 ], [ -104.052568, 41.316202 ], [ -104.052476, 41.320961 ], [ -104.052324, 41.321144 ], [ -104.052687, 41.330569 ], [ -104.052287592918006, 41.393214003780301 ], [ -104.052287, 41.393307 ], [ -104.05216, 41.407662 ], [ -104.05234, 41.417865 ], [ -104.052478, 41.515754 ], [ -104.052476, 41.522343 ], [ -104.052686, 41.539111 ], [ -104.052692, 41.541154 ], [ -104.052584, 41.55265 ], [ -104.052531, 41.552723 ], [ -104.05254, 41.564274 ], [ -104.052859, 41.592254 ], [ -104.052735, 41.613676 ], [ -104.052975, 41.622931 ], [ -104.052945, 41.638167 ], [ -104.052913, 41.64519 ], [ -104.052830062292998, 41.6978232238571 ], [ -104.052774, 41.733401 ], [ -104.052899740949002, 41.809276182491999 ], [ -104.052978643103998, 41.856887684064702 ], [ -104.053026, 41.885464 ], [ -104.052931, 41.906143 ], [ -104.052991, 41.914973 ], [ -104.052734, 41.973007 ], [ -104.052856, 41.975958 ], [ -104.052855953846006, 41.975991092752103 ], [ -104.052836336652007, 41.990056620706099 ], [ -104.052836315147005, 41.990072039491103 ], [ -104.052830917701002, 41.993942008253399 ], [ -104.05283, 41.9946 ], [ -104.052761, 41.994967 ], [ -104.052699, 41.998673 ], [ -104.052704275541004, 42.0017758975196 ], [ -104.052706364767005, 42.003004710767101 ], [ -104.052729, 42.016318 ], [ -104.05288, 42.021761 ], [ -104.052967, 42.075004 ], [ -104.052966926101007, 42.075083999008001 ], [ -104.052955947390004, 42.086968875562199 ], [ -104.052954, 42.089077 ], [ -104.052885042455003, 42.096067425001102 ], [ -104.0526, 42.124963 ], [ -104.052738, 42.133769 ], [ -104.053001, 42.137254 ], [ -104.052547, 42.166801 ], [ -104.052761, 42.170278 ], [ -104.053125, 42.249962 ], [ -104.052793, 42.249962 ], [ -104.052776, 42.25822 ], [ -104.052779690022007, 42.260914986732203 ], [ -104.053107, 42.499964 ], [ -104.052775, 42.610813 ], [ -104.052775, 42.61159 ], [ -104.052773275294996, 42.611766367052901 ], [ -104.052586, 42.630917 ], [ -104.052741, 42.633982 ], [ -104.052583, 42.650062 ], [ -104.052583308153004, 42.650198219820098 ], [ -104.052809, 42.749966 ], [ -104.052863, 42.754569 ], [ -104.053028, 43.000587 ], [ -103.991077, 43.001691 ], [ -103.96627, 43.001708 ], [ -103.924921, 43.000918 ], [ -103.815573, 43.001279 ], [ -103.813939, 43.001378 ], [ -103.715084, 43.000983 ], [ -103.654242951533007, 43.001399927316797 ], [ -103.652919, 43.001409 ], [ -103.618334, 43.000679 ], [ -103.576966, 43.000746 ], [ -103.576329, 43.000807 ], [ -103.543351071725994, 43.0007899847446 ], [ -103.506556, 43.000771 ], [ -103.506151, 43.000771 ], [ -103.505219, 43.00077 ], [ -103.505099999706999, 43.000769960979603 ], [ -103.404579, 43.000737 ], [ -103.346848865441999, 43.0008655910448 ], [ -103.340829, 43.000879 ], [ -103.324620073760002, 43.000871592397303 ], [ -103.132955, 43.000784 ], [ -103.13174, 43.000783 ], [ -103.000609657376003, 43.000472962679503 ], [ -102.792111, 42.99998 ], [ -102.758236688104006, 42.999933208899101 ], [ -102.743198078150996, 42.9999124358391 ], [ -102.713747896599997, 42.999871755856503 ], [ -102.694191776761997, 42.999844742691501 ], [ -102.575975885147002, 42.999681449287202 ], [ -102.556394481173001, 42.9996544011968 ], [ -102.556079351755997, 42.999653965903804 ], [ -102.554466190984002, 42.999651737620297 ], [ -102.552915007164998, 42.999649594946597 ], [ -102.487329, 42.999559 ], [ -102.440547, 42.999609 ], [ -102.440509980722993, 42.999608973838399 ], [ -102.405551010411003, 42.999584268266403 ], [ -102.358759749201994, 42.999551200791501 ], [ -102.357797707746997, 42.999550520914902 ], [ -102.354505016824007, 42.999548193963903 ], [ -102.082546, 42.999356 ], [ -102.082486038791004, 42.999355993038698 ], [ -101.849982, 42.999329 ], [ -101.713904141632, 42.996626576272 ], [ -101.713822844427995, 42.996624961758798 ], [ -101.713573, 42.99662 ], [ -101.625424, 42.996238 ], [ -101.514084709306005, 42.997019156463502 ], [ -101.500424, 42.997115 ], [ -101.490161130008005, 42.997144789410797 ], [ -101.422165374895002, 42.997342156568799 ], [ -101.230325, 42.997899 ], [ -101.229203, 42.997854 ], [ -101.228008341597999, 42.997875351341598 ], [ -101.226853, 42.997896 ], [ -101.226494, 42.997901 ], [ -101.140807011446995, 42.9979285735754 ], [ -101.043147, 42.99796 ], [ -101.000429, 42.99753 ], [ -100.96419, 42.997886 ], [ -100.964169982461001, 42.997885690716103 ], [ -100.958365, 42.997796 ], [ -100.907004777870995, 42.997909358218102 ], [ -100.906915888495007, 42.997909554407698 ], [ -100.906714, 42.99791 ], [ -100.89721754544, 42.997895363670203 ], [ -100.887898, 42.997881 ], [ -100.887508189765001, 42.997888347708198 ], [ -100.867473, 42.998266 ], [ -100.848180865844995, 42.998251760752702 ], [ -100.807759926246007, 42.998221926637498 ], [ -100.747883004626004, 42.998177732341297 ], [ -100.671280468763001, 42.998121193109299 ], [ -100.631728, 42.998092 ], [ -100.625414, 42.998584 ], [ -100.553131, 42.998721 ], [ -100.544018, 42.998795 ], [ -100.534335, 42.999017 ], [ -100.472742, 42.999288 ], [ -100.413360167451003, 42.999020787826502 ], [ -100.355406, 42.99876 ], [ -100.349548, 42.99874 ], [ -100.283713, 42.998767 ], [ -100.277793, 42.998674 ], [ -100.198434, 42.998542 ], [ -100.198412591427996, 42.998542050575203 ], [ -100.198411901919002, 42.998542052204101 ], [ -100.126911, 42.998710964564303 ], [ -100.126896, 42.998711 ], [ -100.126427, 42.99871 ], [ -100.119297, 42.998689 ], [ -100.034389, 42.998425 ], [ -100.027815, 42.998424 ], [ -100.008473226868006, 42.998397157397001 ], [ -100.004757, 42.998392 ], [ -99.962984114853299, 42.9983373297258 ], [ -99.961204, 42.998335 ], [ -99.950921, 42.998291 ], [ -99.950411, 42.998286 ], [ -99.927645, 42.998113 ], [ -99.918401, 42.998057 ], [ -99.889653999863597, 42.998083131068299 ], [ -99.877697, 42.998094 ], [ -99.869885, 42.998094 ], [ -99.859945, 42.997962 ], [ -99.850790786517095, 42.9981550995779 ], [ -99.850037, 42.998171 ], [ -99.849946283498795, 42.998170433203001 ], [ -99.821868, 42.997995 ], [ -99.809373, 42.998178 ], [ -99.803328, 42.998064 ], [ -99.800306, 42.997972 ], [ -99.788247, 42.998016 ], [ -99.7708180027238, 42.998112322096198 ], [ -99.768524, 42.998125 ], [ -99.743138, 42.997912 ], [ -99.726788, 42.997892 ], [ -99.719177, 42.997899 ], [ -99.701446, 42.997994 ], [ -99.699234, 42.99788 ], [ -99.670015032614302, 42.997905856100502 ], [ -99.652422036980994, 42.997921424284598 ], [ -99.569277, 42.997995 ], [ -99.535375, 42.998038 ], [ -99.534049277221399, 42.998040581235898 ], [ -99.494287, 42.998118 ], [ -99.490798, 42.998143 ], [ -99.474531, 42.998081 ], [ -99.471353, 42.997967 ], [ -99.395568, 42.99817 ], [ -99.374268, 42.998047 ], [ -99.371121, 42.998093 ], [ -99.368628, 42.99814 ], [ -99.355508006451899, 42.998187329093597 ], [ -99.347283, 42.998217 ], [ -99.288045, 42.998152 ], [ -99.26271, 42.998234 ], [ -99.254454249226399, 42.998139794357002 ], [ -99.254297, 42.998138 ], [ -99.234462, 42.998281 ], [ -99.195374200293003, 42.998107776426899 ], [ -99.195199, 42.998107 ], [ -99.161388, 42.998465 ], [ -99.158917246980494, 42.998435818827197 ], [ -99.151143, 42.998344 ], [ -99.139045, 42.998508 ], [ -99.135961, 42.998301 ], [ -99.134341, 42.998300610584103 ], [ -99.0984214802032, 42.998291976243799 ], [ -99.08188, 42.998288 ], [ -99.080011, 42.998357 ], [ -99.060518616368498, 42.998316468974103 ], [ -99.0223, 42.998237 ], [ -99.021909, 42.998365 ], [ -99.017971994576996, 42.998348183783001 ], [ -99.00037, 42.998273 ], [ -98.962081, 42.998286 ], [ -98.942607995249702, 42.998265548504797 ], [ -98.919234, 42.998241 ], [ -98.919136, 42.998242 ], [ -98.903154, 42.998306 ], [ -98.899944, 42.998122 ], [ -98.885483525003593, 42.998157791841201 ], [ -98.860589442743304, 42.998219408422898 ], [ -98.824167976627194, 42.998309557006003 ], [ -98.823989, 42.99831 ], [ -98.801304, 42.998241 ], [ -98.764378, 42.998323 ], [ -98.762356021688007, 42.998324839499901 ], [ -98.742394, 42.998343 ], [ -98.705310013992303, 42.998436215890599 ], [ -98.665613, 42.998536 ], [ -98.664308699242596, 42.998472877606702 ], [ -98.663712, 42.998444 ], [ -98.645472972423804, 42.9984618972479 ], [ -98.568936, 42.998537 ], [ -98.565072, 42.9984 ], [ -98.5450990626302, 42.998448039294999 ], [ -98.49855, 42.99856 ], [ -98.495747, 42.988032 ], [ -98.490483, 42.977948 ], [ -98.478919, 42.963539 ], [ -98.467356, 42.947556 ], [ -98.467085960990502, 42.947407319362902 ], [ -98.461673, 42.944427 ], [ -98.458515, 42.943374 ], [ -98.45222, 42.938389 ], [ -98.448309, 42.936428 ], [ -98.447047, 42.935117 ], [ -98.445861, 42.93062 ], [ -98.444145, 42.929242 ], [ -98.439743, 42.928195 ], [ -98.437285, 42.928393 ], [ -98.434503, 42.929227 ], [ -98.430934, 42.931504 ], [ -98.426985779332995, 42.932010378204801 ], [ -98.426287, 42.9321 ], [ -98.42074, 42.931924 ], [ -98.407824, 42.92575 ], [ -98.399298, 42.922465 ], [ -98.386445, 42.918407 ], [ -98.375358, 42.913132 ], [ -98.372848557208698, 42.912317891588202 ], [ -98.358047, 42.907516 ], [ -98.348454975817205, 42.903644935996603 ], [ -98.34623, 42.902747 ], [ -98.342408, 42.900847 ], [ -98.33799, 42.89776 ], [ -98.335846, 42.895654 ], [ -98.333497, 42.891532 ], [ -98.332423, 42.890501 ], [ -98.329663, 42.888441 ], [ -98.325864, 42.8865 ], [ -98.319513, 42.88454 ], [ -98.309769085056701, 42.882559662424697 ], [ -98.297465, 42.880059 ], [ -98.280007, 42.874996 ], [ -98.268363, 42.874152 ], [ -98.258276, 42.87439 ], [ -98.25181, 42.872824 ], [ -98.24982, 42.871843 ], [ -98.24683, 42.868397 ], [ -98.231922, 42.86114 ], [ -98.230456894548297, 42.860219772952902 ], [ -98.226512, 42.857742 ], [ -98.224231, 42.855521 ], [ -98.219826, 42.853157 ], [ -98.217670958616395, 42.852269100443003 ], [ -98.204506, 42.846845 ], [ -98.189765, 42.841628 ], [ -98.186891819073793, 42.840932656942897 ], [ -98.182539927110895, 42.839879448690702 ], [ -98.171113, 42.837114 ], [ -98.167523, 42.836925 ], [ -98.163262, 42.837143 ], [ -98.153079053416405, 42.839065448144602 ], [ -98.14806, 42.840013 ], [ -98.146933, 42.839823 ], [ -98.137912, 42.832728 ], [ -98.129977791865102, 42.822445895700803 ], [ -98.129038, 42.821228 ], [ -98.127489, 42.820127 ], [ -98.107688, 42.810633 ], [ -98.1047, 42.808475 ], [ -98.094574, 42.799309 ], [ -98.087819, 42.795789 ], [ -98.082782, 42.794342 ], [ -98.067388, 42.784759 ], [ -98.062913, 42.781119 ], [ -98.061254, 42.777954 ], [ -98.059838, 42.772772 ], [ -98.056625, 42.770781 ], [ -98.051624, 42.768769 ], [ -98.047462542780707, 42.768325015233202 ], [ -98.044688, 42.768029 ], [ -98.042011, 42.767316 ], [ -98.037114, 42.765724 ], [ -98.035034, 42.764205 ], [ -98.017228, 42.762411 ], [ -98.013046, 42.762299 ], [ -98.005739, 42.764167 ], [ -98.002532, 42.763264 ], [ -98.000348, 42.763256 ], [ -97.992507, 42.765111 ], [ -97.977588, 42.769923 ], [ -97.962044, 42.768708 ], [ -97.953515604276404, 42.769039083650597 ], [ -97.953492, 42.76904 ], [ -97.950147, 42.769619 ], [ -97.936716, 42.775754 ], [ -97.932962, 42.778203 ], [ -97.923408934378401, 42.786613310807901 ], [ -97.921434, 42.788352 ], [ -97.915947, 42.789901 ], [ -97.908983, 42.794909 ], [ -97.905001, 42.798872 ], [ -97.903417777061705, 42.800783326532702 ], [ -97.89439, 42.811682 ], [ -97.890241, 42.815113 ], [ -97.888562, 42.817251 ], [ -97.884864, 42.826231 ], [ -97.879878, 42.835395 ], [ -97.878976, 42.843673 ], [ -97.875849, 42.847725 ], [ -97.875651, 42.850307 ], [ -97.876887, 42.852663 ], [ -97.877003, 42.854394 ], [ -97.875345, 42.858724 ], [ -97.872189963687205, 42.8600762518331 ], [ -97.865695, 42.86286 ], [ -97.857957, 42.865093 ], [ -97.84527, 42.867734 ], [ -97.834172, 42.868794 ], [ -97.828496, 42.868797 ], [ -97.825804, 42.867532 ], [ -97.817075, 42.861781 ], [ -97.804838301439005, 42.858842200993998 ], [ -97.801344, 42.858003 ], [ -97.788462, 42.853375 ], [ -97.779338387619603, 42.851029281866197 ], [ -97.774456, 42.849774 ], [ -97.76473, 42.8491 ], [ -97.753801, 42.849012 ], [ -97.750343, 42.849493 ], [ -97.720673561665507, 42.847454361310703 ], [ -97.72045, 42.847439 ], [ -97.70103, 42.843797 ], [ -97.686506, 42.842435 ], [ -97.668294, 42.843031 ], [ -97.657846, 42.844626 ], [ -97.646719, 42.847602 ], [ -97.635411690260895, 42.851448785856903 ], [ -97.620276, 42.856598 ], [ -97.611811, 42.858367 ], [ -97.603762, 42.858329 ], [ -97.603021032362406, 42.857983368716397 ], [ -97.59926, 42.856229 ], [ -97.591916, 42.853837 ], [ -97.574551, 42.849653 ], [ -97.561928, 42.847552 ], [ -97.547473, 42.848028 ], [ -97.531867, 42.850105 ], [ -97.526623983202796, 42.851306161018897 ], [ -97.515948, 42.853752 ], [ -97.504847, 42.858477 ], [ -97.500341, 42.85722 ], [ -97.499088, 42.855197 ], [ -97.49623, 42.853231 ], [ -97.49149, 42.851625 ], [ -97.484921, 42.850368 ], [ -97.482317594249395, 42.850383737652898 ], [ -97.470529, 42.850455 ], [ -97.461666, 42.849176 ], [ -97.458772, 42.848322 ], [ -97.456383, 42.846937 ], [ -97.452177, 42.846048 ], [ -97.442279, 42.846224 ], [ -97.439114, 42.84711 ], [ -97.431951, 42.851542 ], [ -97.425543, 42.856658 ], [ -97.425087, 42.858221 ], [ -97.42319, 42.861168 ], [ -97.417066, 42.865918 ], [ -97.413422, 42.867351 ], [ -97.408315, 42.868334 ], [ -97.404442, 42.86775 ], [ -97.399303, 42.864835 ], [ -97.393966, 42.86425 ], [ -97.393964005969806, 42.864250109105299 ], [ -97.388026374938207, 42.864574992512502 ], [ -97.376695, 42.865195 ], [ -97.375337, 42.862991 ], [ -97.368643, 42.858419 ], [ -97.366981818786201, 42.857620741758197 ], [ -97.361784, 42.855123 ], [ -97.359569, 42.854816 ], [ -97.341181, 42.855882 ], [ -97.336156, 42.856802 ], [ -97.330749, 42.858406 ], [ -97.328667265650395, 42.859424542945803 ], [ -97.328511, 42.859501 ], [ -97.326469503974593, 42.861188561208301 ], [ -97.326348, 42.861289 ], [ -97.324457, 42.861998 ], [ -97.318066, 42.863247 ], [ -97.311091, 42.865821 ], [ -97.308853, 42.867307 ], [ -97.306777113048099, 42.8675903356731 ], [ -97.306677, 42.867604 ], [ -97.302075, 42.86566 ], [ -97.300772359233605, 42.864576492073702 ], [ -97.289859, 42.855499 ], [ -97.287478966874204, 42.855182284963497 ], [ -97.2830086651649, 42.8545874143486 ], [ -97.278637116130795, 42.854005684919301 ], [ -97.278608682009207, 42.854001901142603 ], [ -97.276768184023098, 42.853756982960398 ], [ -97.267946, 42.852583 ], [ -97.266523154996705, 42.852752053408501 ], [ -97.257949452736995, 42.853770726269403 ], [ -97.256752, 42.853913 ], [ -97.251764, 42.855432 ], [ -97.248556, 42.855386 ], [ -97.248303190508196, 42.855332850399698 ], [ -97.237868, 42.853139 ], [ -97.237020580438596, 42.852881592206003 ], [ -97.231929, 42.851335 ], [ -97.218825, 42.845848 ], [ -97.217411, 42.843519 ], [ -97.218269, 42.829561 ], [ -97.21783, 42.827766 ], [ -97.215059, 42.822977 ], [ -97.213957, 42.820143 ], [ -97.213438034515093, 42.8159009178693 ], [ -97.213084, 42.813007 ], [ -97.211654, 42.810684 ], [ -97.210126, 42.809296 ], [ -97.204726, 42.806505 ], [ -97.200431, 42.805485 ], [ -97.1876, 42.804835 ], [ -97.178488, 42.80323 ], [ -97.172083, 42.802925 ], [ -97.166978, 42.802087 ], [ -97.163857, 42.801257 ], [ -97.160351504817001, 42.799733418734803 ], [ -97.150763, 42.795566 ], [ -97.144595, 42.790113 ], [ -97.141340412222107, 42.786702289967799 ], [ -97.138216, 42.783428 ], [ -97.137028, 42.780963 ], [ -97.137101, 42.778932 ], [ -97.134649934936505, 42.774811611078903 ], [ -97.134461, 42.774494 ], [ -97.131331, 42.771929 ], [ -97.121007017657902, 42.770599019221301 ], [ -97.111622, 42.76939 ], [ -97.101265, 42.769697 ], [ -97.097588037078395, 42.769441466466198 ], [ -97.096128, 42.76934 ], [ -97.085463, 42.770061 ], [ -97.079356, 42.771406 ], [ -97.071849, 42.772305 ], [ -97.065592, 42.772189 ], [ -97.05218, 42.770187 ], [ -97.033229, 42.765904 ], [ -97.030189, 42.763712 ], [ -97.02485, 42.76243 ], [ -97.015824963716398, 42.761599065501102 ], [ -97.0029003943161, 42.760409101243802 ], [ -96.99282, 42.759481 ], [ -96.982197, 42.760554 ], [ -96.97912, 42.76009 ], [ -96.975339, 42.758321 ], [ -96.96888, 42.754278 ], [ -96.96123, 42.740623 ], [ -96.960866, 42.739089 ], [ -96.961150486898703, 42.737402160035799 ], [ -96.961291, 42.736569 ], [ -96.963540465669496, 42.731877412970597 ], [ -96.965833, 42.727096 ], [ -96.965679, 42.724532 ], [ -96.963531, 42.720643 ], [ -96.955862, 42.719178 ], [ -96.948902, 42.719465 ], [ -96.937589, 42.719597 ], [ -96.935708, 42.720603 ], [ -96.933454, 42.723806 ], [ -96.918282, 42.731852 ], [ -96.906797, 42.7338 ], [ -96.904783502875702, 42.732934333483797 ], [ -96.899572679560706, 42.730694034646703 ], [ -96.898542677029297, 42.730251203766898 ], [ -96.886845, 42.725222 ], [ -96.872789, 42.724096 ], [ -96.860436, 42.720797 ], [ -96.849956, 42.715034 ], [ -96.843419, 42.712024 ], [ -96.829554, 42.708441 ], [ -96.819452, 42.707774 ], [ -96.813148, 42.706397 ], [ -96.806223, 42.704154 ], [ -96.801652, 42.698774 ], [ -96.800485, 42.692466 ], [ -96.800193, 42.684346 ], [ -96.802178, 42.672237 ], [ -96.800986, 42.669758 ], [ -96.798745, 42.668243 ], [ -96.793238, 42.666024 ], [ -96.792580470657796, 42.665891629421097 ], [ -96.780946489959007, 42.663549533545797 ], [ -96.778182, 42.662993 ], [ -96.76406, 42.661985 ], [ -96.751239, 42.66436 ], [ -96.749372, 42.665733 ], [ -96.746949, 42.666223 ], [ -96.742109115321199, 42.666619407997501 ], [ -96.73546, 42.667164 ], [ -96.728024, 42.666882 ], [ -96.697639, 42.659143 ], [ -96.691269, 42.6562 ], [ -96.687669, 42.653126 ], [ -96.687082, 42.652093 ], [ -96.686982, 42.649783 ], [ -96.687057658950295, 42.649427140098602 ], [ -96.687788, 42.645992 ], [ -96.689083, 42.644081 ], [ -96.692599, 42.64204 ], [ -96.696852, 42.637596 ], [ -96.70729, 42.625317 ], [ -96.709485, 42.621932 ], [ -96.711312, 42.617375 ], [ -96.711546, 42.614758 ], [ -96.710995, 42.608128 ], [ -96.7093, 42.603753 ], [ -96.706416, 42.599413 ], [ -96.697313, 42.590412 ], [ -96.685746, 42.577944 ], [ -96.681369, 42.574486 ], [ -96.675952, 42.5716 ], [ -96.658754, 42.566426 ], [ -96.650165174026895, 42.561937875381403 ], [ -96.648135, 42.560877 ], [ -96.648061533908205, 42.560824106353202 ], [ -96.643589, 42.557604 ], [ -96.638033, 42.55196 ], [ -96.63533, 42.54764 ], [ -96.633331005788094, 42.540248 ], [ -96.633321, 42.540211 ], [ -96.633340036802096, 42.533092101305897 ], [ -96.633343, 42.531984 ], [ -96.632882, 42.528987 ], [ -96.631494, 42.524319 ], [ -96.629266872625195, 42.519376994277899 ], [ -96.628179, 42.516963 ], [ -96.625958, 42.513576 ], [ -96.612469005849604, 42.506595172838601 ], [ -96.611489, 42.506088 ], [ -96.608883, 42.505218 ], [ -96.606246162543997, 42.504848891451203 ], [ -96.603468, 42.50446 ], [ -96.599234003910098, 42.504551181563698 ], [ -96.595992, 42.504621 ], [ -96.591121, 42.50541 ], [ -96.584348, 42.507834 ], [ -96.57251, 42.515737 ], [ -96.567896, 42.517877 ], [ -96.557775, 42.52038 ], [ -96.548791, 42.520547 ], [ -96.548789096077599, 42.520546572303402 ], [ -96.541250782017102, 42.5188531676758 ], [ -96.538036, 42.518131 ], [ -96.531616, 42.51517 ], [ -96.528753, 42.513273 ], [ -96.525142, 42.510234 ], [ -96.520683, 42.504761 ], [ -96.520411385627497, 42.504209331657698 ], [ -96.518752, 42.500839 ], [ -96.517557, 42.496902 ], [ -96.516760982795702, 42.4956444266017 ], [ -96.515891, 42.49427 ], [ -96.508587, 42.486691 ], [ -96.506519741645505, 42.485279843412599 ], [ -96.505950199026302, 42.484891060937798 ], [ -96.505704, 42.484723 ], [ -96.501321, 42.482749 ], [ -96.489497, 42.480112 ], [ -96.480981974057201, 42.4797325822163 ], [ -96.478792, 42.479635 ], [ -96.475565, 42.480036 ], [ -96.465294, 42.483919 ], [ -96.459753, 42.486921 ], [ -96.445508, 42.49063 ], [ -96.440303012764701, 42.490232691111302 ], [ -96.428488363227999, 42.489330851190097 ], [ -96.423892, 42.48898 ], [ -96.421677498623595, 42.488768243274897 ], [ -96.413609347005902, 42.487996744380197 ], [ -96.413496038664803, 42.487985909524298 ], [ -96.409408, 42.487595 ], [ -96.406899872170499, 42.486935015983498 ], [ -96.396188361155396, 42.484116409220597 ], [ -96.396107, 42.484095 ], [ -96.386016934356206, 42.474504442556302 ], [ -96.386015645104806, 42.474503217129303 ], [ -96.386007, 42.474495 ], [ -96.385407, 42.473094 ], [ -96.381307, 42.461694 ], [ -96.380117119039596, 42.451580011836903 ], [ -96.380107, 42.451494 ], [ -96.380642263852295, 42.4469442572559 ], [ -96.380656726962499, 42.446821320819097 ], [ -96.380707, 42.446394 ], [ -96.384307, 42.437294 ], [ -96.387608, 42.432494 ], [ -96.398811354054999, 42.422494312083202 ], [ -96.407714363695106, 42.414547824139902 ], [ -96.411808, 42.410894 ], [ -96.413609, 42.407894 ], [ -96.415496261738895, 42.400344953044502 ], [ -96.415509, 42.400294 ], [ -96.41498, 42.393442 ], [ -96.411497144659194, 42.3862987694908 ], [ -96.411331417675001, 42.385958868480301 ], [ -96.409153, 42.381491 ], [ -96.408833248991598, 42.379083279366299 ], [ -96.408436, 42.376092 ], [ -96.413994, 42.365932 ], [ -96.4150730235678, 42.364369000065899 ], [ -96.416857604193595, 42.3617839783074 ], [ -96.417093, 42.361443 ], [ -96.417918, 42.3587 ], [ -96.418168, 42.354678 ], [ -96.417786, 42.351449 ], [ -96.413895, 42.343393 ], [ -96.411867175484204, 42.3413349145791 ], [ -96.407998, 42.337408 ], [ -96.402957, 42.334156 ], [ -96.396269, 42.330857 ], [ -96.384169, 42.325874 ], [ -96.375307, 42.318339 ], [ -96.37179, 42.314172 ], [ -96.369969, 42.310878 ], [ -96.369212, 42.308344 ], [ -96.368675110621794, 42.304747983483999 ], [ -96.368507, 42.303622 ], [ -96.368495666284602, 42.301104204425002 ], [ -96.368454, 42.291848 ], [ -96.365792, 42.285875 ], [ -96.3608, 42.279867 ], [ -96.356406067881593, 42.276493105625697 ], [ -96.356389, 42.27648 ], [ -96.34145, 42.269115 ], [ -96.336003, 42.264806 ], [ -96.331331, 42.25943 ], [ -96.328905, 42.254734 ], [ -96.327706, 42.249992 ], [ -96.328955, 42.241885 ], [ -96.330004, 42.240224 ], [ -96.325547980990805, 42.2361107997178 ], [ -96.322868, 42.233637 ], [ -96.322827, 42.231461 ], [ -96.323723, 42.229887 ], [ -96.3269695359499, 42.226647877123398 ], [ -96.332044, 42.221585 ], [ -96.336323, 42.218922 ], [ -96.339086, 42.218087 ], [ -96.345055, 42.21749 ], [ -96.356591, 42.215182 ], [ -96.356655108629994, 42.215136751715299 ], [ -96.358141, 42.214088 ], [ -96.35987, 42.210545 ], [ -96.359087, 42.207799 ], [ -96.351515, 42.200485 ], [ -96.349166, 42.197253 ], [ -96.348066, 42.194747 ], [ -96.347715524120304, 42.191329114932401 ], [ -96.347243, 42.186721 ], [ -96.350323, 42.17744 ], [ -96.349688, 42.172043 ], [ -96.347752, 42.166806 ], [ -96.343960333980704, 42.162336264903502 ], [ -96.342395, 42.160491 ], [ -96.33798, 42.157197 ], [ -96.329610171242393, 42.153249880557802 ], [ -96.325872, 42.151487 ], [ -96.319528, 42.146647 ], [ -96.316979, 42.143171 ], [ -96.313819, 42.136338 ], [ -96.310085, 42.132523 ], [ -96.305884, 42.129826 ], [ -96.301356201214801, 42.128164285736901 ], [ -96.301023, 42.128042 ], [ -96.298843268213304, 42.127697996214501 ], [ -96.28567, 42.125619 ], [ -96.279203, 42.12348 ], [ -96.275002, 42.120779 ], [ -96.272299, 42.118396 ], [ -96.2689, 42.11359 ], [ -96.267318, 42.110265 ], [ -96.266663002189205, 42.1039294341589 ], [ -96.266594, 42.103262 ], [ -96.267636, 42.096177 ], [ -96.271227078979507, 42.089690337173003 ], [ -96.271777, 42.088697 ], [ -96.274135, 42.085934 ], [ -96.274531568910604, 42.085250927816197 ], [ -96.276758, 42.081416 ], [ -96.279079, 42.074026 ], [ -96.279342, 42.07028 ], [ -96.278445, 42.060399 ], [ -96.277626294083703, 42.058018620320098 ], [ -96.275548, 42.051976 ], [ -96.272901379120697, 42.047281245329003 ], [ -96.272877, 42.047238 ], [ -96.271427, 42.044988 ], [ -96.268637, 42.042314 ], [ -96.263886, 42.039858 ], [ -96.262221642857099, 42.039323761904797 ], [ -96.261132, 42.038974 ], [ -96.256087, 42.03808 ], [ -96.254542, 42.039454 ], [ -96.246832, 42.041616 ], [ -96.238392, 42.041088 ], [ -96.232125, 42.039145 ], [ -96.225656, 42.035217 ], [ -96.223822, 42.033346 ], [ -96.221901, 42.029558 ], [ -96.22173, 42.026205 ], [ -96.223611, 42.022652 ], [ -96.227867, 42.018651 ], [ -96.237359167179605, 42.013179532455403 ], [ -96.238859, 42.012315 ], [ -96.241932, 42.006965 ], [ -96.24238, 42.002899 ], [ -96.242035, 42.000911 ], [ -96.240713, 41.999351 ], [ -96.236487, 41.996428 ], [ -96.231053134571994, 41.994802994007998 ], [ -96.229739, 41.99441 ], [ -96.225463, 41.994734 ], [ -96.223896, 41.995456 ], [ -96.221813, 41.997382 ], [ -96.217637, 42.003862 ], [ -96.215225, 42.006701 ], [ -96.207050267432095, 42.008995504897101 ], [ -96.206083, 42.009267 ], [ -96.194556, 42.008662 ], [ -96.188067, 42.006323 ], [ -96.184644, 42.002633 ], [ -96.183568, 41.999987 ], [ -96.183801, 41.99776 ], [ -96.184784, 41.99546 ], [ -96.189516, 41.989314 ], [ -96.192141, 41.984461 ], [ -96.191549, 41.982032 ], [ -96.190602, 41.980721 ], [ -96.186963818182903, 41.977949371518598 ], [ -96.186265, 41.977417 ], [ -96.184243, 41.976696 ], [ -96.177203, 41.976325 ], [ -96.174154, 41.976864 ], [ -96.168071, 41.978996 ], [ -96.16068, 41.980114 ], [ -96.156538, 41.980137 ], [ -96.141228, 41.978063 ], [ -96.132537, 41.974625 ], [ -96.129505, 41.971673 ], [ -96.1289, 41.969727 ], [ -96.129186, 41.965136 ], [ -96.133318, 41.955732 ], [ -96.135393, 41.952223 ], [ -96.137047125098903, 41.950773 ], [ -96.142597, 41.945908 ], [ -96.143603, 41.944512 ], [ -96.144583, 41.941544 ], [ -96.143493, 41.937387 ], [ -96.136613, 41.927167 ], [ -96.136133, 41.92353 ], [ -96.136743, 41.920826 ], [ -96.139653, 41.916838 ], [ -96.139864249421905, 41.916720001184302 ], [ -96.142265, 41.915379 ], [ -96.154301, 41.912421 ], [ -96.159098, 41.910057 ], [ -96.160767, 41.908044 ], [ -96.161988, 41.905553 ], [ -96.161756, 41.90182 ], [ -96.158204, 41.897173 ], [ -96.152179, 41.892085 ], [ -96.148826, 41.888132 ], [ -96.14735, 41.884811 ], [ -96.146757, 41.877538 ], [ -96.146083, 41.874988 ], [ -96.144483, 41.871854 ], [ -96.142045, 41.868865 ], [ -96.139009505226397, 41.8663010080218 ], [ -96.135253, 41.863128 ], [ -96.13062, 41.860809 ], [ -96.123215, 41.85858 ], [ -96.116202, 41.854869 ], [ -96.113962, 41.853102 ], [ -96.110246, 41.84885 ], [ -96.108029, 41.844397 ], [ -96.107911, 41.840339 ], [ -96.109249064449898, 41.836086759803798 ], [ -96.110907, 41.830818 ], [ -96.110855502159097, 41.829413223843801 ], [ -96.11081, 41.828172 ], [ -96.109347, 41.823735 ], [ -96.107592, 41.820685 ], [ -96.103749, 41.817151 ], [ -96.09827, 41.814206 ], [ -96.093835, 41.812785 ], [ -96.081026, 41.810144 ], [ -96.075548, 41.807811 ], [ -96.069662, 41.803509 ], [ -96.067329, 41.800628 ], [ -96.064879, 41.79623 ], [ -96.064537, 41.793002 ], [ -96.066413, 41.788913 ], [ -96.073197, 41.783009 ], [ -96.077543, 41.777824 ], [ -96.078939, 41.771353 ], [ -96.078323838121904, 41.761961913738503 ], [ -96.0783, 41.761598 ], [ -96.079915, 41.757895 ], [ -96.084673, 41.753314 ], [ -96.091687, 41.750419 ], [ -96.097417746058397, 41.7490975041284 ], [ -96.097511, 41.749076 ], [ -96.102772, 41.746339 ], [ -96.104622, 41.744211 ], [ -96.106425, 41.73789 ], [ -96.106326, 41.734591 ], [ -96.105582, 41.731647 ], [ -96.10261, 41.728016 ], [ -96.092985687424104, 41.724273995456798 ], [ -96.0876, 41.72218 ], [ -96.079682, 41.717962 ], [ -96.075151, 41.713265 ], [ -96.073376, 41.710674 ], [ -96.072494, 41.708794 ], [ -96.072321, 41.706858 ], [ -96.073063, 41.705004 ], [ -96.075955, 41.701661 ], [ -96.079492537959197, 41.699747429111298 ], [ -96.082429, 41.698159 ], [ -96.090579, 41.697425 ], [ -96.105119, 41.699917 ], [ -96.111968, 41.697773 ], [ -96.117751, 41.694221 ], [ -96.120157, 41.69115 ], [ -96.120899954256103, 41.6895804792725 ], [ -96.121401, 41.688522 ], [ -96.121711955685996, 41.682989859148698 ], [ -96.121726, 41.68274 ], [ -96.120983, 41.677861 ], [ -96.11812, 41.674399 ], [ -96.114978, 41.67122 ], [ -96.111483, 41.668548 ], [ -96.099837, 41.66103 ], [ -96.097933, 41.658682 ], [ -96.095415, 41.652736 ], [ -96.095246029984906, 41.650276547558299 ], [ -96.095046, 41.647365 ], [ -96.097728, 41.639633 ], [ -96.100701, 41.635507 ], [ -96.114146, 41.623975 ], [ -96.116233, 41.621574 ], [ -96.11795, 41.617356 ], [ -96.118105, 41.613495 ], [ -96.117558, 41.609999 ], [ -96.11583, 41.60576 ], [ -96.114650586279694, 41.603702965454197 ], [ -96.113833, 41.602277 ], [ -96.109609371547293, 41.5971413869961 ], [ -96.109387, 41.596871 ], [ -96.107536581800602, 41.595479238891798 ], [ -96.104465, 41.593169 ], [ -96.101496, 41.59158 ], [ -96.088683, 41.58752 ], [ -96.085771, 41.585746 ], [ -96.083417, 41.583339 ], [ -96.081974175315807, 41.5806513494447 ], [ -96.081843, 41.580407 ], [ -96.081152, 41.577289 ], [ -96.081178, 41.574274 ], [ -96.082406, 41.571229 ], [ -96.084786, 41.567831 ], [ -96.088400341145601, 41.564365158227602 ], [ -96.09182, 41.561086 ], [ -96.093613, 41.558271 ], [ -96.094268923522804, 41.556104811100496 ], [ -96.095851, 41.55088 ], [ -96.096586, 41.545397 ], [ -96.096502195245293, 41.545186719262396 ], [ -96.092008, 41.53391 ], [ -96.089814, 41.531639 ], [ -96.082654, 41.525974 ], [ -96.079922, 41.525902 ], [ -96.074156, 41.523947 ], [ -96.069196207598694, 41.519605946864402 ], [ -96.068633, 41.519113 ], [ -96.063638, 41.516162 ], [ -96.057935, 41.51149 ], [ -96.05369, 41.508859 ], [ -96.048118, 41.507271 ], [ -96.040701, 41.507076 ], [ -96.038101, 41.50799 ], [ -96.036603, 41.509047 ], [ -96.034877, 41.511704 ], [ -96.034397, 41.514446 ], [ -96.033675, 41.517119 ], [ -96.034441, 41.521051 ], [ -96.031705, 41.522181 ], [ -96.02931, 41.527981 ], [ -96.026891, 41.539472 ], [ -96.026657, 41.540366 ], [ -96.02349, 41.543438 ], [ -96.01915, 41.54514 ], [ -96.013876, 41.545315 ], [ -96.005112, 41.54325 ], [ -95.999966, 41.53948 ], [ -95.993891, 41.523412 ], [ -95.99267, 41.51729 ], [ -95.992599, 41.514174 ], [ -95.992833, 41.512002 ], [ -95.993943, 41.509761 ], [ -95.996174500659905, 41.506959226949199 ], [ -95.997903, 41.504789 ], [ -96.007334, 41.497631 ], [ -96.015986, 41.492659 ], [ -96.019224, 41.489296 ], [ -96.019817, 41.48803 ], [ -96.019542, 41.486617 ], [ -96.016612104014001, 41.481914112722698 ], [ -96.016389, 41.481556 ], [ -96.011757, 41.476212 ], [ -96.008833, 41.474039 ], [ -96.004708, 41.472342 ], [ -95.991018, 41.470374 ], [ -95.982962, 41.469778 ], [ -95.973449, 41.467318 ], [ -95.965481, 41.46351 ], [ -95.962329, 41.46281 ], [ -95.957017, 41.462814 ], [ -95.946465, 41.466166 ], [ -95.941969, 41.466262 ], [ -95.936801, 41.46519 ], [ -95.932921, 41.463798 ], [ -95.925713, 41.459382 ], [ -95.922529, 41.455766 ], [ -95.920281, 41.451566 ], [ -95.919865, 41.447922 ], [ -95.920577, 41.444302 ], [ -95.921833, 41.442062 ], [ -95.923905, 41.439742 ], [ -95.930705, 41.433894 ], [ -95.932193, 41.431914 ], [ -95.933169, 41.42943 ], [ -95.932297, 41.422123 ], [ -95.931228607403995, 41.419031405478101 ], [ -95.929889, 41.415155 ], [ -95.929721, 41.411331 ], [ -95.930778, 41.406179 ], [ -95.93689, 41.396387 ], [ -95.93749, 41.393095 ], [ -95.936930712027603, 41.390979432452397 ], [ -95.93519, 41.384395 ], [ -95.92929, 41.374896 ], [ -95.92879, 41.370096 ], [ -95.930945125153201, 41.364806147351203 ], [ -95.93099, 41.364696 ], [ -95.93549, 41.360596 ], [ -95.94099, 41.357496 ], [ -95.952191, 41.353496 ], [ -95.954891, 41.351796 ], [ -95.956791, 41.349196 ], [ -95.956699344525504, 41.3458047474452 ], [ -95.956694033067194, 41.345608223486103 ], [ -95.956691, 41.345496 ], [ -95.953091, 41.339896 ], [ -95.946891, 41.334096 ], [ -95.943229169603697, 41.331591018917102 ], [ -95.939370692187694, 41.328951515747903 ], [ -95.939291, 41.328897 ], [ -95.926937707317094, 41.322811634146298 ], [ -95.92569, 41.322197 ], [ -95.92209, 41.321097 ], [ -95.91379, 41.320197 ], [ -95.912749363313594, 41.320268768047299 ], [ -95.89929, 41.321197 ], [ -95.88869, 41.319097 ], [ -95.883089, 41.316697 ], [ -95.878189, 41.312497 ], [ -95.874689, 41.307097 ], [ -95.871489, 41.295797 ], [ -95.872727988235297, 41.290221552941198 ], [ -95.872884080066399, 41.289519139701198 ], [ -95.872889, 41.289497 ], [ -95.87689, 41.285097 ], [ -95.88239, 41.281397 ], [ -95.890964108023198, 41.2779848462648 ], [ -95.90249, 41.273398 ], [ -95.903852413841904, 41.2742289893446 ], [ -95.912491, 41.279498 ], [ -95.909304683906001, 41.284937 ], [ -95.908760612040297, 41.285865723576102 ], [ -95.90429, 41.293497 ], [ -95.90429, 41.2975902842105 ], [ -95.90429, 41.299597 ], [ -95.90589, 41.300897 ], [ -95.920291, 41.301097 ], [ -95.9223739410576, 41.300315897103403 ], [ -95.927491, 41.298397 ], [ -95.929591, 41.292297 ], [ -95.929591, 41.285097 ], [ -95.929587970730097, 41.285084549700699 ], [ -95.928691, 41.281398 ], [ -95.918226204035903, 41.274279091180901 ], [ -95.914538372583706, 41.271770362301901 ], [ -95.913991, 41.271398 ], [ -95.918791, 41.269698 ], [ -95.920391, 41.268398 ], [ -95.921891, 41.264598 ], [ -95.921411831999194, 41.259726458658697 ], [ -95.921410549640598, 41.259713421346802 ], [ -95.921291, 41.258498 ], [ -95.917087180578903, 41.2497931214007 ], [ -95.916366469204704, 41.248300739262199 ], [ -95.913913818529096, 41.243222018166399 ], [ -95.911391, 41.237998 ], [ -95.910891, 41.233998 ], [ -95.910891, 41.23189 ], [ -95.910891, 41.231798 ], [ -95.910951827612806, 41.231626251446201 ], [ -95.910961926941098, 41.2315977356958 ], [ -95.912591, 41.226998 ], [ -95.915091, 41.222998 ], [ -95.924658887283201, 41.211477482658999 ], [ -95.924891, 41.211198 ], [ -95.924954718864996, 41.2109774346983 ], [ -95.927491, 41.202198 ], [ -95.927484878154303, 41.202171489675401 ], [ -95.92599, 41.195698 ], [ -95.923311673237507, 41.191202237220203 ], [ -95.92319, 41.190998 ], [ -95.920817812, 41.188916284 ], [ -95.91829, 41.186698 ], [ -95.91459, 41.185098 ], [ -95.90969, 41.184398 ], [ -95.873548430825707, 41.187537175514599 ], [ -95.864789, 41.188298 ], [ -95.856788, 41.187098 ], [ -95.850188, 41.184798 ], [ -95.844088, 41.180598 ], [ -95.843142258394195, 41.178706516788303 ], [ -95.8417164, 41.1758548 ], [ -95.841288, 41.174998 ], [ -95.8413229421149, 41.1747708762529 ], [ -95.841888, 41.171098 ], [ -95.846188, 41.166698 ], [ -95.852788, 41.165398 ], [ -95.865072, 41.167802 ], [ -95.867344, 41.168734 ], [ -95.86964, 41.16883 ], [ -95.871912, 41.168122 ], [ -95.876289, 41.165146 ], [ -95.880935560555301, 41.160268970041201 ], [ -95.881289, 41.159898 ], [ -95.883489, 41.154898 ], [ -95.8834874395626, 41.154835582505903 ], [ -95.883389, 41.150898 ], [ -95.882088, 41.143998 ], [ -95.879190256159802, 41.138655284794702 ], [ -95.878888, 41.138098 ], [ -95.875026695987202, 41.133025306493003 ], [ -95.869969617771503, 41.126381693935102 ], [ -95.868688, 41.124698 ], [ -95.865888, 41.117898 ], [ -95.865875680666804, 41.117430202854003 ], [ -95.865479575864597, 41.102389072556903 ], [ -95.86545, 41.101266 ], [ -95.863268, 41.093765 ], [ -95.862587, 41.088399 ], [ -95.863839, 41.083507 ], [ -95.865463, 41.080367 ], [ -95.870631, 41.075231 ], [ -95.873440926408406, 41.073108512761102 ], [ -95.878103, 41.069587 ], [ -95.881375, 41.065203 ], [ -95.882415, 41.060411 ], [ -95.881855, 41.057211 ], [ -95.879487, 41.053299 ], [ -95.869807, 41.045199 ], [ -95.861782, 41.039427 ], [ -95.860462, 41.037887 ], [ -95.859654, 41.035695 ], [ -95.859102, 41.031599 ], [ -95.859918, 41.025403 ], [ -95.865878, 41.017403 ], [ -95.868374, 41.012703 ], [ -95.869486, 41.009399 ], [ -95.869198, 41.005951 ], [ -95.867286, 41.001599 ], [ -95.8668306186634, 41.001087806243497 ], [ -95.866808565150293, 41.001063049808998 ], [ -95.863492, 40.99734 ], [ -95.860116, 40.995242 ], [ -95.852547, 40.991738 ], [ -95.844351, 40.989524 ], [ -95.840173236062896, 40.987190653983298 ], [ -95.838908, 40.986484 ], [ -95.833537, 40.98266 ], [ -95.830297, 40.978332 ], [ -95.829074, 40.975688 ], [ -95.828329, 40.972378 ], [ -95.829829, 40.963857 ], [ -95.8329881514547, 40.958707528673997 ], [ -95.837951, 40.950618 ], [ -95.839378123540399, 40.9440620744762 ], [ -95.840275, 40.939942 ], [ -95.839743, 40.93278 ], [ -95.838430368686602, 40.9274014781939 ], [ -95.837774, 40.924712 ], [ -95.836438, 40.921642 ], [ -95.833041, 40.917243 ], [ -95.830699, 40.915004 ], [ -95.818709, 40.906818 ], [ -95.814302, 40.902936 ], [ -95.8134577460103, 40.901693097976001 ], [ -95.810886, 40.897907 ], [ -95.809775, 40.895447 ], [ -95.809474, 40.891228 ], [ -95.810709, 40.886681 ], [ -95.812083, 40.884239 ], [ -95.815933, 40.879846 ], [ -95.81959, 40.877439 ], [ -95.824989, 40.875 ], [ -95.838735, 40.872191 ], [ -95.840452790615799, 40.871317585595499 ], [ -95.842521, 40.870266 ], [ -95.844073, 40.869248 ], [ -95.846938, 40.865745 ], [ -95.847785, 40.864328 ], [ -95.84859, 40.861061 ], [ -95.848547455559498, 40.8600169594311 ], [ -95.84849, 40.858607 ], [ -95.847084, 40.854174 ], [ -95.841767682350905, 40.846284676666301 ], [ -95.841309, 40.845604 ], [ -95.837186, 40.835347 ], [ -95.837303, 40.831164 ], [ -95.838601, 40.826175 ], [ -95.843921, 40.817686 ], [ -95.844852, 40.815307 ], [ -95.8449331493606, 40.814647371626101 ], [ -95.845342, 40.811324 ], [ -95.844882332802598, 40.809153461280196 ], [ -95.843745, 40.803783 ], [ -95.835815, 40.79063 ], [ -95.834523, 40.787778 ], [ -95.834215193693296, 40.783784066396898 ], [ -95.834156, 40.783016 ], [ -95.835232, 40.779151 ], [ -95.836903, 40.776477 ], [ -95.838879, 40.774545 ], [ -95.842824, 40.771093 ], [ -95.84662, 40.768619 ], [ -95.852776, 40.765631 ], [ -95.861695, 40.762871 ], [ -95.869982, 40.759645 ], [ -95.873335, 40.757616 ], [ -95.879027, 40.753081 ], [ -95.883643, 40.747831 ], [ -95.88669, 40.742101 ], [ -95.888697, 40.736292 ], [ -95.888907, 40.731855 ], [ -95.885349, 40.721093 ], [ -95.883178, 40.717579 ], [ -95.877015, 40.714287 ], [ -95.87528, 40.71412 ], [ -95.870481, 40.71248 ], [ -95.863167228762705, 40.7095651627736 ], [ -95.859378, 40.708055 ], [ -95.853081037348304, 40.702661194789101 ], [ -95.852615, 40.702262 ], [ -95.849828, 40.698147 ], [ -95.849225642483503, 40.696892750031502 ], [ -95.847931, 40.694197 ], [ -95.846034, 40.682605 ], [ -95.845102500745796, 40.6804919552958 ], [ -95.844946254551104, 40.680137521094501 ], [ -95.844827, 40.679867 ], [ -95.842801, 40.677496 ], [ -95.837738793200302, 40.674496032566701 ], [ -95.835588125278605, 40.673221502706497 ], [ -95.832177, 40.6712 ], [ -95.830825565388807, 40.670622314220601 ], [ -95.830730274610005, 40.670581581115698 ], [ -95.822913, 40.66724 ], [ -95.81415, 40.66557 ], [ -95.804307, 40.664886 ], [ -95.795489, 40.662384 ], [ -95.789485, 40.659388 ], [ -95.786568, 40.657253 ], [ -95.781909, 40.653272 ], [ -95.776251, 40.647463 ], [ -95.774176359584303, 40.6444490371615 ], [ -95.772832, 40.642496 ], [ -95.771325, 40.639393 ], [ -95.770442, 40.635285 ], [ -95.770316440766294, 40.631486745742599 ], [ -95.770083, 40.624425 ], [ -95.768926, 40.621264 ], [ -95.766823, 40.61878 ], [ -95.764412, 40.61709 ], [ -95.758045, 40.613759 ], [ -95.752917576287601, 40.610199929097199 ], [ -95.751271, 40.609057 ], [ -95.749685, 40.606842 ], [ -95.748626, 40.603355 ], [ -95.748858, 40.599965 ], [ -95.750053, 40.597052 ], [ -95.753148, 40.59284 ], [ -95.758895, 40.588973 ], [ -95.765645, 40.585208 ], [ -95.768527, 40.583296 ], [ -95.773549, 40.578205 ], [ -95.774704, 40.573574 ], [ -95.771776, 40.566133 ], [ -95.76503, 40.556921 ], [ -95.763833, 40.553873 ], [ -95.763366, 40.550797 ], [ -95.763624, 40.548298 ], [ -95.764696, 40.545721 ], [ -95.768412, 40.540347 ], [ -95.769281, 40.536656 ], [ -95.768693, 40.534106 ], [ -95.76692, 40.531563 ], [ -95.762857, 40.528371 ], [ -95.75711, 40.52599 ], [ -95.74868, 40.524275 ], [ -95.73725, 40.52393 ], [ -95.731179, 40.525436 ], [ -95.725214, 40.527773 ], [ -95.722444, 40.528118 ], [ -95.714291, 40.527208 ], [ -95.709974, 40.523798 ], [ -95.708591, 40.521551 ], [ -95.69721, 40.528477 ], [ -95.69505, 40.533124 ], [ -95.697281, 40.536985 ], [ -95.696673, 40.545137 ], [ -95.694881, 40.55072 ], [ -95.694147, 40.556942 ], [ -95.687109, 40.560664 ], [ -95.678718, 40.56256 ], [ -95.671754, 40.562626 ], [ -95.665486, 40.556686 ], [ -95.662097, 40.549959 ], [ -95.655848, 40.546609 ], [ -95.65341, 40.541893 ], [ -95.652262, 40.538114 ], [ -95.654794222564604, 40.527310493589503 ], [ -95.655674, 40.523557 ], [ -95.661687, 40.517309 ], [ -95.667981, 40.51496 ], [ -95.692083, 40.508133 ], [ -95.695604, 40.506473 ], [ -95.699969, 40.505275 ], [ -95.695945, 40.499051 ], [ -95.694726, 40.493602 ], [ -95.695247, 40.486587 ], [ -95.696206, 40.482113 ], [ -95.696756, 40.478849 ], [ -95.696365, 40.475897 ], [ -95.694651, 40.471452 ], [ -95.693133, 40.469396 ], [ -95.687134038118202, 40.465271286186201 ], [ -95.684363, 40.463366 ], [ -95.677174, 40.460158 ], [ -95.671742, 40.456695 ], [ -95.665413, 40.451182 ], [ -95.65819, 40.44188 ], [ -95.657776341619495, 40.440725634582002 ], [ -95.657695172908205, 40.440499123147099 ], [ -95.65563, 40.434736 ], [ -95.656288, 40.428765 ], [ -95.65831, 40.424538 ], [ -95.660721, 40.418841 ], [ -95.661463, 40.415947 ], [ -95.659134, 40.40869 ], [ -95.6517441595512, 40.399151507917999 ], [ -95.649418, 40.396149 ], [ -95.643934, 40.386849 ], [ -95.642147, 40.378243 ], [ -95.642679, 40.375001 ], [ -95.642414, 40.369829 ], [ -95.641027, 40.366399 ], [ -95.638984299496002, 40.363848661090302 ], [ -95.636991, 40.36136 ], [ -95.631481, 40.35731 ], [ -95.627420777327501, 40.353107198932101 ], [ -95.627124, 40.3528 ], [ -95.624878788920398, 40.349313067591403 ], [ -95.624815, 40.349214 ], [ -95.623728, 40.346567 ], [ -95.622704, 40.340856 ], [ -95.623182, 40.338367 ], [ -95.625204, 40.334288 ], [ -95.629936, 40.330994 ], [ -95.633807, 40.329297 ], [ -95.647931, 40.325556 ], [ -95.653729, 40.322582 ], [ -95.656612, 40.319465 ], [ -95.657764, 40.315788 ], [ -95.658025, 40.3127 ], [ -95.657328, 40.310856 ], [ -95.654294, 40.307906 ], [ -95.651507, 40.306684 ], [ -95.645329, 40.305693 ], [ -95.642262, 40.306025 ], [ -95.63631, 40.307675 ], [ -95.623213, 40.312469 ], [ -95.617931, 40.313728 ], [ -95.613479, 40.314233 ], [ -95.610439, 40.31397 ], [ -95.60511, 40.312559 ], [ -95.598657, 40.309809 ], [ -95.597847724384195, 40.309179076328199 ], [ -95.5935732800788, 40.3058519358597 ], [ -95.590165, 40.303199 ], [ -95.587371, 40.301649 ], [ -95.581787, 40.29958 ], [ -95.56814, 40.299129 ], [ -95.562157, 40.297359 ], [ -95.558732, 40.295774 ], [ -95.553292, 40.291158 ], [ -95.55162, 40.288666 ], [ -95.550966, 40.285947 ], [ -95.551488, 40.281061 ], [ -95.556275, 40.270761 ], [ -95.556325, 40.267714 ], [ -95.554817342733003, 40.264459841211199 ], [ -95.554324, 40.263395 ], [ -95.552473, 40.261904 ], [ -95.543737, 40.260687 ], [ -95.534626, 40.256953 ], [ -95.524172, 40.251129 ], [ -95.521035, 40.250083 ], [ -95.516107, 40.249187 ], [ -95.507295, 40.248888 ], [ -95.50026, 40.249629 ], [ -95.493405, 40.24956 ], [ -95.490333, 40.248966 ], [ -95.485994, 40.247825 ], [ -95.482778, 40.246273 ], [ -95.477501, 40.24272 ], [ -95.472548, 40.236078 ], [ -95.470349, 40.230819 ], [ -95.469718, 40.227908 ], [ -95.470061, 40.221507 ], [ -95.471393, 40.217333 ], [ -95.473469, 40.213482 ], [ -95.477948, 40.208643 ], [ -95.482319, 40.200667 ], [ -95.482757, 40.197346 ], [ -95.48254, 40.192283 ], [ -95.481528936917101, 40.189782614389003 ], [ -95.48102, 40.188524 ], [ -95.479193, 40.185652 ], [ -95.476301, 40.181988 ], [ -95.471054, 40.17691 ], [ -95.469398749090502, 40.1756675983424 ], [ -95.460746, 40.169173 ], [ -95.454919, 40.166577 ], [ -95.442818, 40.163261 ], [ -95.440694, 40.162282 ], [ -95.436348, 40.15872 ], [ -95.434817, 40.156017 ], [ -95.433822, 40.152935 ], [ -95.433374, 40.146114 ], [ -95.432165, 40.141025 ], [ -95.431022, 40.138411 ], [ -95.428749, 40.135577 ], [ -95.42478, 40.132765 ], [ -95.419186, 40.130586 ], [ -95.409481, 40.130052 ], [ -95.404395, 40.129018 ], [ -95.398667, 40.126419 ], [ -95.395369, 40.122811 ], [ -95.393347, 40.119212 ], [ -95.393106822970793, 40.117636874512399 ], [ -95.39284, 40.115887 ], [ -95.392899692836806, 40.114620006094803 ], [ -95.392990629207802, 40.112689861138399 ], [ -95.393062, 40.111175 ], [ -95.394216, 40.108263 ], [ -95.397146, 40.105183 ], [ -95.400139, 40.103238 ], [ -95.407591, 40.09803 ], [ -95.410643, 40.091531 ], [ -95.409243, 40.084166 ], [ -95.408455, 40.079158 ], [ -95.409856, 40.07432 ], [ -95.4101547337374, 40.074044415371397 ], [ -95.414734, 40.06982 ], [ -95.418345, 40.066509 ], [ -95.420643, 40.062599 ], [ -95.42164, 40.058952 ], [ -95.420659728246605, 40.054511199944699 ], [ -95.41932, 40.048442 ], [ -95.416824, 40.043235 ], [ -95.413588, 40.038424 ], [ -95.40726, 40.033112 ], [ -95.402665, 40.030567 ], [ -95.395858, 40.028038 ], [ -95.391527, 40.027058 ], [ -95.387195, 40.02677 ], [ -95.382957, 40.027112 ], [ -95.363983, 40.031498 ], [ -95.356876, 40.031522 ], [ -95.348777, 40.029297 ], [ -95.346573, 40.028272 ], [ -95.336242, 40.019104 ], [ -95.328501, 40.015657 ], [ -95.318015, 40.013216 ], [ -95.315271, 40.01207 ], [ -95.312211, 40.009395 ], [ -95.311163, 40.007806 ], [ -95.308469, 40.002194 ], [ -95.30829, 39.999998 ], [ -95.326449000013397, 39.999998574542801 ], [ -95.339896, 39.999999 ], [ -95.368643998987196, 39.999999812985997 ], [ -95.375257, 40.0 ], [ -95.414714123711704, 40.000044631920098 ], [ -95.414785907606202, 40.000044713118399 ], [ -95.421307001334995, 40.000052089452701 ], [ -95.421318093769997, 40.000052101999898 ], [ -95.426117977726605, 40.000057531388002 ], [ -95.426400113284103, 40.0000578505256 ], [ -95.435991156438703, 40.000068699432802 ], [ -95.436010872252396, 40.000068721734301 ], [ -95.438506167925695, 40.0000715442877 ], [ -95.438599326209399, 40.000071649663703 ], [ -95.452046483128498, 40.000086860413397 ], [ -95.455242104670802, 40.000090475140297 ], [ -95.455283244869406, 40.000090521676 ], [ -95.462997559876698, 40.000099247722403 ], [ -95.463069905741804, 40.000099329556399 ], [ -95.4637402450671, 40.000100087810601 ], [ -95.558156009177907, 40.000206886189403 ], [ -95.565356181295499, 40.000215030663099 ], [ -95.565376029349807, 40.000215053114196 ], [ -95.658695586015597, 40.000320611517999 ], [ -95.671368004585801, 40.000334945922503 ], [ -95.673002044272295, 40.000336794266303 ], [ -95.784498321730098, 40.000462913265402 ], [ -95.784575, 40.000463 ], [ -95.788024, 40.000452 ], [ -95.788111409683907, 40.000452016649497 ], [ -95.822119007905897, 40.000458494287201 ], [ -95.882524, 40.00047 ], [ -95.882580607569196, 40.000470038180097 ], [ -95.897400082937196, 40.000480033461997 ], [ -95.901574466821302, 40.000482848955997 ], [ -95.958139, 40.000521 ], [ -95.972950086887494, 40.000553983063398 ], [ -96.010678, 40.000638 ], [ -96.0147103512153, 40.000662352851798 ], [ -96.02409, 40.000719 ], [ -96.051691, 40.000727 ], [ -96.081395, 40.000603 ], [ -96.089781, 40.000519 ], [ -96.1238965663632, 40.000469731539702 ], [ -96.125788, 40.000467 ], [ -96.125937, 40.000432 ], [ -96.126118256430203, 40.000432401274203 ], [ -96.147167, 40.000479 ], [ -96.154246, 40.00045 ], [ -96.154365, 40.000495 ], [ -96.1543987066932, 40.000495115247901 ], [ -96.1726253323328, 40.000557434652997 ], [ -96.199341643545594, 40.000648781491002 ], [ -96.220171, 40.00072 ], [ -96.223839, 40.000729 ], [ -96.237163439846, 40.000695977844202 ], [ -96.239172, 40.000691 ], [ -96.239207881602894, 40.000690965796103 ], [ -96.301066, 40.000632 ], [ -96.304555, 40.000629 ], [ -96.341789279538503, 40.000708109824799 ], [ -96.350707460926202, 40.000727057841999 ], [ -96.351840825806207, 40.000729465846099 ], [ -96.354777966065598, 40.000735706242097 ], [ -96.46364, 40.000967 ], [ -96.463711571422195, 40.0009682491932 ], [ -96.463712955188001, 40.000968273345201 ], [ -96.467536, 40.001035 ], [ -96.469945, 40.000966 ], [ -96.501387026435197, 40.0010017508259 ], [ -96.5203400223984, 40.001023301130999 ], [ -96.527111, 40.001031 ], [ -96.529781992152493, 40.000990482674197 ], [ -96.538977, 40.000851 ], [ -96.550642193995699, 40.000923266636498 ], [ -96.557863, 40.000968 ], [ -96.5579453654899, 40.000968779844101 ], [ -96.563821, 40.001024410899802 ], [ -96.570854, 40.001091 ], [ -96.576755977226995, 40.001017210526797 ], [ -96.580852, 40.000966 ], [ -96.581788000246206, 40.000963078894003 ], [ -96.586802984877494, 40.000947427935003 ], [ -96.596549790536699, 40.000917009724901 ], [ -96.601324022612204, 40.000902110115803 ], [ -96.604884, 40.000891 ], [ -96.610349, 40.000881 ], [ -96.614463203675598, 40.000975559775803 ], [ -96.622401, 40.001158 ], [ -96.633582124290498, 40.0011709862587 ], [ -96.661687151419102, 40.001203628696501 ], [ -96.664503141813199, 40.0012068993139 ], [ -96.671066149220195, 40.001214521884798 ], [ -96.689921116817104, 40.001236420889001 ], [ -96.693407668939201, 40.001240470326799 ], [ -96.694564130298403, 40.001241813492797 ], [ -96.803188112689995, 40.001367974253 ], [ -96.805768, 40.001370970649702 ], [ -96.873812, 40.00145 ], [ -96.875057, 40.001448 ], [ -96.878253, 40.001466 ], [ -96.880459, 40.001448 ], [ -96.916093, 40.001506 ], [ -96.9164069976229, 40.001505854930599 ], [ -96.918453761934501, 40.001504909309297 ], [ -96.921224993822506, 40.001503628978199 ], [ -96.930673994577603, 40.001499263465199 ], [ -96.981117966254004, 40.001475957951399 ], [ -97.009165, 40.001463 ], [ -97.010837916172207, 40.001453645029301 ], [ -97.013092128836902, 40.001441039440401 ], [ -97.029467293604498, 40.001349469288897 ], [ -97.030803, 40.001342 ], [ -97.030946627211605, 40.001341855306599 ], [ -97.049663, 40.001323 ], [ -97.137866, 40.001814 ], [ -97.1418920063917, 40.001533708415799 ], [ -97.142448, 40.001495 ], [ -97.144156211535204, 40.001497388985499 ], [ -97.181775, 40.00155 ], [ -97.20019, 40.001549 ], [ -97.20231, 40.001442 ], [ -97.24508, 40.001467 ], [ -97.245169, 40.001513 ], [ -97.255926081974494, 40.001560387124599 ], [ -97.2565397952864, 40.001563090655999 ], [ -97.350272, 40.001976 ], [ -97.350896, 40.00193 ], [ -97.369103, 40.00206 ], [ -97.369198510194394, 40.002059879411497 ], [ -97.369199118528499, 40.002059878643401 ], [ -97.4068490471481, 40.002012342889302 ], [ -97.415833, 40.002001 ], [ -97.417826, 40.002024 ], [ -97.425443, 40.002048 ], [ -97.435136086300403, 40.002002608576603 ], [ -97.444662, 40.001958 ], [ -97.463285, 40.002047 ], [ -97.481364850237696, 40.001965411880803 ], [ -97.497287745293804, 40.001893557355402 ], [ -97.500569807515404, 40.001878746542197 ], [ -97.510264, 40.001835 ], [ -97.511381, 40.001899 ], [ -97.515308, 40.001901 ], [ -97.593724892052407, 40.001929889354798 ], [ -97.614030044809397, 40.001937369921102 ], [ -97.623370049436204, 40.001940810847003 ], [ -97.669236869354606, 40.001957708517899 ], [ -97.670662065858806, 40.001958233570697 ], [ -97.707017586397896, 40.001971627209599 ], [ -97.764940051589406, 40.001992966268098 ], [ -97.767746, 40.001994 ], [ -97.769204, 40.001995 ], [ -97.770776, 40.001977 ], [ -97.771063217366503, 40.001985554836097 ], [ -97.777155, 40.002167 ], [ -97.819261725637702, 40.001958812219797 ], [ -97.819426, 40.001958 ], [ -97.8214959564515, 40.0020018388567 ], [ -97.821598, 40.002004 ], [ -97.832833468207397, 40.001941063702297 ], [ -97.838379, 40.00191 ], [ -97.840264029589605, 40.001925320622199 ], [ -97.85745, 40.002065 ], [ -97.870575667059896, 40.002090817324003 ], [ -97.876261, 40.002102 ], [ -97.931811, 40.00205 ], [ -97.931825546010998, 40.0020500230574 ], [ -97.972186, 40.002114 ], [ -97.988439352672202, 40.002130693812497 ], [ -98.010142116078001, 40.002152984712701 ], [ -98.010157, 40.002153 ], [ -98.014412, 40.002223 ], [ -98.042768004769997, 40.002191261724398 ], [ -98.047469, 40.002186 ], [ -98.047686896882297, 40.002193745947899 ], [ -98.050057, 40.002278 ], [ -98.068701, 40.002355 ], [ -98.076034, 40.002301 ], [ -98.087237802124704, 40.002265906609203 ], [ -98.099659, 40.002227 ], [ -98.142031, 40.002452 ], [ -98.156844094516302, 40.0024451416323 ], [ -98.172269, 40.002438 ], [ -98.179315, 40.002483 ], [ -98.193483, 40.002614 ], [ -98.250008, 40.002307 ], [ -98.268218, 40.00249 ], [ -98.274015, 40.002516 ], [ -98.391854006204497, 40.002410960565904 ], [ -98.415155914596497, 40.0023901896909 ], [ -98.490533, 40.002323 ], [ -98.499647064502895, 40.002326643383697 ], [ -98.504454984983099, 40.002328565369098 ], [ -98.523053, 40.002336 ], [ -98.543186, 40.002285 ], [ -98.560578, 40.002274 ], [ -98.575219, 40.00248 ], [ -98.593342, 40.002476 ], [ -98.613755, 40.0024 ], [ -98.616413999399398, 40.002409174065797 ], [ -98.64071, 40.002493 ], [ -98.652494, 40.002245 ], [ -98.653833, 40.002269 ], [ -98.669724, 40.00241 ], [ -98.672819, 40.002364 ], [ -98.690287, 40.002548 ], [ -98.691443, 40.002505 ], [ -98.693096, 40.002373 ], [ -98.710404, 40.00218 ], [ -98.726295, 40.002222 ], [ -98.7263734167054, 40.002222183766499 ], [ -98.729272570732206, 40.0022289778206 ], [ -98.774941, 40.002336 ], [ -98.777203, 40.002359 ], [ -98.82059, 40.002319 ], [ -98.834456, 40.002363 ], [ -98.842505020983197, 40.002350325134401 ], [ -98.879574926961894, 40.002291950820599 ], [ -98.934792, 40.002205 ], [ -98.952644126061998, 40.002250096655601 ], [ -98.953885666139399, 40.002253232937797 ], [ -98.960919, 40.002271 ], [ -98.961009, 40.002317 ], [ -98.971721, 40.002268 ], [ -98.972287, 40.002245 ], [ -98.992135, 40.002192 ], [ -99.018701, 40.002333 ], [ -99.020338, 40.002264 ], [ -99.066105654983801, 40.002172126652198 ], [ -99.067021970224005, 40.002170287253897 ], [ -99.085597, 40.002133 ], [ -99.11351, 40.002193 ], [ -99.123033, 40.002165 ], [ -99.169816, 40.001925 ], [ -99.178965, 40.001977 ], [ -99.179134, 40.001977 ], [ -99.179158, 40.001977 ], [ -99.186962, 40.001977 ], [ -99.188905, 40.002023 ], [ -99.197592, 40.002033 ], [ -99.197804488613301, 40.002032807692402 ], [ -99.216376, 40.002016 ], [ -99.216596947266396, 40.002015616523799 ], [ -99.235275239230702, 40.0019831984728 ], [ -99.25037, 40.001957 ], [ -99.254012, 40.002074 ], [ -99.282967, 40.001879 ], [ -99.286656, 40.002017 ], [ -99.290703, 40.001949 ], [ -99.290909999638501, 40.001949036739198 ], [ -99.291846042924405, 40.001949202872197 ], [ -99.366773981985105, 40.001962501407803 ], [ -99.385054529667102, 40.001965745918703 ], [ -99.403389, 40.001969 ], [ -99.404653416107607, 40.001955202892503 ], [ -99.412645, 40.001868 ], [ -99.414064996540503, 40.0019202745979 ], [ -99.423565, 40.00227 ], [ -99.423610796121196, 40.002269737222903 ], [ -99.4410230391684, 40.002169826166501 ], [ -99.480728, 40.001942 ], [ -99.493465, 40.001937 ], [ -99.49766, 40.001912 ], [ -99.498999, 40.001957 ], [ -99.501792, 40.002026 ], [ -99.515339056312996, 40.002008437304198 ], [ -99.5178510989724, 40.002005180638001 ], [ -99.581249118191906, 40.001922990079301 ], [ -99.609352298699903, 40.0018865565103 ], [ -99.625324008881094, 40.001865850441 ], [ -99.62598, 40.001865 ], [ -99.628254542096897, 40.001865961344897 ], [ -99.628346, 40.001866 ], [ -99.719639, 40.001808 ], [ -99.731959, 40.001827 ] ] ] } }
]
}
