{
"type": "FeatureCollection",
"name": "state-42-outline",
"crs": { "type": "name", "properties": { "name": "urn:ogc:def:crs:OGC:1.3:CRS84" } },
"features": [
{ "type": "Feature", "properties": { "state_fips": "42", "state_abbr": "PA", "state_name": "Pennsylvania" }, "geometry": { "type": "Polygon", "coordinates": [ [ [ -80.075947, 39.72135 ], [ -80.084830251184002, 39.7213474423395 ], [ -80.174365860623993, 39.721321663299001 ], [ -80.185157035286295, 39.721318556310301 ], [ -80.205980033560195, 39.721312560964797 ], [ -80.221809027353302, 39.721308003490101 ], [ -80.243560805509503, 39.721301740730802 ], [ -80.269737038449193, 39.721294204085098 ], [ -80.2744770586893, 39.721292839341203 ], [ -80.293778567582095, 39.7212872820621 ], [ -80.308651, 39.721283 ], [ -80.309457, 39.721264 ], [ -80.403360976600993, 39.721201079109001 ], [ -80.421388, 39.721189 ], [ -80.452350195085799, 39.721256643074803 ], [ -80.457928795833993, 39.721268830637896 ], [ -80.458261442628896, 39.721269557371002 ], [ -80.519342, 39.721403 ], [ -80.519409151827602, 39.791686921509097 ], [ -80.519423, 39.806181 ], [ -80.519229283051999, 39.837053 ], [ -80.519154940702094, 39.848900683184901 ], [ -80.519110196557094, 39.856031402823298 ], [ -80.518891, 39.890964 ], [ -80.519248, 39.936967 ], [ -80.519115, 39.939188 ], [ -80.519175, 39.956648 ], [ -80.519203, 39.959394 ], [ -80.519216888003896, 39.9621993767921 ], [ -80.519218, 39.962424 ], [ -80.519207, 39.963381 ], [ -80.519202691647493, 39.966007064658797 ], [ -80.519141974897806, 40.003015668311903 ], [ -80.51912, 40.01641 ], [ -80.519013678338396, 40.073929069646901 ], [ -80.519008, 40.077001 ], [ -80.51896, 40.078089 ], [ -80.518991321931097, 40.095834396573302 ], [ -80.518991395215394, 40.095875915681603 ], [ -80.519003221593707, 40.1025761339098 ], [ -80.519004772956393, 40.1034550562999 ], [ -80.519004783413905, 40.103460980966503 ], [ -80.519029562899803, 40.117499764251598 ], [ -80.519029817377103, 40.1176439380353 ], [ -80.519104, 40.159672 ], [ -80.519056, 40.172744 ], [ -80.519056, 40.172771 ], [ -80.519053678247602, 40.195897019344102 ], [ -80.519047546483407, 40.256972997645398 ], [ -80.5190450614637, 40.281725255773601 ], [ -80.519043808993501, 40.294200595503199 ], [ -80.519039, 40.342101 ], [ -80.518728816556404, 40.349757025892103 ], [ -80.518007966565094, 40.367549226967199 ], [ -80.517991, 40.367968 ], [ -80.517991, 40.368342 ], [ -80.517991, 40.377056 ], [ -80.517991, 40.398868 ], [ -80.517988723628704, 40.399348979855098 ], [ -80.517987327445894, 40.399643982618599 ], [ -80.517964355074497, 40.404497869162697 ], [ -80.517874859962802, 40.423407502395499 ], [ -80.5178748497501, 40.423409660267097 ], [ -80.51769, 40.462467 ], [ -80.517807229056899, 40.463476973413002 ], [ -80.518381993077995, 40.468428786517698 ], [ -80.51899, 40.473667 ], [ -80.518995345455096, 40.477363298701299 ], [ -80.519054, 40.517922 ], [ -80.519057, 40.517922 ], [ -80.519056982671501, 40.5185479989199 ], [ -80.519055845939704, 40.559613005282799 ], [ -80.519055, 40.590173 ], [ -80.519086, 40.590161 ], [ -80.519086, 40.592271 ], [ -80.519086, 40.616385 ], [ -80.519039, 40.616391 ], [ -80.518993900129701, 40.637447001928003 ], [ -80.518991, 40.638801 ], [ -80.518992851813607, 40.643043505057101 ], [ -80.518995603464404, 40.649347536924203 ], [ -80.518997672861104, 40.6540885247747 ], [ -80.519004080579293, 40.6687686072408 ], [ -80.519006375939497, 40.674027277351001 ], [ -80.519012718890806, 40.688558978734697 ], [ -80.519025243728194, 40.717253381264001 ], [ -80.519028983849793, 40.725822 ], [ -80.519032440405795, 40.733740969689897 ], [ -80.519050363161298, 40.774802002460397 ], [ -80.519054295488601, 40.783810964368499 ], [ -80.519056754253896, 40.789443995742403 ], [ -80.519057973458104, 40.792237192532497 ], [ -80.519058, 40.792298 ], [ -80.518992, 40.801221 ], [ -80.519013626493503, 40.812869175217799 ], [ -80.519055610564195, 40.835482078702 ], [ -80.519081, 40.849157 ], [ -80.51902, 40.850073 ], [ -80.5190199803735, 40.850102952153101 ], [ -80.519019170179604, 40.851339398102802 ], [ -80.519002, 40.877543 ], [ -80.519764, 40.899858 ], [ -80.519777423230707, 40.900324199129599 ], [ -80.51979, 40.900761 ], [ -80.519818744790896, 40.902440151148497 ], [ -80.519891, 40.906661 ], [ -80.519626494781406, 40.911422093935101 ], [ -80.519091, 40.921061 ], [ -80.519046709949805, 40.953359736205101 ], [ -80.5190467067615, 40.953362061304702 ], [ -80.519039351426002, 40.958725975790003 ], [ -80.519000059231601, 40.987380001164198 ], [ -80.518990830794905, 40.994109883822098 ], [ -80.518989, 40.995445 ], [ -80.518927, 41.015387 ], [ -80.518933178422301, 41.024029114974603 ], [ -80.518937131978305, 41.029559181495401 ], [ -80.518939446126694, 41.032796114068297 ], [ -80.518953206575205, 41.052043645586799 ], [ -80.51896, 41.061546 ], [ -80.518928, 41.070954 ], [ -80.51896, 41.071866 ], [ -80.518999, 41.075014 ], [ -80.519088, 41.082074 ], [ -80.519088370368905, 41.082868811658102 ], [ -80.519092, 41.090658 ], [ -80.519092061009701, 41.090676785452899 ], [ -80.519120384902493, 41.099397969520503 ], [ -80.519125, 41.100819 ], [ -80.519192, 41.105358 ], [ -80.518992, 41.115958 ], [ -80.519056, 41.125057 ], [ -80.519012, 41.125057 ], [ -80.519012, 41.125092947349899 ], [ -80.519012, 41.125116 ], [ -80.519164652321905, 41.133218391304801 ], [ -80.519167, 41.133343 ], [ -80.519115, 41.14552 ], [ -80.519132400792799, 41.160930502141802 ], [ -80.519144, 41.171203 ], [ -80.519009986634103, 41.187425445982697 ], [ -80.518959496212602, 41.1935373597424 ], [ -80.518884229037695, 41.202648523175903 ], [ -80.518836207233505, 41.2084616084571 ], [ -80.51883, 41.209213 ], [ -80.518834451817, 41.209929742535302 ], [ -80.518889210102799, 41.218745826553402 ], [ -80.518893, 41.219356 ], [ -80.518893, 41.2278546754386 ], [ -80.518893, 41.232556 ], [ -80.518890563469597, 41.232754565046498 ], [ -80.518890520366696, 41.232758077717499 ], [ -80.518768111448296, 41.242733792520397 ], [ -80.518763708875696, 41.243092580175997 ], [ -80.518693, 41.248855 ], [ -80.518893, 41.265155 ], [ -80.518987974503204, 41.2680042350976 ], [ -80.518993, 41.268155 ], [ -80.518996, 41.2683 ], [ -80.518973294911603, 41.272482344716899 ], [ -80.518794, 41.305509 ], [ -80.519080996842504, 41.311419421542197 ], [ -80.519082170608897, 41.311443594121698 ], [ -80.519129, 41.312408 ], [ -80.519265, 41.333495 ], [ -80.519265326490796, 41.333545259171302 ], [ -80.519281, 41.335958 ], [ -80.519281, 41.337145 ], [ -80.519281, 41.337174 ], [ -80.519311, 41.339052 ], [ -80.519293, 41.339054 ], [ -80.519293, 41.339654 ], [ -80.519345, 41.340145 ], [ -80.519345, 41.34074 ], [ -80.519297726048293, 41.350731546666502 ], [ -80.519249147483805, 41.360998828691898 ], [ -80.519249, 41.36103 ], [ -80.519217, 41.372006 ], [ -80.519249, 41.378918 ], [ -80.519199135057704, 41.387270377840302 ], [ -80.519025, 41.416438 ], [ -80.518993, 41.416437 ], [ -80.518993, 41.42445 ], [ -80.518993, 41.429534333333301 ], [ -80.518993, 41.435454 ], [ -80.519027264153806, 41.440735157387003 ], [ -80.519169, 41.462581 ], [ -80.519208784417998, 41.489110812874898 ], [ -80.5192241242287, 41.4993400013133 ], [ -80.519225, 41.499924 ], [ -80.519157, 41.528769 ], [ -80.519214686135797, 41.5321059210888 ], [ -80.519339, 41.539297 ], [ -80.519340754318605, 41.552012885714703 ], [ -80.519343376868704, 41.571022003259102 ], [ -80.519344404328507, 41.578469374739299 ], [ -80.519348323676894, 41.606878118123802 ], [ -80.519348323799605, 41.606879007543299 ], [ -80.519353527340002, 41.644596002962402 ], [ -80.519355795033306, 41.661033 ], [ -80.519357, 41.669767 ], [ -80.519424, 41.671228 ], [ -80.519423119565303, 41.671750132284998 ], [ -80.519373, 41.701473 ], [ -80.519385244365097, 41.714727000446302 ], [ -80.519385248082799, 41.714731024714098 ], [ -80.519408, 41.739359 ], [ -80.519369, 41.752487 ], [ -80.519307706645606, 41.7584517863597 ], [ -80.519239, 41.765138 ], [ -80.519255757257795, 41.7910690660716 ], [ -80.519293557417996, 41.849563030893201 ], [ -80.519302226508302, 41.862978039273202 ], [ -80.519302229324893, 41.862982397877801 ], [ -80.519321069150493, 41.892136139234601 ], [ -80.519330810220296, 41.907209985259499 ], [ -80.519345, 41.929168 ], [ -80.519322840568293, 41.937179985730097 ], [ -80.519304, 41.943992 ], [ -80.519323980052107, 41.950355152055899 ], [ -80.519405, 41.976158 ], [ -80.519408, 41.977164 ], [ -80.517468, 41.97741 ], [ -80.505465, 41.981805 ], [ -80.500712, 41.9845 ], [ -80.497681, 41.98556 ], [ -80.496196, 41.985582 ], [ -80.494176, 41.986885 ], [ -80.490997, 41.987503 ], [ -80.489036, 41.98737 ], [ -80.474834, 41.991964 ], [ -80.471804, 41.992516 ], [ -80.464852, 41.995011 ], [ -80.457632, 41.996932 ], [ -80.446343, 42.001767 ], [ -80.443015, 42.002716 ], [ -80.436924, 42.005609 ], [ -80.434221, 42.005366 ], [ -80.423592, 42.008096 ], [ -80.42002, 42.009648 ], [ -80.409621, 42.011392 ], [ -80.402431, 42.013114 ], [ -80.39028, 42.017396 ], [ -80.388705, 42.017485 ], [ -80.387754, 42.018257 ], [ -80.385949334085794, 42.019004188104802 ], [ -80.373999, 42.023952 ], [ -80.372878381565101, 42.024012228678103 ], [ -80.371567840732496, 42.024082664911802 ], [ -80.370315, 42.02415 ], [ -80.368592, 42.025651 ], [ -80.364816079013394, 42.027166480860203 ], [ -80.363422, 42.027726 ], [ -80.361624793871002, 42.027975047654998 ], [ -80.351479, 42.029381 ], [ -80.345097804839497, 42.031195240877601 ], [ -80.344178595772306, 42.031456581680203 ], [ -80.339267, 42.032853 ], [ -80.335138, 42.034655 ], [ -80.330563, 42.035604 ], [ -80.318331, 42.040129 ], [ -80.298740846048105, 42.048048423937999 ], [ -80.293985, 42.049971 ], [ -80.291315, 42.052181 ], [ -80.272522, 42.058986 ], [ -80.267571, 42.060406 ], [ -80.261974567524902, 42.063525917742098 ], [ -80.257081, 42.066254 ], [ -80.247384, 42.070521 ], [ -80.245451976492504, 42.0721110012555 ], [ -80.240419, 42.076253 ], [ -80.239556701755404, 42.0766191581708 ], [ -80.236359, 42.077977 ], [ -80.233202, 42.077397 ], [ -80.230486, 42.077957 ], [ -80.226554615536202, 42.079468370914803 ], [ -80.22487, 42.080116 ], [ -80.220991926981398, 42.0811587161745 ], [ -80.218711, 42.081772 ], [ -80.215201, 42.08286 ], [ -80.211844797701701, 42.0842708355407 ], [ -80.208219, 42.085795 ], [ -80.206245, 42.087925 ], [ -80.201926, 42.089431 ], [ -80.198096, 42.08976 ], [ -80.189621228187406, 42.093566917275098 ], [ -80.188085, 42.094257 ], [ -80.1806961426269, 42.098117670489103 ], [ -80.174212600119304, 42.101505314878402 ], [ -80.166558465378799, 42.105504592523097 ], [ -80.166099940725005, 42.105744171189997 ], [ -80.165884, 42.105857 ], [ -80.165358849916601, 42.106188542761799 ], [ -80.158498, 42.11052 ], [ -80.156560378395596, 42.112379923592599 ], [ -80.155897058007994, 42.113016645042997 ], [ -80.154863068301793, 42.114009172089901 ], [ -80.154084, 42.114757 ], [ -80.153620893836205, 42.115516371937098 ], [ -80.148019, 42.124702 ], [ -80.143237, 42.136762 ], [ -80.139852940687604, 42.142335666594299 ], [ -80.135596, 42.149347 ], [ -80.134362043737198, 42.150686566900603 ], [ -80.12931, 42.156171 ], [ -80.128732751569203, 42.156597026982702 ], [ -80.119985353395407, 42.163052874157898 ], [ -80.11753, 42.164865 ], [ -80.105317899212395, 42.169671106100402 ], [ -80.104284, 42.170078 ], [ -80.095514, 42.171825 ], [ -80.0946288043462, 42.1718906074316 ], [ -80.086744, 42.172475 ], [ -80.079947, 42.171012 ], [ -80.070081, 42.171093 ], [ -80.066169, 42.171882 ], [ -80.065367, 42.170159 ], [ -80.068546, 42.168697 ], [ -80.072876, 42.167478 ], [ -80.07759, 42.166868 ], [ -80.080166, 42.166056 ], [ -80.080028, 42.163625 ], [ -80.073199, 42.155794 ], [ -80.073626, 42.154903 ], [ -80.078443, 42.152911 ], [ -80.078423857485802, 42.152774001682403 ], [ -80.078321546924201, 42.152041789879398 ], [ -80.078284134717507, 42.151774039816402 ], [ -80.078258, 42.151587 ], [ -80.074317, 42.146698 ], [ -80.070799, 42.145394 ], [ -80.065525858124602, 42.145102645211701 ], [ -80.065472061703403, 42.145099672819697 ], [ -80.065220444346494, 42.145085770306999 ], [ -80.06108, 42.144857 ], [ -80.061057149864695, 42.144867233675903 ], [ -80.049819068061694, 42.149900328032601 ], [ -80.044947996563096, 42.152081889165601 ], [ -80.041684553830905, 42.153543456672097 ], [ -80.041409686200296, 42.1536665590613 ], [ -80.032761797970693, 42.157539607701601 ], [ -80.021302, 42.162672 ], [ -80.021114699352694, 42.162784982381801 ], [ -80.015266, 42.166313 ], [ -80.012328, 42.166271 ], [ -79.994603271367794, 42.174527528158997 ], [ -79.990301576372403, 42.176531342524697 ], [ -79.989186, 42.177051 ], [ -79.985846, 42.178765 ], [ -79.985268, 42.181026 ], [ -79.980578789121594, 42.182951914957698 ], [ -79.977613, 42.18417 ], [ -79.973523, 42.185394 ], [ -79.962369, 42.191035361691 ], [ -79.961252985179499, 42.191599808818097 ], [ -79.949329537121102, 42.197630334468201 ], [ -79.940850001603096, 42.201919031512297 ], [ -79.931324, 42.206737 ], [ -79.930972319772295, 42.206775447203299 ], [ -79.927712420390094, 42.207131833500597 ], [ -79.923924, 42.207546 ], [ -79.920115788375597, 42.209763448137103 ], [ -79.918224, 42.210865 ], [ -79.914249, 42.211418 ], [ -79.909461, 42.213335 ], [ -79.907361, 42.215405 ], [ -79.907024244544701, 42.215411286734401 ], [ -79.904522, 42.215458 ], [ -79.90105, 42.216701 ], [ -79.895991524035793, 42.219502680289096 ], [ -79.886187, 42.224933 ], [ -79.883492046155297, 42.226398195432097 ], [ -79.873218, 42.231984 ], [ -79.870241, 42.230245 ], [ -79.844661, 42.235486 ], [ -79.835026, 42.239751 ], [ -79.83158, 42.242656 ], [ -79.825348, 42.243393 ], [ -79.818983, 42.244591 ], [ -79.812759, 42.249325 ], [ -79.807257, 42.251492 ], [ -79.799011335787498, 42.255654141742603 ], [ -79.798447, 42.255939 ], [ -79.792252427637493, 42.258869103120297 ], [ -79.787887, 42.260934 ], [ -79.783309, 42.264035 ], [ -79.777678, 42.265355 ], [ -79.773823, 42.263943 ], [ -79.771834, 42.265278 ], [ -79.766608, 42.267251 ], [ -79.761951, 42.26986 ], [ -79.761951375079903, 42.2693260592714 ], [ -79.761964, 42.251354 ], [ -79.762152, 42.243054 ], [ -79.762143131472499, 42.241401868397503 ], [ -79.762086971430804, 42.230939727953903 ], [ -79.761833, 42.183627 ], [ -79.761929, 42.179693 ], [ -79.761921122791605, 42.173416834172798 ], [ -79.761921, 42.173319 ], [ -79.761759300157706, 42.162694721474502 ], [ -79.761759, 42.162675 ], [ -79.761821868865695, 42.155301468231599 ], [ -79.761861, 42.150712 ], [ -79.762122, 42.131246 ], [ -79.761709, 42.11899 ], [ -79.761709149724496, 42.118821857659199 ], [ -79.7617380983598, 42.086312214936299 ], [ -79.761738126264106, 42.086280878118998 ], [ -79.761777652119704, 42.041892898177402 ], [ -79.761798, 42.019042 ], [ -79.761374, 41.999067 ], [ -79.761153759675594, 41.999067646871197 ], [ -79.670128, 41.999335 ], [ -79.645029, 41.999149168551099 ], [ -79.630948265075901, 41.999044915657699 ], [ -79.625287, 41.999003 ], [ -79.625301, 41.999068 ], [ -79.610835736453396, 41.998989329131099 ], [ -79.551385, 41.998666 ], [ -79.538445, 41.998527 ], [ -79.527993, 41.998483907462102 ], [ -79.5109927946082, 41.998413817336399 ], [ -79.491652860919004, 41.998334080747703 ], [ -79.472472, 41.998255 ], [ -79.411729694848106, 41.998405560181602 ], [ -79.394054495334501, 41.998449371183497 ], [ -79.382466506977494, 41.998478093992603 ], [ -79.381807501111595, 41.998479727451198 ], [ -79.285865208879997, 41.998717536815001 ], [ -79.249772, 41.998807 ], [ -79.234335150972996, 41.9989481391354 ], [ -79.179518976263495, 41.9994493235085 ], [ -79.17857, 41.999458 ], [ -79.145230377555293, 41.999401441585 ], [ -79.130130412757893, 41.999375825515799 ], [ -79.061265, 41.999259 ], [ -79.052473435293294, 41.999224148528597 ], [ -79.042062519794499, 41.999182877636002 ], [ -78.983065, 41.998949 ], [ -78.977568144569801, 41.998878453316998 ], [ -78.961376330094893, 41.998670647451 ], [ -78.944521098471697, 41.998454327284499 ], [ -78.918895917175504, 41.9981254535194 ], [ -78.905680476828806, 41.997955846460897 ], [ -78.874759, 41.997559 ], [ -78.827411227047094, 41.997767321868103 ], [ -78.780335719850498, 41.997974445814798 ], [ -78.749754, 41.998109 ], [ -78.714863141182903, 41.998511909384398 ], [ -78.6972525042098, 41.998715271845001 ], [ -78.6179722382807, 41.999630777058201 ], [ -78.59665, 41.999877 ], [ -78.5796810883445, 41.999849828286301 ], [ -78.534429706779207, 41.999777368860997 ], [ -78.519786229107595, 41.999753920781899 ], [ -78.463318184945194, 41.999663500514501 ], [ -78.462809696347904, 41.999662686289803 ], [ -78.4441682868882, 41.999632836464997 ], [ -78.385902111228802, 41.999539536913602 ], [ -78.350239981693704, 41.999482432416002 ], [ -78.348769435812997, 41.999480077683302 ], [ -78.346956969295107, 41.9994771754452 ], [ -78.322720746412799, 41.999438366844899 ], [ -78.308128, 41.999415 ], [ -78.307069394986797, 41.999402184583403 ], [ -78.284023206870401, 41.999123188643402 ], [ -78.271204, 41.998968 ], [ -78.268812391428895, 41.998992230560503 ], [ -78.264950345307199, 41.999031358845698 ], [ -78.206381081565098, 41.999624752809098 ], [ -78.191264733254599, 41.999777903954602 ], [ -78.12473, 42.000452 ], [ -78.121464560531294, 42.000415803825298 ], [ -78.088978471178194, 42.000055707680197 ], [ -78.074354603412303, 41.999893607577903 ], [ -78.072576426735793, 41.999873897154799 ], [ -78.055231506549703, 41.999681635204603 ], [ -78.031177, 41.999415 ], [ -78.030963, 41.999392 ], [ -77.997508, 41.998758 ], [ -77.962820111163495, 41.998708948367799 ], [ -77.957127084538797, 41.998700897942797 ], [ -77.880912184083599, 41.998593123575802 ], [ -77.8632780469799, 41.998568187402498 ], [ -77.845676616362198, 41.998543297479003 ], [ -77.840383345892903, 41.998535812343299 ], [ -77.83203, 41.998524 ], [ -77.822799, 41.998547 ], [ -77.749931, 41.998782 ], [ -77.728696709774695, 41.998893803738 ], [ -77.635715707102307, 41.9993833714869 ], [ -77.610027793075602, 41.999518624644899 ], [ -77.505308, 42.00007 ], [ -77.503988059128204, 42.000067659156699 ], [ -77.476324213215406, 42.0000185988307 ], [ -77.456577316420294, 41.999983578783301 ], [ -77.439670011707307, 41.999953594597997 ], [ -77.428223318697903, 41.999933294510598 ], [ -77.330048499389406, 41.999759186808397 ], [ -77.316268055423805, 41.9997347479406 ], [ -77.3162554733007, 41.999734725626901 ], [ -77.291174562533797, 41.9996902459959 ], [ -77.219852100440306, 41.999563759488701 ], [ -77.200405230066394, 41.999529271521901 ], [ -77.1445146599835, 41.999430152635803 ], [ -77.124693, 41.999395 ], [ -77.114772316496399, 41.999568319707898 ], [ -77.114697678201793, 41.999569623679299 ], [ -77.083269337920896, 42.000118693786597 ], [ -77.063676, 42.000461 ], [ -77.052748577673896, 42.0005364610453 ], [ -77.007635, 42.000848 ], [ -77.007536, 42.000819 ], [ -76.965792644634107, 42.0012728405422 ], [ -76.965686, 42.001274 ], [ -76.942585, 42.001574 ], [ -76.937084, 42.001674 ], [ -76.927059, 42.001674 ], [ -76.921884, 42.001674 ], [ -76.920784, 42.001774 ], [ -76.901373000084305, 42.001773773513797 ], [ -76.835079, 42.001773 ], [ -76.830455541336605, 42.001748920740297 ], [ -76.815878, 42.001673 ], [ -76.787923954988401, 42.001679755958499 ], [ -76.749675, 42.001689 ], [ -76.7472729858696, 42.001669764526099 ], [ -76.730756833993098, 42.001537502186501 ], [ -76.729573547448297, 42.001528026356603 ], [ -76.7283643213311, 42.0015183428009 ], [ -76.705707659422103, 42.001336906886998 ], [ -76.701653904863804, 42.001304444176199 ], [ -76.638108410862799, 42.000795568030703 ], [ -76.558118, 42.000155 ], [ -76.557725936826003, 42.000150162250897 ], [ -76.557698669156906, 42.000149825789499 ], [ -76.5487695834628, 42.000039647942899 ], [ -76.534994176816696, 41.999869670333503 ], [ -76.532139775240296, 41.999834449278403 ], [ -76.524313396360498, 41.999737877960698 ], [ -76.523270099324805, 41.999725004501499 ], [ -76.511951625061201, 41.9995853434921 ], [ -76.473424761106997, 41.9991099525 ], [ -76.473030455476206, 41.9991050870808 ], [ -76.46654, 41.999025 ], [ -76.462155, 41.998934 ], [ -76.381605645210598, 41.998558006860101 ], [ -76.349916342879297, 41.998410085621998 ], [ -76.349898, 41.99841 ], [ -76.344827264730299, 41.998357453520498 ], [ -76.343722, 41.998346 ], [ -76.295007945842301, 41.998485365732897 ], [ -76.275787062158898, 41.998540354638898 ], [ -76.264300475527904, 41.998573216542802 ], [ -76.204927759036494, 41.998743075576101 ], [ -76.145519203229696, 41.998913037141897 ], [ -76.131201, 41.998954 ], [ -76.123696, 41.998954 ], [ -76.110907636487696, 41.998885245357499 ], [ -76.10584, 41.998858 ], [ -76.060094808739905, 41.998923958217397 ], [ -75.993563022213394, 41.999019887820502 ], [ -75.988842011094903, 41.999026694863403 ], [ -75.983082, 41.999035 ], [ -75.98025, 41.999035 ], [ -75.958407425256695, 41.998993736066602 ], [ -75.890614458446606, 41.99886566488 ], [ -75.870677, 41.998828 ], [ -75.773443286541095, 41.998098330844002 ], [ -75.762540500704503, 41.998016513270102 ], [ -75.742231372474095, 41.997864107855101 ], [ -75.742217, 41.997864 ], [ -75.655563992580895, 41.998584022563399 ], [ -75.610316, 41.99896 ], [ -75.609676036501995, 41.998961435870598 ], [ -75.607554188909901, 41.998966196608798 ], [ -75.553082673427895, 41.999088413031799 ], [ -75.538823520345503, 41.9991204059491 ], [ -75.483738, 41.999244 ], [ -75.483140192254794, 41.999258777473798 ], [ -75.477144, 41.999407 ], [ -75.436216, 41.999353 ], [ -75.431961, 41.999363 ], [ -75.359644876431702, 41.99944492537 ], [ -75.359579, 41.999445 ], [ -75.353504, 41.99711 ], [ -75.346568, 41.995324 ], [ -75.342052798127, 41.993207006581002 ], [ -75.341125, 41.992772 ], [ -75.337602, 41.9867 ], [ -75.337791, 41.984386 ], [ -75.34246, 41.974303 ], [ -75.342204, 41.972872 ], [ -75.339488, 41.970786 ], [ -75.335771, 41.970315 ], [ -75.334839497161795, 41.970014314983402 ], [ -75.329318, 41.968232 ], [ -75.322384, 41.961693 ], [ -75.32004, 41.960867 ], [ -75.318168, 41.954236 ], [ -75.312817, 41.950182 ], [ -75.310358, 41.949012 ], [ -75.303966, 41.948216 ], [ -75.301664, 41.94838 ], [ -75.301233, 41.9489 ], [ -75.301543941930603, 41.952278038584801 ], [ -75.301593, 41.952811 ], [ -75.300409, 41.953871 ], [ -75.29858, 41.954521 ], [ -75.296094502441804, 41.954557769226298 ], [ -75.293713, 41.954593 ], [ -75.29143, 41.952477 ], [ -75.291762, 41.947092 ], [ -75.290966, 41.945039 ], [ -75.289383, 41.942891 ], [ -75.279094, 41.938917 ], [ -75.277243, 41.933598 ], [ -75.276501, 41.926679 ], [ -75.276552, 41.922208 ], [ -75.275368, 41.919564 ], [ -75.269736, 41.911363 ], [ -75.267562, 41.907054 ], [ -75.267773, 41.901971 ], [ -75.272778, 41.897112 ], [ -75.272581, 41.893168 ], [ -75.271292, 41.88736 ], [ -75.267789, 41.885982 ], [ -75.263005, 41.885109 ], [ -75.260623, 41.883783 ], [ -75.257564, 41.877108 ], [ -75.258439, 41.875087 ], [ -75.261488, 41.873277 ], [ -75.263815, 41.870757 ], [ -75.263673, 41.868105 ], [ -75.262802, 41.866213 ], [ -75.260527, 41.8638 ], [ -75.257825, 41.862154 ], [ -75.251197, 41.86204 ], [ -75.248045, 41.8633 ], [ -75.243345, 41.866875 ], [ -75.241134, 41.867118 ], [ -75.238743, 41.865699 ], [ -75.234565, 41.861569 ], [ -75.231612, 41.859459 ], [ -75.22572, 41.857481 ], [ -75.224968052940099, 41.857471534402599 ], [ -75.223734, 41.857456 ], [ -75.220125, 41.860534 ], [ -75.21497, 41.867449 ], [ -75.2137640977801, 41.867864343258297 ], [ -75.209741, 41.86925 ], [ -75.204002, 41.869867 ], [ -75.197836, 41.868807 ], [ -75.194382, 41.867287 ], [ -75.191441, 41.865063 ], [ -75.190203, 41.862454 ], [ -75.188888, 41.861264 ], [ -75.186993, 41.860109 ], [ -75.185254, 41.85993 ], [ -75.183937, 41.860515 ], [ -75.182271, 41.862198 ], [ -75.180497, 41.86568 ], [ -75.179134, 41.869935 ], [ -75.176633, 41.872371 ], [ -75.174574, 41.87266 ], [ -75.170565, 41.871608 ], [ -75.169164694298601, 41.870311019736803 ], [ -75.169142, 41.87029 ], [ -75.168053, 41.867043 ], [ -75.168733, 41.859258 ], [ -75.166217, 41.853862 ], [ -75.164168, 41.851586 ], [ -75.161541, 41.849836 ], [ -75.156512, 41.848327 ], [ -75.152898, 41.848564 ], [ -75.146446, 41.850899 ], [ -75.144676133874498, 41.851464655153798 ], [ -75.143824, 41.851737 ], [ -75.140241, 41.852078 ], [ -75.130983, 41.845145 ], [ -75.127913, 41.844903 ], [ -75.118789, 41.845819 ], [ -75.115598, 41.844638 ], [ -75.114399, 41.843583 ], [ -75.113369, 41.840698 ], [ -75.113441, 41.836298 ], [ -75.114998, 41.8303 ], [ -75.115147, 41.827285 ], [ -75.114837, 41.82567 ], [ -75.113334, 41.822782 ], [ -75.100024, 41.818347 ], [ -75.093537, 41.813375 ], [ -75.090724892045699, 41.812126793187801 ], [ -75.089484, 41.811576 ], [ -75.085789, 41.811626 ], [ -75.079818, 41.814815 ], [ -75.078063, 41.815112 ], [ -75.0773306539255, 41.8151071898452 ], [ -75.074409, 41.815088 ], [ -75.072172, 41.813732 ], [ -75.071751, 41.811901 ], [ -75.072168, 41.808327 ], [ -75.073881038014505, 41.803642863967497 ], [ -75.074412, 41.802191 ], [ -75.076889, 41.798509 ], [ -75.07827, 41.797467 ], [ -75.081415, 41.796483 ], [ -75.088328, 41.797534 ], [ -75.092876, 41.796386 ], [ -75.101463, 41.787941 ], [ -75.102329, 41.786503 ], [ -75.103548, 41.782008 ], [ -75.103999328083702, 41.778782161453201 ], [ -75.10464, 41.774203 ], [ -75.104334, 41.772693 ], [ -75.103492, 41.771238 ], [ -75.10099, 41.769121 ], [ -75.095451, 41.768366 ], [ -75.09281, 41.768361 ], [ -75.079478, 41.771205 ], [ -75.075942, 41.771518 ], [ -75.074231, 41.770518 ], [ -75.073485303259005, 41.769703777202302 ], [ -75.072664, 41.768807 ], [ -75.068567, 41.767298 ], [ -75.064901, 41.766686 ], [ -75.060759, 41.764638 ], [ -75.055990776963398, 41.7567647059576 ], [ -75.053431, 41.752538 ], [ -75.052808, 41.744725 ], [ -75.054818, 41.735168 ], [ -75.053998835693406, 41.730080424933902 ], [ -75.053527, 41.72715 ], [ -75.049699, 41.715093 ], [ -75.049862, 41.713309 ], [ -75.050689, 41.711969 ], [ -75.052226, 41.711396 ], [ -75.061174, 41.712935 ], [ -75.06663, 41.712588 ], [ -75.068642, 41.710146 ], [ -75.06883, 41.708161 ], [ -75.067278, 41.705434 ], [ -75.066738690816194, 41.705020015584203 ], [ -75.059829, 41.699716 ], [ -75.056745, 41.695703 ], [ -75.052736, 41.688393 ], [ -75.051234, 41.682439 ], [ -75.051285, 41.679961 ], [ -75.052653, 41.678436 ], [ -75.058765, 41.674412 ], [ -75.059332, 41.67232 ], [ -75.058441862849605, 41.669688075631697 ], [ -75.05843, 41.669653 ], [ -75.057251, 41.668933 ], [ -75.053991, 41.668194 ], [ -75.04992, 41.662556 ], [ -75.048683, 41.656317 ], [ -75.048945319858504, 41.6499761412135 ], [ -75.049281, 41.641862 ], [ -75.048658, 41.633781 ], [ -75.048199, 41.632011 ], [ -75.043562, 41.62364 ], [ -75.044224, 41.617978 ], [ -75.045508, 41.616203 ], [ -75.047298, 41.615791 ], [ -75.048385, 41.615986 ], [ -75.051570820050799, 41.617978629020499 ], [ -75.051856, 41.618157 ], [ -75.05385, 41.618655 ], [ -75.060098, 41.617482 ], [ -75.06156, 41.616429 ], [ -75.061675, 41.615468 ], [ -75.059956, 41.612306 ], [ -75.059725, 41.610801 ], [ -75.061849775526497, 41.609975527194301 ], [ -75.062716, 41.609639 ], [ -75.067795, 41.610143 ], [ -75.070971311511101, 41.6096163491761 ], [ -75.071667, 41.609501 ], [ -75.074626, 41.607905 ], [ -75.074613, 41.605711 ], [ -75.069712139420801, 41.601690092841601 ], [ -75.066955, 41.599428 ], [ -75.063677, 41.594739 ], [ -75.061070785590303, 41.591947186146598 ], [ -75.060012, 41.590813 ], [ -75.052858, 41.587772 ], [ -75.04676, 41.583258 ], [ -75.043879, 41.575094 ], [ -75.04049, 41.569688 ], [ -75.036989, 41.567049 ], [ -75.033162, 41.565092 ], [ -75.029211, 41.564637 ], [ -75.027343, 41.563541 ], [ -75.018524, 41.551802 ], [ -75.016328, 41.546501 ], [ -75.016144, 41.544246 ], [ -75.017626, 41.542734 ], [ -75.022828, 41.541456 ], [ -75.024798, 41.539801 ], [ -75.024793012890498, 41.5392290636902 ], [ -75.024757, 41.535099 ], [ -75.024206, 41.534018 ], [ -75.023018, 41.533147 ], [ -75.016616, 41.53211 ], [ -75.014919, 41.531399 ], [ -75.009552, 41.528461 ], [ -75.00385, 41.524052 ], [ -75.001297, 41.52065 ], [ -75.000911, 41.519292 ], [ -75.000935, 41.517638 ], [ -75.002592, 41.51456 ], [ -75.003687957918004, 41.511173745822397 ], [ -75.003706, 41.511118 ], [ -75.003694, 41.509295 ], [ -75.003151, 41.508101 ], [ -75.001497144097897, 41.507773406615598 ], [ -75.001329438607101, 41.5077401877546 ], [ -74.999612, 41.5074 ], [ -74.993893, 41.508754 ], [ -74.987645, 41.508738 ], [ -74.985653, 41.507926 ], [ -74.984372, 41.506611 ], [ -74.983941045869898, 41.505389927150297 ], [ -74.982385, 41.500981 ], [ -74.982168, 41.498486 ], [ -74.982463, 41.496467 ], [ -74.985247, 41.489113 ], [ -74.985469490405293, 41.487035144203404 ], [ -74.985595, 41.485863 ], [ -74.985004, 41.483703 ], [ -74.984390210117795, 41.482666237655401 ], [ -74.983341, 41.480894 ], [ -74.981652, 41.479945 ], [ -74.969887, 41.477438 ], [ -74.965931422264305, 41.477083505117299 ], [ -74.95826, 41.476396 ], [ -74.956411, 41.476735 ], [ -74.94808, 41.480625 ], [ -74.945634, 41.483213 ], [ -74.941798, 41.483542 ], [ -74.932585, 41.482323 ], [ -74.932317493769801, 41.482137094800699 ], [ -74.926835, 41.478327 ], [ -74.924092, 41.477138 ], [ -74.923333814344204, 41.477127200586096 ], [ -74.917282, 41.477041 ], [ -74.912852983865207, 41.475706253479601 ], [ -74.912517, 41.475605 ], [ -74.909580875360902, 41.472815857619501 ], [ -74.909181, 41.472436 ], [ -74.908133, 41.468117 ], [ -74.908103, 41.464639 ], [ -74.906887, 41.461131 ], [ -74.9042, 41.459806 ], [ -74.904136776035998, 41.4597948106532 ], [ -74.895069, 41.45819 ], [ -74.892114, 41.456959 ], [ -74.890358, 41.455324 ], [ -74.889116, 41.452534 ], [ -74.889075, 41.451245 ], [ -74.894931, 41.446099 ], [ -74.896399, 41.442179 ], [ -74.896025, 41.439987 ], [ -74.893913, 41.43893 ], [ -74.888691, 41.438259 ], [ -74.876721, 41.440338 ], [ -74.864688, 41.443993 ], [ -74.858578, 41.444427 ], [ -74.8542, 41.443166 ], [ -74.848602, 41.440179 ], [ -74.845572, 41.437577 ], [ -74.836915, 41.431625 ], [ -74.834635, 41.430796 ], [ -74.830671, 41.430503 ], [ -74.828592, 41.430698 ], [ -74.826031, 41.431736 ], [ -74.82288, 41.436792 ], [ -74.819620110928497, 41.439269782624798 ], [ -74.817995, 41.440505 ], [ -74.815770323292995, 41.4414434407703 ], [ -74.812123, 41.442982 ], [ -74.807582, 41.442847 ], [ -74.805655, 41.442101 ], [ -74.801225, 41.4381 ], [ -74.80037, 41.43606 ], [ -74.800095, 41.432661 ], [ -74.799546, 41.43129 ], [ -74.795396, 41.42398 ], [ -74.793856, 41.422671 ], [ -74.790417, 41.42166 ], [ -74.784339, 41.422397 ], [ -74.778029, 41.425104 ], [ -74.773239, 41.426352 ], [ -74.77065, 41.42623 ], [ -74.763701, 41.423612 ], [ -74.758587, 41.423287 ], [ -74.754708208531, 41.424993374676497 ], [ -74.754359, 41.425147 ], [ -74.75068, 41.427984 ], [ -74.743821, 41.430635 ], [ -74.740932, 41.43116 ], [ -74.738455, 41.430641 ], [ -74.736939748045799, 41.429429312953403 ], [ -74.736688, 41.429228 ], [ -74.735519, 41.427465 ], [ -74.734893, 41.425818 ], [ -74.734731, 41.422699 ], [ -74.738684, 41.413463 ], [ -74.741086, 41.411413 ], [ -74.741717, 41.40788 ], [ -74.741307147484505, 41.406379744107703 ], [ -74.740963, 41.40512 ], [ -74.738554, 41.401191 ], [ -74.736103, 41.398398 ], [ -74.73364, 41.396975 ], [ -74.730384, 41.39566 ], [ -74.720891, 41.39469 ], [ -74.715979, 41.392584 ], [ -74.713411, 41.389814 ], [ -74.712594140742596, 41.387728033578497 ], [ -74.710391, 41.382102 ], [ -74.708458, 41.378901 ], [ -74.705920325113198, 41.377034024349101 ], [ -74.703282, 41.375093 ], [ -74.697189500918597, 41.3716766864665 ], [ -74.697176440828002, 41.371669363139297 ], [ -74.694968, 41.370431 ], [ -74.691129, 41.367324 ], [ -74.689516, 41.363843 ], [ -74.689767, 41.361558 ], [ -74.691076, 41.36034 ], [ -74.695783187324096, 41.357685684111303 ], [ -74.696398, 41.357339 ], [ -74.694914, 41.357423 ], [ -74.700595, 41.354553 ], [ -74.704429, 41.354043 ], [ -74.708514, 41.352734 ], [ -74.720923, 41.347384 ], [ -74.730373, 41.345983 ], [ -74.735622, 41.346518 ], [ -74.753239, 41.346122 ], [ -74.755971, 41.344953 ], [ -74.760325, 41.340325 ], [ -74.763499, 41.331568 ], [ -74.766714, 41.328558 ], [ -74.770647355674399, 41.325750420108498 ], [ -74.771588, 41.325079 ], [ -74.774887, 41.324326 ], [ -74.781584, 41.324229 ], [ -74.789095, 41.323281 ], [ -74.790888251563103, 41.322796626191497 ], [ -74.792116, 41.322465 ], [ -74.79504, 41.320407 ], [ -74.795822, 41.318516 ], [ -74.795616091829203, 41.318251337770597 ], [ -74.792377, 41.314088 ], [ -74.791991, 41.311639 ], [ -74.792558, 41.310628 ], [ -74.806858, 41.303155 ], [ -74.812033, 41.298157 ], [ -74.815703, 41.296151 ], [ -74.821884, 41.293838 ], [ -74.830057, 41.2872 ], [ -74.834067, 41.281111 ], [ -74.836394844660703, 41.2790398193005 ], [ -74.838366, 41.277286 ], [ -74.838729890278699, 41.276457890257198 ], [ -74.841137, 41.27098 ], [ -74.846319, 41.263077 ], [ -74.846506, 41.261576 ], [ -74.845031, 41.258055 ], [ -74.845883, 41.254945 ], [ -74.846932, 41.253318 ], [ -74.848987, 41.251192 ], [ -74.854669, 41.25051 ], [ -74.856003, 41.250094 ], [ -74.857151, 41.248975 ], [ -74.861678, 41.241575 ], [ -74.862049, 41.237609 ], [ -74.866182, 41.232132 ], [ -74.867405, 41.22777 ], [ -74.866839, 41.226865 ], [ -74.860837, 41.222317 ], [ -74.859323, 41.220507 ], [ -74.859417522633706, 41.220069565157701 ], [ -74.859632, 41.219077 ], [ -74.860398, 41.217454 ], [ -74.867287, 41.208754 ], [ -74.872201005015498, 41.201317079114602 ], [ -74.874034, 41.198543 ], [ -74.878275, 41.190489 ], [ -74.878492, 41.187504 ], [ -74.882139, 41.180836 ], [ -74.882365480124093, 41.180611043215102 ], [ -74.889424, 41.1736 ], [ -74.899701, 41.166181 ], [ -74.901172, 41.16387 ], [ -74.90178, 41.161394 ], [ -74.905256, 41.155668 ], [ -74.923169, 41.138146 ], [ -74.931141, 41.133387 ], [ -74.945067, 41.129052 ], [ -74.947714, 41.126292 ], [ -74.947633520599297, 41.125899557027701 ], [ -74.947334, 41.124439 ], [ -74.947912, 41.12356 ], [ -74.964294, 41.114237 ], [ -74.966298, 41.113669 ], [ -74.969312, 41.113869 ], [ -74.972917, 41.113327 ], [ -74.979873, 41.110423 ], [ -74.982212, 41.108245 ], [ -74.991718, 41.092284 ], [ -74.991815, 41.089132 ], [ -74.991013, 41.088578 ], [ -74.988263, 41.088222 ], [ -74.984782, 41.088545 ], [ -74.981314, 41.08986 ], [ -74.975298, 41.094073 ], [ -74.972036, 41.095562 ], [ -74.969434, 41.096074 ], [ -74.967464, 41.095327 ], [ -74.967097756914697, 41.094338922910197 ], [ -74.966759, 41.093425 ], [ -74.968389, 41.087797 ], [ -74.970987, 41.085293 ], [ -74.98259, 41.079172 ], [ -74.989332, 41.078319 ], [ -74.994847, 41.076556 ], [ -74.999617, 41.073943 ], [ -75.006376, 41.067546 ], [ -75.010868, 41.067664 ], [ -75.013099, 41.066487 ], [ -75.01652, 41.05947 ], [ -75.017069, 41.056774 ], [ -75.026398, 41.046438 ], [ -75.027359, 41.044543 ], [ -75.026129, 41.041947 ], [ -75.027102, 41.039529 ], [ -75.030512, 41.038762 ], [ -75.036003, 41.036224 ], [ -75.041789, 41.0317 ], [ -75.044224312439397, 41.030666878594502 ], [ -75.052472, 41.027168 ], [ -75.074999, 41.01713 ], [ -75.081101, 41.016838 ], [ -75.084217, 41.016007 ], [ -75.08533, 41.014913 ], [ -75.092628, 41.00992 ], [ -75.100682, 41.006716 ], [ -75.109114, 41.004102 ], [ -75.110595, 41.002174 ], [ -75.123423, 40.996129 ], [ -75.127196, 40.993954 ], [ -75.130575, 40.991093 ], [ -75.131460751092703, 40.9892324136529 ], [ -75.131619, 40.9889 ], [ -75.13153, 40.984914 ], [ -75.132106, 40.982566 ], [ -75.133086, 40.980179 ], [ -75.135521, 40.976865 ], [ -75.135526, 40.973807 ], [ -75.13378, 40.970973 ], [ -75.131364, 40.969277 ], [ -75.129074, 40.968976 ], [ -75.122603, 40.970152 ], [ -75.120232, 40.968702 ], [ -75.119575104872794, 40.966356769151098 ], [ -75.119548, 40.96626 ], [ -75.12065, 40.964028 ], [ -75.120695, 40.962529 ], [ -75.1191, 40.958939 ], [ -75.118904, 40.956361 ], [ -75.117764, 40.953023 ], [ -75.111683, 40.948111 ], [ -75.106153, 40.939671 ], [ -75.105524, 40.936294 ], [ -75.100590476781093, 40.930215601005898 ], [ -75.099196949706297, 40.928498691366798 ], [ -75.09772, 40.926679 ], [ -75.095526, 40.924152 ], [ -75.091599433628204, 40.921671885264502 ], [ -75.088502271103195, 40.919715642153101 ], [ -75.087447809903594, 40.919049618836098 ], [ -75.079279, 40.91389 ], [ -75.076956, 40.90988 ], [ -75.076092, 40.907042 ], [ -75.075188, 40.900154 ], [ -75.075223973023498, 40.899945365819399 ], [ -75.075957, 40.895694 ], [ -75.07534, 40.894162 ], [ -75.07392, 40.892176 ], [ -75.065438, 40.885682 ], [ -75.062149, 40.882289 ], [ -75.058746923535494, 40.877775942068403 ], [ -75.058655, 40.877654 ], [ -75.053664, 40.87366 ], [ -75.051508, 40.870224 ], [ -75.050839, 40.868067 ], [ -75.051029, 40.865662 ], [ -75.051510199833899, 40.864229899758897 ], [ -75.051573, 40.864043 ], [ -75.053124, 40.863633 ], [ -75.058886, 40.860394 ], [ -75.063925, 40.855424 ], [ -75.064298, 40.853857 ], [ -75.063302, 40.851124 ], [ -75.063498, 40.849458 ], [ -75.066014, 40.847591 ], [ -75.07083, 40.847392 ], [ -75.073544, 40.84894 ], [ -75.076684, 40.849875 ], [ -75.090962, 40.849187 ], [ -75.095784, 40.847082 ], [ -75.097221, 40.844672 ], [ -75.097586, 40.843042 ], [ -75.097572, 40.840967 ], [ -75.097006, 40.839336 ], [ -75.09494, 40.837103 ], [ -75.088427178403606, 40.832252423542002 ], [ -75.085517, 40.830085 ], [ -75.084105204916696, 40.828185948206503 ], [ -75.083822, 40.827805 ], [ -75.083841223490396, 40.827206017597902 ], [ -75.083929, 40.824471 ], [ -75.083955861821906, 40.824424959058298 ], [ -75.085387, 40.821972 ], [ -75.090518, 40.815913 ], [ -75.096147, 40.812211 ], [ -75.098279, 40.810286 ], [ -75.100277, 40.807578 ], [ -75.100739, 40.805488 ], [ -75.100165, 40.803 ], [ -75.100277, 40.801176 ], [ -75.1008, 40.799797 ], [ -75.108505, 40.791094 ], [ -75.111328042361606, 40.789902314041903 ], [ -75.111343, 40.789896 ], [ -75.116842, 40.78935 ], [ -75.118988319162099, 40.788455184902602 ], [ -75.123088, 40.786746 ], [ -75.125867, 40.784026 ], [ -75.131465, 40.77595 ], [ -75.133303, 40.774124 ], [ -75.133376992664793, 40.774099785445202 ], [ -75.1344, 40.773765 ], [ -75.139106, 40.773606 ], [ -75.141281930892504, 40.773855960908598 ], [ -75.149378, 40.774786 ], [ -75.16365, 40.778386 ], [ -75.169523, 40.778473 ], [ -75.171587, 40.777745 ], [ -75.172530839662699, 40.776879367256001 ], [ -75.173349, 40.776129 ], [ -75.174248265430805, 40.774859495389201 ], [ -75.174991290388206, 40.773810557470398 ], [ -75.17562, 40.772923 ], [ -75.176855, 40.768721 ], [ -75.177477, 40.764225 ], [ -75.17904, 40.761897 ], [ -75.181565584652503, 40.760283835722298 ], [ -75.183037, 40.759344 ], [ -75.190433871659906, 40.756376468659298 ], [ -75.191796, 40.75583 ], [ -75.1955484676933, 40.752503715042401 ], [ -75.196533, 40.751631 ], [ -75.196861, 40.750097 ], [ -75.196325, 40.747137 ], [ -75.195349, 40.745473 ], [ -75.18578, 40.737266 ], [ -75.182804, 40.73365 ], [ -75.182084, 40.731522 ], [ -75.1825, 40.729922 ], [ -75.185588, 40.72637 ], [ -75.185712628145595, 40.725400952582198 ], [ -75.185783018751394, 40.7248536297082 ], [ -75.186372, 40.720274 ], [ -75.192612, 40.715874 ], [ -75.192856911611003, 40.715622586310801 ], [ -75.19442, 40.714018 ], [ -75.198108662751096, 40.706537735072203 ], [ -75.19872, 40.705298 ], [ -75.202438521243295, 40.695429616700402 ], [ -75.202774555475301, 40.694537833546299 ], [ -75.20392, 40.691498 ], [ -75.2039076, 40.6914732 ], [ -75.203907061772597, 40.691472123545203 ], [ -75.2029, 40.689458 ], [ -75.202123548589299, 40.6879050971787 ], [ -75.20092, 40.685498 ], [ -75.19692, 40.681299 ], [ -75.19058, 40.679379 ], [ -75.190158599358696, 40.679420139376603 ], [ -75.189662819765104, 40.679468540022903 ], [ -75.184516, 40.679971 ], [ -75.180564, 40.679363 ], [ -75.177587, 40.677731 ], [ -75.176803, 40.675715 ], [ -75.177491, 40.672595 ], [ -75.178282793480406, 40.671598829057103 ], [ -75.182526578762094, 40.6662596393694 ], [ -75.182756, 40.665971 ], [ -75.18794, 40.663811 ], [ -75.190852, 40.661939 ], [ -75.196676, 40.655123 ], [ -75.200452, 40.649219 ], [ -75.200468, 40.646899 ], [ -75.197369951320894, 40.644569052471503 ], [ -75.195394, 40.643083 ], [ -75.194125, 40.639967 ], [ -75.190691, 40.635891 ], [ -75.190347365900095, 40.634058447506298 ], [ -75.188867025473897, 40.626163999485001 ], [ -75.188579, 40.624628 ], [ -75.189283, 40.621492 ], [ -75.190691, 40.619956 ], [ -75.1936461899069, 40.619699883541401 ], [ -75.197891, 40.619332 ], [ -75.200708, 40.618356 ], [ -75.201102223191299, 40.617938923290403 ], [ -75.201812, 40.617188 ], [ -75.201348, 40.614628 ], [ -75.198499, 40.611492 ], [ -75.196803, 40.60858 ], [ -75.195923, 40.606788 ], [ -75.193733327858894, 40.604308943875502 ], [ -75.192291, 40.602676 ], [ -75.190369434453004, 40.591642003336702 ], [ -75.190146, 40.590359 ], [ -75.190796, 40.586838 ], [ -75.191664992029501, 40.5857353256579 ], [ -75.194656, 40.58194 ], [ -75.195114, 40.579689 ], [ -75.19487, 40.578591 ], [ -75.194046, 40.576256 ], [ -75.192352, 40.574257 ], [ -75.186737, 40.569406 ], [ -75.183151, 40.567354 ], [ -75.175307, 40.564996 ], [ -75.168609, 40.564111 ], [ -75.166931813911006, 40.5641066155818 ], [ -75.162871, 40.564096 ], [ -75.158446, 40.565286 ], [ -75.150569055688194, 40.570879071308603 ], [ -75.147368, 40.573152 ], [ -75.141906, 40.575273 ], [ -75.136748, 40.575731 ], [ -75.117292, 40.573211 ], [ -75.110903, 40.570671 ], [ -75.103889261344094, 40.568774678147498 ], [ -75.100325, 40.567811 ], [ -75.0957, 40.564401 ], [ -75.087224729249101, 40.5564639042599 ], [ -75.083930681244894, 40.553379026484201 ], [ -75.078503, 40.548296 ], [ -75.068615, 40.542223 ], [ -75.067257, 40.539584 ], [ -75.066402, 40.536532 ], [ -75.066400436300199, 40.536519623888601 ], [ -75.06509, 40.526148 ], [ -75.065853, 40.519495 ], [ -75.065601789499794, 40.517052644816502 ], [ -75.064949, 40.510706 ], [ -75.064842, 40.503503 ], [ -75.063268, 40.499355 ], [ -75.062625, 40.48955 ], [ -75.062868, 40.481637 ], [ -75.064327, 40.476795 ], [ -75.067715, 40.473669 ], [ -75.067543, 40.468133 ], [ -75.067016, 40.465308 ], [ -75.070419, 40.458407 ], [ -75.070568, 40.455165 ], [ -75.066515, 40.447176 ], [ -75.062923, 40.433407 ], [ -75.061489, 40.422848 ], [ -75.060662174720406, 40.421350572770898 ], [ -75.058848, 40.418065 ], [ -75.055711, 40.416399 ], [ -75.04616, 40.41397 ], [ -75.044353765726797, 40.412585941558902 ], [ -75.043071, 40.411603 ], [ -75.041160188392993, 40.410552520776399 ], [ -75.035504, 40.407443 ], [ -75.034427, 40.406066 ], [ -75.028315, 40.403883 ], [ -75.024775, 40.403455 ], [ -75.006739, 40.407646 ], [ -75.003784, 40.407621 ], [ -74.998651, 40.410093 ], [ -74.996378, 40.410528 ], [ -74.988901, 40.408773 ], [ -74.985467, 40.405935 ], [ -74.985153339770307, 40.4057624409498 ], [ -74.982735, 40.404432 ], [ -74.979428086118901, 40.402979730560403 ], [ -74.976867, 40.401855 ], [ -74.96813, 40.399129 ], [ -74.966783083996404, 40.3978635572606 ], [ -74.963997, 40.395246 ], [ -74.9542604530821, 40.3765473382118 ], [ -74.953939, 40.37593 ], [ -74.952826761800395, 40.373550317656999 ], [ -74.948788608163795, 40.364910511083899 ], [ -74.948722, 40.364768 ], [ -74.946024, 40.355892 ], [ -74.945969011093695, 40.355389110001902 ], [ -74.945351787214406, 40.349744412986801 ], [ -74.945088, 40.347332 ], [ -74.943776, 40.342564 ], [ -74.9429542775691, 40.341642619719501 ], [ -74.939711, 40.338006 ], [ -74.933111, 40.333106 ], [ -74.926907761406994, 40.329463406317402 ], [ -74.92681, 40.329406 ], [ -74.91741, 40.322406 ], [ -74.90831, 40.316907 ], [ -74.90331, 40.315607 ], [ -74.901391032590297, 40.315467964540701 ], [ -74.896409, 40.315107 ], [ -74.895654114754095, 40.314776737704896 ], [ -74.891609, 40.313007 ], [ -74.887949658132001, 40.310811394879202 ], [ -74.887109, 40.310307 ], [ -74.880609, 40.305607 ], [ -74.873461445326797, 40.299612276725703 ], [ -74.868263841783701, 40.295252996334703 ], [ -74.868209, 40.295207 ], [ -74.864692, 40.290684 ], [ -74.864334444849604, 40.290164693710103 ], [ -74.860492, 40.284584 ], [ -74.856646380083404, 40.277656285607002 ], [ -74.856508, 40.277407 ], [ -74.853118148928004, 40.269729984336998 ], [ -74.853108, 40.269707 ], [ -74.846764573445597, 40.259070537535898 ], [ -74.846717996791497, 40.258992439235399 ], [ -74.846608, 40.258808 ], [ -74.842415810025201, 40.250716098420703 ], [ -74.842308, 40.250508 ], [ -74.836307, 40.246208 ], [ -74.831378382190394, 40.244339894862499 ], [ -74.826178123217403, 40.242368828961403 ], [ -74.823907, 40.241508 ], [ -74.819507, 40.238508 ], [ -74.819033518158605, 40.238329962532298 ], [ -74.795306, 40.229408 ], [ -74.789433313835104, 40.226117629737402 ], [ -74.783524300819195, 40.222806906132803 ], [ -74.781952576857904, 40.221926294835299 ], [ -74.781206, 40.221508 ], [ -74.778412793376802, 40.219676384272901 ], [ -74.771719, 40.215287 ], [ -74.771678709991406, 40.215223025490999 ], [ -74.768509, 40.21019 ], [ -74.767677, 40.207752 ], [ -74.7644300939657, 40.203443849959598 ], [ -74.7611647738199, 40.1991112671964 ], [ -74.759898492127604, 40.197431104153203 ], [ -74.759505, 40.196909 ], [ -74.756905, 40.189409 ], [ -74.755605, 40.186709 ], [ -74.754305, 40.185209 ], [ -74.751993331726098, 40.183519703953699 ], [ -74.751705, 40.183309 ], [ -74.744105, 40.181009 ], [ -74.737205, 40.177609 ], [ -74.733804, 40.174509 ], [ -74.722304, 40.160609 ], [ -74.721504, 40.158409 ], [ -74.721604, 40.15381 ], [ -74.722131021546602, 40.1503235497687 ], [ -74.722189, 40.14994 ], [ -74.724362, 40.146443 ], [ -74.731691, 40.141942 ], [ -74.740555, 40.135492 ], [ -74.741552276699693, 40.135214490171499 ], [ -74.744411, 40.134419 ], [ -74.75313, 40.135033 ], [ -74.758882, 40.134036 ], [ -74.762864, 40.132541 ], [ -74.769488, 40.129145 ], [ -74.7758221526813, 40.124960885037297 ], [ -74.781965466095002, 40.120902831676801 ], [ -74.782106, 40.12081 ], [ -74.785106, 40.12031 ], [ -74.788706, 40.12041 ], [ -74.7916519900689, 40.121004099333298 ], [ -74.800607, 40.12281 ], [ -74.805336541925698, 40.124399436220898 ], [ -74.810424327964697, 40.1261092659553 ], [ -74.812807, 40.12691 ], [ -74.815646027527194, 40.127621041897299 ], [ -74.816121, 40.12774 ], [ -74.819499, 40.127614 ], [ -74.822531, 40.126844 ], [ -74.826226, 40.124066 ], [ -74.8285742770925, 40.120582878240903 ], [ -74.828736, 40.120343 ], [ -74.830497795610299, 40.116965855265803 ], [ -74.833103, 40.111972 ], [ -74.834121818926306, 40.107875382452001 ], [ -74.835108, 40.10391 ], [ -74.837982476605504, 40.100936403511497 ], [ -74.838008, 40.10091 ], [ -74.843431, 40.098002 ], [ -74.844405316939103, 40.097634557796297 ], [ -74.847857419357595, 40.096332673297503 ], [ -74.851126, 40.0951 ], [ -74.854609, 40.09327 ], [ -74.856509, 40.09131 ], [ -74.8573975754923, 40.090003271334801 ], [ -74.858209, 40.08881 ], [ -74.859809, 40.08491 ], [ -74.859878742287904, 40.084860600477803 ], [ -74.861309916047105, 40.083846878359303 ], [ -74.862106, 40.083283 ], [ -74.86675, 40.081931 ], [ -74.869526798813993, 40.081484490188203 ], [ -74.874648, 40.080661 ], [ -74.880230814570197, 40.078867186875499 ], [ -74.888482, 40.076216 ], [ -74.897895873352198, 40.073461860813801 ], [ -74.899104092944398, 40.0731083819853 ], [ -74.903175643513194, 40.071917202058501 ], [ -74.909011, 40.07021 ], [ -74.909112853057593, 40.070213442074298 ], [ -74.91342, 40.070359 ], [ -74.920874, 40.071404 ], [ -74.925133, 40.071056 ], [ -74.93258, 40.06881 ], [ -74.966891, 40.052716 ], [ -74.973710351995294, 40.0481874432217 ], [ -74.977435, 40.045714 ], [ -74.981374470535499, 40.042815053431603 ], [ -74.982777696278504, 40.041782458717201 ], [ -74.984716636298998, 40.040355646797202 ], [ -74.986592120061601, 40.038975530568699 ], [ -74.988884, 40.037289 ], [ -74.990090157336397, 40.036467533567802 ], [ -75.003420245306799, 40.027388933723699 ], [ -75.008568, 40.023883 ], [ -75.012214, 40.020698 ], [ -75.013791747517203, 40.020217732891403 ], [ -75.013805034048502, 40.0202136884648 ], [ -75.019645, 40.018436 ], [ -75.021095217191402, 40.018115819593397 ], [ -75.030440966611593, 40.016052455659199 ], [ -75.034216, 40.015219 ], [ -75.035198856114903, 40.014857837491299 ], [ -75.042889, 40.012032 ], [ -75.042966448951404, 40.011993450664697 ], [ -75.04709, 40.009941 ], [ -75.052278982364697, 40.0055260511092 ], [ -75.053405, 40.004568 ], [ -75.053723885964303, 40.004080276035701 ], [ -75.058089, 39.997404 ], [ -75.059647, 39.992145 ], [ -75.060035698553605, 39.9916198105673 ], [ -75.064175, 39.986027 ], [ -75.065392750766705, 39.985030323502599 ], [ -75.067664096638595, 39.983171324838899 ], [ -75.068604301203905, 39.982401807940498 ], [ -75.068802, 39.98224 ], [ -75.075605, 39.978041 ], [ -75.085831, 39.975102 ], [ -75.093718, 39.974412 ], [ -75.102287, 39.972377 ], [ -75.112705430083693, 39.968091618464904 ], [ -75.118952641189196, 39.965521971896102 ], [ -75.11922, 39.965412 ], [ -75.123862977243505, 39.962819168552301 ], [ -75.125416361661095, 39.961951694137298 ], [ -75.12692, 39.961112 ], [ -75.13012, 39.958712 ], [ -75.130223707139507, 39.958587190470702 ], [ -75.132235535318898, 39.9561659943083 ], [ -75.133855, 39.954217 ], [ -75.134191507912902, 39.952935022133403 ], [ -75.134217656964395, 39.952835403360602 ], [ -75.13572, 39.947112 ], [ -75.135836456880696, 39.9432689229358 ], [ -75.136012010091704, 39.937475666972503 ], [ -75.136040115283507, 39.9365481956427 ], [ -75.13612, 39.933912 ], [ -75.135887594594607, 39.932517567567601 ], [ -75.135022972973005, 39.927329837837803 ], [ -75.13502, 39.927312 ], [ -75.134295579082206, 39.925783569319201 ], [ -75.132344, 39.921666 ], [ -75.13012, 39.917013 ], [ -75.129179222053693, 39.914789343036098 ], [ -75.12792, 39.911813 ], [ -75.129004411764697, 39.907475352941198 ], [ -75.129546373826599, 39.905307504693802 ], [ -75.130262705882402, 39.902442176470601 ], [ -75.13082, 39.900213 ], [ -75.13342, 39.896213 ], [ -75.135413798820693, 39.892999568309399 ], [ -75.137296, 39.889966 ], [ -75.139673432849904, 39.888236088496598 ], [ -75.141522, 39.886891 ], [ -75.143746, 39.884998 ], [ -75.144412305849499, 39.884833462456797 ], [ -75.145633390390401, 39.884531927883003 ], [ -75.148893, 39.883727 ], [ -75.165353141341001, 39.882900375849502 ], [ -75.174551649305897, 39.882438429097299 ], [ -75.183023, 39.882013 ], [ -75.184941531174502, 39.881617112614798 ], [ -75.188821512083095, 39.880816481633602 ], [ -75.189323, 39.880713 ], [ -75.195018, 39.877521 ], [ -75.195217294768597, 39.877343945193203 ], [ -75.199857, 39.873222 ], [ -75.199940968500897, 39.8731819412683 ], [ -75.204087, 39.871204 ], [ -75.211515931142699, 39.867051552431697 ], [ -75.221371, 39.861543 ], [ -75.222936101743002, 39.860900247744198 ], [ -75.226241, 39.859543 ], [ -75.229871417137105, 39.858332172201301 ], [ -75.235026, 39.856613 ], [ -75.243431, 39.854597 ], [ -75.256781595695401, 39.852036159509098 ], [ -75.268092903466595, 39.8498664844169 ], [ -75.272141, 39.84909 ], [ -75.293376, 39.848782 ], [ -75.309674, 39.850179 ], [ -75.316530496579603, 39.849993402253702 ], [ -75.318541798751795, 39.849938958537997 ], [ -75.323232, 39.849812 ], [ -75.330433, 39.849012 ], [ -75.341465375890493, 39.846159470758998 ], [ -75.341765, 39.846082 ], [ -75.345655318703294, 39.844183795425003 ], [ -75.3544, 39.839917 ], [ -75.371835, 39.827612 ], [ -75.389764456124396, 39.815819458941696 ], [ -75.390536, 39.815312 ], [ -75.398543349241294, 39.810580742967801 ], [ -75.403737, 39.807512 ], [ -75.415062, 39.801919 ], [ -75.423416, 39.806615 ], [ -75.428038, 39.809212 ], [ -75.433908519013798, 39.8117473186932 ], [ -75.437068354901101, 39.813111966516303 ], [ -75.437307916589802, 39.8132154267429 ], [ -75.449874383721607, 39.8186425446778 ], [ -75.45374, 39.820312 ], [ -75.4549971840311, 39.820770300604998 ], [ -75.457734116797894, 39.821768036745397 ], [ -75.458058097664093, 39.821886142466902 ], [ -75.459817544683105, 39.822527540713601 ], [ -75.459926448380202, 39.822567241050997 ], [ -75.463341, 39.823812 ], [ -75.472547501842001, 39.826537795193701 ], [ -75.472677629082398, 39.826576322336003 ], [ -75.475487002818895, 39.827408101611098 ], [ -75.481242, 39.829112 ], [ -75.498843, 39.833312 ], [ -75.498981970202493, 39.833333262774197 ], [ -75.498986133173801, 39.833333899718802 ], [ -75.518444, 39.836311 ], [ -75.518817615088295, 39.836344961758101 ], [ -75.528189353554595, 39.837196856461297 ], [ -75.532798029037707, 39.8376157868707 ], [ -75.539346, 39.838211 ], [ -75.539734010265505, 39.838220925321998 ], [ -75.540058275462201, 39.838229220042003 ], [ -75.540886412062505, 39.838250403817803 ], [ -75.551321578591896, 39.838517335900697 ], [ -75.570464, 39.839007 ], [ -75.577168336454704, 39.838663389362303 ], [ -75.579393994741096, 39.838549319928603 ], [ -75.579849, 39.838526 ], [ -75.5798996512343, 39.838522073860297 ], [ -75.593081736886703, 39.837500288108401 ], [ -75.593666, 39.837455 ], [ -75.594845838142504, 39.837286209758602 ], [ -75.595756, 39.837156 ], [ -75.617251, 39.833999 ], [ -75.634706, 39.830164 ], [ -75.634812797602507, 39.830135764168801 ], [ -75.641518, 39.828363 ], [ -75.658153907097201, 39.822730499160102 ], [ -75.662822, 39.82115 ], [ -75.680794056787803, 39.813318592285803 ], [ -75.681556895087297, 39.8129861819327 ], [ -75.685991, 39.811054 ], [ -75.694562318409197, 39.806295473488802 ], [ -75.701208, 39.802606 ], [ -75.705787295543004, 39.799523888007101 ], [ -75.716969, 39.791998 ], [ -75.719334567355901, 39.790150604541097 ], [ -75.724866264384801, 39.785830612575602 ], [ -75.727049, 39.784126 ], [ -75.736489, 39.775759 ], [ -75.739323559097897, 39.772924799480002 ], [ -75.744394, 39.767855 ], [ -75.751436564661006, 39.759552050150603 ], [ -75.753066, 39.757631 ], [ -75.754465906040295, 39.755631134228203 ], [ -75.759213751756704, 39.7488484974904 ], [ -75.760101611338101, 39.747580126659898 ], [ -75.760346, 39.747231 ], [ -75.765879181413396, 39.7381059004001 ], [ -75.766058, 39.737811 ], [ -75.773786, 39.7222 ], [ -75.788596, 39.722199 ], [ -75.799563, 39.721882 ], [ -75.810068, 39.721906 ], [ -75.812079510864905, 39.7219024800347 ], [ -75.821459948048101, 39.721886065102801 ], [ -75.841861790647101, 39.7218503636904 ], [ -75.875166497237302, 39.721792083411998 ], [ -75.936996972505099, 39.721683885572098 ], [ -75.962149733786802, 39.721639870474 ], [ -75.981014205061697, 39.721606859324801 ], [ -75.981038705693706, 39.721606816450901 ], [ -75.998357670158896, 39.721576509801302 ], [ -75.998649, 39.721576 ], [ -76.013067, 39.72192 ], [ -76.027618, 39.721833 ], [ -76.027713266377106, 39.721832755417203 ], [ -76.054727856983902, 39.721763399328502 ], [ -76.067964414413396, 39.721729416364902 ], [ -76.124032892075803, 39.721585468586298 ], [ -76.135584499461501, 39.721555811490298 ], [ -76.154334551265194, 39.721507673420199 ], [ -76.154353135109005, 39.721507625708902 ], [ -76.233258769042493, 39.721305046805398 ], [ -76.233277, 39.721305 ], [ -76.239804999795297, 39.721304955533199 ], [ -76.332379025589404, 39.721304324945699 ], [ -76.337103984566397, 39.7213042927606 ], [ -76.343109922307605, 39.721304251849901 ], [ -76.380083, 39.721304 ], [ -76.380583, 39.721304 ], [ -76.395583, 39.721204 ], [ -76.396079977924799, 39.721206151326399 ], [ -76.404526247578801, 39.721242713681498 ], [ -76.418684, 39.721304 ], [ -76.418784, 39.721204 ], [ -76.438881100554696, 39.721231491485398 ], [ -76.442442970775602, 39.721236363884898 ], [ -76.451736087295501, 39.721249076244902 ], [ -76.461138053434894, 39.721261937503897 ], [ -76.491887, 39.721304 ], [ -76.517087, 39.721304 ], [ -76.526087968365403, 39.721286618297498 ], [ -76.543400579986994, 39.721253186043 ], [ -76.551258733530901, 39.721238011221601 ], [ -76.569389, 39.721203 ], [ -76.569449017513705, 39.721202957883897 ], [ -76.609424914322702, 39.721174905607299 ], [ -76.654963025227303, 39.721142950159503 ], [ -76.654989492224601, 39.721142931586797 ], [ -76.657893853894805, 39.721140893509798 ], [ -76.685440969535406, 39.7211215628788 ], [ -76.697658017536099, 39.721112989812603 ], [ -76.702689510155196, 39.7211094590645 ], [ -76.711894, 39.721103 ], [ -76.715594, 39.721103 ], [ -76.757794309284705, 39.720925353004802 ], [ -76.764652594128705, 39.720896482275798 ], [ -76.787097, 39.720802 ], [ -76.800511855613806, 39.720662985952202 ], [ -76.806397, 39.720602 ], [ -76.808182181705803, 39.720665756489502 ], [ -76.809197, 39.720702 ], [ -76.837725349207105, 39.720595860139802 ], [ -76.852358287527593, 39.720541418222503 ], [ -76.881116678560005, 39.720434422490598 ], [ -76.8901, 39.720401 ], [ -76.897566, 39.720401 ], [ -76.915967459298301, 39.720542422769 ], [ -76.936601, 39.720701 ], [ -76.957886981473294, 39.720347814678902 ], [ -76.974751518682694, 39.720067991688502 ], [ -76.990903, 39.7198 ], [ -76.999318982368393, 39.719829949582298 ], [ -77.005370959907196, 39.719851486485702 ], [ -77.043520871440293, 39.719987248879697 ], [ -77.047104, 39.72 ], [ -77.058204, 39.7202 ], [ -77.058904, 39.7201 ], [ -77.066956098057403, 39.720094798583901 ], [ -77.107532091461394, 39.720068587697902 ], [ -77.122508062216795, 39.720058913665802 ], [ -77.1666405411748, 39.720030405395804 ], [ -77.200036717000202, 39.720008832458603 ], [ -77.209755038864202, 39.7200025547114 ], [ -77.216806, 39.719998 ], [ -77.217024, 39.719998 ], [ -77.217243539106093, 39.719998 ], [ -77.239807, 39.719998 ], [ -77.243307, 39.719998 ], [ -77.243577076193503, 39.719998023917697 ], [ -77.293009991285601, 39.72000240165 ], [ -77.306940991530595, 39.720003635366197 ], [ -77.320259180189495, 39.720004814812398 ], [ -77.350577990922702, 39.720007499817697 ], [ -77.3506753876148, 39.720007508443103 ], [ -77.363064304838403, 39.720008605593897 ], [ -77.369520990065695, 39.720009177391802 ], [ -77.380242637188204, 39.720010126890699 ], [ -77.407419986403198, 39.720012533691097 ], [ -77.459134607492501, 39.720017113489099 ], [ -77.463865882811902, 39.720017532486402 ], [ -77.469145, 39.720018 ], [ -77.481618065048295, 39.7200465482602 ], [ -77.496585704415807, 39.720080806083999 ], [ -77.499223728541097, 39.7200868439744 ], [ -77.506589504012396, 39.720103702707497 ], [ -77.506909630507806, 39.720104435410697 ], [ -77.527211288739096, 39.720150901697799 ], [ -77.533371, 39.720165 ], [ -77.534758, 39.720134 ], [ -77.543409903656993, 39.720174525023097 ], [ -77.567421148393507, 39.720286992323601 ], [ -77.574391717728403, 39.720319642072702 ], [ -77.669605603974603, 39.720765618483803 ], [ -77.672249, 39.720778 ], [ -77.674311372713404, 39.720840606122799 ], [ -77.674522, 39.720847 ], [ -77.713543171554406, 39.720883980925997 ], [ -77.721675242272397, 39.7208916878065 ], [ -77.724073000037706, 39.720893960196001 ], [ -77.724115, 39.720894 ], [ -77.726015549043098, 39.720938718801001 ], [ -77.7276136513334, 39.7209763212078 ], [ -77.732615, 39.721094 ], [ -77.732935526423404, 39.721097359942704 ], [ -77.743178684149299, 39.721204734624699 ], [ -77.743204, 39.721205 ], [ -77.745205533412403, 39.721217089799097 ], [ -77.768325008288002, 39.721356737633897 ], [ -77.768534, 39.721358 ], [ -77.789553217344803, 39.721528434111498 ], [ -77.790033629790202, 39.721532329531001 ], [ -77.847604755574295, 39.721999144422902 ], [ -77.847607971336899, 39.721999170497902 ], [ -77.874719, 39.722219 ], [ -77.876017996839906, 39.722219620071101 ], [ -77.937400040612303, 39.722248920553803 ], [ -77.937409192019899, 39.722248924922198 ], [ -77.947420066921893, 39.7222537035749 ], [ -77.995596059334005, 39.7222767001997 ], [ -78.059660002891803, 39.722307280876898 ], [ -78.060163538762396, 39.722307521237802 ], [ -78.073736, 39.722314 ], [ -78.075771, 39.722301 ], [ -78.099140063951197, 39.722322140322497 ], [ -78.148637950319994, 39.722366917523701 ], [ -78.175700992401502, 39.722391399524298 ], [ -78.176150827342099, 39.7223918064578 ], [ -78.184597360434694, 39.722399447432799 ], [ -78.202895, 39.722416 ], [ -78.20445, 39.72252 ], [ -78.224640603625105, 39.722507621411197 ], [ -78.240334, 39.722498 ], [ -78.243103, 39.722481 ], [ -78.268948, 39.72259 ], [ -78.26902, 39.722613 ], [ -78.281730013973004, 39.722628657039699 ], [ -78.330715, 39.722689 ], [ -78.337111, 39.722461 ], [ -78.339539, 39.722552 ], [ -78.340498, 39.722514 ], [ -78.34252, 39.722539 ], [ -78.342834166083804, 39.722538810819898 ], [ -78.380598950062506, 39.722516070161603 ], [ -78.425180358663397, 39.722489224765603 ], [ -78.438839, 39.722481 ], [ -78.461422, 39.722869 ], [ -78.493469233713199, 39.7227097721345 ], [ -78.537702, 39.72249 ], [ -78.546415, 39.722869 ], [ -78.575893, 39.722561 ], [ -78.610328657591594, 39.722673425065402 ], [ -78.633802765575794, 39.722750063013102 ], [ -78.658260140676006, 39.722829911117998 ], [ -78.659222197819105, 39.722833052029003 ], [ -78.706448666220098, 39.722987236359103 ], [ -78.720771735558401, 39.723033998120599 ], [ -78.723529, 39.723043 ], [ -78.742492054077999, 39.723018525297803 ], [ -78.742523039345897, 39.723018485306604 ], [ -78.761136083198394, 39.722994462345703 ], [ -78.772540957076302, 39.722979742623302 ], [ -78.789527050102393, 39.7229578194897 ], [ -78.808374699541901, 39.722933493734701 ], [ -78.815374034150693, 39.722924460030001 ], [ -78.837652932506302, 39.722895705726899 ], [ -78.845343867644004, 39.722885779406703 ], [ -78.849932861715203, 39.7228798566127 ], [ -78.853870593645397, 39.722874774371398 ], [ -78.885741949659504, 39.722833639544497 ], [ -78.903141757499796, 39.722811182449 ], [ -78.914850962661305, 39.722796069940799 ], [ -78.928418673814804, 39.722778558748303 ], [ -78.931176, 39.722775 ], [ -78.960656886838095, 39.722802838420101 ], [ -79.045548, 39.722883 ], [ -79.048774081613601, 39.722869492952398 ], [ -79.056578130825997, 39.722836818743602 ], [ -79.087374536245605, 39.722707879502998 ], [ -79.087425940630595, 39.7227076642817 ], [ -79.208352335991606, 39.722201366310301 ], [ -79.249110212356399, 39.722030720108101 ], [ -79.291726486247398, 39.721852293115802 ], [ -79.299835271613503, 39.721818343029298 ], [ -79.317643711650405, 39.7217437821608 ], [ -79.335005014716202, 39.721671093377701 ], [ -79.392458382635695, 39.721430546030398 ], [ -79.476662, 39.721078 ], [ -79.487318942530806, 39.721033474245402 ], [ -79.523784904387796, 39.720881115868202 ], [ -79.548465, 39.720778 ], [ -79.608223, 39.721154 ], [ -79.610623, 39.721245 ], [ -79.624356832779199, 39.721202942373402 ], [ -79.660825898066506, 39.721091261799202 ], [ -79.718985804489805, 39.720913156555902 ], [ -79.763774, 39.720776 ], [ -79.852904, 39.720713 ], [ -79.853131, 39.720713 ], [ -79.853693992539704, 39.720714609517501 ], [ -79.8573819400102, 39.720725152847102 ], [ -79.858073939588905, 39.720727131177803 ], [ -79.908640666386802, 39.720871694427203 ], [ -79.916170565896493, 39.7208932213642 ], [ -79.916279666847601, 39.720893533268701 ], [ -80.041702119790202, 39.721252098643298 ], [ -80.061298859395606, 39.721308123000298 ], [ -80.061602051488705, 39.721308989784397 ], [ -80.062157064105705, 39.721310576488399 ], [ -80.075947, 39.72135 ] ] ] } }
]
}
