{
"type": "FeatureCollection",
"name": "state-49-outline",
"crs": { "type": "name", "properties": { "name": "urn:ogc:def:crs:OGC:1.3:CRS84" } },
"features": [
{ "type": "Feature", "properties": { "state_fips": "49", "state_abbr": "UT", "state_name": "Utah" }, "geometry": { "type": "Polygon", "coordinates": [ [ [ -113.465893802468997, 37.000097571773502 ], [ -113.484467976215996, 37.000093055702202 ], [ -113.553662806275995, 37.000076231869897 ], [ -113.558067747794993, 37.000075160865102 ], [ -113.560236, 37.000074633682502 ], [ -113.572113153364, 37.000071745905501 ], [ -113.622422174516004, 37.000059513914501 ], [ -113.624289617654, 37.000059059869699 ], [ -113.915981791926995, 36.999988138671803 ], [ -113.965907, 36.999976 ], [ -113.965907, 37.000025 ], [ -114.0506, 37.000396 ], [ -114.051749, 37.088434 ], [ -114.051822, 37.090976 ], [ -114.052827, 37.103961 ], [ -114.051867, 37.134292 ], [ -114.052179, 37.14711 ], [ -114.051673, 37.172368 ], [ -114.051405, 37.233854 ], [ -114.051974, 37.283848 ], [ -114.051974, 37.284511 ], [ -114.0518, 37.293044 ], [ -114.0518, 37.293548 ], [ -114.051888698848998, 37.347263883257902 ], [ -114.051927, 37.370459 ], [ -114.051927, 37.370734 ], [ -114.051765, 37.418083 ], [ -114.052448, 37.43144 ], [ -114.052618830474003, 37.472340731632201 ], [ -114.052701, 37.492014 ], [ -114.052685, 37.502513 ], [ -114.052718, 37.517264 ], [ -114.052689, 37.517859 ], [ -114.052736983833, 37.531028013672803 ], [ -114.052962, 37.592783 ], [ -114.052472, 37.604776 ], [ -114.051843685201007, 37.724038425076898 ], [ -114.051728, 37.745997 ], [ -114.051785, 37.746249 ], [ -114.05167, 37.746958 ], [ -114.051109, 37.756276 ], [ -114.049919, 37.765586 ], [ -114.048473, 37.809861 ], [ -114.049677, 37.823645 ], [ -114.049928, 37.852508 ], [ -114.049658, 37.881368 ], [ -114.050047854371002, 37.941804600544799 ], [ -114.050423, 37.999961 ], [ -114.049903, 38.148601 ], [ -114.049903375658005, 38.148763026670601 ], [ -114.050138, 38.24996 ], [ -114.049417, 38.2647 ], [ -114.05012, 38.404536 ], [ -114.050091, 38.404673 ], [ -114.050485, 38.499955 ], [ -114.049834, 38.543784 ], [ -114.049862, 38.547764 ], [ -114.050154, 38.57292 ], [ -114.050153858879995, 38.572974458300898 ], [ -114.049883347847, 38.677365 ], [ -114.049749, 38.72921 ], [ -114.049168, 38.749951 ], [ -114.049465, 38.874949 ], [ -114.049104, 39.005509 ], [ -114.047923, 39.455766 ], [ -114.047728, 39.542742 ], [ -114.047345688543999, 39.724798715431596 ], [ -114.047273, 39.759413 ], [ -114.047566451232001, 39.779406235182101 ], [ -114.047783, 39.79416 ], [ -114.047214, 39.821024 ], [ -114.047134, 39.906037 ], [ -114.047133613292004, 39.906097685744299 ], [ -114.046658941852996, 39.980587489394203 ], [ -114.046555, 39.996899 ], [ -114.046835, 40.030131 ], [ -114.046386, 40.097896 ], [ -114.046741, 40.104231 ], [ -114.046682520363007, 40.116935402872699 ], [ -114.046153, 40.231971 ], [ -114.046178, 40.398313 ], [ -114.045826, 40.424823 ], [ -114.045218, 40.430282 ], [ -114.045518, 40.494474 ], [ -114.045577, 40.495801 ], [ -114.045281, 40.506586 ], [ -114.043800324697003, 40.6897578740234 ], [ -114.043507102207002, 40.726031939526102 ], [ -114.043505, 40.726292 ], [ -114.043639104049007, 40.739609437055201 ], [ -114.043720674455997, 40.7477099288975 ], [ -114.043799599183004, 40.755547686934001 ], [ -114.043831, 40.758666 ], [ -114.043803, 40.759205 ], [ -114.043176, 40.771675 ], [ -114.042406540382999, 40.942024104864601 ], [ -114.042145133139002, 40.999896524568399 ], [ -114.042145, 40.999926 ], [ -114.041447, 41.207752 ], [ -114.042553, 41.210923 ], [ -114.041396, 41.219958 ], [ -114.040231, 41.49169 ], [ -114.040942, 41.499921 ], [ -114.040439387994994, 41.614831042761701 ], [ -114.040437, 41.615377 ], [ -114.039968, 41.62492 ], [ -114.039901, 41.753781 ], [ -114.041152, 41.850595 ], [ -114.041107, 41.850573 ], [ -114.039648, 41.884816 ], [ -114.041477, 41.993873 ], [ -113.990091, 41.993095 ], [ -113.932742, 41.989966 ], [ -113.901578, 41.988552 ], [ -113.867726, 41.988209 ], [ -113.843337, 41.988442 ], [ -113.764716, 41.989457 ], [ -113.676913, 41.990788 ], [ -113.649246799072998, 41.991149628176501 ], [ -113.60125, 41.991777 ], [ -113.526112, 41.992727 ], [ -113.463596, 41.993527 ], [ -113.396662, 41.994257 ], [ -113.358477, 41.994687 ], [ -113.292824, 41.995497 ], [ -113.186822, 41.996527 ], [ -113.093171, 41.997424 ], [ -113.041588, 41.997865 ], [ -113.000040840116995, 41.998183118931102 ], [ -112.979408161555, 41.998341099540802 ], [ -112.951211, 41.998557 ], [ -112.882288, 41.999089 ], [ -112.833517, 41.999418 ], [ -112.775055, 41.999806 ], [ -112.709441, 42.000117 ], [ -112.687027781615001, 42.000173298192301 ], [ -112.647733, 42.000272 ], [ -112.508568, 42.00077 ], [ -112.44068, 42.000776 ], [ -112.364813, 42.001053 ], [ -112.264882, 42.001158 ], [ -112.241265974480001, 42.001165462405403 ], [ -112.2364, 42.001167 ], [ -112.220733995873999, 42.001179129482502 ], [ -112.186029, 42.001206 ], [ -112.173148, 42.001515 ], [ -112.159177687463995, 41.998410405675301 ], [ -112.153848, 41.997226 ], [ -112.109443425513007, 41.997744832209598 ], [ -112.103866, 41.99781 ], [ -112.040714, 41.998108 ], [ -112.026840056539001, 41.9982256664441 ], [ -112.01218, 41.99835 ], [ -111.974391479592001, 41.9984691293634 ], [ -111.949979637089001, 41.998546088376997 ], [ -111.935099, 41.998593 ], [ -111.933594965260994, 41.998594316653303 ], [ -111.925069160692004, 41.9986017802633 ], [ -111.896111661898999, 41.998627130067803 ], [ -111.844856, 41.998672 ], [ -111.837002781270996, 41.998726918780797 ], [ -111.813157008340994, 41.998893675982202 ], [ -111.812837950399, 41.998895907204002 ], [ -111.798645994081994, 41.998995153763303 ], [ -111.750764, 41.99933 ], [ -111.739701000758004, 41.999330080523201 ], [ -111.613375, 41.999331 ], [ -111.507805977738002, 41.999540798144103 ], [ -111.507800689820002, 41.999540808652803 ], [ -111.478016, 41.9996 ], [ -111.448967, 42.000228 ], [ -111.316717, 42.001193 ], [ -111.299958972867998, 42.001233876840502 ], [ -111.28269, 42.001276 ], [ -111.176285, 42.001443 ], [ -111.046714, 42.001702 ], [ -111.046243031377998, 41.779643604396298 ], [ -111.045819273941007, 41.579844950485899 ], [ -111.045789, 41.565571 ], [ -111.045900228888001, 41.521585243338599 ], [ -111.046264, 41.377731 ], [ -111.0466, 41.360692 ], [ -111.046551, 41.251716 ], [ -111.046551060423994, 41.251626854310999 ], [ -111.046553444108994, 41.248110128375401 ], [ -111.046585430988003, 41.200918882352497 ], [ -111.046615849252007, 41.1560418629794 ], [ -111.046723, 40.997959 ], [ -111.033831339271003, 40.997910568511998 ], [ -110.872056647565998, 40.997302812132901 ], [ -110.864763724197999, 40.997275414023498 ], [ -110.750727, 40.996847 ], [ -110.729799349356995, 40.996553903859201 ], [ -110.715026, 40.996347 ], [ -110.606820908805005, 40.996346382415702 ], [ -110.545663924880998, 40.996346033360098 ], [ -110.539819, 40.996346 ], [ -110.500718, 40.994746 ], [ -110.375714, 40.994947 ], [ -110.282572048475004, 40.9957979108327 ], [ -110.250709, 40.996089 ], [ -110.237848, 40.995427 ], [ -110.125709, 40.99655 ], [ -110.121639, 40.997101 ], [ -110.048482511407002, 40.997554638338599 ], [ -110.006495, 40.997815 ], [ -110.000708, 40.997352 ], [ -109.999838, 40.99733 ], [ -109.97553, 40.997912 ], [ -109.855299, 40.997614 ], [ -109.854302, 40.997661 ], [ -109.748438889192997, 40.998064961673599 ], [ -109.732456782561002, 40.998125947587297 ], [ -109.715409, 40.998191 ], [ -109.713877, 40.998266 ], [ -109.708538214862998, 40.998284386994897 ], [ -109.676634193313006, 40.998394265753497 ], [ -109.676421, 40.998395 ], [ -109.586134896323003, 40.998234202105202 ], [ -109.565094344212, 40.998196729267796 ], [ -109.534926, 40.998143 ], [ -109.500694, 40.999127 ], [ -109.250735, 41.001009 ], [ -109.231985, 41.002059 ], [ -109.173682, 41.000859 ], [ -109.050076, 41.000659 ], [ -109.048455, 40.826081 ], [ -109.049088, 40.714562 ], [ -109.048372974241005, 40.662608858969001 ], [ -109.048249, 40.653601 ], [ -109.048044, 40.619231 ], [ -109.050074, 40.540358 ], [ -109.050061265436995, 40.540309094995699 ], [ -109.049955, 40.539901 ], [ -109.050698, 40.499963 ], [ -109.050314, 40.495092 ], [ -109.050946, 40.444368 ], [ -109.050968717402, 40.222647002020203 ], [ -109.050973, 40.180849 ], [ -109.050944, 40.180712 ], [ -109.050935718229994, 40.173054017608003 ], [ -109.050813, 40.059579 ], [ -109.050873, 40.058915 ], [ -109.050615, 39.87497 ], [ -109.051040251033996, 39.660470649351801 ], [ -109.051362941958999, 39.497703276010597 ], [ -109.051363, 39.497674 ], [ -109.051199943037005, 39.461954981719998 ], [ -109.050765, 39.366677 ], [ -109.051512, 39.126095 ], [ -109.051582259726999, 39.116505763904399 ], [ -109.052272287311993, 39.022328947026203 ], [ -109.052436, 38.999985 ], [ -109.053292, 38.942878 ], [ -109.053233, 38.942467 ], [ -109.053797, 38.905284 ], [ -109.053943, 38.904414 ], [ -109.054189, 38.874984 ], [ -109.057388, 38.795456 ], [ -109.059541, 38.719888 ], [ -109.060253, 38.599328 ], [ -109.059962121447995, 38.500028459545 ], [ -109.059962, 38.499987 ], [ -109.060062, 38.275489 ], [ -109.054648, 38.244921 ], [ -109.041762, 38.16469 ], [ -109.041836576110995, 38.153032090353904 ], [ -109.04282, 37.999301 ], [ -109.042819, 37.997068 ], [ -109.043121, 37.97426 ], [ -109.041058, 37.907236 ], [ -109.041654683556004, 37.8810851664933 ], [ -109.041844, 37.872788 ], [ -109.041723, 37.842051 ], [ -109.041754, 37.835826 ], [ -109.041461, 37.800105 ], [ -109.042098, 37.74999 ], [ -109.041636, 37.74021 ], [ -109.04176, 37.713182 ], [ -109.041732, 37.711214 ], [ -109.042269, 37.666067 ], [ -109.042089, 37.623795 ], [ -109.042131, 37.617662 ], [ -109.041806, 37.604171 ], [ -109.041865, 37.530726 ], [ -109.041915, 37.530653 ], [ -109.043137, 37.499992 ], [ -109.043461439769004, 37.484820040900303 ], [ -109.04581, 37.374993 ], [ -109.045837973618006, 37.359723557672197 ], [ -109.045898179245995, 37.326860223832398 ], [ -109.046039, 37.249993 ], [ -109.045584, 37.249351 ], [ -109.045560197361993, 37.239901843323402 ], [ -109.045487, 37.210844 ], [ -109.045978, 37.201831 ], [ -109.045995, 37.177279 ], [ -109.045646263799995, 37.150171930524301 ], [ -109.045156, 37.112064 ], [ -109.045203, 37.111958 ], [ -109.045173, 37.109464 ], [ -109.045189, 37.096271 ], [ -109.044995, 37.086429 ], [ -109.045058, 37.074661 ], [ -109.045166, 37.072742 ], [ -109.045205263230002, 37.022004262727798 ], [ -109.045208354365997, 37.018009756519497 ], [ -109.045223, 36.999084 ], [ -109.181196, 36.999271 ], [ -109.233848, 36.999266 ], [ -109.246917, 36.999346 ], [ -109.26339, 36.999263 ], [ -109.268213, 36.999242 ], [ -109.270097, 36.999266 ], [ -109.319809669272004, 36.999205667972802 ], [ -109.340792389992998, 36.999180203034101 ], [ -109.355672826627995, 36.999162143917196 ], [ -109.378039, 36.999135 ], [ -109.381226, 36.999148 ], [ -109.382561357236, 36.999147496806998 ], [ -109.471563064639994, 36.999113958937002 ], [ -109.471586983400996, 36.999113949923903 ], [ -109.495338, 36.999105 ], [ -109.625668, 36.998308 ], [ -109.699221369531998, 36.9983656646884 ], [ -109.699230934401996, 36.998365672187099 ], [ -109.709765300916999, 36.9983739309653 ], [ -109.875673, 36.998504 ], [ -109.933854316199998, 36.998254526499302 ], [ -109.934143909271, 36.998253284763898 ], [ -110.000677, 36.997968 ], [ -110.000682037915993, 36.997981518830201 ], [ -110.000876, 36.998502 ], [ -110.021778, 36.998602 ], [ -110.134355221418005, 36.998450110177799 ], [ -110.145951204357004, 36.998434464812199 ], [ -110.146636252722999, 36.9984335405411 ], [ -110.149860926288, 36.998429189793299 ], [ -110.175705426842995, 36.998394320247399 ], [ -110.175761193266993, 36.998394245006999 ], [ -110.275924346886995, 36.998259104315103 ], [ -110.275977060472002, 36.998259033193598 ], [ -110.467308447785001, 36.998000887806498 ], [ -110.467578610318, 36.998000523301698 ], [ -110.47019, 36.997997 ], [ -110.487555898024993, 37.0026649547302 ], [ -110.490908, 37.003566 ], [ -110.50069, 37.00426 ], [ -110.599512, 37.003448 ], [ -110.625605, 37.003416 ], [ -110.62569, 37.003721 ], [ -110.701942374555003, 37.003401350045898 ], [ -110.75069, 37.003197 ], [ -111.060033147205999, 37.002405535420699 ], [ -111.060057406492007, 37.002405473352503 ], [ -111.066496, 37.002389 ], [ -111.133718, 37.000779 ], [ -111.140127069254007, 37.000794766728298 ], [ -111.141520840861006, 37.000798195497403 ], [ -111.143364391014998, 37.000802730750998 ], [ -111.143404696616997, 37.000802829905403 ], [ -111.231195230490997, 37.001018800344099 ], [ -111.234974655288994, 37.001028097975599 ], [ -111.235043161709001, 37.001028266505898 ], [ -111.238030709476007, 37.001035616068201 ], [ -111.253281104395001, 37.001073133034303 ], [ -111.253341886141996, 37.0010732825614 ], [ -111.254853, 37.001077 ], [ -111.278286, 37.000465 ], [ -111.296225902437001, 37.000610514688397 ], [ -111.297995965110999, 37.0006248720752 ], [ -111.309918291594997, 37.000721576816403 ], [ -111.312836667205005, 37.000745248434399 ], [ -111.315954380676999, 37.000770536927803 ], [ -111.316088721445993, 37.000771626596801 ], [ -111.355401207998, 37.001090499246601 ], [ -111.357773035728002, 37.001109737688701 ], [ -111.363062712043003, 37.001152643473901 ], [ -111.363966557078996, 37.0011599747695 ], [ -111.391120893896002, 37.001380229861397 ], [ -111.401383280076999, 37.001463470443802 ], [ -111.404752066548994, 37.001490795448298 ], [ -111.405517, 37.001497 ], [ -111.405869, 37.001481 ], [ -111.406146044242007, 37.001480867273202 ], [ -111.411676, 37.001478217972704 ], [ -111.413013987341003, 37.001477576967503 ], [ -111.506848096027994, 37.0014326227654 ], [ -111.547537817412007, 37.001413129065497 ], [ -111.565617878422003, 37.001404467239603 ], [ -111.621968057329994, 37.001377470901403 ], [ -111.635071990032003, 37.001371193047397 ], [ -111.865423380272006, 37.001260835917201 ], [ -112.35769, 37.001025 ], [ -112.368946, 37.001125 ], [ -112.375363260501999, 37.001107929432699 ], [ -112.378340654436002, 37.001100009261201 ], [ -112.484281665346998, 37.000818195369298 ], [ -112.504442, 37.000764566823399 ], [ -112.529758801081996, 37.000697221550901 ], [ -112.529776882939998, 37.0006971734513 ], [ -112.53844477154, 37.000674115983799 ], [ -112.538582856207995, 37.000673748664497 ], [ -112.540368, 37.000669 ], [ -112.540541, 37.000671379390603 ], [ -112.545094, 37.000734 ], [ -112.548249738107998, 37.000724450936602 ], [ -112.558974, 37.000692 ], [ -112.566, 37.000700434573801 ], [ -112.609787, 37.000753 ], [ -112.829502251107996, 37.000424059133302 ], [ -112.861448771286007, 37.000376231247103 ], [ -112.899190902277994, 37.0003197266157 ], [ -112.937648009209994, 37.000262151576997 ], [ -112.953185990368993, 37.000238889300199 ], [ -112.955989016008004, 37.000234692824598 ], [ -112.966471, 37.000219 ], [ -112.966581003154005, 37.0002189732541 ], [ -112.998830014377006, 37.0002111323221 ], [ -113.010331015885995, 37.000208336001599 ], [ -113.016407829350001, 37.000206858502601 ], [ -113.079902031223995, 37.000191420704702 ], [ -113.274535032732004, 37.000144098195399 ], [ -113.306408551035005, 37.0001363485597 ], [ -113.320966034235994, 37.000132809095 ], [ -113.409578802791003, 37.000111264040797 ], [ -113.457763957034004, 37.000099548440801 ], [ -113.465893802468997, 37.000097571773502 ] ] ] } }
]
}
