{
"type": "FeatureCollection",
"name": "state-04-outline",
"crs": { "type": "name", "properties": { "name": "urn:ogc:def:crs:OGC:1.3:CRS84" } },
"features": [
{ "type": "Feature", "properties": { "state_fips": "04", "state_abbr": "AZ", "state_name": "Arizona" }, "geometry": { "type": "Polygon", "coordinates": [ [ [ -114.752472346803003, 32.475862471020598 ], [ -114.757194656582001, 32.477284750726902 ], [ -114.761016460288999, 32.478435813259601 ], [ -114.769509397142002, 32.4809937419638 ], [ -114.782560768390994, 32.484924593884998 ], [ -114.813613, 32.494277 ], [ -114.813991, 32.497231 ], [ -114.812316, 32.500054 ], [ -114.813753, 32.50426 ], [ -114.814844, 32.505603 ], [ -114.81651, 32.506963 ], [ -114.816294, 32.508038 ], [ -114.814321, 32.509023 ], [ -114.810159, 32.508383 ], [ -114.807726, 32.508726 ], [ -114.805239, 32.509985 ], [ -114.802833, 32.511749 ], [ -114.802142, 32.514813 ], [ -114.804049, 32.516489 ], [ -114.808139, 32.516783 ], [ -114.810374, 32.518391 ], [ -114.809723, 32.520153 ], [ -114.811536, 32.522834 ], [ -114.811863887073997, 32.523141545758897 ], [ -114.813293, 32.524482 ], [ -114.810563, 32.527666 ], [ -114.8064, 32.531192 ], [ -114.802181, 32.536414 ], [ -114.802018, 32.53946 ], [ -114.804776, 32.541659 ], [ -114.805966, 32.545346 ], [ -114.80583, 32.546354 ], [ -114.803883, 32.548002 ], [ -114.795635, 32.550956 ], [ -114.795239191464006, 32.551247235326997 ], [ -114.793769, 32.552329 ], [ -114.792065, 32.555009 ], [ -114.791551, 32.557023 ], [ -114.791988, 32.560652 ], [ -114.793312, 32.561976 ], [ -114.791911, 32.566131 ], [ -114.791851307871994, 32.566834955439603 ], [ -114.791766, 32.567841 ], [ -114.792818, 32.569345 ], [ -114.794233, 32.569057 ], [ -114.794928, 32.567901 ], [ -114.795243, 32.566131 ], [ -114.79766, 32.564444 ], [ -114.800716, 32.563208 ], [ -114.804372, 32.559903 ], [ -114.808885, 32.558467 ], [ -114.812631, 32.559537 ], [ -114.813617, 32.561331 ], [ -114.814185, 32.564788 ], [ -114.812995, 32.568706 ], [ -114.809234, 32.570793 ], [ -114.804421, 32.572942 ], [ -114.801877, 32.57601 ], [ -114.801471, 32.578255 ], [ -114.803879, 32.580889 ], [ -114.803987, 32.582652 ], [ -114.802823, 32.58508 ], [ -114.800441, 32.58808 ], [ -114.800305976562001, 32.588865974499697 ], [ -114.799737, 32.592178 ], [ -114.799683, 32.593621 ], [ -114.801548, 32.598591 ], [ -114.802361, 32.59937 ], [ -114.805932, 32.600721 ], [ -114.807906, 32.602783 ], [ -114.809042, 32.608806 ], [ -114.809393, 32.617119 ], [ -114.80739, 32.621332 ], [ -114.799302, 32.625115 ], [ -114.797565, 32.624578 ], [ -114.794102, 32.622475 ], [ -114.791179, 32.621833 ], [ -114.781872, 32.62505 ], [ -114.78267, 32.628634 ], [ -114.782235, 32.630215 ], [ -114.781282, 32.631459 ], [ -114.780041797500999, 32.632731002563297 ], [ -114.779215, 32.633579 ], [ -114.774482, 32.635869 ], [ -114.764382, 32.642666 ], [ -114.763932279756006, 32.643484474063698 ], [ -114.76331, 32.644617 ], [ -114.763512, 32.645996 ], [ -114.765067, 32.648047 ], [ -114.76495, 32.649391 ], [ -114.75831, 32.655178 ], [ -114.753111, 32.658304 ], [ -114.748, 32.664184 ], [ -114.747848, 32.667693 ], [ -114.747046187197, 32.669132611160499 ], [ -114.745345, 32.672187 ], [ -114.744491, 32.678671 ], [ -114.730453, 32.698843 ], [ -114.730041, 32.699675 ], [ -114.730086, 32.704298 ], [ -114.722746, 32.713071 ], [ -114.719633, 32.718763 ], [ -114.717665, 32.721654 ], [ -114.715788, 32.727758 ], [ -114.714522, 32.73039 ], [ -114.705717, 32.741581 ], [ -114.701918, 32.745548 ], [ -114.700743, 32.745617 ], [ -114.69879, 32.744846 ], [ -114.688779, 32.737675 ], [ -114.684278, 32.737537 ], [ -114.678632, 32.736614 ], [ -114.677091, 32.736218 ], [ -114.667493, 32.734226 ], [ -114.665487719767995, 32.734134229403502 ], [ -114.65884, 32.73383 ], [ -114.65826, 32.733799 ], [ -114.650371261603993, 32.732888096563499 ], [ -114.646102318402995, 32.732395166663103 ], [ -114.64601, 32.732384506764603 ], [ -114.632686, 32.730846 ], [ -114.629294690134003, 32.730229721305001 ], [ -114.624508461554001, 32.729359953923201 ], [ -114.624496409513995, 32.729357763791398 ], [ -114.624329564017998, 32.729327444142399 ], [ -114.618373, 32.728245 ], [ -114.615669227736007, 32.728439927627399 ], [ -114.615585, 32.728446 ], [ -114.615733, 32.729427 ], [ -114.614772, 32.734089 ], [ -114.612697, 32.734516 ], [ -114.583170146883006, 32.734926718689202 ], [ -114.583103106428993, 32.7349276512223 ], [ -114.581784, 32.734946 ], [ -114.581736, 32.742321 ], [ -114.564508, 32.742298 ], [ -114.564447, 32.749554 ], [ -114.551514371148002, 32.749686284749799 ], [ -114.55150196065, 32.749686411693801 ], [ -114.539224, 32.749812 ], [ -114.539093, 32.756949 ], [ -114.526856, 32.757094 ], [ -114.527371316523997, 32.760400208473399 ], [ -114.528443, 32.767276 ], [ -114.531831, 32.774264 ], [ -114.532432, 32.776923 ], [ -114.531746, 32.782503 ], [ -114.531669, 32.791185 ], [ -114.530755, 32.793485 ], [ -114.528849, 32.796307 ], [ -114.522031, 32.801675 ], [ -114.520385, 32.803577 ], [ -114.519758, 32.805676 ], [ -114.515389, 32.811439 ], [ -114.510217, 32.816417 ], [ -114.501581243282004, 32.820094452188599 ], [ -114.496827, 32.822119 ], [ -114.496284, 32.822326 ], [ -114.494116, 32.823288 ], [ -114.490067635030996, 32.826710361210999 ], [ -114.490040327814, 32.826733445879 ], [ -114.489296303741, 32.827362420575099 ], [ -114.489291879438994, 32.827366160741597 ], [ -114.475892, 32.838694 ], [ -114.468971, 32.845155 ], [ -114.465546, 32.874809 ], [ -114.465715, 32.879191 ], [ -114.465715, 32.87942 ], [ -114.465293247293999, 32.883080839565302 ], [ -114.463127, 32.901884 ], [ -114.462929, 32.907944 ], [ -114.46365, 32.911682 ], [ -114.464448, 32.913129 ], [ -114.473713, 32.920594 ], [ -114.47664, 32.923628 ], [ -114.479005, 32.928291 ], [ -114.48092, 32.935252 ], [ -114.48074, 32.937027 ], [ -114.478456, 32.940555 ], [ -114.474042, 32.94515 ], [ -114.470833, 32.949333 ], [ -114.469113, 32.952673 ], [ -114.46773, 32.956323 ], [ -114.467272, 32.960675 ], [ -114.467485817778993, 32.964049175465597 ], [ -114.467664, 32.966861 ], [ -114.469039, 32.972295 ], [ -114.470625420779001, 32.973731650936102 ], [ -114.470988, 32.97406 ], [ -114.476156, 32.975168 ], [ -114.480417, 32.973665 ], [ -114.481315, 32.972064 ], [ -114.488625, 32.969946 ], [ -114.490129, 32.969885 ], [ -114.492938, 32.971781 ], [ -114.494212, 32.974262 ], [ -114.495712, 32.980076 ], [ -114.497315, 32.991474 ], [ -114.499797, 33.003905 ], [ -114.502871, 33.011153 ], [ -114.50613, 33.01701 ], [ -114.511343, 33.023455 ], [ -114.5149, 33.026524 ], [ -114.516877541008995, 33.027832277608098 ], [ -114.52013, 33.029984 ], [ -114.523578, 33.030961 ], [ -114.538459, 33.033422 ], [ -114.553189, 33.033974 ], [ -114.571653, 33.036624 ], [ -114.575161, 33.036542 ], [ -114.578287, 33.035375 ], [ -114.581404, 33.032545 ], [ -114.584765, 33.028231 ], [ -114.586982, 33.026945 ], [ -114.589778, 33.026228 ], [ -114.601014, 33.02541 ], [ -114.618788, 33.027202 ], [ -114.625787, 33.029436 ], [ -114.628293, 33.031052 ], [ -114.63419, 33.039025 ], [ -114.639553, 33.045291 ], [ -114.641622, 33.046896 ], [ -114.64598, 33.048903 ], [ -114.649001, 33.046763 ], [ -114.655038, 33.037107 ], [ -114.657827, 33.033825 ], [ -114.659832, 33.032665 ], [ -114.662317, 33.032671 ], [ -114.66506, 33.033908 ], [ -114.670803, 33.037984 ], [ -114.673659, 33.041897 ], [ -114.675104, 33.047532 ], [ -114.674296, 33.057171 ], [ -114.686991, 33.070969 ], [ -114.68912, 33.076122 ], [ -114.689307, 33.079179 ], [ -114.688597, 33.082869 ], [ -114.68902, 33.084036 ], [ -114.692548, 33.085786 ], [ -114.694628, 33.086226 ], [ -114.701165, 33.086368 ], [ -114.70473, 33.087051 ], [ -114.706488, 33.08816 ], [ -114.707819, 33.091102 ], [ -114.707896, 33.097432 ], [ -114.706175, 33.105335 ], [ -114.703682, 33.113769 ], [ -114.696829, 33.131209 ], [ -114.689995, 33.137883 ], [ -114.687074, 33.142196 ], [ -114.684489, 33.148121 ], [ -114.682253, 33.155214 ], [ -114.679359, 33.159519 ], [ -114.678729, 33.162948 ], [ -114.680248, 33.169717 ], [ -114.679034, 33.174738 ], [ -114.675831, 33.18152 ], [ -114.67536, 33.185489 ], [ -114.67519, 33.188179 ], [ -114.678178, 33.199584 ], [ -114.678749, 33.203448 ], [ -114.676072, 33.210835 ], [ -114.673715, 33.219245 ], [ -114.673626, 33.223121 ], [ -114.674479, 33.225504 ], [ -114.678097, 33.2303 ], [ -114.682731, 33.234918 ], [ -114.689421, 33.24525 ], [ -114.689541, 33.246428 ], [ -114.688205, 33.247966 ], [ -114.674491, 33.255597 ], [ -114.672088, 33.258499 ], [ -114.672401, 33.26047 ], [ -114.677032, 33.27017 ], [ -114.680507, 33.273577 ], [ -114.684363, 33.276025 ], [ -114.694449, 33.279786 ], [ -114.702873, 33.281916 ], [ -114.711197, 33.283342 ], [ -114.717875, 33.285157 ], [ -114.72167, 33.286982 ], [ -114.723259, 33.288079 ], [ -114.731223, 33.302434 ], [ -114.731222, 33.304039 ], [ -114.729904, 33.305745 ], [ -114.723623, 33.31211 ], [ -114.710792, 33.320607 ], [ -114.707962, 33.323421 ], [ -114.705241, 33.327767 ], [ -114.700938, 33.337014 ], [ -114.698035, 33.352442 ], [ -114.69817, 33.356575 ], [ -114.699053, 33.361148 ], [ -114.707348, 33.376628 ], [ -114.707009, 33.380634 ], [ -114.70731, 33.382542 ], [ -114.708408, 33.384147 ], [ -114.713602, 33.388257 ], [ -114.722872, 33.398779 ], [ -114.725292, 33.402342 ], [ -114.725535, 33.404056 ], [ -114.725282, 33.405048 ], [ -114.723829, 33.406531 ], [ -114.720065, 33.407891 ], [ -114.710878, 33.407254 ], [ -114.701732, 33.408388 ], [ -114.697707, 33.410942 ], [ -114.696805, 33.412087 ], [ -114.696504, 33.414059 ], [ -114.695655, 33.415127 ], [ -114.687953, 33.417944 ], [ -114.673901, 33.418299 ], [ -114.658382, 33.413036 ], [ -114.652828, 33.412922 ], [ -114.64954, 33.413633 ], [ -114.643302, 33.416745 ], [ -114.641011979289999, 33.418431982863098 ], [ -114.635183, 33.422726 ], [ -114.62964, 33.428138 ], [ -114.627125, 33.433554 ], [ -114.622283, 33.447558 ], [ -114.623395, 33.45449 ], [ -114.622918, 33.456561 ], [ -114.612472, 33.470768 ], [ -114.607843, 33.474834 ], [ -114.601696, 33.481394 ], [ -114.599713, 33.484315 ], [ -114.598758574829006, 33.486804360796597 ], [ -114.597283, 33.490653 ], [ -114.591554, 33.499443 ], [ -114.588239, 33.502453 ], [ -114.580468, 33.506465 ], [ -114.573757, 33.507543 ], [ -114.569533, 33.509219 ], [ -114.560963, 33.516739 ], [ -114.560552, 33.518272 ], [ -114.560835, 33.524334 ], [ -114.559507, 33.530724 ], [ -114.558898, 33.531819 ], [ -114.542011, 33.542481 ], [ -114.524599, 33.552231 ], [ -114.524391, 33.553683 ], [ -114.526834, 33.557466 ], [ -114.535664, 33.568788 ], [ -114.535776659747995, 33.568924988265202 ], [ -114.535965, 33.569154 ], [ -114.5403, 33.580615 ], [ -114.540617, 33.591412 ], [ -114.532699779218007, 33.601965985677701 ], [ -114.530747305600002, 33.604568714484003 ], [ -114.530613187818005, 33.604747499083402 ], [ -114.529186, 33.60665 ], [ -114.526782, 33.608831 ], [ -114.522071, 33.611277 ], [ -114.522367, 33.614172 ], [ -114.527735, 33.618473 ], [ -114.52908, 33.621711 ], [ -114.531215, 33.623913 ], [ -114.531085, 33.627915 ], [ -114.530311, 33.629037 ], [ -114.52637, 33.630259 ], [ -114.523802, 33.6347 ], [ -114.524862165791006, 33.638674955781703 ], [ -114.525394, 33.640669 ], [ -114.528546558055993, 33.643090892975799 ], [ -114.529549, 33.643861 ], [ -114.533215, 33.648443 ], [ -114.533194, 33.65166 ], [ -114.530583, 33.654461 ], [ -114.525163, 33.655939 ], [ -114.518337, 33.655927 ], [ -114.514559, 33.658014 ], [ -114.514057, 33.660179 ], [ -114.515336, 33.662033 ], [ -114.517112, 33.662877 ], [ -114.519739017942001, 33.662732325789101 ], [ -114.520671, 33.662681 ], [ -114.526439, 33.66388 ], [ -114.530267, 33.666821 ], [ -114.532123, 33.669702 ], [ -114.531523, 33.675108 ], [ -114.531037898226998, 33.676815971094101 ], [ -114.530348, 33.679245 ], [ -114.527782, 33.682684 ], [ -114.523959, 33.685879 ], [ -114.519113, 33.688473 ], [ -114.512409, 33.691282 ], [ -114.509861047366996, 33.691879820601599 ], [ -114.504993, 33.693022 ], [ -114.496489, 33.696901 ], [ -114.495719, 33.698454 ], [ -114.494197, 33.707922 ], [ -114.494901, 33.71443 ], [ -114.496565, 33.719155 ], [ -114.500788, 33.722204 ], [ -114.502661, 33.724584 ], [ -114.504176, 33.728055 ], [ -114.506799, 33.730518 ], [ -114.510265, 33.732146 ], [ -114.512348, 33.734214 ], [ -114.511914054810006, 33.734986447582202 ], [ -114.508206, 33.741587 ], [ -114.506, 33.746344 ], [ -114.504483, 33.750998 ], [ -114.50434, 33.756381 ], [ -114.504829854199002, 33.760206171218101 ], [ -114.504863, 33.760465 ], [ -114.507089, 33.76793 ], [ -114.516734, 33.788345 ], [ -114.520094, 33.799473 ], [ -114.52805, 33.814963 ], [ -114.527161, 33.816191 ], [ -114.522714, 33.818979 ], [ -114.520733, 33.822031 ], [ -114.51997, 33.825381 ], [ -114.520465, 33.827778 ], [ -114.523409, 33.835323 ], [ -114.525539, 33.838614 ], [ -114.529597, 33.848063 ], [ -114.530545800514005, 33.854993001374702 ], [ -114.530607, 33.85544 ], [ -114.529494873486996, 33.856875001952297 ], [ -114.52791, 33.85892 ], [ -114.523625, 33.860054 ], [ -114.516811, 33.85812 ], [ -114.514673, 33.858638 ], [ -114.505638, 33.864276 ], [ -114.503887, 33.865754 ], [ -114.503017, 33.867998 ], [ -114.503395, 33.875018 ], [ -114.50434, 33.876882 ], [ -114.510138, 33.880777 ], [ -114.516112, 33.886132 ], [ -114.523634, 33.893638 ], [ -114.524782, 33.89563 ], [ -114.525872, 33.901008 ], [ -114.525053, 33.901641 ], [ -114.522943, 33.901131 ], [ -114.516344, 33.897918 ], [ -114.513715, 33.897959 ], [ -114.510944, 33.899099 ], [ -114.508708, 33.90064 ], [ -114.507988, 33.901813 ], [ -114.50792, 33.903807 ], [ -114.508558, 33.906098 ], [ -114.511511, 33.911092 ], [ -114.518434, 33.917518 ], [ -114.525361, 33.922272 ], [ -114.528385, 33.923674 ], [ -114.533682207240005, 33.925133792846999 ], [ -114.534572, 33.925379 ], [ -114.535765, 33.927604 ], [ -114.535478, 33.934651 ], [ -114.52868, 33.947817 ], [ -114.522002, 33.955623 ], [ -114.51586, 33.958106 ], [ -114.511231, 33.95704 ], [ -114.509568, 33.957264 ], [ -114.499883, 33.961789 ], [ -114.495047, 33.966835 ], [ -114.484784, 33.975519 ], [ -114.483097, 33.977745 ], [ -114.482333, 33.980181 ], [ -114.481455, 33.981261 ], [ -114.475907, 33.984424 ], [ -114.471138, 33.98804 ], [ -114.467932, 33.992877 ], [ -114.466187, 33.993465 ], [ -114.462255, 33.993442 ], [ -114.46012, 33.993888 ], [ -114.458629, 33.995555 ], [ -114.458026, 33.99782 ], [ -114.458175286550997, 33.998103102993497 ], [ -114.459184, 34.000016 ], [ -114.460965, 34.001255 ], [ -114.46628, 34.003885 ], [ -114.46731, 34.00519 ], [ -114.467404, 34.00745 ], [ -114.465867, 34.010987 ], [ -114.464525, 34.011982 ], [ -114.463336, 34.012259 ], [ -114.454807, 34.010968 ], [ -114.450206, 34.012574 ], [ -114.443821, 34.016176 ], [ -114.44054, 34.019329 ], [ -114.438266, 34.022609 ], [ -114.436171, 34.028083 ], [ -114.434949, 34.037784 ], [ -114.435504, 34.042615 ], [ -114.438602, 34.050205 ], [ -114.439406, 34.05381 ], [ -114.43934, 34.057893 ], [ -114.437683, 34.071937 ], [ -114.435429, 34.079727 ], [ -114.434324512725993, 34.086499064597 ], [ -114.434181, 34.087379 ], [ -114.43338, 34.088413 ], [ -114.428026, 34.092787 ], [ -114.426168, 34.097042 ], [ -114.420499, 34.103466 ], [ -114.415908, 34.107636 ], [ -114.411681, 34.110031 ], [ -114.410112035843994, 34.110443468103 ], [ -114.407995742576006, 34.110999824643301 ], [ -114.405941, 34.11154 ], [ -114.401352, 34.111652 ], [ -114.390565, 34.110084 ], [ -114.379234, 34.115988 ], [ -114.369297, 34.117517 ], [ -114.366521, 34.118575 ], [ -114.360402, 34.123577 ], [ -114.356373, 34.130429 ], [ -114.353031, 34.133121 ], [ -114.348052, 34.134458 ], [ -114.336112, 34.134035 ], [ -114.331677818515999, 34.1350820449343 ], [ -114.324576, 34.136759 ], [ -114.320777, 34.138635 ], [ -114.312206, 34.144776 ], [ -114.302188, 34.156110282577302 ], [ -114.299032171974005, 34.159680760378897 ], [ -114.299024281792995, 34.159689687264802 ], [ -114.298672831608997, 34.160087315103802 ], [ -114.292806, 34.166725 ], [ -114.287294, 34.170529 ], [ -114.275267, 34.17215 ], [ -114.268267, 34.17021 ], [ -114.254141, 34.173831 ], [ -114.244191, 34.179625 ], [ -114.240712, 34.183232 ], [ -114.229715, 34.186928 ], [ -114.229023580323002, 34.187427802810099 ], [ -114.227034, 34.188866 ], [ -114.224941, 34.193896 ], [ -114.225861, 34.201774 ], [ -114.225194, 34.203642 ], [ -114.223384, 34.205136 ], [ -114.215454, 34.208956 ], [ -114.211761, 34.211539 ], [ -114.208253, 34.215505 ], [ -114.190876, 34.230858 ], [ -114.178270340930993, 34.239812479945201 ], [ -114.17805, 34.239969 ], [ -114.176403, 34.241512 ], [ -114.175948, 34.242695 ], [ -114.175906, 34.245587 ], [ -114.174597, 34.247303 ], [ -114.166536, 34.249647 ], [ -114.163867, 34.253349 ], [ -114.164808, 34.257242 ], [ -114.164628, 34.258999 ], [ -114.162419, 34.259418 ], [ -114.156853, 34.258415 ], [ -114.153346, 34.258289 ], [ -114.144779, 34.259623 ], [ -114.13545, 34.257886 ], [ -114.133264, 34.258462 ], [ -114.131489, 34.260387 ], [ -114.131211, 34.26273 ], [ -114.134768, 34.268965 ], [ -114.136671, 34.274377 ], [ -114.137045, 34.277018 ], [ -114.13605, 34.280833 ], [ -114.138365, 34.288564 ], [ -114.139534, 34.295844 ], [ -114.138167, 34.300936 ], [ -114.138282, 34.30323 ], [ -114.14093, 34.305919 ], [ -114.157206, 34.317862 ], [ -114.168807, 34.339513 ], [ -114.172845, 34.344979 ], [ -114.176909, 34.349306 ], [ -114.181145, 34.352186 ], [ -114.185556, 34.354386 ], [ -114.191094, 34.356125 ], [ -114.193270305748996, 34.357486618093702 ], [ -114.199482, 34.361373 ], [ -114.213774, 34.36246 ], [ -114.226107, 34.365916 ], [ -114.229686, 34.368908 ], [ -114.234275, 34.376662 ], [ -114.245261, 34.385659 ], [ -114.248649, 34.388113 ], [ -114.252739, 34.3901 ], [ -114.264317, 34.401329 ], [ -114.267521, 34.402486 ], [ -114.280108, 34.403147 ], [ -114.286802, 34.40534 ], [ -114.288663, 34.406623 ], [ -114.290219, 34.408291 ], [ -114.291751, 34.411104 ], [ -114.292226, 34.417606 ], [ -114.294836, 34.421389 ], [ -114.301016, 34.426807 ], [ -114.312251, 34.432726 ], [ -114.319054, 34.435831 ], [ -114.32613, 34.437251 ], [ -114.326487292292995, 34.437884192158599 ], [ -114.330669, 34.445295 ], [ -114.332991, 34.448082 ], [ -114.335372, 34.450038 ], [ -114.339627, 34.451435 ], [ -114.342615, 34.451442 ], [ -114.356025, 34.449744 ], [ -114.363404, 34.447773 ], [ -114.373719, 34.446938 ], [ -114.375789, 34.447798 ], [ -114.378852, 34.450376 ], [ -114.386699, 34.457911 ], [ -114.387407, 34.460492 ], [ -114.387187, 34.462021 ], [ -114.383525, 34.470405 ], [ -114.381701, 34.47604 ], [ -114.381684204359999, 34.4762520161892 ], [ -114.381555, 34.477883 ], [ -114.383038, 34.488903 ], [ -114.382358, 34.495757 ], [ -114.381402, 34.499242 ], [ -114.379696094118003, 34.503429223529402 ], [ -114.378124, 34.507288 ], [ -114.378223, 34.516521 ], [ -114.380328787430997, 34.527153012024897 ], [ -114.380838, 34.529724 ], [ -114.382228976316, 34.531828000456599 ], [ -114.389603, 34.542982 ], [ -114.399609352414004, 34.560052036710701 ], [ -114.405228, 34.569637 ], [ -114.422382, 34.580711 ], [ -114.434386, 34.592572 ], [ -114.436466, 34.5954 ], [ -114.436363, 34.596797 ], [ -114.427502, 34.599227 ], [ -114.424326, 34.602338 ], [ -114.424202, 34.610453 ], [ -114.428648, 34.614641 ], [ -114.438739, 34.621455 ], [ -114.438990455633004, 34.6222792524634 ], [ -114.441398, 34.630171 ], [ -114.441525, 34.631529 ], [ -114.440294, 34.63824 ], [ -114.441465, 34.64253 ], [ -114.444276, 34.646542 ], [ -114.449549, 34.651423 ], [ -114.452547, 34.653494 ], [ -114.457028, 34.656266 ], [ -114.458182, 34.657885 ], [ -114.457185, 34.659992 ], [ -114.451014, 34.664911 ], [ -114.450506, 34.666836 ], [ -114.451532, 34.668605 ], [ -114.454305, 34.671234 ], [ -114.455346, 34.676842 ], [ -114.462178, 34.6858 ], [ -114.465246, 34.691202 ], [ -114.46809, 34.701786 ], [ -114.46862, 34.707573 ], [ -114.470477, 34.711368 ], [ -114.47162, 34.712966 ], [ -114.473682, 34.713964 ], [ -114.482779, 34.714511 ], [ -114.484810793166005, 34.715419700052102 ], [ -114.485191989632, 34.715590186523997 ], [ -114.486689718983001, 34.716260031645 ], [ -114.487508, 34.716626 ], [ -114.487758259776996, 34.717220177270399 ], [ -114.490971, 34.724848 ], [ -114.495858, 34.727956 ], [ -114.516619, 34.736745 ], [ -114.521048, 34.741173 ], [ -114.522619, 34.74373 ], [ -114.529615, 34.750822 ], [ -114.540306, 34.757109 ], [ -114.546884, 34.761802 ], [ -114.552682, 34.766871 ], [ -114.558653, 34.773852 ], [ -114.561515335368, 34.778587118523497 ], [ -114.565923421574993, 34.785879349505599 ], [ -114.57101, 34.794294 ], [ -114.574569, 34.805746 ], [ -114.575030131017002, 34.8080856950277 ], [ -114.576452, 34.8153 ], [ -114.581126, 34.826115 ], [ -114.586842, 34.835672 ], [ -114.591724351818002, 34.840540140860902 ], [ -114.592339, 34.841153 ], [ -114.598554132904994, 34.8457937920465 ], [ -114.598631673246004, 34.845851690823899 ], [ -114.600653, 34.847361 ], [ -114.602354216847004, 34.848405722838599 ], [ -114.604255, 34.849573 ], [ -114.619878, 34.856873 ], [ -114.623939, 34.859738 ], [ -114.630314500680996, 34.8659915312926 ], [ -114.630682, 34.866352 ], [ -114.634382, 34.87289 ], [ -114.635126349179998, 34.874870868788797 ], [ -114.635176, 34.875003 ], [ -114.636768, 34.885705 ], [ -114.636725, 34.889107 ], [ -114.635425, 34.895192 ], [ -114.630877, 34.907263 ], [ -114.630625087379997, 34.910820006188402 ], [ -114.630552, 34.911852 ], [ -114.633237, 34.92123 ], [ -114.633247477172006, 34.923441993003301 ], [ -114.633247775238999, 34.923504922319601 ], [ -114.633251687981002, 34.924331 ], [ -114.633253, 34.924608 ], [ -114.632768590297999, 34.927366889691903 ], [ -114.632766990359002, 34.927376001928202 ], [ -114.632716760567007, 34.927662078890201 ], [ -114.632196, 34.930628 ], [ -114.629753, 34.938684 ], [ -114.629769, 34.94304 ], [ -114.629811, 34.94481 ], [ -114.631681, 34.95131 ], [ -114.632290277883001, 34.952726682803302 ], [ -114.634953, 34.958918 ], [ -114.635237, 34.965149 ], [ -114.634607, 34.96906 ], [ -114.629907, 34.980791 ], [ -114.629771088791003, 34.9817058354474 ], [ -114.629152, 34.985873 ], [ -114.629443, 34.991825 ], [ -114.631807, 34.998632 ], [ -114.633487, 35.001857 ], [ -114.636674, 35.008807 ], [ -114.636738467734006, 35.009368476212998 ], [ -114.638023, 35.020556 ], [ -114.636893, 35.028367 ], [ -114.632429, 35.037586 ], [ -114.630452238955002, 35.0402446597652 ], [ -114.627124, 35.044721 ], [ -114.617361077000993, 35.051516338474997 ], [ -114.617254902827, 35.051590239441701 ], [ -114.606694, 35.058941 ], [ -114.603619, 35.064226 ], [ -114.602908, 35.068588 ], [ -114.603010556127998, 35.068938194392601 ], [ -114.604736, 35.07483 ], [ -114.608380021439999, 35.0784180330213 ], [ -114.613132, 35.083097 ], [ -114.622517, 35.088703 ], [ -114.635559086268003, 35.093710791320902 ], [ -114.642831, 35.096503 ], [ -114.643612993866, 35.097571870943497 ], [ -114.646759, 35.101872 ], [ -114.644352, 35.105904 ], [ -114.635117811759997, 35.114460351389802 ], [ -114.632282, 35.117088 ], [ -114.623662102287994, 35.120292156028199 ], [ -114.621357, 35.121149 ], [ -114.612982149626006, 35.121357278331203 ], [ -114.604015164228002, 35.121580282763702 ], [ -114.600693420485996, 35.1216628928657 ], [ -114.597794, 35.121735 ], [ -114.585317, 35.125037 ], [ -114.582106632109998, 35.126754141770697 ], [ -114.578263, 35.12881 ], [ -114.572597, 35.139557 ], [ -114.573493314472003, 35.142443718599601 ], [ -114.573943, 35.143892 ], [ -114.569529, 35.162317 ], [ -114.569393076579999, 35.172202042420999 ], [ -114.569238, 35.18348 ], [ -114.571932778180994, 35.199484980717799 ], [ -114.571940594471002, 35.199531403677497 ], [ -114.572119, 35.200591 ], [ -114.574835, 35.205898 ], [ -114.579963, 35.20964 ], [ -114.580312, 35.220095 ], [ -114.582926, 35.232102 ], [ -114.587129, 35.262376 ], [ -114.597503, 35.296954 ], [ -114.595162, 35.324238 ], [ -114.605748, 35.358454 ], [ -114.611206, 35.370119 ], [ -114.617698, 35.380131 ], [ -114.620887, 35.396867 ], [ -114.626765, 35.409644 ], [ -114.652752, 35.430819 ], [ -114.654014, 35.435871 ], [ -114.663541, 35.447797 ], [ -114.66388, 35.454657 ], [ -114.666936, 35.459478 ], [ -114.665988, 35.467985 ], [ -114.673164, 35.474814 ], [ -114.671907, 35.482087 ], [ -114.675816, 35.488528 ], [ -114.677706071187998, 35.495192473158298 ], [ -114.678715, 35.49875 ], [ -114.678371936966002, 35.5018571520433 ], [ -114.677156, 35.51287 ], [ -114.671244, 35.519522 ], [ -114.663983, 35.522161 ], [ -114.660542, 35.527466 ], [ -114.657163, 35.532301 ], [ -114.657405, 35.536391 ], [ -114.660517, 35.540981 ], [ -114.66157, 35.545692 ], [ -114.661401, 35.550238 ], [ -114.663114, 35.562593 ], [ -114.663226, 35.565164 ], [ -114.668393, 35.574331 ], [ -114.671567, 35.576217 ], [ -114.674881, 35.578379 ], [ -114.675751, 35.579459 ], [ -114.674973, 35.580664 ], [ -114.664209, 35.585944 ], [ -114.661234, 35.586428 ], [ -114.659238, 35.587477 ], [ -114.658827361666994, 35.588319008406103 ], [ -114.654306, 35.59759 ], [ -114.653406, 35.610789 ], [ -114.657241, 35.617046 ], [ -114.659461, 35.619552 ], [ -114.661175, 35.620477 ], [ -114.663647, 35.620773 ], [ -114.6661, 35.622389 ], [ -114.668587, 35.628055 ], [ -114.677615, 35.641774 ], [ -114.689001, 35.65028 ], [ -114.690214, 35.665159 ], [ -114.683226219334998, 35.676529525075999 ], [ -114.682207, 35.678188 ], [ -114.680631, 35.684046 ], [ -114.682657, 35.688571 ], [ -114.69607, 35.696451 ], [ -114.701416, 35.701084 ], [ -114.705409, 35.708287 ], [ -114.705447, 35.711757 ], [ -114.697309, 35.733686 ], [ -114.695709, 35.755986 ], [ -114.701409, 35.769086 ], [ -114.69891, 35.790185 ], [ -114.71211, 35.806185 ], [ -114.70991, 35.810185 ], [ -114.70371, 35.814585 ], [ -114.696177, 35.828741 ], [ -114.695249, 35.832285 ], [ -114.69641, 35.833784 ], [ -114.702293, 35.840792 ], [ -114.706532, 35.849027 ], [ -114.703599, 35.852595 ], [ -114.697737, 35.853681 ], [ -114.69437, 35.854463 ], [ -114.691456, 35.858661 ], [ -114.68201, 35.863284 ], [ -114.669687, 35.865084 ], [ -114.662623, 35.869213 ], [ -114.661636, 35.871067 ], [ -114.663214, 35.873692 ], [ -114.667194, 35.874787 ], [ -114.672009, 35.878018 ], [ -114.677984, 35.884707 ], [ -114.700271, 35.901772 ], [ -114.708516, 35.912313 ], [ -114.707526, 35.92806 ], [ -114.712544, 35.931861 ], [ -114.720259, 35.944692 ], [ -114.72959, 35.959622 ], [ -114.729941, 35.962183 ], [ -114.740595, 35.975656 ], [ -114.743756, 35.985095 ], [ -114.739855, 35.992107 ], [ -114.743243, 36.00653 ], [ -114.742779, 36.009963 ], [ -114.740522, 36.013336 ], [ -114.737006524519998, 36.015769483768999 ], [ -114.729069, 36.021264 ], [ -114.722859, 36.027165 ], [ -114.722096, 36.028952 ], [ -114.723673, 36.03123 ], [ -114.727602, 36.033099 ], [ -114.732484, 36.037428 ], [ -114.735739, 36.038033 ], [ -114.740018, 36.037467 ], [ -114.742105, 36.039792 ], [ -114.742487, 36.045558 ], [ -114.740375, 36.049258 ], [ -114.735701, 36.053393 ], [ -114.736253, 36.05847 ], [ -114.740554803334007, 36.065791379210197 ], [ -114.743342, 36.070535 ], [ -114.751147, 36.079007 ], [ -114.754798, 36.084704 ], [ -114.753196, 36.089513 ], [ -114.749534, 36.093027 ], [ -114.747079, 36.097005 ], [ -114.736165, 36.104367 ], [ -114.717293, 36.107686 ], [ -114.709771, 36.107742 ], [ -114.703737, 36.108348 ], [ -114.696527, 36.11049 ], [ -114.693655, 36.112482 ], [ -114.691631, 36.112535 ], [ -114.688074, 36.111457 ], [ -114.685079, 36.109771 ], [ -114.68267, 36.109146 ], [ -114.679775, 36.109874 ], [ -114.675106, 36.114111 ], [ -114.671867, 36.115964 ], [ -114.664343, 36.1163 ], [ -114.662144, 36.117742 ], [ -114.658131, 36.124127 ], [ -114.640125, 36.135126 ], [ -114.636862, 36.135552 ], [ -114.630474, 36.142218 ], [ -114.628462, 36.141822 ], [ -114.623837, 36.137144 ], [ -114.620605, 36.131759 ], [ -114.615455, 36.129653 ], [ -114.610639, 36.131558 ], [ -114.596474, 36.141537 ], [ -114.579578, 36.1467 ], [ -114.57706, 36.148845 ], [ -114.57109, 36.151099 ], [ -114.561173, 36.150921 ], [ -114.555373, 36.152371 ], [ -114.548742, 36.150697 ], [ -114.543232, 36.151871 ], [ -114.539233, 36.151764 ], [ -114.532924, 36.149282 ], [ -114.532308, 36.14804 ], [ -114.52885, 36.147751 ], [ -114.51428, 36.150795 ], [ -114.508104, 36.149713 ], [ -114.501049, 36.144516 ], [ -114.500236, 36.143226 ], [ -114.500339, 36.1407 ], [ -114.503213, 36.139242 ], [ -114.507175, 36.13634 ], [ -114.50921, 36.133247 ], [ -114.508467, 36.129913 ], [ -114.504715, 36.127188 ], [ -114.498849, 36.126612 ], [ -114.483827, 36.12972 ], [ -114.468674, 36.138889 ], [ -114.463637, 36.139695 ], [ -114.456487, 36.138032 ], [ -114.452071, 36.130958 ], [ -114.447135, 36.126022 ], [ -114.443736, 36.125593 ], [ -114.423114, 36.13735 ], [ -114.415253, 36.145123 ], [ -114.40914, 36.147 ], [ -114.398373, 36.145799 ], [ -114.381479, 36.141349 ], [ -114.375301403311994, 36.143390815474199 ], [ -114.37449, 36.143659 ], [ -114.370181, 36.142624 ], [ -114.358968, 36.127795 ], [ -114.345022, 36.118472 ], [ -114.337264, 36.110428 ], [ -114.334632, 36.106784 ], [ -114.328777, 36.105501 ], [ -114.306939, 36.082487 ], [ -114.304171, 36.07558 ], [ -114.307485, 36.069672 ], [ -114.31242, 36.066117 ], [ -114.314328, 36.062016 ], [ -114.314427, 36.060523 ], [ -114.313591, 36.059048 ], [ -114.311904, 36.057661 ], [ -114.308476, 36.056985 ], [ -114.299755, 36.057359 ], [ -114.295941, 36.056168 ], [ -114.293435, 36.0545 ], [ -114.290867, 36.050511 ], [ -114.280202, 36.046362 ], [ -114.278166, 36.045819 ], [ -114.273911, 36.046529 ], [ -114.270862, 36.045523 ], [ -114.268896, 36.04094 ], [ -114.26922, 36.036807 ], [ -114.265001, 36.028848 ], [ -114.261403, 36.025454 ], [ -114.242139, 36.015187 ], [ -114.233443, 36.012835 ], [ -114.226459, 36.014606 ], [ -114.221453, 36.01416 ], [ -114.211932, 36.014834 ], [ -114.191221, 36.020019 ], [ -114.173267, 36.026752 ], [ -114.164425, 36.026853 ], [ -114.15139, 36.023133 ], [ -114.145907, 36.027229 ], [ -114.144666, 36.034272 ], [ -114.13826, 36.03719 ], [ -114.134841, 36.043873 ], [ -114.136206, 36.053232 ], [ -114.131212, 36.065765 ], [ -114.124019, 36.075563 ], [ -114.119648, 36.085822 ], [ -114.1119, 36.095845 ], [ -114.115208, 36.099878 ], [ -114.121033, 36.103885 ], [ -114.121284, 36.109519 ], [ -114.117025, 36.11485 ], [ -114.107419, 36.119401 ], [ -114.099217, 36.119685 ], [ -114.096994, 36.120823 ], [ -114.092753, 36.132356 ], [ -114.091701, 36.137303 ], [ -114.081234, 36.150208 ], [ -114.068222, 36.177687 ], [ -114.05779, 36.188633 ], [ -114.043944, 36.19335 ], [ -114.043965, 36.246989 ], [ -114.044744, 36.259522 ], [ -114.045459, 36.273284 ], [ -114.045453, 36.291713 ], [ -114.044108, 36.3154 ], [ -114.044763, 36.33169 ], [ -114.043196, 36.379405 ], [ -114.042819, 36.438277 ], [ -114.043133, 36.469716 ], [ -114.044897, 36.496078 ], [ -114.04774, 36.620005 ], [ -114.048173, 36.639583 ], [ -114.049396, 36.688858 ], [ -114.050060351168995, 36.772659680109697 ], [ -114.050273857475005, 36.799591501789401 ], [ -114.050339272274996, 36.807842966409098 ], [ -114.050416303909003, 36.817559785773803 ], [ -114.050418354149002, 36.817818404400299 ], [ -114.050619, 36.843128 ], [ -114.050618928071998, 36.843141214516699 ], [ -114.049995, 36.957769 ], [ -114.0506, 37.000396 ], [ -113.965907, 37.000025 ], [ -113.965907, 36.999976 ], [ -113.915981791926995, 36.999988138671803 ], [ -113.624289617654, 37.000059059869699 ], [ -113.622422174516004, 37.000059513914501 ], [ -113.572113153364, 37.000071745905501 ], [ -113.560236, 37.000074633682502 ], [ -113.558067747794993, 37.000075160865102 ], [ -113.553662806275995, 37.000076231869897 ], [ -113.484467976215996, 37.000093055702202 ], [ -113.465893802468997, 37.000097571773502 ], [ -113.457763957034004, 37.000099548440801 ], [ -113.409578802791003, 37.000111264040797 ], [ -113.320966034235994, 37.000132809095 ], [ -113.306408551035005, 37.0001363485597 ], [ -113.274535032732004, 37.000144098195399 ], [ -113.079902031223995, 37.000191420704702 ], [ -113.016407829350001, 37.000206858502601 ], [ -113.010331015885995, 37.000208336001599 ], [ -112.998830014377006, 37.0002111323221 ], [ -112.966581003154005, 37.0002189732541 ], [ -112.966471, 37.000219 ], [ -112.955989016008004, 37.000234692824598 ], [ -112.953185990368993, 37.000238889300199 ], [ -112.937648009209994, 37.000262151576997 ], [ -112.899190902277994, 37.0003197266157 ], [ -112.861448771286007, 37.000376231247103 ], [ -112.829502251107996, 37.000424059133302 ], [ -112.609787, 37.000753 ], [ -112.566, 37.000700434573801 ], [ -112.558974, 37.000692 ], [ -112.548249738107998, 37.000724450936602 ], [ -112.545094, 37.000734 ], [ -112.540541, 37.000671379390603 ], [ -112.540368, 37.000669 ], [ -112.538582856207995, 37.000673748664497 ], [ -112.53844477154, 37.000674115983799 ], [ -112.529776882939998, 37.0006971734513 ], [ -112.529758801081996, 37.000697221550901 ], [ -112.504442, 37.000764566823399 ], [ -112.484281665346998, 37.000818195369298 ], [ -112.378340654436002, 37.001100009261201 ], [ -112.375363260501999, 37.001107929432699 ], [ -112.368946, 37.001125 ], [ -112.35769, 37.001025 ], [ -111.865423380272006, 37.001260835917201 ], [ -111.635071990032003, 37.001371193047397 ], [ -111.621968057329994, 37.001377470901403 ], [ -111.565617878422003, 37.001404467239603 ], [ -111.547537817412007, 37.001413129065497 ], [ -111.506848096027994, 37.0014326227654 ], [ -111.413013987341003, 37.001477576967503 ], [ -111.411676, 37.001478217972704 ], [ -111.406146044242007, 37.001480867273202 ], [ -111.405869, 37.001481 ], [ -111.405517, 37.001497 ], [ -111.404752066548994, 37.001490795448298 ], [ -111.401383280076999, 37.001463470443802 ], [ -111.391120893896002, 37.001380229861397 ], [ -111.363966557078996, 37.0011599747695 ], [ -111.363062712043003, 37.001152643473901 ], [ -111.357773035728002, 37.001109737688701 ], [ -111.355401207998, 37.001090499246601 ], [ -111.316088721445993, 37.000771626596801 ], [ -111.315954380676999, 37.000770536927803 ], [ -111.312836667205005, 37.000745248434399 ], [ -111.309918291594997, 37.000721576816403 ], [ -111.297995965110999, 37.0006248720752 ], [ -111.296225902437001, 37.000610514688397 ], [ -111.278286, 37.000465 ], [ -111.254853, 37.001077 ], [ -111.253341886141996, 37.0010732825614 ], [ -111.253281104395001, 37.001073133034303 ], [ -111.238030709476007, 37.001035616068201 ], [ -111.235043161709001, 37.001028266505898 ], [ -111.234974655288994, 37.001028097975599 ], [ -111.231195230490997, 37.001018800344099 ], [ -111.143404696616997, 37.000802829905403 ], [ -111.143364391014998, 37.000802730750998 ], [ -111.141520840861006, 37.000798195497403 ], [ -111.140127069254007, 37.000794766728298 ], [ -111.133718, 37.000779 ], [ -111.066496, 37.002389 ], [ -111.060057406492007, 37.002405473352503 ], [ -111.060033147205999, 37.002405535420699 ], [ -110.75069, 37.003197 ], [ -110.701942374555003, 37.003401350045898 ], [ -110.62569, 37.003721 ], [ -110.625605, 37.003416 ], [ -110.599512, 37.003448 ], [ -110.50069, 37.00426 ], [ -110.490908, 37.003566 ], [ -110.487555898024993, 37.0026649547302 ], [ -110.47019, 36.997997 ], [ -110.467578610318, 36.998000523301698 ], [ -110.467308447785001, 36.998000887806498 ], [ -110.275977060472002, 36.998259033193598 ], [ -110.275924346886995, 36.998259104315103 ], [ -110.175761193266993, 36.998394245006999 ], [ -110.175705426842995, 36.998394320247399 ], [ -110.149860926288, 36.998429189793299 ], [ -110.146636252722999, 36.9984335405411 ], [ -110.145951204357004, 36.998434464812199 ], [ -110.134355221418005, 36.998450110177799 ], [ -110.021778, 36.998602 ], [ -110.000876, 36.998502 ], [ -110.000682037915993, 36.997981518830201 ], [ -110.000677, 36.997968 ], [ -109.934143909271, 36.998253284763898 ], [ -109.933854316199998, 36.998254526499302 ], [ -109.875673, 36.998504 ], [ -109.709765300916999, 36.9983739309653 ], [ -109.699230934401996, 36.998365672187099 ], [ -109.699221369531998, 36.9983656646884 ], [ -109.625668, 36.998308 ], [ -109.495338, 36.999105 ], [ -109.471586983400996, 36.999113949923903 ], [ -109.471563064639994, 36.999113958937002 ], [ -109.382561357236, 36.999147496806998 ], [ -109.381226, 36.999148 ], [ -109.378039, 36.999135 ], [ -109.355672826627995, 36.999162143917196 ], [ -109.340792389992998, 36.999180203034101 ], [ -109.319809669272004, 36.999205667972802 ], [ -109.270097, 36.999266 ], [ -109.268213, 36.999242 ], [ -109.26339, 36.999263 ], [ -109.246917, 36.999346 ], [ -109.233848, 36.999266 ], [ -109.181196, 36.999271 ], [ -109.045223, 36.999084 ], [ -109.045229139822993, 36.990431235385699 ], [ -109.045244, 36.969489 ], [ -109.045272, 36.968871 ], [ -109.045286537731997, 36.958762107193699 ], [ -109.045286570607999, 36.958739246571902 ], [ -109.045373650608994, 36.898187684415703 ], [ -109.045406646017994, 36.875244143302197 ], [ -109.045407, 36.874998 ], [ -109.045433, 36.874589 ], [ -109.045432980610002, 36.870957399054802 ], [ -109.045432958332995, 36.866784999706603 ], [ -109.045432905911994, 36.856966999450599 ], [ -109.045432905428996, 36.856876470791498 ], [ -109.045432713365003, 36.820903999617101 ], [ -109.045432462383005, 36.773896612257197 ], [ -109.045432461920996, 36.773809999591698 ], [ -109.045432436864004, 36.769116999613203 ], [ -109.045431159545998, 36.529883000853403 ], [ -109.0454311461, 36.527364677998101 ], [ -109.045431, 36.500001 ], [ -109.045494076777999, 36.473306605573399 ], [ -109.045494475509003, 36.473137860620703 ], [ -109.045512221562007, 36.465627646085203 ], [ -109.045612584354998, 36.4231536318322 ], [ -109.045748804615002, 36.365504565728401 ], [ -109.045754035160002, 36.363290974090901 ], [ -109.045835225849999, 36.328930685299603 ], [ -109.045877462229996, 36.311056046937999 ], [ -109.045877469081006, 36.311053147609599 ], [ -109.045950499195001, 36.2801464537473 ], [ -109.045950563453999, 36.280119258889897 ], [ -109.045982147111005, 36.266752904379103 ], [ -109.046000527366999, 36.2589742918856 ], [ -109.046004876650997, 36.257133654030802 ], [ -109.046020343267998, 36.250588107626498 ], [ -109.046183, 36.181751 ], [ -109.045901303202001, 36.141591832814001 ], [ -109.045897309457004, 36.141022477890502 ], [ -109.045896927496003, 36.1409680249402 ], [ -109.045729, 36.117028 ], [ -109.045972227077996, 36.0027013051401 ], [ -109.045973, 36.002338 ], [ -109.045987494716002, 35.9731799714136 ], [ -109.045987504891002, 35.973159502993703 ], [ -109.046011, 35.925896 ], [ -109.046054, 35.92586 ], [ -109.046054076679994, 35.923012196463901 ], [ -109.046054445435004, 35.909317001600598 ], [ -109.046054885052996, 35.8929900016932 ], [ -109.046055, 35.888721 ], [ -109.046047670641002, 35.886611799597603 ], [ -109.046024, 35.8798 ], [ -109.046074703219006, 35.830540606497799 ], [ -109.046076563948006, 35.8287328637361 ], [ -109.046084003147996, 35.821505502632199 ], [ -109.046099792934996, 35.806165346174602 ], [ -109.046129325775993, 35.7774734825921 ], [ -109.046134187006999, 35.772750680076904 ], [ -109.046150827823993, 35.7565837270554 ], [ -109.046183194337999, 35.725138882858602 ], [ -109.046199483668005, 35.7093134074956 ], [ -109.046199506820997, 35.709290914059601 ], [ -109.046214021100994, 35.695189942380303 ], [ -109.046244599934994, 35.665481872225001 ], [ -109.046247972624997, 35.662205222543399 ], [ -109.046249628984, 35.660596030497402 ], [ -109.046250670605005, 35.659584070861598 ], [ -109.046263839201004, 35.646790464157498 ], [ -109.046295, 35.616517 ], [ -109.046296, 35.614251 ], [ -109.046309353, 35.609999918831598 ], [ -109.046352661975007, 35.596212008361498 ], [ -109.04639829864, 35.581683051195398 ], [ -109.046442364778997, 35.567654089096102 ], [ -109.046466687261002, 35.559910747065302 ], [ -109.046488416279999, 35.552993064129197 ], [ -109.046489233401999, 35.552732923853704 ], [ -109.046509, 35.54644 ], [ -109.046481, 35.546326 ], [ -109.046498165315995, 35.536369027022197 ], [ -109.046546370390999, 35.508407023049898 ], [ -109.046556741656005, 35.502391030585699 ], [ -109.046570960812005, 35.494143017171901 ], [ -109.046596188097993, 35.479509589827998 ], [ -109.046619928072005, 35.465738897776802 ], [ -109.046645737351994, 35.450767876438903 ], [ -109.046668672151995, 35.437464236317901 ], [ -109.046683821279004, 35.428676780750301 ], [ -109.046692478815004, 35.4236548600135 ], [ -109.046721586011998, 35.406770837872301 ], [ -109.046768531325995, 35.379539575166397 ], [ -109.046768539509003, 35.379534828535199 ], [ -109.046796, 35.363606 ], [ -109.046794221037004, 35.363322212850001 ], [ -109.046792104787002, 35.362984620509302 ], [ -109.046789562070003, 35.3625789964766 ], [ -109.046783588042004, 35.361625996313798 ], [ -109.046744417873995, 35.355377419332697 ], [ -109.046625122674996, 35.336346986693698 ], [ -109.046588331975002, 35.330477991650298 ], [ -109.046566510782995, 35.326996990529402 ], [ -109.046440987194998, 35.306972981274299 ], [ -109.046349251739997, 35.292338985884598 ], [ -109.046255675319003, 35.277411312483302 ], [ -109.046168794558994, 35.263551756810301 ], [ -109.046084, 35.250025 ], [ -109.046083050335994, 35.248841763452603 ], [ -109.046071637565007, 35.234621989054503 ], [ -109.046059589726994, 35.219610952173397 ], [ -109.046055373710004, 35.214357993835897 ], [ -109.046048985767001, 35.206398918948899 ], [ -109.046035905875002, 35.190101990444397 ], [ -109.046024192748007, 35.175507987806299 ], [ -109.046017276826007, 35.1668910756255 ], [ -109.045899431484997, 35.020061344969399 ], [ -109.045851080673003, 34.959818515320002 ], [ -109.045851, 34.959718 ], [ -109.045944617480998, 34.904160896566303 ], [ -109.046001207114003, 34.870577894189701 ], [ -109.046023139152993, 34.857562370198004 ], [ -109.046072, 34.828566 ], [ -109.045624, 34.814226 ], [ -109.046104, 34.799981 ], [ -109.045363, 34.785406 ], [ -109.046086, 34.771016 ], [ -109.046113211721007, 34.696485039143703 ], [ -109.046156, 34.579291 ], [ -109.046182, 34.522553 ], [ -109.046182, 34.522393 ], [ -109.046251577673999, 34.478286918880897 ], [ -109.046395080561993, 34.387318801361097 ], [ -109.046742728295996, 34.1669409364711 ], [ -109.046749674444996, 34.162537693304103 ], [ -109.046868362466995, 34.087300002149298 ], [ -109.046882249386996, 34.078496925401602 ], [ -109.047006, 34.00005 ], [ -109.046805137709995, 33.9567614060498 ], [ -109.046579013810998, 33.908028586841297 ], [ -109.046426, 33.875052 ], [ -109.046945877251005, 33.777409074143698 ], [ -109.047145, 33.74001 ], [ -109.046662, 33.625055 ], [ -109.046685358782995, 33.6171485661079 ], [ -109.047298, 33.409783 ], [ -109.046564, 33.37506 ], [ -109.04687, 33.372654 ], [ -109.047045, 33.36928 ], [ -109.046909, 33.36557 ], [ -109.046827, 33.365272 ], [ -109.04747, 33.250063 ], [ -109.047415074922995, 33.240374970805703 ], [ -109.047237, 33.208965 ], [ -109.047236880653003, 33.208894999829802 ], [ -109.047116, 33.137995 ], [ -109.047117, 33.137559 ], [ -109.047046719674, 33.107391170134697 ], [ -109.047013, 33.092917 ], [ -109.046905, 33.091931 ], [ -109.047453, 33.069427 ], [ -109.04748, 33.06842 ], [ -109.047365205559998, 32.9764421407749 ], [ -109.047165772631004, 32.816648566905698 ], [ -109.047117279572007, 32.777794004252002 ], [ -109.047117, 32.77757 ], [ -109.047638, 32.693439 ], [ -109.047645, 32.689988 ], [ -109.047653, 32.686327 ], [ -109.047653, 32.681379 ], [ -109.047647480094994, 32.647047615745002 ], [ -109.047612, 32.426377 ], [ -109.048286, 32.089114 ], [ -109.048296, 32.084093 ], [ -109.048309035589, 32.082417282546501 ], [ -109.048731, 32.028174 ], [ -109.048599, 32.013651 ], [ -109.048598999055997, 32.013636014237797 ], [ -109.048593139572006, 31.920626478680401 ], [ -109.04859, 31.870791 ], [ -109.048591937496994, 31.870689167752499 ], [ -109.048769, 31.861383 ], [ -109.049106, 31.843715 ], [ -109.049084802023998, 31.841679314457199 ], [ -109.048772775906002, 31.8117148005187 ], [ -109.048763, 31.810776 ], [ -109.049195, 31.796551 ], [ -109.049112, 31.636598 ], [ -109.049542012250996, 31.552515575943598 ], [ -109.049813, 31.499528 ], [ -109.049843, 31.499515 ], [ -109.050173, 31.480004 ], [ -109.050044, 31.332502 ], [ -109.278489, 31.333959 ], [ -109.300393052727998, 31.333963291795499 ], [ -109.303770223179995, 31.333963953505201 ], [ -109.487042011195001, 31.333999863071799 ], [ -109.494488, 31.334001322010099 ], [ -109.528219058703996, 31.334007931143599 ], [ -109.530969133634997, 31.334008469982599 ], [ -109.536947000658003, 31.334009641262799 ], [ -109.541141001477001, 31.334010463019101 ], [ -109.551419038552993, 31.334012476858099 ], [ -109.560652028239005, 31.334014285934401 ], [ -109.561362051968004, 31.334014425053699 ], [ -109.647169015041001, 31.334031237738799 ], [ -109.7927460457, 31.3340597615402 ], [ -109.829689, 31.334067 ], [ -109.916991448928002, 31.333596072231401 ], [ -109.918397408017995, 31.333588488192401 ], [ -109.957207365052994, 31.333379139122702 ], [ -110.000613, 31.333145 ], [ -110.003092295561004, 31.333159532072099 ], [ -110.140512, 31.333965 ], [ -110.205073277881993, 31.333735159750301 ], [ -110.274197473382998, 31.333489075365399 ], [ -110.459750695617004, 31.3328284998573 ], [ -110.460172, 31.332827 ], [ -110.622211317072995, 31.333215068929199 ], [ -110.761000348550994, 31.3335474556104 ], [ -110.795467, 31.33363 ], [ -110.850329682053001, 31.3332414775752 ], [ -110.890649719275004, 31.332955942161298 ], [ -110.913226350388001, 31.332796060669299 ], [ -110.928262412191998, 31.332689579415199 ], [ -110.931536805958004, 31.332666391059099 ], [ -110.942184958870996, 31.332590983768799 ], [ -110.945123875218002, 31.3325701711716 ], [ -110.965270282681004, 31.332427499855001 ], [ -110.976824943983999, 31.332345672921701 ], [ -111.000643, 31.332177 ], [ -111.074825, 31.332239 ], [ -111.125646, 31.348978 ], [ -111.366372, 31.426068287286999 ], [ -111.451080097014, 31.4531952762052 ], [ -111.560194, 31.488138 ], [ -111.623110872935001, 31.508030317270499 ], [ -111.770191669008994, 31.5545325943778 ], [ -111.979417, 31.620683 ], [ -112.246102, 31.704195 ], [ -112.365043, 31.74113 ], [ -112.375758, 31.743988 ], [ -112.388116433229996, 31.748045673390301 ], [ -112.39942, 31.751757 ], [ -112.562505802958995, 31.801880564740401 ], [ -112.607760239485003, 31.815789278054702 ], [ -112.867074, 31.895488 ], [ -113.125961, 31.97278 ], [ -113.217308, 32.002107 ], [ -113.333814087533, 32.038777397469403 ], [ -113.493196, 32.088943 ], [ -113.750756, 32.169005 ], [ -113.78168, 32.179034 ], [ -113.961526795786, 32.234578152860898 ], [ -114.250775, 32.32391 ], [ -114.50078, 32.400057 ], [ -114.563805643528994, 32.419039256134397 ], [ -114.621571227635997, 32.436437271480003 ], [ -114.631062368703994, 32.439295842383302 ], [ -114.649544714903996, 32.444862411955398 ], [ -114.718163802177003, 32.465529318588999 ], [ -114.735615822469995, 32.470785571452303 ], [ -114.752472346803003, 32.475862471020598 ] ] ] } }
]
}
