{
"type": "FeatureCollection",
"name": "state-05-outline",
"crs": { "type": "name", "properties": { "name": "urn:ogc:def:crs:OGC:1.3:CRS84" } },
"features": [
{ "type": "Feature", "properties": { "state_fips": "05", "state_abbr": "AR", "state_name": "Arkansas" }, "geometry": { "type": "Polygon", "coordinates": [ [ [ -94.483302235187395, 33.7359993101336 ], [ -94.48287, 33.750564 ], [ -94.482862, 33.75078 ], [ -94.4828532911324, 33.751072822864302 ], [ -94.482777, 33.753638 ], [ -94.482682, 33.756286 ], [ -94.482459325972201, 33.764960213734398 ], [ -94.481842, 33.789008 ], [ -94.481841416668402, 33.789021092770597 ], [ -94.481543, 33.795719 ], [ -94.481534632238194, 33.796037618624403 ], [ -94.481361, 33.802649 ], [ -94.481355, 33.802887 ], [ -94.480775092582704, 33.823142178536898 ], [ -94.480574, 33.830166 ], [ -94.479954, 33.85133 ], [ -94.479781116859996, 33.856708646606101 ], [ -94.478994, 33.881197 ], [ -94.478842, 33.881485 ], [ -94.477387, 33.937759 ], [ -94.477319713820194, 33.940858984198798 ], [ -94.477317731755406, 33.940950301161898 ], [ -94.477038, 33.953838 ], [ -94.476957, 33.957365 ], [ -94.475019343635395, 34.0158987608879 ], [ -94.474895, 34.019655 ], [ -94.474896, 34.021838 ], [ -94.474896, 34.021877 ], [ -94.473865991186301, 34.059461792820798 ], [ -94.472673400502103, 34.102979161983001 ], [ -94.471132757523606, 34.159196882054403 ], [ -94.4702836220645, 34.190181646344698 ], [ -94.468666086414402, 34.249205162922799 ], [ -94.466431865745193, 34.330731378869302 ], [ -94.465847, 34.352073 ], [ -94.465437420998398, 34.359327983499803 ], [ -94.465425, 34.359548 ], [ -94.464894068578502, 34.377896802887904 ], [ -94.464176, 34.402713 ], [ -94.463816, 34.414465 ], [ -94.463671, 34.419585 ], [ -94.463664221217698, 34.419821187612797 ], [ -94.463295010088302, 34.432685311469399 ], [ -94.462870706650307, 34.447468971938399 ], [ -94.462426963612501, 34.462929950612597 ], [ -94.461149, 34.507457 ], [ -94.461082780739602, 34.5097517310505 ], [ -94.460363325771993, 34.534683384543001 ], [ -94.460058, 34.545264 ], [ -94.460052, 34.547869 ], [ -94.458699356165198, 34.594022140500002 ], [ -94.4575, 34.634945 ], [ -94.45753, 34.642961 ], [ -94.457511758887094, 34.643492089613602 ], [ -94.456264203850907, 34.679814627993601 ], [ -94.456204104154196, 34.681564429386199 ], [ -94.456019341008897, 34.686943804437398 ], [ -94.455793824050602, 34.693509725886798 ], [ -94.455340265397098, 34.7067150764506 ], [ -94.454746940001499, 34.723989732741003 ], [ -94.454576577671403, 34.728949828362502 ], [ -94.453300150893497, 34.766112966887 ], [ -94.451188449008598, 34.827595122410798 ], [ -94.451081948725005, 34.830695875905299 ], [ -94.4507578062899, 34.840133276017603 ], [ -94.450323010284293, 34.852792352485302 ], [ -94.450233, 34.855413 ], [ -94.45014, 34.858694 ], [ -94.450065, 34.861335 ], [ -94.44963, 34.875253 ], [ -94.449626031560101, 34.875359169643403 ], [ -94.449108215972203, 34.889212547162103 ], [ -94.449058, 34.890556 ], [ -94.449086, 34.894152 ], [ -94.449253, 34.895869 ], [ -94.447883725062297, 34.934083566910402 ], [ -94.447602900194397, 34.941921 ], [ -94.446301942384096, 34.978228930508699 ], [ -94.4455986087128, 34.997857999077503 ], [ -94.445469193346796, 35.001469802688298 ], [ -94.4444947678289, 35.028664669199898 ], [ -94.443282750700007, 35.062490388485202 ], [ -94.442647919681903, 35.080207642886897 ], [ -94.441537447822299, 35.1111993743583 ], [ -94.441537313676506, 35.111203118181798 ], [ -94.441232, 35.119724 ], [ -94.440754, 35.128806 ], [ -94.439717441607996, 35.163442030455698 ], [ -94.439717340571704, 35.163445406528503 ], [ -94.43955, 35.169037 ], [ -94.439509, 35.171807 ], [ -94.438924963817698, 35.1856438880409 ], [ -94.43886, 35.187183 ], [ -94.439056, 35.193588 ], [ -94.439084, 35.197298 ], [ -94.438832394395604, 35.201924019003101 ], [ -94.43847, 35.208587 ], [ -94.438247, 35.210992 ], [ -94.437895479043405, 35.221471422958302 ], [ -94.437832901148994, 35.223336973820103 ], [ -94.437578, 35.230936 ], [ -94.437774, 35.239271 ], [ -94.437761340781194, 35.239460306991802 ], [ -94.437578, 35.242202 ], [ -94.437465072565303, 35.2431086361292 ], [ -94.437011827682198, 35.246747505526102 ], [ -94.436595, 35.250094 ], [ -94.436297944626801, 35.258139154844997 ], [ -94.435812, 35.2713 ], [ -94.435793020746004, 35.271831240061204 ], [ -94.435706, 35.274267 ], [ -94.435476103773397, 35.275225490421398 ], [ -94.435316, 35.275893 ], [ -94.435307109853298, 35.278755627226197 ], [ -94.435302286206394, 35.280308841524999 ], [ -94.43528, 35.287485 ], [ -94.43517, 35.291494 ], [ -94.435139009915801, 35.291934587936602 ], [ -94.434432593848896, 35.301977748683498 ], [ -94.434115, 35.306493 ], [ -94.434021331271794, 35.309351849729801 ], [ -94.433920941296506, 35.3124158376704 ], [ -94.433868683746198, 35.314010782818897 ], [ -94.433861868535701, 35.314218788873397 ], [ -94.433757668039107, 35.317399077184596 ], [ -94.433673803973406, 35.319958680225902 ], [ -94.433394647626301, 35.328478770788102 ], [ -94.433036230011297, 35.3394179830659 ], [ -94.432805964410903, 35.346445886208201 ], [ -94.432619572570204, 35.352134724667401 ], [ -94.432564800314907, 35.353806420762297 ], [ -94.432245, 35.363567 ], [ -94.433020314662897, 35.3656608830632 ], [ -94.433117, 35.365922 ], [ -94.431596, 35.369538 ], [ -94.433415, 35.376291 ], [ -94.433091, 35.378296 ], [ -94.43559, 35.386122 ], [ -94.431457553619097, 35.391451916638999 ], [ -94.430662, 35.392478 ], [ -94.430840561530999, 35.393455904410999 ], [ -94.435600983058904, 35.419526677789499 ], [ -94.438945466380005, 35.4378429689462 ], [ -94.441143441087704, 35.449880327436702 ], [ -94.441193197906799, 35.450152824052303 ], [ -94.441228013236298, 35.450343492580203 ], [ -94.441448303373903, 35.451549926552701 ], [ -94.443263173488702, 35.461489186594697 ], [ -94.449696, 35.496719 ], [ -94.449896095392006, 35.497981398919798 ], [ -94.452202166778605, 35.512530369778602 ], [ -94.454718351975501, 35.528404945612202 ], [ -94.456584848573797, 35.540180645521097 ], [ -94.456827177537093, 35.541709495428101 ], [ -94.460001595771502, 35.561736853927698 ], [ -94.462898037327193, 35.580010461601901 ], [ -94.463318, 35.58266 ], [ -94.464097, 35.587265 ], [ -94.464212158879405, 35.587790892216198 ], [ -94.464457, 35.588909 ], [ -94.465272, 35.594037 ], [ -94.466196543766998, 35.599617984943897 ], [ -94.471099399012402, 35.629213945984503 ], [ -94.472647, 35.638556 ], [ -94.482467889926994, 35.696142127299296 ], [ -94.482790185751796, 35.698031952817502 ], [ -94.484284938465507, 35.706796639184297 ], [ -94.484290897926996, 35.706831583299298 ], [ -94.487585, 35.726147 ], [ -94.48821, 35.72924 ], [ -94.492944480769197, 35.7592458746266 ], [ -94.493362, 35.761892 ], [ -94.494549, 35.768303 ], [ -94.496901085903403, 35.781463904153 ], [ -94.498874555985395, 35.792506294467103 ], [ -94.499045, 35.79346 ], [ -94.499647, 35.79691 ], [ -94.500526, 35.802642 ], [ -94.500573096887805, 35.802875109806202 ], [ -94.500764, 35.80382 ], [ -94.501162, 35.80643 ], [ -94.501407213540503, 35.807859638705501 ], [ -94.503011, 35.81721 ], [ -94.504438, 35.826369 ], [ -94.505642, 35.833628 ], [ -94.507406404683906, 35.844515148660498 ], [ -94.507631, 35.845901 ], [ -94.5173768949372, 35.900773133819001 ], [ -94.517571, 35.901866 ], [ -94.518231292216299, 35.906069440757598 ], [ -94.518264515215407, 35.906280939401903 ], [ -94.522248638527401, 35.931643992150697 ], [ -94.522658, 35.93425 ], [ -94.522658, 35.934799 ], [ -94.522634, 35.934892 ], [ -94.52291, 35.936127 ], [ -94.524344, 35.94405 ], [ -94.52464, 35.945727 ], [ -94.528162, 35.965665 ], [ -94.528305, 35.966054 ], [ -94.528327413129006, 35.9661837295236 ], [ -94.532047070667801, 35.987713494534603 ], [ -94.532061349361001, 35.987796141096901 ], [ -94.532067029771596, 35.987829019904602 ], [ -94.532071, 35.987852 ], [ -94.532090949743903, 35.987965390544403 ], [ -94.533646, 35.996804 ], [ -94.533672961804797, 35.996935321427202 ], [ -94.534852, 36.002678 ], [ -94.535212938830099, 36.004800999150703 ], [ -94.535724, 36.007807 ], [ -94.537303579991601, 36.016957524938398 ], [ -94.537305213024297, 36.016966985115502 ], [ -94.543255585410094, 36.051437560330903 ], [ -94.543256077222694, 36.051440409406602 ], [ -94.547715, 36.077271 ], [ -94.547871, 36.078281 ], [ -94.549870537299697, 36.089385546358997 ], [ -94.552164985998104, 36.102127900274802 ], [ -94.557228027075496, 36.1302457925349 ], [ -94.559509342966194, 36.142915212641 ], [ -94.5596915051255, 36.143926860757396 ], [ -94.561165, 36.15211 ], [ -94.562803, 36.161749 ], [ -94.562827691451204, 36.161893495203799 ], [ -94.563764722957302, 36.167377035118399 ], [ -94.565313245448607, 36.176439040861602 ], [ -94.565655, 36.178439 ], [ -94.566177559523794, 36.1814270547262 ], [ -94.566588, 36.183774 ], [ -94.567160656393995, 36.187104 ], [ -94.567808806060398, 36.1908729937836 ], [ -94.568066681658706, 36.192372541769998 ], [ -94.569291006767102, 36.199491998836301 ], [ -94.571253, 36.210901 ], [ -94.571267067804897, 36.210973425028101 ], [ -94.571806, 36.213748 ], [ -94.573761237322699, 36.226018643499003 ], [ -94.574395, 36.229996 ], [ -94.57488, 36.232741 ], [ -94.575071, 36.233682 ], [ -94.576003, 36.24007 ], [ -94.577899, 36.249548 ], [ -94.577883, 36.25008 ], [ -94.5810876072279, 36.269302634362802 ], [ -94.582588111366604, 36.278303313811897 ], [ -94.584730897207606, 36.2911566795471 ], [ -94.585932418321605, 36.298363928176897 ], [ -94.5862, 36.299969 ], [ -94.591319281200896, 36.332527685342797 ], [ -94.591686318205106, 36.334862044769103 ], [ -94.593102943140096, 36.343871795102402 ], [ -94.593397, 36.345742 ], [ -94.599723, 36.387587 ], [ -94.600514021885303, 36.392671440981402 ], [ -94.600814421403896, 36.394602315021402 ], [ -94.601984, 36.40212 ], [ -94.602464793751906, 36.404499891451103 ], [ -94.602623, 36.405283 ], [ -94.604018431418893, 36.413633542199896 ], [ -94.605408, 36.421949 ], [ -94.611609, 36.461528 ], [ -94.612686104974998, 36.468666669622998 ], [ -94.61383, 36.476248 ], [ -94.615311, 36.484992 ], [ -94.617722030214395, 36.498324775211501 ], [ -94.617919, 36.499414 ], [ -94.617648835490698, 36.499414377858898 ], [ -94.55929, 36.499496 ], [ -94.554646186146101, 36.499463106512898 ], [ -94.519478, 36.499214 ], [ -94.480283611129906, 36.4993095870106 ], [ -94.476361860764399, 36.499319151348899 ], [ -94.457096005211199, 36.499366136787202 ], [ -94.452558536215506, 36.4993772027359 ], [ -94.447361907024003, 36.499389876240002 ], [ -94.383813233778596, 36.4995448583147 ], [ -94.371896721495503, 36.4995739202243 ], [ -94.361203, 36.4996 ], [ -94.339328471067503, 36.499512144505999 ], [ -94.329442331821795, 36.499472438432797 ], [ -94.327428914243697, 36.499464351867999 ], [ -94.315971886190795, 36.499418336574898 ], [ -94.313238890113197, 36.499407359939902 ], [ -94.307057893426602, 36.499382534970202 ], [ -94.289136925463495, 36.499310558311898 ], [ -94.280087044872403, 36.499274210935802 ], [ -94.276114428821799, 36.4992582555684 ], [ -94.269429801561401, 36.499231407848299 ], [ -94.253661839718902, 36.499168078389602 ], [ -94.249195856414701, 36.499150141492699 ], [ -94.241834021306104, 36.499120573877299 ], [ -94.215435829105502, 36.499014549824203 ], [ -94.196426981866196, 36.498938203875497 ], [ -94.184113679699095, 36.498888749496501 ], [ -94.182922674813099, 36.498883966018703 ], [ -94.181418056309496, 36.498877922962798 ], [ -94.181412747365798, 36.498877901640299 ], [ -94.116029107240806, 36.498615298864998 ], [ -94.114480474569206, 36.498609079033301 ], [ -94.112281752232505, 36.498600248221997 ], [ -94.111473, 36.498597 ], [ -94.110673, 36.498587 ], [ -94.100252, 36.49867 ], [ -94.098588, 36.498676 ], [ -94.094474008372401, 36.498686333296803 ], [ -94.077089, 36.49873 ], [ -94.073370994190498, 36.498729572903599 ], [ -94.031780571491097, 36.498724795309897 ], [ -93.996042011522903, 36.498720689933997 ], [ -93.989453749890998, 36.498719933124299 ], [ -93.976018868884296, 36.498718389826699 ], [ -93.971528957013504, 36.498717874059501 ], [ -93.967149, 36.498717370923103 ], [ -93.96392, 36.498717 ], [ -93.962197, 36.498717 ], [ -93.95919, 36.498717 ], [ -93.926634001019806, 36.498717871646498 ], [ -93.92184, 36.498718 ], [ -93.906128, 36.498718 ], [ -93.901905135927606, 36.498725563437702 ], [ -93.866689096068896, 36.4987886377683 ], [ -93.834348988467497, 36.498846561107896 ], [ -93.834041987661294, 36.498847110967297 ], [ -93.753740915704597, 36.498990935666903 ], [ -93.752277438773206, 36.498993556854003 ], [ -93.752237482906196, 36.498993628417601 ], [ -93.728022, 36.499037 ], [ -93.727552, 36.499055 ], [ -93.720712714457406, 36.499152151186202 ], [ -93.718893, 36.499178 ], [ -93.709956, 36.499179 ], [ -93.709766888994494, 36.499178149628598 ], [ -93.700171, 36.499135 ], [ -93.691422028960901, 36.499116956992999 ], [ -93.689392, 36.499112770463398 ], [ -93.679901981843003, 36.499093199194597 ], [ -93.658858148897096, 36.499049800488301 ], [ -93.648282154693902, 36.499027989610603 ], [ -93.584281, 36.498896 ], [ -93.584262058264599, 36.498895995927597 ], [ -93.583217788482202, 36.498895771414603 ], [ -93.514512, 36.498881 ], [ -93.514399973717502, 36.498881473083998 ], [ -93.507408, 36.498911 ], [ -93.489236408066205, 36.4988373365751 ], [ -93.477713617689503, 36.498790625851697 ], [ -93.474757611863296, 36.498778642888702 ], [ -93.4397809817075, 36.4986368557311 ], [ -93.438039115426093, 36.498629794608597 ], [ -93.433447942734304, 36.498611183057903 ], [ -93.426989, 36.498585 ], [ -93.418540336804398, 36.498607959809398 ], [ -93.401322768326594, 36.498654749707498 ], [ -93.400050634758799, 36.498658206815897 ], [ -93.398671945328203, 36.498661953496999 ], [ -93.396079, 36.498669 ], [ -93.395235193081305, 36.498576001441698 ], [ -93.395220425018294, 36.498574373807998 ], [ -93.394718, 36.498519 ], [ -93.391215128502907, 36.498514101866498 ], [ -93.384272049789601, 36.498504393224202 ], [ -93.329802027649393, 36.498428226730198 ], [ -93.315337, 36.498408 ], [ -93.315323126598599, 36.498407959193301 ], [ -93.293117305924596, 36.498342643817303 ], [ -93.221782068177802, 36.498132820999203 ], [ -93.210000002454095, 36.4980981656688 ], [ -93.192459841004805, 36.4980465736895 ], [ -93.151159999955894, 36.497925095871402 ], [ -93.125969, 36.497851 ], [ -93.088988, 36.498184 ], [ -93.087635, 36.498239 ], [ -93.069512, 36.498242 ], [ -93.068455, 36.49825 ], [ -93.014401107561298, 36.498131100621897 ], [ -93.013745101936706, 36.498129657642401 ], [ -93.013741689295401, 36.498129650135802 ], [ -92.934551013996199, 36.497955458757303 ], [ -92.929362659081505, 36.497944046218002 ], [ -92.929156928771306, 36.497943593684298 ], [ -92.916418926147799, 36.497915574599602 ], [ -92.894336, 36.497867 ], [ -92.894001, 36.49785 ], [ -92.854008427462901, 36.497982764458499 ], [ -92.838876, 36.498033 ], [ -92.838621, 36.498079 ], [ -92.784816401766605, 36.497829814451201 ], [ -92.779431708720793, 36.497804876290999 ], [ -92.772333, 36.497772 ], [ -92.762045143244407, 36.497795137110302 ], [ -92.630642814136905, 36.498090657377602 ], [ -92.617321956405107, 36.4981206156246 ], [ -92.601627916588001, 36.498155911093697 ], [ -92.564238, 36.49824 ], [ -92.559839855086096, 36.498286206408302 ], [ -92.529129870328603, 36.4986088420019 ], [ -92.516836, 36.498738 ], [ -92.482162221899898, 36.498636897754601 ], [ -92.444129, 36.498526 ], [ -92.434649088922995, 36.498281676510601 ], [ -92.434468926962694, 36.498277033239297 ], [ -92.4231356147193, 36.497984942483299 ], [ -92.420383, 36.497914 ], [ -92.384927, 36.497845 ], [ -92.375159, 36.497199 ], [ -92.370246001100696, 36.497315101734301 ], [ -92.350277, 36.497787 ], [ -92.318415, 36.497711 ], [ -92.309424, 36.497894 ], [ -92.259457713870106, 36.498174956947999 ], [ -92.259440791707405, 36.498175052100102 ], [ -92.216412, 36.498417 ], [ -92.215785810885095, 36.498404581088501 ], [ -92.214143, 36.498372 ], [ -92.211449, 36.498395 ], [ -92.199396, 36.498351 ], [ -92.1502863617131, 36.498633765738198 ], [ -92.137741, 36.498706 ], [ -92.120386430802398, 36.4988632711175 ], [ -92.120306, 36.498864 ], [ -92.112478347129596, 36.498842246613897 ], [ -92.098356, 36.498803 ], [ -92.074934, 36.498761 ], [ -92.057178, 36.49867 ], [ -92.055789, 36.49867 ], [ -92.0428348913577, 36.498656537189397 ], [ -92.028847, 36.498642 ], [ -92.019375, 36.498524 ], [ -91.988751, 36.498498 ], [ -91.985802, 36.498431 ], [ -91.985745106151896, 36.498431167157499 ], [ -91.9545929285878, 36.498522694084201 ], [ -91.9364102841609, 36.498576115760997 ], [ -91.931581583685201, 36.498590302766502 ], [ -91.925761487022399, 36.498607402552203 ], [ -91.865995, 36.498783 ], [ -91.864385, 36.498789 ], [ -91.845641835720997, 36.498852542677298 ], [ -91.836928898569496, 36.498882081091701 ], [ -91.805981, 36.498987 ], [ -91.80204, 36.498963 ], [ -91.7995, 36.498952 ], [ -91.784713, 36.499074 ], [ -91.7816606869455, 36.499080563408299 ], [ -91.767134079131395, 36.499111800066402 ], [ -91.766111, 36.499114 ], [ -91.726663, 36.499209 ], [ -91.708470114520495, 36.499296591233097 ], [ -91.708468473280007, 36.499296599135 ], [ -91.687615, 36.499397 ], [ -91.686026, 36.499374 ], [ -91.672343, 36.499463 ], [ -91.64259, 36.499335 ], [ -91.631439, 36.499198 ], [ -91.617694150685196, 36.499264164369897 ], [ -91.617692692744598, 36.499264171388099 ], [ -91.601317, 36.499343 ], [ -91.596213, 36.499162 ], [ -91.5824066465687, 36.499161706560002 ], [ -91.564771001990806, 36.499161331732203 ], [ -91.555700490608302, 36.499161138947699 ], [ -91.555138343883797, 36.499161126999901 ], [ -91.553485081197394, 36.499161091861502 ], [ -91.549163, 36.499161 ], [ -91.544700048124795, 36.499140515214798 ], [ -91.544158269897196, 36.499138028472601 ], [ -91.539359, 36.499116 ], [ -91.53687, 36.499156 ], [ -91.534480043007804, 36.499110868343202 ], [ -91.529785581270303, 36.499022218699302 ], [ -91.529774, 36.499022 ], [ -91.527435856914494, 36.499005430854801 ], [ -91.505636426350193, 36.498850950176603 ], [ -91.50014, 36.498812 ], [ -91.450022428377494, 36.497562224697504 ], [ -91.450021737881698, 36.497562207478701 ], [ -91.446284, 36.497469 ], [ -91.436502, 36.497377 ], [ -91.433298, 36.497262 ], [ -91.433103736918795, 36.497260962915497 ], [ -91.407261, 36.497123 ], [ -91.407137, 36.497112 ], [ -91.406873513431094, 36.497118996386902 ], [ -91.405141, 36.497165 ], [ -91.404915, 36.49712 ], [ -91.327467918334804, 36.497336831061801 ], [ -91.302403768433607, 36.497407003960703 ], [ -91.235647145319007, 36.497593904605097 ], [ -91.227398, 36.497617 ], [ -91.218645, 36.497564 ], [ -91.21736, 36.497511 ], [ -91.172417187414297, 36.497610453989601 ], [ -91.172386142782301, 36.497610522688298 ], [ -91.126529, 36.497712 ], [ -91.109232218310197, 36.497815487950703 ], [ -91.096277, 36.497893 ], [ -91.09588, 36.49787 ], [ -91.063685771640607, 36.497949342949802 ], [ -91.046344140199494, 36.497992081547999 ], [ -91.017974, 36.498062 ], [ -91.0167096348152, 36.4980899299021 ], [ -91.008558, 36.49827 ], [ -90.981255132788803, 36.498358819086697 ], [ -90.980715741347794, 36.4983605737836 ], [ -90.963063, 36.498418 ], [ -90.962913117586794, 36.498418496504897 ], [ -90.960648, 36.498426 ], [ -90.940441015274303, 36.4984140884307 ], [ -90.924933027736799, 36.498404946816002 ], [ -90.87922, 36.498378 ], [ -90.876867, 36.498423 ], [ -90.876567, 36.498313 ], [ -90.873775, 36.498074 ], [ -90.872586903036506, 36.498098127413598 ], [ -90.863734845191303, 36.4982778915805 ], [ -90.850434, 36.498548 ], [ -90.802629030001597, 36.498530419472601 ], [ -90.784243672268502, 36.498523658161297 ], [ -90.782454, 36.498523 ], [ -90.778907112545895, 36.498516870829697 ], [ -90.765672, 36.498494 ], [ -90.726291556969102, 36.498366700327402 ], [ -90.711226, 36.498318 ], [ -90.693005, 36.49851 ], [ -90.653246, 36.498488 ], [ -90.648494, 36.498447 ], [ -90.612554, 36.498559 ], [ -90.60545, 36.498459 ], [ -90.5943, 36.498459 ], [ -90.585342, 36.498497 ], [ -90.584285947290098, 36.498491164822497 ], [ -90.576179556008995, 36.498446373278099 ], [ -90.576112, 36.498446 ], [ -90.514181022477501, 36.498407676375301 ], [ -90.50016, 36.498399 ], [ -90.495027, 36.498371 ], [ -90.494575, 36.498368 ], [ -90.467422089391405, 36.498340791443503 ], [ -90.439099998585803, 36.498312411310799 ], [ -90.431636153857994, 36.498304932170001 ], [ -90.425980887504593, 36.498299265314003 ], [ -90.376617950336794, 36.498249801214797 ], [ -90.370795863754097, 36.4982439671967 ], [ -90.339892, 36.498213 ], [ -90.326401732059495, 36.498159257303499 ], [ -90.317781916668295, 36.498124917576199 ], [ -90.265493917885607, 36.497916611999202 ], [ -90.245905882171002, 36.497838576939998 ], [ -90.228943, 36.497771 ], [ -90.2207319861011, 36.497857683437601 ], [ -90.220702, 36.497858 ], [ -90.217694256634303, 36.497803702176597 ], [ -90.217323, 36.497797 ], [ -90.193943, 36.497823 ], [ -90.152481, 36.497952 ], [ -90.154409, 36.496832 ], [ -90.153871, 36.495344 ], [ -90.155012, 36.493648 ], [ -90.157358, 36.494223 ], [ -90.159048, 36.493734 ], [ -90.159305, 36.492446 ], [ -90.158568, 36.491574 ], [ -90.155997, 36.490385 ], [ -90.156369, 36.487748 ], [ -90.159462, 36.487609 ], [ -90.159305, 36.485834 ], [ -90.157136, 36.484317 ], [ -90.15946, 36.481343 ], [ -90.159376, 36.480084 ], [ -90.158838, 36.479558 ], [ -90.148329, 36.476168 ], [ -90.145382, 36.47651 ], [ -90.143683, 36.476029 ], [ -90.142269, 36.472138 ], [ -90.142222, 36.470554 ], [ -90.146327, 36.46952 ], [ -90.152888, 36.47093 ], [ -90.1557, 36.466103 ], [ -90.155804, 36.463555 ], [ -90.14462, 36.462789 ], [ -90.143849, 36.46325 ], [ -90.143162, 36.46368 ], [ -90.142475, 36.463422 ], [ -90.14153, 36.462993 ], [ -90.141101, 36.461791 ], [ -90.141146747605802, 36.461690590372598 ], [ -90.141568, 36.460766 ], [ -90.141399, 36.459874 ], [ -90.140041, 36.457883 ], [ -90.137323, 36.455411 ], [ -90.136853895504203, 36.450890340755201 ], [ -90.136029, 36.442941 ], [ -90.133993, 36.437906 ], [ -90.134136, 36.436602 ], [ -90.137565, 36.431913 ], [ -90.139039, 36.431273 ], [ -90.14272, 36.43116 ], [ -90.143798, 36.428483 ], [ -90.144139, 36.425806 ], [ -90.143743, 36.424433 ], [ -90.139499, 36.421457 ], [ -90.137771, 36.421205 ], [ -90.13559, 36.422897 ], [ -90.134797, 36.42324 ], [ -90.134231, 36.422827 ], [ -90.134750393961795, 36.418327863708001 ], [ -90.134915, 36.416902 ], [ -90.136218, 36.415346 ], [ -90.138653, 36.414547 ], [ -90.138512, 36.413952 ], [ -90.135002, 36.413721 ], [ -90.131038, 36.415069 ], [ -90.128719, 36.411659 ], [ -90.121445, 36.410931 ], [ -90.119898957748703, 36.410187487707901 ], [ -90.115839, 36.408235 ], [ -90.114677, 36.406039 ], [ -90.109495, 36.404073 ], [ -90.104374783489007, 36.404639190408901 ], [ -90.103644, 36.40472 ], [ -90.094353, 36.403963 ], [ -90.080426, 36.400763 ], [ -90.078671, 36.399116 ], [ -90.077587798632507, 36.397340358605902 ], [ -90.0773716635467, 36.396986058457699 ], [ -90.076689, 36.395867 ], [ -90.074227, 36.393304 ], [ -90.072897, 36.393007 ], [ -90.068907, 36.38866 ], [ -90.064514, 36.382085 ], [ -90.063891, 36.372982 ], [ -90.064956017749196, 36.366925652184499 ], [ -90.066297, 36.3593 ], [ -90.070653, 36.356097 ], [ -90.075376, 36.350148 ], [ -90.077723, 36.349484 ], [ -90.077695, 36.348478 ], [ -90.074668, 36.344794 ], [ -90.074074, 36.342895 ], [ -90.075064, 36.341774 ], [ -90.077185, 36.341339 ], [ -90.078231, 36.336511 ], [ -90.075884, 36.335184 ], [ -90.075572, 36.33404 ], [ -90.076986, 36.330791 ], [ -90.07888, 36.327977 ], [ -90.081425, 36.325644 ], [ -90.081961, 36.322097 ], [ -90.079981, 36.318619 ], [ -90.079077, 36.318414 ], [ -90.077296, 36.319329 ], [ -90.076504, 36.319237 ], [ -90.069266, 36.313152 ], [ -90.0672199273871, 36.3092371346184 ], [ -90.06398, 36.303038 ], [ -90.070085, 36.29471 ], [ -90.071714921149294, 36.293366133709597 ], [ -90.0778, 36.288349 ], [ -90.077790791418707, 36.288315126633499 ], [ -90.075934, 36.281485 ], [ -90.083731, 36.272332 ], [ -90.086471, 36.271531 ], [ -90.087913, 36.271447970267999 ], [ -90.091247, 36.271256 ], [ -90.100175, 36.268988 ], [ -90.105231, 36.266835 ], [ -90.110317, 36.26697 ], [ -90.112945, 36.266557 ], [ -90.114922, 36.265595 ], [ -90.116707626253003, 36.259039579870802 ], [ -90.118219, 36.253491 ], [ -90.124476, 36.244198 ], [ -90.125958, 36.243416 ], [ -90.129716, 36.243235 ], [ -90.130565, 36.242092 ], [ -90.130114, 36.240307 ], [ -90.127318689024193, 36.236422988959902 ], [ -90.127264, 36.236347 ], [ -90.12466, 36.235549 ], [ -90.124673, 36.233787 ], [ -90.126366, 36.229367 ], [ -90.132356, 36.226442 ], [ -90.134785, 36.226397 ], [ -90.138089, 36.227245 ], [ -90.14224, 36.227522 ], [ -90.151422, 36.219174 ], [ -90.152497, 36.215582 ], [ -90.15614, 36.213706 ], [ -90.157383, 36.213821 ], [ -90.159415, 36.215424 ], [ -90.161166, 36.215767 ], [ -90.167745, 36.21332 ], [ -90.173281, 36.210301 ], [ -90.179695, 36.208262 ], [ -90.182853, 36.205108 ], [ -90.18579, 36.204674 ], [ -90.188189, 36.20536 ], [ -90.190053, 36.201493 ], [ -90.190359814814798, 36.201384 ], [ -90.193017, 36.20044 ], [ -90.194259, 36.200692 ], [ -90.195247, 36.200257 ], [ -90.197167, 36.196002 ], [ -90.199905, 36.196848 ], [ -90.201655, 36.19607 ], [ -90.201712, 36.193187 ], [ -90.200582, 36.192181 ], [ -90.204449, 36.18694 ], [ -90.205259246381999, 36.186519160567499 ], [ -90.21128, 36.183392 ], [ -90.213509, 36.183232 ], [ -90.21574, 36.184582 ], [ -90.220425, 36.184764 ], [ -90.229339, 36.17364 ], [ -90.231284, 36.169246 ], [ -90.230324, 36.167072 ], [ -90.23537, 36.159153 ], [ -90.231445, 36.153868 ], [ -90.231386, 36.147348 ], [ -90.234654317534194, 36.141219223561798 ], [ -90.235585, 36.139474 ], [ -90.240887, 36.137321 ], [ -90.244317, 36.136502 ], [ -90.245961, 36.132857 ], [ -90.248538263155496, 36.1301213170861 ], [ -90.248808, 36.129835 ], [ -90.253198, 36.127383 ], [ -90.255596, 36.127086 ], [ -90.258755, 36.127591 ], [ -90.260645, 36.127409 ], [ -90.266256, 36.120559 ], [ -90.272378, 36.11809 ], [ -90.278724, 36.117406 ], [ -90.293109, 36.114368 ], [ -90.294492, 36.112949 ], [ -90.298413, 36.106748 ], [ -90.297878, 36.104826 ], [ -90.297991, 36.103201 ], [ -90.29991, 36.098236 ], [ -90.306255, 36.094758 ], [ -90.312373, 36.094507 ], [ -90.319168, 36.089976 ], [ -90.320662, 36.087138 ], [ -90.32007, 36.081234 ], [ -90.318745, 36.079313 ], [ -90.318378, 36.076658 ], [ -90.318491, 36.075514 ], [ -90.320746, 36.071326 ], [ -90.333261, 36.067504 ], [ -90.335466, 36.061714 ], [ -90.337146, 36.047754 ], [ -90.339343, 36.047112 ], [ -90.343311421482298, 36.044715193890497 ], [ -90.347908, 36.041939 ], [ -90.34909, 36.040131 ], [ -90.348297, 36.035074 ], [ -90.350974, 36.031572 ], [ -90.351818, 36.028436 ], [ -90.35131, 36.02688 ], [ -90.351732, 36.025347 ], [ -90.35739, 36.01825 ], [ -90.36443, 36.013625 ], [ -90.377863839032202, 35.995717872220197 ], [ -90.37789, 35.995683 ], [ -90.368718, 35.995812 ], [ -90.342616, 35.995895 ], [ -90.339434, 35.996033 ], [ -90.292376, 35.996397 ], [ -90.289076051073096, 35.996417301699204 ], [ -90.2888, 35.996419 ], [ -90.248310564469193, 35.996716780567198 ], [ -90.247733322620803, 35.996721025906801 ], [ -90.195031202953103, 35.9971086249652 ], [ -90.186071944743702, 35.997174516054002 ], [ -90.158812, 35.997375 ], [ -90.127331, 35.997635 ], [ -90.12635, 35.997596 ], [ -90.119590327644204, 35.997760276736201 ], [ -90.119344377281806, 35.997766253937598 ], [ -90.103842, 35.998143 ], [ -90.054691112493799, 35.9984616145939 ], [ -89.995635699855896, 35.998844434055798 ], [ -89.995532413879104, 35.998845103594498 ], [ -89.972563, 35.998994 ], [ -89.965327, 35.998813 ], [ -89.961075, 35.999135 ], [ -89.959893, 35.99902 ], [ -89.959377, 35.99902 ], [ -89.945914563393103, 35.999099811331597 ], [ -89.940158610647799, 35.999133935187899 ], [ -89.901183, 35.999365 ], [ -89.896508, 35.999432 ], [ -89.875586, 35.999562 ], [ -89.875085, 35.999578 ], [ -89.874878, 35.999576745454497 ], [ -89.87459, 35.999575 ], [ -89.86901, 35.99964 ], [ -89.859728353687302, 35.9997230841511 ], [ -89.805027891471596, 36.000212732357198 ], [ -89.787103637946203, 36.0003731803357 ], [ -89.770255, 36.000524 ], [ -89.770183045187494, 36.000527061906901 ], [ -89.769973, 36.000536 ], [ -89.737648, 36.000567 ], [ -89.737564, 36.000522 ], [ -89.733056, 36.000809 ], [ -89.731096, 35.99662 ], [ -89.727493, 35.992798 ], [ -89.722916, 35.989061 ], [ -89.724027, 35.980803 ], [ -89.721677, 35.967673 ], [ -89.718497, 35.963123 ], [ -89.714007, 35.959813 ], [ -89.695907, 35.950733 ], [ -89.675477, 35.941593 ], [ -89.669657, 35.937693 ], [ -89.664777, 35.934743 ], [ -89.654027, 35.930183 ], [ -89.650267, 35.927663 ], [ -89.644307, 35.920943 ], [ -89.642647, 35.915913 ], [ -89.641003, 35.906989 ], [ -89.641071855700403, 35.906236072149802 ], [ -89.642047, 35.895573 ], [ -89.643585, 35.889742 ], [ -89.645617, 35.885833 ], [ -89.649963, 35.881781 ], [ -89.657917, 35.876743 ], [ -89.663284, 35.874703 ], [ -89.669079, 35.87451 ], [ -89.676378, 35.876698 ], [ -89.693229, 35.890722 ], [ -89.700887, 35.89577 ], [ -89.714934, 35.906247 ], [ -89.727787, 35.911243 ], [ -89.733329, 35.911923 ], [ -89.743132, 35.911176 ], [ -89.748279, 35.908252 ], [ -89.751683, 35.904641 ], [ -89.756554841246995, 35.900323381968299 ], [ -89.767242, 35.890852 ], [ -89.771674, 35.883678 ], [ -89.773617, 35.875705 ], [ -89.774271, 35.870816 ], [ -89.773858, 35.86766 ], [ -89.772467, 35.865098 ], [ -89.768521, 35.860533 ], [ -89.762109, 35.857165 ], [ -89.749424, 35.852955 ], [ -89.72369, 35.846095 ], [ -89.712201, 35.842494 ], [ -89.69741, 35.836683 ], [ -89.694709, 35.834769 ], [ -89.693499, 35.831727 ], [ -89.693978, 35.825213 ], [ -89.694753431063106, 35.823787733694999 ], [ -89.696497, 35.820583 ], [ -89.701319, 35.816866 ], [ -89.714315699325695, 35.809038193564199 ], [ -89.716154, 35.807931 ], [ -89.72817, 35.802697 ], [ -89.730251, 35.802467 ], [ -89.734268, 35.803356 ], [ -89.737377, 35.805818 ], [ -89.742619, 35.805915 ], [ -89.758431, 35.810438 ], [ -89.765391, 35.811207 ], [ -89.765359, 35.809606 ], [ -89.781662, 35.805228 ], [ -89.796324, 35.792807 ], [ -89.799565, 35.788331 ], [ -89.796917, 35.781373 ], [ -89.797268, 35.779121 ], [ -89.799535, 35.773779 ], [ -89.79895, 35.759356 ], [ -89.800728, 35.757152 ], [ -89.816857, 35.748692 ], [ -89.825451, 35.745188 ], [ -89.838957, 35.742141 ], [ -89.846753, 35.744129 ], [ -89.850467, 35.746851 ], [ -89.852359, 35.755426 ], [ -89.863064, 35.757134 ], [ -89.871006, 35.75622 ], [ -89.889068, 35.751057 ], [ -89.894107, 35.750839 ], [ -89.902455, 35.755071 ], [ -89.906197, 35.758936 ], [ -89.906366899770504, 35.758917709425099 ], [ -89.911300455628094, 35.758386587030202 ], [ -89.911984, 35.758313 ], [ -89.915491, 35.754917 ], [ -89.919171352983795, 35.753141286231603 ], [ -89.921990998112904, 35.7517808507788 ], [ -89.931306930200506, 35.747286056679798 ], [ -89.938271, 35.743926 ], [ -89.939358156512199, 35.741319625765101 ], [ -89.940289, 35.739088 ], [ -89.944697, 35.735431 ], [ -89.953765, 35.730999 ], [ -89.958336, 35.72656 ], [ -89.958877, 35.723049 ], [ -89.958279836210906, 35.7193440125153 ], [ -89.957066, 35.711813 ], [ -89.956717, 35.694282 ], [ -89.955665, 35.690089 ], [ -89.953356709905904, 35.6868805642045 ], [ -89.950385, 35.68275 ], [ -89.940333, 35.673408 ], [ -89.939267, 35.670943 ], [ -89.934467, 35.664943 ], [ -89.930058555383795, 35.661547314544599 ], [ -89.92735, 35.659461 ], [ -89.919285, 35.655297 ], [ -89.906147, 35.651145 ], [ -89.898916, 35.650904 ], [ -89.89051, 35.652408 ], [ -89.886979, 35.653637 ], [ -89.88364, 35.656295 ], [ -89.88207, 35.65854 ], [ -89.878534, 35.66482 ], [ -89.876446, 35.666726 ], [ -89.86689, 35.670204 ], [ -89.8622, 35.670419 ], [ -89.858574, 35.668932 ], [ -89.853271, 35.662261 ], [ -89.851176, 35.657432 ], [ -89.850863, 35.650208 ], [ -89.851825, 35.644262 ], [ -89.851943965758494, 35.6439162791687 ], [ -89.853296134842594, 35.639986803781802 ], [ -89.85389, 35.638261 ], [ -89.856619, 35.634444 ], [ -89.863875, 35.630788 ], [ -89.872849, 35.627755 ], [ -89.874067, 35.626618 ], [ -89.890259, 35.616416 ], [ -89.894452, 35.615196 ], [ -89.899789, 35.615061 ], [ -89.904996, 35.616017 ], [ -89.910499, 35.61758 ], [ -89.911275, 35.617594 ], [ -89.919619, 35.612236 ], [ -89.924548023202405, 35.610616102648201 ], [ -89.932487, 35.608007 ], [ -89.945405, 35.601611 ], [ -89.951147, 35.597491 ], [ -89.953911, 35.594301 ], [ -89.956592, 35.590622 ], [ -89.957896, 35.587261 ], [ -89.957868, 35.584887 ], [ -89.95669, 35.581426 ], [ -89.954192, 35.575829 ], [ -89.946911, 35.56358 ], [ -89.941995, 35.556903 ], [ -89.929101, 35.551545 ], [ -89.924145, 35.550561 ], [ -89.919319, 35.549829 ], [ -89.916189, 35.549872 ], [ -89.912881, 35.549094 ], [ -89.910681, 35.547451 ], [ -89.909802, 35.543707 ], [ -89.913176, 35.536728 ], [ -89.911948, 35.535926 ], [ -89.909698, 35.537955 ], [ -89.90679, 35.537468 ], [ -89.904398, 35.535888 ], [ -89.90231, 35.530225 ], [ -89.902375, 35.525036 ], [ -89.904638, 35.519348 ], [ -89.908934, 35.51424 ], [ -89.911923, 35.512841 ], [ -89.918499, 35.511383 ], [ -89.924373, 35.511303 ], [ -89.928889, 35.512365 ], [ -89.935105, 35.515466 ], [ -89.935885562065593, 35.515736156901497 ], [ -89.952643, 35.521536 ], [ -89.958749, 35.523837 ], [ -89.958214, 35.526791 ], [ -89.957006, 35.531643 ], [ -89.95578, 35.533214 ], [ -89.955641, 35.534518 ], [ -89.956706, 35.539369 ], [ -89.958498, 35.541703 ], [ -89.97631, 35.553872 ], [ -89.989363, 35.560043 ], [ -89.991644, 35.560645 ], [ -89.998929, 35.561138 ], [ -90.000095465709293, 35.561004337280401 ], [ -90.008293, 35.560065 ], [ -90.017903, 35.556026 ], [ -90.019187428833206, 35.556092362156399 ], [ -90.023903, 35.556336 ], [ -90.028287, 35.555262 ], [ -90.034505, 35.552631 ], [ -90.038109, 35.549731 ], [ -90.039849, 35.547057 ], [ -90.042152, 35.536559 ], [ -90.046127, 35.529602 ], [ -90.04909, 35.522257 ], [ -90.050153, 35.515639 ], [ -90.047678, 35.50261 ], [ -90.043984, 35.494376 ], [ -90.035112, 35.482711 ], [ -90.027735, 35.477291 ], [ -90.019651, 35.473123 ], [ -90.014687574319296, 35.466367760962598 ], [ -90.011917, 35.462597 ], [ -90.006801, 35.453252 ], [ -90.004028, 35.443248 ], [ -90.002675, 35.430529 ], [ -90.003322, 35.429629 ], [ -90.013819, 35.423432 ], [ -90.021191, 35.420226 ], [ -90.048086, 35.411737 ], [ -90.056782, 35.403863 ], [ -90.044044, 35.396722 ], [ -90.041563, 35.39662 ], [ -90.044856, 35.392964 ], [ -90.045738110539602, 35.392620418597097 ], [ -90.054322, 35.389277 ], [ -90.069528, 35.408132 ], [ -90.062018, 35.41518 ], [ -90.070549, 35.423291 ], [ -90.074082, 35.433983 ], [ -90.074063, 35.439611 ], [ -90.071327, 35.450338 ], [ -90.067206, 35.460957 ], [ -90.067798, 35.466224 ], [ -90.072154, 35.470752 ], [ -90.079007, 35.476874 ], [ -90.088033, 35.478583 ], [ -90.090136990652596, 35.478499763723697 ], [ -90.10052, 35.478089 ], [ -90.107723, 35.476935 ], [ -90.114412, 35.472467 ], [ -90.120024, 35.4666 ], [ -90.123142, 35.459853 ], [ -90.129435, 35.442119 ], [ -90.140060434227905, 35.4366666127721 ], [ -90.16888, 35.421878 ], [ -90.170599, 35.418352 ], [ -90.1707, 35.410065 ], [ -90.179265, 35.385194 ], [ -90.178341, 35.382092 ], [ -90.172138, 35.377493 ], [ -90.165282, 35.373982 ], [ -90.156022, 35.374633 ], [ -90.146542, 35.373991 ], [ -90.13551, 35.376668 ], [ -90.143475, 35.387602 ], [ -90.14587, 35.395079 ], [ -90.146191, 35.399468 ], [ -90.145085, 35.403757 ], [ -90.14324, 35.406998 ], [ -90.139295, 35.410521 ], [ -90.134289, 35.413251 ], [ -90.129342, 35.41383 ], [ -90.11509, 35.411405 ], [ -90.111624, 35.409589 ], [ -90.107347, 35.404211 ], [ -90.102336, 35.399687 ], [ -90.093589, 35.393333 ], [ -90.084191, 35.388703 ], [ -90.080953383610705, 35.385911761359701 ], [ -90.080666, 35.385664 ], [ -90.078613, 35.380618 ], [ -90.078263, 35.37493 ], [ -90.08386, 35.365599 ], [ -90.087879, 35.360564 ], [ -90.093384, 35.354088 ], [ -90.096182, 35.348852 ], [ -90.100246425974504, 35.334962668097603 ], [ -90.100577, 35.333833 ], [ -90.103783, 35.324259 ], [ -90.108555, 35.311968 ], [ -90.109966, 35.304988 ], [ -90.117167, 35.303364 ], [ -90.122489, 35.304512 ], [ -90.123707, 35.30453 ], [ -90.129849, 35.301166 ], [ -90.139504, 35.298828 ], [ -90.148499, 35.302889 ], [ -90.151351, 35.303024 ], [ -90.157325, 35.301492 ], [ -90.161225, 35.298951 ], [ -90.163812, 35.296115 ], [ -90.165194, 35.293188 ], [ -90.168871, 35.281997 ], [ -90.168794, 35.279088 ], [ -90.166594, 35.274588 ], [ -90.158817, 35.262886 ], [ -90.158546653506207, 35.2626086565866 ], [ -90.152094, 35.255989 ], [ -90.14632, 35.253562 ], [ -90.145195319880898, 35.253347215564098 ], [ -90.139717, 35.252301 ], [ -90.127833, 35.253932 ], [ -90.117346, 35.255796 ], [ -90.112051, 35.255677 ], [ -90.105144, 35.254417 ], [ -90.097668, 35.25012 ], [ -90.094337, 35.24879 ], [ -90.092603, 35.246775 ], [ -90.086352, 35.238183 ], [ -90.084542, 35.231035 ], [ -90.080413, 35.226464 ], [ -90.07616, 35.221477 ], [ -90.074859, 35.218105 ], [ -90.075466, 35.214047 ], [ -90.077299510419806, 35.211118467122198 ], [ -90.078207, 35.209669 ], [ -90.080677, 35.208536 ], [ -90.08412, 35.210423 ], [ -90.08856, 35.212318 ], [ -90.093285, 35.203282 ], [ -90.096466, 35.194848 ], [ -90.097408, 35.194794 ], [ -90.108707, 35.199263 ], [ -90.11606, 35.19859 ], [ -90.117383, 35.190059 ], [ -90.116743, 35.186906 ], [ -90.11365, 35.183293 ], [ -90.108138, 35.181571 ], [ -90.106658, 35.176034 ], [ -90.105701497019496, 35.175129965741903 ], [ -90.101426, 35.171089 ], [ -90.078875, 35.159411 ], [ -90.068822111306901, 35.156048869415699 ], [ -90.068673, 35.155999 ], [ -90.066928973022996, 35.153553547835401 ], [ -90.066631603684399, 35.153136580378799 ], [ -90.0665291739856, 35.152992954774497 ], [ -90.065381, 35.151383 ], [ -90.06401, 35.144634 ], [ -90.064628710571498, 35.141871446739898 ], [ -90.065182, 35.139401 ], [ -90.065714248803005, 35.138403959568301 ], [ -90.066547, 35.136844 ], [ -90.073021, 35.129228 ], [ -90.075028759769395, 35.127575706967498 ], [ -90.075362649131407, 35.127300931531302 ], [ -90.082623, 35.121326 ], [ -90.086626525144396, 35.119465758972503 ], [ -90.089667, 35.118053 ], [ -90.095009, 35.117535 ], [ -90.106838, 35.119445 ], [ -90.1291, 35.128466 ], [ -90.141805, 35.133041 ], [ -90.15068, 35.132477 ], [ -90.154697, 35.130924 ], [ -90.167358, 35.123585 ], [ -90.167911639589207, 35.123065086344802 ], [ -90.172332, 35.118914 ], [ -90.172896837489304, 35.118059293570802 ], [ -90.176843, 35.112088 ], [ -90.181374, 35.094013 ], [ -90.180987, 35.084993 ], [ -90.178513, 35.079811 ], [ -90.175994353393904, 35.077124587010204 ], [ -90.175, 35.076064 ], [ -90.176759, 35.069736 ], [ -90.177615, 35.063842 ], [ -90.180541554457804, 35.055663015646999 ], [ -90.181157, 35.053943 ], [ -90.186547, 35.045423 ], [ -90.191217, 35.040213 ], [ -90.200730229138102, 35.031679577913103 ], [ -90.207315, 35.025773 ], [ -90.209852941827293, 35.025656781305301 ], [ -90.213233, 35.025502 ], [ -90.219925, 35.027439 ], [ -90.232352, 35.03124 ], [ -90.242979, 35.032678 ], [ -90.251797, 35.03161 ], [ -90.256218, 35.034735 ], [ -90.261703, 35.036226 ], [ -90.264818, 35.040448 ], [ -90.292348, 35.041356 ], [ -90.294256978989097, 35.0400416142501 ], [ -90.296968, 35.038175 ], [ -90.299468, 35.030292 ], [ -90.302985, 35.024411 ], [ -90.305741, 35.019082 ], [ -90.30528, 35.013596 ], [ -90.309256, 35.009592 ], [ -90.310453, 35.002696 ], [ -90.309977337411595, 35.001103940036401 ], [ -90.308361, 34.995694 ], [ -90.307336, 34.991927 ], [ -90.301324, 34.981964 ], [ -90.296057, 34.976471 ], [ -90.292995, 34.974303 ], [ -90.275172976693895, 34.961872600506197 ], [ -90.270706, 34.958757 ], [ -90.252773, 34.951602 ], [ -90.248232, 34.950179 ], [ -90.245935, 34.948721 ], [ -90.243757, 34.94527 ], [ -90.242019, 34.931524 ], [ -90.241334, 34.919033 ], [ -90.243208, 34.9091 ], [ -90.24907, 34.900143 ], [ -90.257858, 34.893385 ], [ -90.276867, 34.885229 ], [ -90.289707, 34.883321 ], [ -90.304478, 34.877785 ], [ -90.317741, 34.871058 ], [ -90.314893, 34.863955 ], [ -90.305778, 34.861665 ], [ -90.304775820948095, 34.860414796756103 ], [ -90.303293, 34.858565 ], [ -90.302669, 34.854366 ], [ -90.303944, 34.850517 ], [ -90.307384, 34.846195 ], [ -90.311312, 34.844223 ], [ -90.319198, 34.844854 ], [ -90.328557, 34.849733 ], [ -90.338449, 34.858517 ], [ -90.362258, 34.842765 ], [ -90.389393, 34.830665 ], [ -90.399756, 34.8277 ], [ -90.407947907164896, 34.826830707426303 ], [ -90.407974532690702, 34.826827882031502 ], [ -90.411893415163803, 34.826412025825803 ], [ -90.417529, 34.825814 ], [ -90.430173, 34.82622 ], [ -90.438729, 34.825248 ], [ -90.449691, 34.83992 ], [ -90.435583, 34.85625 ], [ -90.429366, 34.866609 ], [ -90.430096, 34.871212 ], [ -90.436561, 34.882731 ], [ -90.440058, 34.88545 ], [ -90.446857, 34.888543 ], [ -90.453947, 34.890932 ], [ -90.462272, 34.891738 ], [ -90.467059, 34.890406 ], [ -90.476044, 34.885842 ], [ -90.481264, 34.881066 ], [ -90.484348, 34.874925 ], [ -90.485038, 34.869252 ], [ -90.484373, 34.863581 ], [ -90.481955, 34.857805 ], [ -90.474878, 34.85036 ], [ -90.461603, 34.83172 ], [ -90.455379, 34.820785 ], [ -90.463378, 34.817014 ], [ -90.469374, 34.812604 ], [ -90.47466, 34.804209 ], [ -90.476174, 34.800484 ], [ -90.476455, 34.793587 ], [ -90.474769, 34.788961 ], [ -90.470411, 34.780877 ], [ -90.457865, 34.762622 ], [ -90.45267, 34.755674 ], [ -90.449047, 34.747462 ], [ -90.448079, 34.741071 ], [ -90.448246968076802, 34.7401169022612 ], [ -90.448423, 34.739117 ], [ -90.455381, 34.732641 ], [ -90.465005, 34.72731 ], [ -90.474999, 34.723888 ], [ -90.491666, 34.721388 ], [ -90.499999, 34.721666 ], [ -90.508333, 34.723611 ], [ -90.524166, 34.731388 ], [ -90.512768, 34.744297 ], [ -90.506723, 34.749777 ], [ -90.499311, 34.75471 ], [ -90.494393, 34.757431 ], [ -90.492453, 34.764541 ], [ -90.492777, 34.772499 ], [ -90.503055, 34.783333 ], [ -90.511388, 34.789999 ], [ -90.511111, 34.798288 ], [ -90.514071, 34.800054 ], [ -90.516818006709499, 34.800791477653497 ], [ -90.521111, 34.801944 ], [ -90.526396, 34.801669 ], [ -90.533489, 34.799913 ], [ -90.540833, 34.795833 ], [ -90.544167, 34.791667 ], [ -90.547778, 34.783333 ], [ -90.545221, 34.770625 ], [ -90.542631, 34.764396 ], [ -90.539444, 34.755277 ], [ -90.545556, 34.738889 ], [ -90.55, 34.739722 ], [ -90.558333, 34.739167 ], [ -90.563611, 34.737778 ], [ -90.567778, 34.733333 ], [ -90.568124708122497, 34.728098059337803 ], [ -90.568172, 34.727384 ], [ -90.568611, 34.721388 ], [ -90.571944, 34.712777 ], [ -90.559444, 34.710833 ], [ -90.555454340884395, 34.707758265120297 ], [ -90.553217, 34.706034 ], [ -90.542499, 34.7 ], [ -90.532444, 34.696237 ], [ -90.516666, 34.695555 ], [ -90.483333, 34.704166 ], [ -90.474166, 34.705277 ], [ -90.468849, 34.702201 ], [ -90.466833352376497, 34.700168732286201 ], [ -90.466666, 34.7 ], [ -90.463685, 34.692644 ], [ -90.462816, 34.684074 ], [ -90.463678415810094, 34.681463487398901 ], [ -90.466041, 34.674312 ], [ -90.468822, 34.670026 ], [ -90.4815, 34.658017 ], [ -90.493634, 34.649092 ], [ -90.499893, 34.644983 ], [ -90.503415, 34.640715 ], [ -90.5081, 34.636682 ], [ -90.517168, 34.630928 ], [ -90.524481, 34.628504 ], [ -90.532108, 34.627327 ], [ -90.541609, 34.628612 ], [ -90.547614, 34.631656 ], [ -90.551761, 34.636484 ], [ -90.554129, 34.640871 ], [ -90.555104, 34.646236 ], [ -90.553962, 34.655018 ], [ -90.552642, 34.659707 ], [ -90.543735, 34.672027 ], [ -90.539968, 34.676839 ], [ -90.540338, 34.680074 ], [ -90.541511, 34.68309 ], [ -90.545689, 34.6884 ], [ -90.555693214548697, 34.693310556140702 ], [ -90.556234, 34.693576 ], [ -90.570102, 34.693432 ], [ -90.567697, 34.679093 ], [ -90.568407, 34.668878 ], [ -90.569715, 34.66635 ], [ -90.580864, 34.655174 ], [ -90.583173, 34.651963 ], [ -90.586643, 34.643713 ], [ -90.587317830265903, 34.641359898937701 ], [ -90.590935, 34.628747 ], [ -90.591784, 34.623794 ], [ -90.591144, 34.619204 ], [ -90.587201, 34.610903 ], [ -90.573762, 34.592133 ], [ -90.562989, 34.581925 ], [ -90.549358, 34.569255 ], [ -90.540493, 34.557871 ], [ -90.539623, 34.553925 ], [ -90.542528, 34.54015 ], [ -90.545996, 34.536181 ], [ -90.552948, 34.531298 ], [ -90.566534, 34.52441 ], [ -90.567847981042107, 34.523983587496303 ], [ -90.574703, 34.521759 ], [ -90.581237375379104, 34.5156628273091 ], [ -90.581294, 34.51561 ], [ -90.589711405427394, 34.497075862486497 ], [ -90.592662, 34.490579 ], [ -90.59392, 34.484176 ], [ -90.593104, 34.477322 ], [ -90.587377, 34.454832 ], [ -90.582584, 34.440735 ], [ -90.580699901185596, 34.437742505169297 ], [ -90.578263, 34.433872 ], [ -90.577694, 34.430975 ], [ -90.5800567401824, 34.422825672983699 ], [ -90.580916, 34.419862 ], [ -90.584313, 34.412194 ], [ -90.586232, 34.409172 ], [ -90.591113422592798, 34.404620783977101 ], [ -90.598014, 34.398187 ], [ -90.606039, 34.393257 ], [ -90.613507, 34.390284 ], [ -90.622384, 34.38947 ], [ -90.630807, 34.390082 ], [ -90.640909, 34.388863 ], [ -90.651464, 34.382751 ], [ -90.658542, 34.375705 ], [ -90.655346, 34.371846 ], [ -90.666788, 34.35582 ], [ -90.666862, 34.348569 ], [ -90.660874404657804, 34.336693015370301 ], [ -90.660404, 34.33576 ], [ -90.657488, 34.322231 ], [ -90.661395, 34.315398 ], [ -90.669343, 34.31302 ], [ -90.678097, 34.313031 ], [ -90.686003, 34.315771 ], [ -90.690005, 34.318584 ], [ -90.693129, 34.32257 ], [ -90.693686, 34.32968 ], [ -90.691551, 34.338618 ], [ -90.681498, 34.352603 ], [ -90.676159, 34.369558 ], [ -90.676245, 34.371111 ], [ -90.678603, 34.371122 ], [ -90.684826, 34.369067 ], [ -90.701057, 34.362519 ], [ -90.711989197067695, 34.360899854577802 ], [ -90.715803, 34.360335 ], [ -90.720533, 34.360805 ], [ -90.733683323314395, 34.364103513401403 ], [ -90.741583, 34.366085 ], [ -90.749641, 34.368148 ], [ -90.757304, 34.367392 ], [ -90.764393, 34.363675 ], [ -90.769231, 34.358433 ], [ -90.76996, 34.355482 ], [ -90.768691, 34.347782 ], [ -90.76513, 34.342511 ], [ -90.755293, 34.334415 ], [ -90.742773, 34.321295 ], [ -90.736399, 34.312067 ], [ -90.735153, 34.30256 ], [ -90.735957, 34.295859 ], [ -90.738025, 34.289279 ], [ -90.746684, 34.279765 ], [ -90.752929, 34.274605 ], [ -90.760423, 34.270733 ], [ -90.765623, 34.269513 ], [ -90.784543, 34.271603 ], [ -90.786925833584107, 34.272423466870897 ], [ -90.797554, 34.276083 ], [ -90.816736, 34.280649 ], [ -90.820344, 34.280904 ], [ -90.829623, 34.278573 ], [ -90.831773, 34.276936 ], [ -90.833629, 34.274074 ], [ -90.834601903265494, 34.263213079164203 ], [ -90.835012, 34.258635 ], [ -90.839414, 34.244577 ], [ -90.840537, 34.23803 ], [ -90.839953, 34.226803 ], [ -90.83813, 34.219997 ], [ -90.839494, 34.216156 ], [ -90.847149, 34.20613 ], [ -90.856407, 34.211316 ], [ -90.864719, 34.211745 ], [ -90.876796, 34.214389 ], [ -90.881338, 34.216377 ], [ -90.89658, 34.2258 ], [ -90.900078, 34.229621 ], [ -90.904279, 34.24096 ], [ -90.906334, 34.244382 ], [ -90.912396, 34.245932 ], [ -90.923152, 34.24653 ], [ -90.929015, 34.244541 ], [ -90.935548, 34.237847 ], [ -90.937148, 34.23261 ], [ -90.936472, 34.224771 ], [ -90.936409853777604, 34.224548040757099 ], [ -90.934544, 34.217854 ], [ -90.931932262190898, 34.214701752577703 ], [ -90.925542, 34.206989 ], [ -90.914425, 34.195726 ], [ -90.908215, 34.192071 ], [ -90.887561, 34.182414 ], [ -90.882701, 34.184364 ], [ -90.877475, 34.185633 ], [ -90.87383, 34.18322 ], [ -90.869746, 34.182839 ], [ -90.863445, 34.184239 ], [ -90.860866, 34.185905 ], [ -90.854406, 34.186833 ], [ -90.847108, 34.186053 ], [ -90.838205, 34.183804 ], [ -90.828388, 34.184784 ], [ -90.816572, 34.183023 ], [ -90.812374, 34.180767 ], [ -90.810016, 34.178437 ], [ -90.809225662268801, 34.176917485158398 ], [ -90.808685, 34.175878 ], [ -90.807164, 34.16746 ], [ -90.807564, 34.161821 ], [ -90.810884, 34.155903 ], [ -90.815878, 34.149879 ], [ -90.822593, 34.144054 ], [ -90.830285, 34.139813 ], [ -90.836099, 34.137876 ], [ -90.847168, 34.136884 ], [ -90.853471, 34.137511 ], [ -90.860446, 34.139187 ], [ -90.868618, 34.142516 ], [ -90.87453, 34.147251 ], [ -90.881984, 34.150911 ], [ -90.894385, 34.160953 ], [ -90.903577, 34.164332 ], [ -90.91001, 34.165508 ], [ -90.913527, 34.163343 ], [ -90.91553, 34.161265 ], [ -90.922882, 34.155837 ], [ -90.936614, 34.149374 ], [ -90.9543, 34.138498 ], [ -90.958644, 34.135484 ], [ -90.961044, 34.130514 ], [ -90.958604, 34.122444 ], [ -90.956611571936193, 34.120094705526199 ], [ -90.955578332197604, 34.118876400859598 ], [ -90.947689, 34.109574 ], [ -90.940062, 34.105063 ], [ -90.921294, 34.093514 ], [ -90.917277, 34.092635 ], [ -90.914066, 34.092756 ], [ -90.90113, 34.094667 ], [ -90.893526, 34.097795 ], [ -90.888085, 34.09781 ], [ -90.882628, 34.096615 ], [ -90.876606, 34.092911 ], [ -90.871923, 34.086652 ], [ -90.871083, 34.081177 ], [ -90.872160198526004, 34.0768589919116 ], [ -90.872369, 34.076022 ], [ -90.874541, 34.072041 ], [ -90.882115, 34.063903 ], [ -90.886351, 34.058564 ], [ -90.887837, 34.055403 ], [ -90.888694, 34.051752 ], [ -90.886581, 34.045167 ], [ -90.886252, 34.039208 ], [ -90.888378, 34.031827 ], [ -90.891243, 34.027942 ], [ -90.896253, 34.025218 ], [ -90.906035, 34.022757 ], [ -90.919508, 34.021348 ], [ -90.93005, 34.021913 ], [ -90.958203, 34.026741 ], [ -90.964625, 34.026798 ], [ -90.971082, 34.025568 ], [ -90.97723, 34.023474 ], [ -90.988184, 34.019211 ], [ -90.980152, 33.999689 ], [ -90.978678, 33.99717 ], [ -90.970947, 33.991885 ], [ -90.961548, 33.979945 ], [ -90.961222, 33.976151 ], [ -90.96372, 33.967688 ], [ -90.966173, 33.964663 ], [ -90.970856, 33.961868 ], [ -90.976864, 33.960503 ], [ -90.98666, 33.960527 ], [ -90.994856, 33.963118 ], [ -91.000108, 33.966428 ], [ -91.002986, 33.970902 ], [ -91.004981, 33.977011 ], [ -91.013294, 33.993444 ], [ -91.018948, 34.003225 ], [ -91.035796, 33.994269 ], [ -91.044522, 33.992555 ], [ -91.048712, 33.99268 ], [ -91.055131, 33.995907 ], [ -91.067582, 34.005794 ], [ -91.074691, 34.009018 ], [ -91.08329, 34.00891 ], [ -91.086202, 34.006418 ], [ -91.089093, 33.999333 ], [ -91.090484, 33.991418 ], [ -91.08969, 33.964498 ], [ -91.087753, 33.959313 ], [ -91.084579, 33.956363 ], [ -91.078999374682894, 33.954250575685499 ], [ -91.078496, 33.95406 ], [ -91.046725, 33.947406 ], [ -91.023122, 33.943216 ], [ -91.016225, 33.940721 ], [ -91.01186, 33.936608 ], [ -91.010194, 33.93159 ], [ -91.010785313339497, 33.928311274230197 ], [ -91.011053, 33.926827 ], [ -91.013057, 33.923273 ], [ -91.026909, 33.906348 ], [ -91.034606, 33.898264 ], [ -91.038220846684695, 33.895310504920701 ], [ -91.046609, 33.888457 ], [ -91.062746, 33.878587 ], [ -91.069777, 33.872721 ], [ -91.072772, 33.867294 ], [ -91.073145, 33.860155 ], [ -91.070194, 33.84534 ], [ -91.068236, 33.840968 ], [ -91.061222, 33.830923 ], [ -91.053708, 33.821765 ], [ -91.049083, 33.816026 ], [ -91.041252, 33.811596 ], [ -91.031934, 33.807789 ], [ -91.021599, 33.805083 ], [ -91.019334137997305, 33.804672462228098 ], [ -91.01307, 33.803537 ], [ -91.00581, 33.802046 ], [ -90.996809, 33.79694 ], [ -90.991747, 33.792597 ], [ -90.989299, 33.788016 ], [ -90.989069343821598, 33.7870549178418 ], [ -90.988466, 33.78453 ], [ -90.989444, 33.780576 ], [ -90.99122, 33.776791 ], [ -90.993842, 33.773601 ], [ -91.001322, 33.768571 ], [ -91.012254, 33.765138 ], [ -91.01837, 33.764131 ], [ -91.02588, 33.764759 ], [ -91.034621, 33.768342 ], [ -91.053386, 33.778283 ], [ -91.071034, 33.775078 ], [ -91.100532, 33.772651 ], [ -91.108427, 33.771712 ], [ -91.114214, 33.776328 ], [ -91.120418, 33.780414 ], [ -91.125091, 33.782585 ], [ -91.129444, 33.783726 ], [ -91.134059, 33.782893 ], [ -91.137351, 33.779923 ], [ -91.14201, 33.77382 ], [ -91.144963, 33.768075 ], [ -91.144755, 33.763936 ], [ -91.140814, 33.760131 ], [ -91.141553, 33.755957 ], [ -91.145034, 33.750394 ], [ -91.143681, 33.748003 ], [ -91.147212, 33.739898 ], [ -91.148807, 33.73136 ], [ -91.139859, 33.721479 ], [ -91.126232, 33.709183 ], [ -91.117353, 33.70526 ], [ -91.10807, 33.704974 ], [ -91.101867, 33.704908 ], [ -91.089873, 33.707364 ], [ -91.07552, 33.714198 ], [ -91.068051, 33.716198 ], [ -91.060529, 33.71513 ], [ -91.055562, 33.712486 ], [ -91.047487, 33.70695 ], [ -91.041261, 33.699933 ], [ -91.037468, 33.694036 ], [ -91.03606, 33.689413 ], [ -91.03168, 33.688477 ], [ -91.030402, 33.687766 ], [ -91.030229, 33.684163 ], [ -91.030987, 33.679412 ], [ -91.033617541889697, 33.674156302995698 ], [ -91.033917, 33.673558 ], [ -91.03684, 33.671316 ], [ -91.046424, 33.668501 ], [ -91.051794, 33.667941 ], [ -91.058756, 33.666553 ], [ -91.076074, 33.659159 ], [ -91.083878, 33.657479 ], [ -91.091351, 33.657764 ], [ -91.098723, 33.660146 ], [ -91.110014, 33.665449 ], [ -91.128201, 33.673192 ], [ -91.133416, 33.67679 ], [ -91.144188, 33.689596 ], [ -91.160367, 33.706602 ], [ -91.163449, 33.704881 ], [ -91.170924, 33.702434 ], [ -91.182891, 33.701555 ], [ -91.20076, 33.701328 ], [ -91.210659, 33.700399 ], [ -91.217875, 33.697997 ], [ -91.223914, 33.693739 ], [ -91.228284, 33.688279 ], [ -91.229912, 33.684346 ], [ -91.230634, 33.677147 ], [ -91.228962, 33.67126 ], [ -91.224474, 33.665191 ], [ -91.218855, 33.660122 ], [ -91.212226, 33.656956 ], [ -91.204819, 33.655578 ], [ -91.193145, 33.655259 ], [ -91.182485, 33.653505 ], [ -91.171976, 33.649689 ], [ -91.159986, 33.642897 ], [ -91.145687, 33.633256 ], [ -91.137441, 33.626874 ], [ -91.131485, 33.617084 ], [ -91.12868, 33.608475 ], [ -91.129512, 33.601603 ], [ -91.132621, 33.595111 ], [ -91.13686, 33.590193 ], [ -91.15034, 33.578611 ], [ -91.158236, 33.573367 ], [ -91.164855, 33.570175 ], [ -91.171457, 33.56829 ], [ -91.179948, 33.567209 ], [ -91.186678, 33.567401 ], [ -91.207162, 33.569405 ], [ -91.215449, 33.569271 ], [ -91.225134, 33.567975 ], [ -91.229896, 33.566155 ], [ -91.233392, 33.562747 ], [ -91.233826851474902, 33.5613433881257 ], [ -91.234608, 33.558822 ], [ -91.23341, 33.553457 ], [ -91.229242, 33.545498 ], [ -91.219487, 33.530191 ], [ -91.2187139058355, 33.529383130578097 ], [ -91.215063, 33.525568 ], [ -91.205103, 33.518283 ], [ -91.191937, 33.510693 ], [ -91.185417, 33.507531 ], [ -91.183236, 33.503994 ], [ -91.1826, 33.499185 ], [ -91.189375, 33.493005 ], [ -91.195634, 33.488468 ], [ -91.199593, 33.483125 ], [ -91.205661, 33.473553 ], [ -91.206753, 33.470308 ], [ -91.208535, 33.468606 ], [ -91.215508, 33.46478 ], [ -91.220183, 33.463226 ], [ -91.223338, 33.462764 ], [ -91.231661, 33.4571 ], [ -91.232587, 33.453958 ], [ -91.233422, 33.444038 ], [ -91.233697370522407, 33.443499042828797 ], [ -91.23431, 33.4423 ], [ -91.235928, 33.440611 ], [ -91.235181, 33.438972 ], [ -91.217374, 33.434699 ], [ -91.210275, 33.433796 ], [ -91.206807, 33.433846 ], [ -91.194658, 33.436358 ], [ -91.186979, 33.438592 ], [ -91.181787, 33.44078 ], [ -91.176507, 33.444627 ], [ -91.169809, 33.452011 ], [ -91.169884, 33.453899 ], [ -91.176011, 33.472918 ], [ -91.177439, 33.48164 ], [ -91.176974, 33.487254 ], [ -91.174682, 33.492792 ], [ -91.171674, 33.496997 ], [ -91.168019, 33.49833 ], [ -91.164217, 33.498191 ], [ -91.161614, 33.497478 ], [ -91.14613, 33.490454 ], [ -91.132152, 33.481558 ], [ -91.125919, 33.475133 ], [ -91.121198, 33.467485 ], [ -91.117786, 33.458081 ], [ -91.1177115280301, 33.457550485896597 ], [ -91.116937, 33.452033 ], [ -91.118946, 33.446211 ], [ -91.126397, 33.438639 ], [ -91.130104, 33.434082 ], [ -91.130561, 33.4319 ], [ -91.131885, 33.430063 ], [ -91.13915, 33.426955 ], [ -91.144877, 33.427706 ], [ -91.147663, 33.427172 ], [ -91.163387, 33.422157 ], [ -91.17628, 33.416979 ], [ -91.179368, 33.417151 ], [ -91.184427, 33.419576 ], [ -91.191973, 33.417728 ], [ -91.199354, 33.418321 ], [ -91.20258, 33.416832 ], [ -91.205272, 33.414231 ], [ -91.208702, 33.408719 ], [ -91.20922, 33.40629 ], [ -91.209032, 33.403633 ], [ -91.208113, 33.402007 ], [ -91.204758, 33.398823 ], [ -91.193038790920596, 33.390922786352299 ], [ -91.191127, 33.389634 ], [ -91.176942, 33.382841 ], [ -91.171968, 33.38103 ], [ -91.166304, 33.379709 ], [ -91.148816, 33.378765 ], [ -91.141936, 33.38006 ], [ -91.121239, 33.38842 ], [ -91.113764, 33.393124 ], [ -91.10717, 33.399078 ], [ -91.099535, 33.407209 ], [ -91.096307, 33.412825 ], [ -91.095265, 33.417726 ], [ -91.095046, 33.424151 ], [ -91.097474, 33.431733 ], [ -91.097531, 33.433725 ], [ -91.096723, 33.437603 ], [ -91.094279, 33.442671 ], [ -91.090255, 33.448115 ], [ -91.087034, 33.45129 ], [ -91.081834, 33.454188 ], [ -91.075765, 33.455669 ], [ -91.070742, 33.455851 ], [ -91.067623, 33.455104 ], [ -91.064701, 33.453775 ], [ -91.059828, 33.450257 ], [ -91.058077, 33.446537 ], [ -91.058065284263193, 33.446236061988003 ], [ -91.05771, 33.43711 ], [ -91.058152, 33.428705 ], [ -91.059223729554901, 33.426960288329497 ], [ -91.064444, 33.418462 ], [ -91.070136633278395, 33.4121953004489 ], [ -91.0744, 33.407502 ], [ -91.079801, 33.402662 ], [ -91.080847847232505, 33.402062845823203 ], [ -91.0842768632033, 33.400100277477797 ], [ -91.091067, 33.396214 ], [ -91.101456, 33.38719 ], [ -91.106758, 33.381141 ], [ -91.120409, 33.363809 ], [ -91.125108, 33.360099 ], [ -91.130318848380099, 33.357111847657002 ], [ -91.140192, 33.351452 ], [ -91.141793, 33.350076 ], [ -91.142219, 33.348989 ], [ -91.140968, 33.336493 ], [ -91.141787814225196, 33.333364411659602 ], [ -91.141893, 33.332963 ], [ -91.143353, 33.33052 ], [ -91.143400809761999, 33.3301969034558 ], [ -91.143667, 33.328398 ], [ -91.141475, 33.314318 ], [ -91.141615, 33.299539 ], [ -91.140335921951205, 33.297140933902099 ], [ -91.140057, 33.296618 ], [ -91.125539, 33.280255 ], [ -91.125528, 33.274732 ], [ -91.128078, 33.268502 ], [ -91.118832, 33.26242 ], [ -91.11725, 33.26056 ], [ -91.115218477910304, 33.255276653491798 ], [ -91.114325, 33.252953 ], [ -91.110561, 33.24593 ], [ -91.106142, 33.241799 ], [ -91.100818, 33.238273 ], [ -91.098706, 33.238508 ], [ -91.096931, 33.241628 ], [ -91.094748, 33.250499 ], [ -91.091489, 33.254838 ], [ -91.090342, 33.257325 ], [ -91.086137, 33.273652 ], [ -91.083694, 33.278557 ], [ -91.081244, 33.28125 ], [ -91.07853, 33.283306 ], [ -91.072567, 33.285885 ], [ -91.067035, 33.28718 ], [ -91.05873, 33.286901 ], [ -91.052369, 33.285415 ], [ -91.04815, 33.282796 ], [ -91.045141, 33.279015 ], [ -91.043624, 33.274636 ], [ -91.043985, 33.269835 ], [ -91.045191, 33.265404 ], [ -91.047648, 33.259989 ], [ -91.050407, 33.251202 ], [ -91.054126, 33.246105 ], [ -91.063912, 33.237356 ], [ -91.065629, 33.232982 ], [ -91.068708, 33.232936 ], [ -91.071079, 33.230096 ], [ -91.070697, 33.227302 ], [ -91.074103, 33.226821 ], [ -91.077838, 33.227467 ], [ -91.079363, 33.226338 ], [ -91.079434, 33.224044 ], [ -91.080804, 33.222636 ], [ -91.082878, 33.221621 ], [ -91.085984, 33.221644 ], [ -91.10026, 33.219428 ], [ -91.096025, 33.210474 ], [ -91.083937, 33.190388 ], [ -91.080787, 33.182213 ], [ -91.080048, 33.170309 ], [ -91.081662, 33.153809 ], [ -91.082929154900597, 33.148602544017599 ], [ -91.085707, 33.137189 ], [ -91.087651, 33.135398 ], [ -91.099872, 33.131123 ], [ -91.113206, 33.129205 ], [ -91.124063, 33.129357 ], [ -91.128078, 33.128914 ], [ -91.143334, 33.129785 ], [ -91.150362, 33.130695 ], [ -91.151853, 33.131802 ], [ -91.152948, 33.134805 ], [ -91.160298, 33.141216 ], [ -91.163111, 33.142186 ], [ -91.169406, 33.142639 ], [ -91.183662, 33.141691 ], [ -91.188097, 33.140083 ], [ -91.192563, 33.137084 ], [ -91.1957442756311, 33.1332493506726 ], [ -91.199662, 33.128527 ], [ -91.201995, 33.123125 ], [ -91.201462, 33.109638 ], [ -91.201125, 33.108185 ], [ -91.200167, 33.10693 ], [ -91.195953, 33.104561 ], [ -91.180836, 33.098364 ], [ -91.174491, 33.090824 ], [ -91.173142, 33.088689 ], [ -91.170555, 33.087384 ], [ -91.164162, 33.086286 ], [ -91.15931, 33.085313 ], [ -91.150217, 33.082129 ], [ -91.124639, 33.064127 ], [ -91.121195, 33.059166 ], [ -91.120293, 33.055921 ], [ -91.120379, 33.05453 ], [ -91.122807, 33.051072 ], [ -91.123781, 33.045315 ], [ -91.126156, 33.040949 ], [ -91.125307, 33.038852 ], [ -91.128326, 33.034282 ], [ -91.137439, 33.028736 ], [ -91.14351, 33.02725 ], [ -91.149758, 33.026312 ], [ -91.157515, 33.022724 ], [ -91.161838, 33.01985 ], [ -91.166253941654801, 33.011384786913297 ], [ -91.166282, 33.011331 ], [ -91.166095, 33.004291 ], [ -91.265018, 33.005084 ], [ -91.284398, 33.005007 ], [ -91.305476274420499, 33.005201618001898 ], [ -91.312016, 33.005262 ], [ -91.312036542686201, 33.0052621547066 ], [ -91.322506, 33.005341 ], [ -91.322594716423097, 33.005341806194302 ], [ -91.325037, 33.005364 ], [ -91.326396, 33.005376 ], [ -91.329767, 33.005421 ], [ -91.333011, 33.005529 ], [ -91.358335666162802, 33.005685052471399 ], [ -91.376016, 33.005794 ], [ -91.425466, 33.006016 ], [ -91.435782, 33.006099 ], [ -91.453369, 33.005843 ], [ -91.460377647528503, 33.005909353827803 ], [ -91.489176, 33.006182 ], [ -91.500118, 33.006784 ], [ -91.559494, 33.00684 ], [ -91.572326, 33.006908 ], [ -91.579639, 33.006472 ], [ -91.579802, 33.006518 ], [ -91.609001, 33.006556 ], [ -91.617615, 33.006717 ], [ -91.623557179226495, 33.006665813917202 ], [ -91.62667, 33.006639 ], [ -91.6563116900263, 33.006892229087804 ], [ -91.699113477428995, 33.007257884945098 ], [ -91.735531, 33.007569 ], [ -91.755068, 33.00701 ], [ -91.800294487577901, 33.007280469915699 ], [ -91.800316045004607, 33.007280598836502 ], [ -91.875128, 33.007728 ], [ -91.924289515030907, 33.007591427468803 ], [ -91.950001, 33.00752 ], [ -91.951958, 33.007428 ], [ -91.977798009359503, 33.007590124568999 ], [ -92.001094097246096, 33.007736288146397 ], [ -92.068928921500202, 33.008161895253899 ], [ -92.068959639054697, 33.008162087980999 ], [ -92.069105, 33.008163 ], [ -92.188889216064197, 33.008877559758801 ], [ -92.221366465701095, 33.009071299271703 ], [ -92.222825, 33.00908 ], [ -92.292664, 33.010103 ], [ -92.335893, 33.010349 ], [ -92.362865, 33.010628 ], [ -92.368302850625398, 33.010693180970499 ], [ -92.37029, 33.010717 ], [ -92.391884627825704, 33.010997700637098 ], [ -92.439802714448504, 33.011620570248702 ], [ -92.452502134596301, 33.0117856453478 ], [ -92.469762, 33.01201 ], [ -92.501383, 33.01216 ], [ -92.502472819276605, 33.012160455419703 ], [ -92.503776, 33.012161 ], [ -92.524956005908905, 33.012380033471104 ], [ -92.529781841411705, 33.0124299399492 ], [ -92.538032600191698, 33.0125152653425 ], [ -92.663921874587501, 33.013817151888603 ], [ -92.692130266799794, 33.014108869562598 ], [ -92.702839903605906, 33.0142196234941 ], [ -92.708187590224597, 33.014274926706399 ], [ -92.711289, 33.014307 ], [ -92.711548480459001, 33.014312138786003 ], [ -92.715830644784305, 33.0143969433461 ], [ -92.715884, 33.014398 ], [ -92.723553, 33.014328 ], [ -92.724742829537206, 33.014346991033598 ], [ -92.724994, 33.014351 ], [ -92.733197, 33.014347 ], [ -92.796533, 33.014836 ], [ -92.807194881862898, 33.0150927066259 ], [ -92.830798, 33.015661 ], [ -92.844073, 33.016034 ], [ -92.844286, 33.01607 ], [ -92.854167, 33.016132 ], [ -92.86751, 33.016062 ], [ -92.893326325893995, 33.016305325314001 ], [ -92.946553, 33.016807 ], [ -92.970965031484297, 33.017189306871202 ], [ -92.971137, 33.017192 ], [ -92.988776613373304, 33.017298317170699 ], [ -93.036632931518199, 33.017586755938403 ], [ -93.070686, 33.017792 ], [ -93.073167, 33.017898 ], [ -93.081428, 33.017928 ], [ -93.100981, 33.017786 ], [ -93.101443, 33.01774 ], [ -93.119729854643296, 33.017780093655801 ], [ -93.154351, 33.017856 ], [ -93.157918949525694, 33.017863873341 ], [ -93.197402, 33.017951 ], [ -93.215653, 33.018393 ], [ -93.223242662006399, 33.018260410714298 ], [ -93.238607, 33.017992 ], [ -93.238647275581897, 33.017992094937703 ], [ -93.308181, 33.018156 ], [ -93.308398, 33.018179 ], [ -93.340353, 33.018337 ], [ -93.377134, 33.018234 ], [ -93.392058997554798, 33.018296583130301 ], [ -93.395929921632899, 33.018312814593301 ], [ -93.414477526019297, 33.0183905879489 ], [ -93.4226616479189, 33.018424905406199 ], [ -93.425241992765706, 33.018435725244302 ], [ -93.437626670704603, 33.018487656369302 ], [ -93.467042, 33.018611 ], [ -93.467097353741707, 33.018610586029702 ], [ -93.4670995092727, 33.018610569909299 ], [ -93.489506, 33.018443 ], [ -93.490557836511599, 33.018442241646298 ], [ -93.490893, 33.018442 ], [ -93.490999362148401, 33.0184426153007 ], [ -93.492147002472706, 33.018449254353001 ], [ -93.520971, 33.018616 ], [ -93.520992930177002, 33.018616116738599 ], [ -93.524916, 33.018637 ], [ -93.525414171171306, 33.018637454052403 ], [ -93.531499, 33.018643 ], [ -93.610862374099597, 33.018979864155298 ], [ -93.674893647685906, 33.019251649990203 ], [ -93.676263728092195, 33.019257465405502 ], [ -93.723273, 33.019457 ], [ -93.807137544856204, 33.019378905277001 ], [ -93.814553, 33.019372 ], [ -93.814598051062603, 33.019371964589602 ], [ -93.891052442688405, 33.019311870961403 ], [ -93.895584642601307, 33.019308308623998 ], [ -93.918228022964399, 33.019290510786 ], [ -94.024475, 33.019207 ], [ -94.027983, 33.019139 ], [ -94.035839, 33.019145 ], [ -94.041444, 33.019188 ], [ -94.042964, 33.019219 ], [ -94.043036, 33.079485 ], [ -94.042953870374404, 33.086036569285802 ], [ -94.04287, 33.092727 ], [ -94.042951719382302, 33.117280393665297 ], [ -94.043007, 33.13389 ], [ -94.043077, 33.138162 ], [ -94.043077373275096, 33.138180366519798 ], [ -94.043185, 33.143476 ], [ -94.042719, 33.160291 ], [ -94.042875, 33.199785 ], [ -94.042875300074698, 33.199835853834998 ], [ -94.042892, 33.202666 ], [ -94.042876, 33.215219 ], [ -94.04273, 33.241823 ], [ -94.043004, 33.250128 ], [ -94.043011094160306, 33.251789884156302 ], [ -94.043025799519697, 33.255234774445 ], [ -94.04305, 33.260904 ], [ -94.04299, 33.271227 ], [ -94.042990018153802, 33.271240973994097 ], [ -94.042990021000193, 33.271243165049398 ], [ -94.043067, 33.330498 ], [ -94.043067, 33.339573 ], [ -94.043067, 33.343799521348302 ], [ -94.043067, 33.347351 ], [ -94.043067, 33.349796 ], [ -94.043067, 33.352097 ], [ -94.043073488417704, 33.352805407577499 ], [ -94.043127639220302, 33.358717609960003 ], [ -94.043128, 33.358757 ], [ -94.042869, 33.37117 ], [ -94.043053, 33.377716 ], [ -94.043042109787294, 33.380504747300002 ], [ -94.043013589159699, 33.387808261503601 ], [ -94.042965744087695, 33.400060346856399 ], [ -94.042944156935107, 33.405588348468598 ], [ -94.0429439102506, 33.405651519024197 ], [ -94.042914789322495, 33.413108757164402 ], [ -94.042889196849302, 33.419662434535702 ], [ -94.042887, 33.420225 ], [ -94.042963866391503, 33.4284436154677 ], [ -94.042988, 33.431024 ], [ -94.042988, 33.43459 ], [ -94.042988, 33.435824 ], [ -94.043002811734397, 33.438379024179397 ], [ -94.043011087449301, 33.439806585000298 ], [ -94.0430452274651, 33.445695737733899 ], [ -94.0430587781985, 33.448033239246797 ], [ -94.043061016172501, 33.448419289761297 ], [ -94.043087143678406, 33.452926284520899 ], [ -94.043091363180395, 33.453654148619201 ], [ -94.043119153550805, 33.458447987515598 ], [ -94.043188, 33.470324 ], [ -94.043188213895505, 33.470372669445297 ], [ -94.043188223036495, 33.470374749372901 ], [ -94.043272105629697, 33.489461265593903 ], [ -94.043279, 33.49103 ], [ -94.043245453938297, 33.491279607547703 ], [ -94.043009, 33.493039 ], [ -94.043015186021506, 33.493871848078498 ], [ -94.043016546622695, 33.494055031088898 ], [ -94.043200723856799, 33.518851526687797 ], [ -94.043285028020506, 33.530201723327103 ], [ -94.043375, 33.542315 ], [ -94.043428, 33.551425 ], [ -94.043432140528296, 33.551580834430403 ], [ -94.04345, 33.552253 ], [ -94.044973225181394, 33.551704874181802 ], [ -94.04604, 33.551321 ], [ -94.050212, 33.551083 ], [ -94.051882, 33.552585 ], [ -94.056096, 33.550726 ], [ -94.061896, 33.549764 ], [ -94.06548, 33.550909 ], [ -94.069092, 33.553406 ], [ -94.072156, 33.553864 ], [ -94.073826, 33.555834 ], [ -94.073744, 33.558285 ], [ -94.07172, 33.559682 ], [ -94.067985, 33.560961 ], [ -94.066685, 33.560954 ], [ -94.06118, 33.559159 ], [ -94.05985, 33.559249 ], [ -94.056442, 33.560998 ], [ -94.055663, 33.561887 ], [ -94.056096, 33.567252 ], [ -94.056598, 33.567825 ], [ -94.061283, 33.568805 ], [ -94.066180732519399, 33.568896562858498 ], [ -94.066846, 33.568909 ], [ -94.067801, 33.570131 ], [ -94.06828, 33.571967 ], [ -94.068559, 33.573563 ], [ -94.069517, 33.574162 ], [ -94.070395, 33.574561 ], [ -94.071353, 33.57484 ], [ -94.071713, 33.574601 ], [ -94.072032, 33.574162 ], [ -94.072032, 33.573523 ], [ -94.072231, 33.572605 ], [ -94.07267, 33.572234 ], [ -94.082641, 33.575492 ], [ -94.088943, 33.575322 ], [ -94.09744, 33.573719 ], [ -94.100107, 33.572568 ], [ -94.103176, 33.57035 ], [ -94.112843, 33.566991 ], [ -94.119902, 33.566999 ], [ -94.120355, 33.5655 ], [ -94.120719, 33.560555 ], [ -94.122879, 33.553112 ], [ -94.123898, 33.5521 ], [ -94.126898, 33.550647 ], [ -94.128658, 33.550952 ], [ -94.131382, 33.552934 ], [ -94.133048, 33.557953 ], [ -94.134308, 33.569209 ], [ -94.135142, 33.571033 ], [ -94.136046, 33.571388 ], [ -94.136864, 33.571 ], [ -94.143402, 33.565505 ], [ -94.145239, 33.564987 ], [ -94.14852, 33.565678 ], [ -94.151456, 33.568387 ], [ -94.151755, 33.569476 ], [ -94.151257, 33.571793 ], [ -94.149506, 33.573602 ], [ -94.145669, 33.5756 ], [ -94.143024, 33.577725 ], [ -94.141852, 33.57959 ], [ -94.14216, 33.58139 ], [ -94.144383, 33.582098 ], [ -94.146048, 33.581975 ], [ -94.148732, 33.580197 ], [ -94.152626, 33.575923 ], [ -94.156782, 33.575749 ], [ -94.161277, 33.579271 ], [ -94.16201, 33.580877 ], [ -94.161082, 33.587972 ], [ -94.162265526062299, 33.588905626133602 ], [ -94.162266, 33.588906 ], [ -94.176327, 33.591077 ], [ -94.18088, 33.592612 ], [ -94.183913, 33.594682 ], [ -94.187123060581996, 33.591366133465897 ], [ -94.190891, 33.587474 ], [ -94.194465, 33.582886 ], [ -94.196536, 33.581719 ], [ -94.199752, 33.581098 ], [ -94.203588, 33.580816 ], [ -94.205788, 33.58138 ], [ -94.210967, 33.583143 ], [ -94.212997, 33.583487 ], [ -94.214431, 33.583187 ], [ -94.217198, 33.580737 ], [ -94.217408, 33.57926 ], [ -94.216141, 33.576392 ], [ -94.211329, 33.573774 ], [ -94.209665, 33.57351 ], [ -94.207405, 33.574353 ], [ -94.204265, 33.575005 ], [ -94.201106, 33.575851 ], [ -94.196367, 33.57478 ], [ -94.194399, 33.573678 ], [ -94.192483, 33.570425 ], [ -94.189884, 33.562454 ], [ -94.191333, 33.557666 ], [ -94.193248, 33.556154 ], [ -94.196395, 33.555123 ], [ -94.197817, 33.555238 ], [ -94.199486, 33.556085 ], [ -94.201237, 33.557826 ], [ -94.203594, 33.566546 ], [ -94.205634, 33.567229 ], [ -94.208078, 33.566911 ], [ -94.212537286277197, 33.563863094775797 ], [ -94.213604, 33.563134 ], [ -94.215808170390005, 33.560372214134802 ], [ -94.219221, 33.556096 ], [ -94.222921, 33.554088 ], [ -94.226392, 33.552912 ], [ -94.231844, 33.552088 ], [ -94.233357835162494, 33.552234637168397 ], [ -94.237904, 33.552675 ], [ -94.250197, 33.556765 ], [ -94.251569, 33.558188 ], [ -94.252283, 33.560445 ], [ -94.252331, 33.561855 ], [ -94.251108, 33.56528 ], [ -94.244366, 33.573549 ], [ -94.238868, 33.576722 ], [ -94.237975, 33.577757 ], [ -94.236836, 33.580914 ], [ -94.236363, 33.585992 ], [ -94.236972, 33.587411 ], [ -94.240179, 33.589536 ], [ -94.242777, 33.589709 ], [ -94.245932, 33.589114 ], [ -94.252656, 33.586144 ], [ -94.257801, 33.582508 ], [ -94.262755, 33.577354 ], [ -94.265669, 33.573589 ], [ -94.270853, 33.564783 ], [ -94.270979, 33.563221 ], [ -94.271998, 33.561518 ], [ -94.274473, 33.558652 ], [ -94.275601, 33.557964 ], [ -94.27909, 33.557026 ], [ -94.287572, 33.557178 ], [ -94.28944, 33.557635 ], [ -94.290901, 33.558872 ], [ -94.291687, 33.563481 ], [ -94.290372, 33.567905 ], [ -94.282172, 33.572989 ], [ -94.280605, 33.574908 ], [ -94.280849, 33.577187 ], [ -94.282648, 33.580978 ], [ -94.283582, 33.581891 ], [ -94.287025, 33.58241 ], [ -94.289129, 33.582144 ], [ -94.293258, 33.580419 ], [ -94.298392, 33.576218 ], [ -94.301023, 33.573022 ], [ -94.303577, 33.56828 ], [ -94.307181, 33.559797 ], [ -94.306215, 33.557676 ], [ -94.30641, 33.555616 ], [ -94.308445868234003, 33.553085284852799 ], [ -94.309582, 33.551673 ], [ -94.319492, 33.548864 ], [ -94.32366, 33.549835 ], [ -94.327683217363202, 33.551493633767201 ], [ -94.33059, 33.552692 ], [ -94.331833, 33.553348 ], [ -94.333203, 33.555366 ], [ -94.333870633081801, 33.557387230211603 ], [ -94.333895, 33.557461 ], [ -94.33438, 33.562536 ], [ -94.33494, 33.563592 ], [ -94.338422, 33.567082 ], [ -94.340577, 33.567878 ], [ -94.344023, 33.567824 ], [ -94.345513, 33.567313 ], [ -94.352433, 33.562172 ], [ -94.352653, 33.560611 ], [ -94.34729, 33.552197 ], [ -94.347383, 33.551078 ], [ -94.348945, 33.548359 ], [ -94.355945, 33.54318 ], [ -94.3579185104131, 33.543212620006798 ], [ -94.35897, 33.54323 ], [ -94.361351, 33.544613 ], [ -94.363297, 33.544957 ], [ -94.371598, 33.545001 ], [ -94.373393, 33.544471 ], [ -94.381667, 33.544035 ], [ -94.386086, 33.544923 ], [ -94.389515, 33.546778 ], [ -94.392573, 33.551142 ], [ -94.39723, 33.553786 ], [ -94.399941, 33.557102 ], [ -94.401616, 33.559378 ], [ -94.400736, 33.562532 ], [ -94.397688, 33.564903 ], [ -94.394372, 33.565644 ], [ -94.392357, 33.565287 ], [ -94.388052, 33.565511 ], [ -94.382534, 33.567057 ], [ -94.380091, 33.568943 ], [ -94.378561, 33.571329 ], [ -94.37776, 33.574609 ], [ -94.378076, 33.577019 ], [ -94.379649, 33.580607 ], [ -94.382887, 33.583268 ], [ -94.385927, 33.581888 ], [ -94.397342, 33.571608 ], [ -94.403342, 33.568424 ], [ -94.408901, 33.568197 ], [ -94.412175, 33.568691 ], [ -94.412531021053397, 33.568936945156302 ], [ -94.413155, 33.569368 ], [ -94.425982, 33.586425 ], [ -94.427578, 33.589319 ], [ -94.430039, 33.591124 ], [ -94.439518, 33.594154 ], [ -94.441537, 33.591502 ], [ -94.442364, 33.591243 ], [ -94.449112, 33.590894 ], [ -94.451622, 33.591361 ], [ -94.453996, 33.592223 ], [ -94.458232, 33.59827 ], [ -94.459131468383205, 33.598376431919498 ], [ -94.468086, 33.599436 ], [ -94.471152, 33.601588 ], [ -94.471974, 33.602665 ], [ -94.472166, 33.604199 ], [ -94.469451, 33.607316 ], [ -94.462336, 33.610567 ], [ -94.454769, 33.615156 ], [ -94.452961, 33.616986 ], [ -94.452325, 33.618817 ], [ -94.452711, 33.622621 ], [ -94.455255, 33.622917 ], [ -94.460286, 33.624421 ], [ -94.461129, 33.625415 ], [ -94.462736, 33.63091 ], [ -94.458817, 33.632444 ], [ -94.448451, 33.634497 ], [ -94.447514, 33.636255 ], [ -94.446871, 33.640178 ], [ -94.448637, 33.642766 ], [ -94.45482, 33.644903 ], [ -94.459198, 33.645146 ], [ -94.461453, 33.643616 ], [ -94.464186, 33.637655 ], [ -94.466075, 33.636262 ], [ -94.476415, 33.638947 ], [ -94.481313, 33.638819 ], [ -94.485875, 33.637867 ], [ -94.485577, 33.65331 ], [ -94.485528, 33.663388 ], [ -94.48452, 33.687909 ], [ -94.484616, 33.691592 ], [ -94.48384, 33.711332 ], [ -94.483874, 33.716733 ], [ -94.483652849515906, 33.724184934288502 ], [ -94.483574094426004, 33.726838682740798 ], [ -94.483302546739793, 33.735988811995 ], [ -94.483302235187395, 33.7359993101336 ] ] ] } }
]
}
