{
"type": "FeatureCollection",
"name": "state-08-outline",
"crs": { "type": "name", "properties": { "name": "urn:ogc:def:crs:OGC:1.3:CRS84" } },
"features": [
{ "type": "Feature", "properties": { "state_fips": "08", "state_abbr": "CO", "state_name": "Colorado" }, "geometry": { "type": "Polygon", "coordinates": [ [ [ -106.985514007228005, 37.000112323788102 ], [ -107.196889008189004, 37.000060220852198 ], [ -107.244045425300996, 37.000048597018903 ], [ -107.254955868726995, 37.000045907646303 ], [ -107.333767990012007, 37.000026480831899 ], [ -107.410836951806004, 37.000007483698099 ], [ -107.420913, 37.000005 ], [ -107.442359998647007, 37.000004852015699 ], [ -107.478605081658003, 37.000004601924502 ], [ -107.481736999155004, 37.000004580314297 ], [ -107.534212984950003, 37.000004218229897 ], [ -107.600529000205, 37.0000037606493 ], [ -107.601127853150999, 37.000003756517202 ], [ -107.613802000321996, 37.000003669065599 ], [ -107.661804503604998, 37.000003337848199 ], [ -107.712404494354004, 37.000002988708196 ], [ -107.766849999597, 37.000002613034098 ], [ -107.780576407328994, 37.000002518321899 ], [ -107.866259286054998, 37.0000019271098 ], [ -107.866511001855997, 37.000001925372999 ], [ -107.867189001876, 37.0000019206948 ], [ -107.869547127686999, 37.000001904423698 ], [ -107.878144002007005, 37.000001845105302 ], [ -108.000623, 37.000001 ], [ -108.033460486905994, 36.999870830292899 ], [ -108.037842453726, 36.999853459921702 ], [ -108.047368367462994, 36.999815698645897 ], [ -108.186673126928994, 36.999263486480999 ], [ -108.186841763968999, 36.999262817994001 ], [ -108.196595304933993, 36.999224154390603 ], [ -108.249358, 36.999015 ], [ -108.249838706324994, 36.999220533009598 ], [ -108.250635, 36.999561 ], [ -108.288086, 36.999555 ], [ -108.2884, 36.99952 ], [ -108.320464, 36.999499 ], [ -108.320721, 36.99951 ], [ -108.379302869797996, 36.999458857844303 ], [ -108.536412308880998, 36.999321700812096 ], [ -108.619689, 36.999249 ], [ -108.620309, 36.999287 ], [ -108.646006153605995, 36.999257695115098 ], [ -108.749603341609003, 36.999139553482799 ], [ -108.954404, 36.998906 ], [ -108.958868, 36.998913 ], [ -109.004746883467007, 36.999003849274203 ], [ -109.005109884023994, 36.999004568087202 ], [ -109.033803815073995, 36.999061387752597 ], [ -109.045223, 36.999084 ], [ -109.045208354365997, 37.018009756519497 ], [ -109.045205263230002, 37.022004262727798 ], [ -109.045166, 37.072742 ], [ -109.045058, 37.074661 ], [ -109.044995, 37.086429 ], [ -109.045189, 37.096271 ], [ -109.045173, 37.109464 ], [ -109.045203, 37.111958 ], [ -109.045156, 37.112064 ], [ -109.045646263799995, 37.150171930524301 ], [ -109.045995, 37.177279 ], [ -109.045978, 37.201831 ], [ -109.045487, 37.210844 ], [ -109.045560197361993, 37.239901843323402 ], [ -109.045584, 37.249351 ], [ -109.046039, 37.249993 ], [ -109.045898179245995, 37.326860223832398 ], [ -109.045837973618006, 37.359723557672197 ], [ -109.04581, 37.374993 ], [ -109.043461439769004, 37.484820040900303 ], [ -109.043137, 37.499992 ], [ -109.041915, 37.530653 ], [ -109.041865, 37.530726 ], [ -109.041806, 37.604171 ], [ -109.042131, 37.617662 ], [ -109.042089, 37.623795 ], [ -109.042269, 37.666067 ], [ -109.041732, 37.711214 ], [ -109.04176, 37.713182 ], [ -109.041636, 37.74021 ], [ -109.042098, 37.74999 ], [ -109.041461, 37.800105 ], [ -109.041754, 37.835826 ], [ -109.041723, 37.842051 ], [ -109.041844, 37.872788 ], [ -109.041654683556004, 37.8810851664933 ], [ -109.041058, 37.907236 ], [ -109.043121, 37.97426 ], [ -109.042819, 37.997068 ], [ -109.04282, 37.999301 ], [ -109.041836576110995, 38.153032090353904 ], [ -109.041762, 38.16469 ], [ -109.054648, 38.244921 ], [ -109.060062, 38.275489 ], [ -109.059962, 38.499987 ], [ -109.059962121447995, 38.500028459545 ], [ -109.060253, 38.599328 ], [ -109.059541, 38.719888 ], [ -109.057388, 38.795456 ], [ -109.054189, 38.874984 ], [ -109.053943, 38.904414 ], [ -109.053797, 38.905284 ], [ -109.053233, 38.942467 ], [ -109.053292, 38.942878 ], [ -109.052436, 38.999985 ], [ -109.052272287311993, 39.022328947026203 ], [ -109.051582259726999, 39.116505763904399 ], [ -109.051512, 39.126095 ], [ -109.050765, 39.366677 ], [ -109.051199943037005, 39.461954981719998 ], [ -109.051363, 39.497674 ], [ -109.051362941958999, 39.497703276010597 ], [ -109.051040251033996, 39.660470649351801 ], [ -109.050615, 39.87497 ], [ -109.050873, 40.058915 ], [ -109.050813, 40.059579 ], [ -109.050935718229994, 40.173054017608003 ], [ -109.050944, 40.180712 ], [ -109.050973, 40.180849 ], [ -109.050968717402, 40.222647002020203 ], [ -109.050946, 40.444368 ], [ -109.050314, 40.495092 ], [ -109.050698, 40.499963 ], [ -109.049955, 40.539901 ], [ -109.050061265436995, 40.540309094995699 ], [ -109.050074, 40.540358 ], [ -109.048044, 40.619231 ], [ -109.048249, 40.653601 ], [ -109.048372974241005, 40.662608858969001 ], [ -109.049088, 40.714562 ], [ -109.048455, 40.826081 ], [ -109.050076, 41.000659 ], [ -108.884138, 41.000094 ], [ -108.631108, 41.000156 ], [ -108.526667, 40.999608 ], [ -108.500659, 41.000112 ], [ -108.488746069963995, 41.000112095299599 ], [ -108.300216278600999, 41.000113603477601 ], [ -108.250649, 41.000114 ], [ -108.181227, 41.000455 ], [ -108.046539, 41.002064 ], [ -107.918421, 41.002036 ], [ -107.691379973809006, 41.002104237073098 ], [ -107.625624, 41.002124 ], [ -107.367443, 41.003073 ], [ -107.317793899405004, 41.002967212167498 ], [ -107.302937003075996, 41.0029355564307 ], [ -107.241194, 41.002804 ], [ -107.116081, 41.003136819259502 ], [ -107.000606, 41.003444 ], [ -106.857773, 41.002663 ], [ -106.453859, 41.002057 ], [ -106.439563, 41.001978 ], [ -106.437419, 41.001795 ], [ -106.43095, 41.001752 ], [ -106.391852, 41.001176 ], [ -106.386356, 41.001144 ], [ -106.321165, 40.999123 ], [ -106.217573, 40.997734 ], [ -106.202962120359004, 40.997665332826898 ], [ -106.190553863625993, 40.997607017384297 ], [ -106.061181, 40.996999 ], [ -105.770562857290003, 40.996899713961398 ], [ -105.730421, 40.996886 ], [ -105.724804, 40.99691 ], [ -105.412718025681997, 40.997790488099497 ], [ -105.277138, 40.998173 ], [ -105.276859991921, 40.998173242790003 ], [ -105.256527, 40.998191 ], [ -105.254779, 40.99821 ], [ -104.943371, 40.998083723808897 ], [ -104.906329060133999, 40.998068703272899 ], [ -104.855273, 40.998048 ], [ -104.829504, 40.99927 ], [ -104.773027200166993, 40.999890672690299 ], [ -104.675999, 41.000957 ], [ -104.600077973588995, 41.001326735610903 ], [ -104.599525227751002, 41.001329427484698 ], [ -104.497149, 41.001828 ], [ -104.497058, 41.001805 ], [ -104.467672, 41.001473 ], [ -104.371258, 41.001543124816202 ], [ -104.214692, 41.001657 ], [ -104.214191, 41.001568 ], [ -104.211473, 41.001591 ], [ -104.123586, 41.001626 ], [ -104.10459, 41.001543 ], [ -104.086068, 41.001563 ], [ -104.066961, 41.001504 ], [ -104.053249, 41.001406 ], [ -104.039238, 41.001502 ], [ -104.023383, 41.001887 ], [ -104.018223, 41.001617 ], [ -104.010959930078002, 41.001616681311503 ], [ -103.972642, 41.001615 ], [ -103.971373, 41.001524 ], [ -103.953525, 41.001596 ], [ -103.914844319284995, 41.001424726885702 ], [ -103.906324, 41.001387 ], [ -103.896207, 41.00175 ], [ -103.878254416545005, 41.001674213326403 ], [ -103.877967, 41.001673 ], [ -103.858449, 41.001681 ], [ -103.76333905125, 41.002009630683197 ], [ -103.750498, 41.002054 ], [ -103.591595351783994, 41.001753307963298 ], [ -103.574522, 41.001721 ], [ -103.573773995351999, 41.001720165379197 ], [ -103.534888759756001, 41.001676777377099 ], [ -103.497447, 41.001635 ], [ -103.486697, 41.001914 ], [ -103.421975, 41.002007 ], [ -103.421925, 41.001969 ], [ -103.396991, 41.002558 ], [ -103.382492446889003, 41.00223211782 ], [ -103.365314, 41.001846 ], [ -103.362979, 41.001844 ], [ -103.306245438101001, 41.0019343201091 ], [ -103.077804, 41.002298 ], [ -103.076536, 41.002253 ], [ -103.059538, 41.002368 ], [ -103.057998, 41.002368 ], [ -103.043444, 41.002344 ], [ -103.038704, 41.002251 ], [ -103.002026, 41.002486 ], [ -103.000102, 41.0024 ], [ -102.98269, 41.002157 ], [ -102.981483, 41.002112 ], [ -102.963669, 41.002186 ], [ -102.962522, 41.002072 ], [ -102.960706, 41.002059 ], [ -102.959624, 41.002095 ], [ -102.94483, 41.002303 ], [ -102.943109, 41.002051 ], [ -102.925568, 41.00228 ], [ -102.924029, 41.002142 ], [ -102.906547, 41.002276 ], [ -102.904874916861004, 41.0022101098021 ], [ -102.904796, 41.002207 ], [ -102.887407, 41.002178 ], [ -102.885746, 41.002131 ], [ -102.885590018835003, 41.002131452522903 ], [ -102.867822, 41.002183 ], [ -102.865784, 41.001988 ], [ -102.849263, 41.002301 ], [ -102.846455, 41.002256 ], [ -102.830303, 41.002351 ], [ -102.82728, 41.002143 ], [ -102.792814999089998, 41.002316819467097 ], [ -102.773546, 41.002414 ], [ -102.766723, 41.002275 ], [ -102.754617, 41.002361 ], [ -102.739624, 41.00223 ], [ -102.735703727631005, 41.002234640937097 ], [ -102.653463, 41.002332 ], [ -102.621033, 41.002597 ], [ -102.578696, 41.002291 ], [ -102.575738, 41.002268 ], [ -102.575496, 41.0022 ], [ -102.566048, 41.0022 ], [ -102.556789, 41.002219 ], [ -102.487955, 41.002445 ], [ -102.470537, 41.002382 ], [ -102.469223, 41.002424 ], [ -102.380219188199007, 41.002301859323303 ], [ -102.379593, 41.002301 ], [ -102.364066, 41.002174 ], [ -102.344872066294997, 41.002182891943498 ], [ -102.292833, 41.002207 ], [ -102.292622, 41.00223 ], [ -102.292553, 41.002207 ], [ -102.291354, 41.002207 ], [ -102.277862204233003, 41.002233627622303 ], [ -102.2721, 41.002245 ], [ -102.267812, 41.002383 ], [ -102.259839042831004, 41.002370556489502 ], [ -102.240179012683996, 41.002339872793698 ], [ -102.233078774700999, 41.002328791348702 ], [ -102.231931, 41.002327 ], [ -102.2122, 41.002462 ], [ -102.209361, 41.002442 ], [ -102.20908406209, 41.002440230136202 ], [ -102.19121, 41.002326 ], [ -102.124972, 41.002338 ], [ -102.070598, 41.002423 ], [ -102.051717530057999, 41.002377250862999 ], [ -102.051614, 41.002377 ], [ -102.051559553748007, 40.959633987133202 ], [ -102.051429902476002, 40.857851296065299 ], [ -102.051318769483004, 40.770606373931003 ], [ -102.051300072993001, 40.755928700729903 ], [ -102.051292, 40.749591 ], [ -102.051398432507, 40.697541816873397 ], [ -102.051502304051994, 40.6467450333393 ], [ -102.051725, 40.537839 ], [ -102.051519, 40.520094 ], [ -102.051465, 40.440008 ], [ -102.051838622543002, 40.396556196416903 ], [ -102.05184, 40.396396 ], [ -102.051572, 40.39308 ], [ -102.051798, 40.360069 ], [ -102.051553251675998, 40.349213986395299 ], [ -102.051309, 40.338381 ], [ -102.051740446915005, 40.265860615438697 ], [ -102.051922, 40.235344 ], [ -102.051894, 40.229193 ], [ -102.051909, 40.162674 ], [ -102.052001, 40.148359 ], [ -102.051852724175006, 40.064539310800299 ], [ -102.051744, 40.003078 ], [ -102.05171567539, 39.978270011788197 ], [ -102.051580048980995, 39.859482202655599 ], [ -102.051569, 39.849805 ], [ -102.051363, 39.843471 ], [ -102.051318, 39.833311 ], [ -102.051254, 39.818992 ], [ -102.050898689749999, 39.741793849543001 ], [ -102.050594, 39.675594 ], [ -102.050099, 39.653812 ], [ -102.050422, 39.646048 ], [ -102.049954, 39.592331 ], [ -102.049806, 39.574058 ], [ -102.049763830217003, 39.568180000858 ], [ -102.049554, 39.538932 ], [ -102.049673, 39.536691 ], [ -102.049679, 39.506183 ], [ -102.049369, 39.423333 ], [ -102.04937, 39.41821 ], [ -102.049167, 39.403597 ], [ -102.049100959936993, 39.394062665353097 ], [ -102.04896, 39.373712 ], [ -102.048449, 39.303138 ], [ -102.047851017737003, 39.220289278095898 ], [ -102.04725, 39.13702 ], [ -102.047188609269, 39.1331465624163 ], [ -102.047134, 39.129701 ], [ -102.046765712414, 39.075626831689 ], [ -102.046571, 39.047038 ], [ -102.045388, 38.813392 ], [ -102.045334, 38.799463 ], [ -102.045448, 38.783453 ], [ -102.045371, 38.770064 ], [ -102.045287, 38.755528 ], [ -102.045375, 38.754339 ], [ -102.045212, 38.697567 ], [ -102.045156, 38.688555 ], [ -102.045127, 38.686725 ], [ -102.04516, 38.675221 ], [ -102.045102, 38.674946 ], [ -102.045074, 38.669617 ], [ -102.045288, 38.615249 ], [ -102.045287815606002, 38.615168441559497 ], [ -102.045211, 38.581609 ], [ -102.045189, 38.558732 ], [ -102.045223, 38.543797 ], [ -102.045112, 38.523784 ], [ -102.045262, 38.505532 ], [ -102.045263, 38.505395 ], [ -102.045324, 38.453647 ], [ -102.044936, 38.41968 ], [ -102.044442, 38.415802 ], [ -102.044944, 38.384419 ], [ -102.044613, 38.312324 ], [ -102.044568, 38.268819 ], [ -102.044567368214999, 38.268749117200699 ], [ -102.044510072920005, 38.262411583471803 ], [ -102.044398, 38.250015 ], [ -102.044296878805, 38.175558845192697 ], [ -102.044251, 38.141778 ], [ -102.044589, 38.125013 ], [ -102.044255, 38.113011 ], [ -102.044644, 38.045532 ], [ -102.044539518896997, 38.030195480157403 ], [ -102.043844, 37.928102 ], [ -102.043845, 37.926135 ], [ -102.043714529642003, 37.914003757695802 ], [ -102.043219, 37.867929 ], [ -102.043033, 37.824146 ], [ -102.042953, 37.803535 ], [ -102.042668, 37.788758 ], [ -102.042158, 37.760164 ], [ -102.041989965862996, 37.738540628373599 ], [ -102.041876, 37.723875 ], [ -102.041574, 37.680436 ], [ -102.041694, 37.665681 ], [ -102.041582, 37.654495 ], [ -102.041585, 37.644282 ], [ -102.041618, 37.607868 ], [ -102.041894, 37.557977 ], [ -102.041899, 37.541186 ], [ -102.042016, 37.535261 ], [ -102.041786, 37.506066 ], [ -102.041801, 37.469488 ], [ -102.041755, 37.434855 ], [ -102.041669, 37.43474 ], [ -102.041676, 37.409898 ], [ -102.041585760592994, 37.389190430803197 ], [ -102.041524, 37.375018 ], [ -102.042089, 37.352819 ], [ -102.041974, 37.352613 ], [ -102.041817, 37.30949 ], [ -102.041664, 37.29765 ], [ -102.041963, 37.258164 ], [ -102.042002, 37.141744 ], [ -102.042121525406998, 37.126715252818201 ], [ -102.042135, 37.125021 ], [ -102.042092, 37.125021 ], [ -102.041809, 37.111973 ], [ -102.041983, 37.106551 ], [ -102.04192, 37.035083 ], [ -102.041749, 37.034397 ], [ -102.041921, 37.032178 ], [ -102.04195, 37.030805 ], [ -102.041952, 37.024742 ], [ -102.042089, 36.993016 ], [ -102.054503, 36.993109 ], [ -102.136450934192993, 36.9934146439195 ], [ -102.184271, 36.993593 ], [ -102.208316, 36.99373 ], [ -102.252197617288999, 36.994280265930598 ], [ -102.260789, 36.994388 ], [ -102.270250050420003, 36.994399813923401 ], [ -102.325156624789003, 36.994468375239201 ], [ -102.355288, 36.994506 ], [ -102.355367, 36.994575 ], [ -102.698142, 36.995149 ], [ -102.74206, 36.997689 ], [ -102.812469, 36.999725 ], [ -102.832541, 36.999699 ], [ -102.841933096288003, 36.999679105881398 ], [ -102.877863, 36.999603 ], [ -102.886686995861993, 36.999511594676797 ], [ -102.979613, 36.998549 ], [ -102.985807, 36.998571 ], [ -102.986976, 36.998524 ], [ -103.002199, 37.000104 ], [ -103.086102011771004, 37.000173863231304 ], [ -103.155922, 37.000232 ], [ -103.408134681063004, 36.999263908714802 ], [ -103.425683721902999, 36.999196548606498 ], [ -103.471821814883, 36.999019452492497 ], [ -103.733247, 36.998016 ], [ -103.734364, 36.998041 ], [ -104.007855, 36.996239 ], [ -104.215024533719998, 36.994877396057902 ], [ -104.232262986009999, 36.994764097812798 ], [ -104.250536, 36.994644 ], [ -104.338833, 36.993535 ], [ -104.366369863958994, 36.993570255928098 ], [ -104.433987103926995, 36.993656827461997 ], [ -104.468486183088999, 36.993700997235898 ], [ -104.480578185032996, 36.9937164788373 ], [ -104.480592108, 36.993716496663097 ], [ -104.519194990228996, 36.9937659206078 ], [ -104.519257, 36.993766 ], [ -104.624556, 36.994377 ], [ -104.625545, 36.993599 ], [ -104.631416324019995, 36.993532403684597 ], [ -104.645029, 36.993378 ], [ -104.705788056160998, 36.9934261871092 ], [ -104.732031, 36.993447 ], [ -104.73212, 36.993484 ], [ -104.755368410276006, 36.9934649463396 ], [ -105.000554, 36.993264 ], [ -105.029228, 36.992729 ], [ -105.1208, 36.995428 ], [ -105.136447566708, 36.995387396874399 ], [ -105.155042271642003, 36.995339146360102 ], [ -105.220506506712994, 36.995169276334401 ], [ -105.220613, 36.995169 ], [ -105.251296, 36.995605 ], [ -105.41931, 36.995856 ], [ -105.419665893396001, 36.995858121616003 ], [ -105.442459, 36.995994 ], [ -105.447255, 36.996017 ], [ -105.465182, 36.995991 ], [ -105.508836, 36.995895 ], [ -105.512485, 36.995777 ], [ -105.522324624049006, 36.995821982187699 ], [ -105.533922, 36.995875 ], [ -105.547929583826004, 36.995845651575301 ], [ -105.62747, 36.995679 ], [ -105.66472, 36.995874 ], [ -105.716471, 36.995849 ], [ -105.718463007598004, 36.995845930310701 ], [ -105.718469674138007, 36.995845920037503 ], [ -105.996159, 36.995418 ], [ -105.997472, 36.995417 ], [ -106.006316634542998, 36.995345563309698 ], [ -106.006634, 36.995343 ], [ -106.100010801920007, 36.994757822413099 ], [ -106.201469, 36.994122 ], [ -106.247705, 36.994266 ], [ -106.248675, 36.994288 ], [ -106.293279, 36.99389 ], [ -106.339734364893999, 36.994206783475001 ], [ -106.343139, 36.99423 ], [ -106.412053832702, 36.9940277856291 ], [ -106.475522858421002, 36.9938415506981 ], [ -106.476275022520994, 36.993839343649398 ], [ -106.500032867461996, 36.993769631840202 ], [ -106.500589, 36.993768 ], [ -106.617159, 36.992967 ], [ -106.617125, 36.993004 ], [ -106.628652, 36.993175 ], [ -106.628733, 36.993161 ], [ -106.661344, 36.993243 ], [ -106.675626, 36.993123 ], [ -106.707668044537996, 36.992840043507201 ], [ -106.750591, 36.992461 ], [ -106.781812086732998, 36.992451833119098 ], [ -106.781877981448005, 36.992451813771602 ], [ -106.869796, 36.992426 ], [ -106.877292, 37.000139 ], [ -106.963597454587998, 37.000117726114503 ], [ -106.985514007228005, 37.000112323788102 ] ] ] } }
]
}
