{
"type": "FeatureCollection",
"name": "state-34-outline",
"crs": { "type": "name", "properties": { "name": "urn:ogc:def:crs:OGC:1.3:CRS84" } },
"features": [
{ "type": "Feature", "properties": { "state_fips": "34", "state_abbr": "NJ", "state_name": "New Jersey" }, "geometry": { "type": "MultiPolygon", "coordinates": [ [ [ [ -75.271951448754706, 39.304054786264203 ], [ -75.272258, 39.304111 ], [ -75.275942, 39.302732 ], [ -75.277338, 39.303329 ], [ -75.276495, 39.304951 ], [ -75.278022062655495, 39.305236318317903 ], [ -75.279626, 39.305536 ], [ -75.283013, 39.305467 ], [ -75.285865, 39.303927 ], [ -75.286578, 39.300639 ], [ -75.283904, 39.29857 ], [ -75.285333, 39.292212 ], [ -75.288306, 39.291602 ], [ -75.297407, 39.296799 ], [ -75.304612, 39.302778 ], [ -75.315201, 39.310593 ], [ -75.316561344437702, 39.313334672978399 ], [ -75.319216858592497, 39.318686664136003 ], [ -75.326092, 39.332543 ], [ -75.326835, 39.339621 ], [ -75.327348409603701, 39.3398759312877 ], [ -75.331974748879901, 39.342173119771601 ], [ -75.33248, 39.342424 ], [ -75.333743, 39.345335 ], [ -75.341969, 39.348697 ], [ -75.350103, 39.349889 ], [ -75.356753, 39.347754 ], [ -75.3567906437669, 39.3474986899176 ], [ -75.357218230690805, 39.344598681184301 ], [ -75.357297909199005, 39.344058280258899 ], [ -75.357644, 39.341711 ], [ -75.360297, 39.339893 ], [ -75.364389, 39.341574 ], [ -75.368281, 39.350764 ], [ -75.376335, 39.354446 ], [ -75.382665, 39.354484 ], [ -75.39003, 39.358259 ], [ -75.392725056031296, 39.3617016035425 ], [ -75.394331, 39.363753 ], [ -75.395181, 39.371398 ], [ -75.396438875029304, 39.373866766611002 ], [ -75.399304, 39.37949 ], [ -75.402136, 39.381258 ], [ -75.404394, 39.381024 ], [ -75.407045738805806, 39.381106999364 ], [ -75.408771, 39.381161 ], [ -75.409688, 39.380323 ], [ -75.410592, 39.380286 ], [ -75.412492, 39.380927 ], [ -75.412732, 39.383296 ], [ -75.412723995882104, 39.384370398905801 ], [ -75.412719, 39.385041 ], [ -75.413791, 39.386016 ], [ -75.416125, 39.387625 ], [ -75.416841816341901, 39.387377904674601 ], [ -75.417619, 39.38711 ], [ -75.420477, 39.38702 ], [ -75.422099, 39.386521 ], [ -75.427826, 39.387792 ], [ -75.431803, 39.391625 ], [ -75.442393, 39.402291 ], [ -75.451029, 39.416333 ], [ -75.456732, 39.422671 ], [ -75.465212, 39.43893 ], [ -75.47278, 39.437129 ], [ -75.476279, 39.438126 ], [ -75.483572, 39.440824 ], [ -75.488208, 39.443363 ], [ -75.488433, 39.447967 ], [ -75.493724, 39.449489 ], [ -75.498923, 39.448824 ], [ -75.505672, 39.452927 ], [ -75.508383, 39.459131 ], [ -75.536431, 39.460559 ], [ -75.542894, 39.470447 ], [ -75.544368, 39.479602 ], [ -75.542693, 39.496568 ], [ -75.527835, 39.49813 ], [ -75.528019, 39.500414 ], [ -75.530051, 39.504817 ], [ -75.529978, 39.510817 ], [ -75.526552, 39.517065 ], [ -75.526654, 39.526638 ], [ -75.526787, 39.53144 ], [ -75.527676, 39.535278 ], [ -75.531575, 39.536825 ], [ -75.534014, 39.540702 ], [ -75.532342, 39.54328 ], [ -75.526003, 39.548488 ], [ -75.519026, 39.555401 ], [ -75.514756, 39.562612 ], [ -75.511026, 39.568125 ], [ -75.511531, 39.577177 ], [ -75.515228, 39.580752 ], [ -75.519628, 39.583248 ], [ -75.521596, 39.583088 ], [ -75.526157, 39.585365 ], [ -75.531627, 39.588916 ], [ -75.534045, 39.59098 ], [ -75.537213, 39.592944 ], [ -75.53954, 39.594251 ], [ -75.539949, 39.594384 ], [ -75.543965, 39.596 ], [ -75.545405, 39.596784 ], [ -75.553502, 39.602 ], [ -75.55617, 39.606386 ], [ -75.556889, 39.610442 ], [ -75.557184, 39.613149 ], [ -75.558705, 39.617933 ], [ -75.559537, 39.624934 ], [ -75.558895, 39.628767 ], [ -75.559446, 39.629812 ], [ -75.556246, 39.634912 ], [ -75.550645, 39.637912 ], [ -75.549143677197705, 39.639051054655098 ], [ -75.547197, 39.640528 ], [ -75.544296193748906, 39.643615737088702 ], [ -75.542045, 39.646012 ], [ -75.539245, 39.646112 ], [ -75.535186683545604, 39.6472005511094 ], [ -75.535144, 39.647212 ], [ -75.529020375803498, 39.652971851759197 ], [ -75.526744, 39.655113 ], [ -75.526844, 39.655713 ], [ -75.526344, 39.656413 ], [ -75.525136956661299, 39.657740415818601 ], [ -75.522343, 39.660813 ], [ -75.518343, 39.663913 ], [ -75.514643, 39.668613 ], [ -75.511743, 39.674313 ], [ -75.509342, 39.685313 ], [ -75.509742, 39.686113 ], [ -75.509042, 39.694513 ], [ -75.507162, 39.696961 ], [ -75.504042, 39.698313 ], [ -75.503409425056304, 39.6985643757628 ], [ -75.496241, 39.701413 ], [ -75.491341, 39.711113 ], [ -75.488553, 39.714833 ], [ -75.485241, 39.715813 ], [ -75.483141, 39.715513 ], [ -75.481741, 39.714546 ], [ -75.47894, 39.713813 ], [ -75.47764, 39.715013 ], [ -75.476888, 39.718337 ], [ -75.477357328514898, 39.720255725399198 ], [ -75.477432, 39.720561 ], [ -75.477422987763802, 39.720755889607602 ], [ -75.47724, 39.724713 ], [ -75.47544, 39.728713 ], [ -75.475384, 39.731057 ], [ -75.474785658476904, 39.733229924478501 ], [ -75.474168, 39.735473 ], [ -75.472040800304995, 39.738985965209402 ], [ -75.469239, 39.743613 ], [ -75.466263, 39.750737 ], [ -75.466249, 39.750769 ], [ -75.466237328283299, 39.750796006250802 ], [ -75.4650395167494, 39.753567526454198 ], [ -75.46355, 39.757014 ], [ -75.463921, 39.760763 ], [ -75.459439, 39.765813 ], [ -75.452339, 39.769013 ], [ -75.449295, 39.774436 ], [ -75.450212, 39.774761 ], [ -75.450688, 39.775064 ], [ -75.4383, 39.784402 ], [ -75.405489208078905, 39.796368570525502 ], [ -75.405414, 39.796396 ], [ -75.415062, 39.801919 ], [ -75.403737, 39.807512 ], [ -75.398543349241294, 39.810580742967801 ], [ -75.390536, 39.815312 ], [ -75.389764456124396, 39.815819458941696 ], [ -75.371835, 39.827612 ], [ -75.3544, 39.839917 ], [ -75.345655318703294, 39.844183795425003 ], [ -75.341765, 39.846082 ], [ -75.341465375890493, 39.846159470758998 ], [ -75.330433, 39.849012 ], [ -75.323232, 39.849812 ], [ -75.318541798751795, 39.849938958537997 ], [ -75.316530496579603, 39.849993402253702 ], [ -75.309674, 39.850179 ], [ -75.293376, 39.848782 ], [ -75.272141, 39.84909 ], [ -75.268092903466595, 39.8498664844169 ], [ -75.256781595695401, 39.852036159509098 ], [ -75.243431, 39.854597 ], [ -75.235026, 39.856613 ], [ -75.229871417137105, 39.858332172201301 ], [ -75.226241, 39.859543 ], [ -75.222936101743002, 39.860900247744198 ], [ -75.221371, 39.861543 ], [ -75.211515931142699, 39.867051552431697 ], [ -75.204087, 39.871204 ], [ -75.199940968500897, 39.8731819412683 ], [ -75.199857, 39.873222 ], [ -75.195217294768597, 39.877343945193203 ], [ -75.195018, 39.877521 ], [ -75.189323, 39.880713 ], [ -75.188821512083095, 39.880816481633602 ], [ -75.184941531174502, 39.881617112614798 ], [ -75.183023, 39.882013 ], [ -75.174551649305897, 39.882438429097299 ], [ -75.165353141341001, 39.882900375849502 ], [ -75.148893, 39.883727 ], [ -75.145633390390401, 39.884531927883003 ], [ -75.144412305849499, 39.884833462456797 ], [ -75.143746, 39.884998 ], [ -75.141522, 39.886891 ], [ -75.139673432849904, 39.888236088496598 ], [ -75.137296, 39.889966 ], [ -75.135413798820693, 39.892999568309399 ], [ -75.13342, 39.896213 ], [ -75.13082, 39.900213 ], [ -75.130262705882402, 39.902442176470601 ], [ -75.129546373826599, 39.905307504693802 ], [ -75.129004411764697, 39.907475352941198 ], [ -75.12792, 39.911813 ], [ -75.129179222053693, 39.914789343036098 ], [ -75.13012, 39.917013 ], [ -75.132344, 39.921666 ], [ -75.134295579082206, 39.925783569319201 ], [ -75.13502, 39.927312 ], [ -75.135022972973005, 39.927329837837803 ], [ -75.135887594594607, 39.932517567567601 ], [ -75.13612, 39.933912 ], [ -75.136040115283507, 39.9365481956427 ], [ -75.136012010091704, 39.937475666972503 ], [ -75.135836456880696, 39.9432689229358 ], [ -75.13572, 39.947112 ], [ -75.134217656964395, 39.952835403360602 ], [ -75.134191507912902, 39.952935022133403 ], [ -75.133855, 39.954217 ], [ -75.132235535318898, 39.9561659943083 ], [ -75.130223707139507, 39.958587190470702 ], [ -75.13012, 39.958712 ], [ -75.12692, 39.961112 ], [ -75.125416361661095, 39.961951694137298 ], [ -75.123862977243505, 39.962819168552301 ], [ -75.11922, 39.965412 ], [ -75.118952641189196, 39.965521971896102 ], [ -75.112705430083693, 39.968091618464904 ], [ -75.102287, 39.972377 ], [ -75.093718, 39.974412 ], [ -75.085831, 39.975102 ], [ -75.075605, 39.978041 ], [ -75.068802, 39.98224 ], [ -75.068604301203905, 39.982401807940498 ], [ -75.067664096638595, 39.983171324838899 ], [ -75.065392750766705, 39.985030323502599 ], [ -75.064175, 39.986027 ], [ -75.060035698553605, 39.9916198105673 ], [ -75.059647, 39.992145 ], [ -75.058089, 39.997404 ], [ -75.053723885964303, 40.004080276035701 ], [ -75.053405, 40.004568 ], [ -75.052278982364697, 40.0055260511092 ], [ -75.04709, 40.009941 ], [ -75.042966448951404, 40.011993450664697 ], [ -75.042889, 40.012032 ], [ -75.035198856114903, 40.014857837491299 ], [ -75.034216, 40.015219 ], [ -75.030440966611593, 40.016052455659199 ], [ -75.021095217191402, 40.018115819593397 ], [ -75.019645, 40.018436 ], [ -75.013805034048502, 40.0202136884648 ], [ -75.013791747517203, 40.020217732891403 ], [ -75.012214, 40.020698 ], [ -75.008568, 40.023883 ], [ -75.003420245306799, 40.027388933723699 ], [ -74.990090157336397, 40.036467533567802 ], [ -74.988884, 40.037289 ], [ -74.986592120061601, 40.038975530568699 ], [ -74.984716636298998, 40.040355646797202 ], [ -74.982777696278504, 40.041782458717201 ], [ -74.981374470535499, 40.042815053431603 ], [ -74.977435, 40.045714 ], [ -74.973710351995294, 40.0481874432217 ], [ -74.966891, 40.052716 ], [ -74.93258, 40.06881 ], [ -74.925133, 40.071056 ], [ -74.920874, 40.071404 ], [ -74.91342, 40.070359 ], [ -74.909112853057593, 40.070213442074298 ], [ -74.909011, 40.07021 ], [ -74.903175643513194, 40.071917202058501 ], [ -74.899104092944398, 40.0731083819853 ], [ -74.897895873352198, 40.073461860813801 ], [ -74.888482, 40.076216 ], [ -74.880230814570197, 40.078867186875499 ], [ -74.874648, 40.080661 ], [ -74.869526798813993, 40.081484490188203 ], [ -74.86675, 40.081931 ], [ -74.862106, 40.083283 ], [ -74.861309916047105, 40.083846878359303 ], [ -74.859878742287904, 40.084860600477803 ], [ -74.859809, 40.08491 ], [ -74.858209, 40.08881 ], [ -74.8573975754923, 40.090003271334801 ], [ -74.856509, 40.09131 ], [ -74.854609, 40.09327 ], [ -74.851126, 40.0951 ], [ -74.847857419357595, 40.096332673297503 ], [ -74.844405316939103, 40.097634557796297 ], [ -74.843431, 40.098002 ], [ -74.838008, 40.10091 ], [ -74.837982476605504, 40.100936403511497 ], [ -74.835108, 40.10391 ], [ -74.834121818926306, 40.107875382452001 ], [ -74.833103, 40.111972 ], [ -74.830497795610299, 40.116965855265803 ], [ -74.828736, 40.120343 ], [ -74.8285742770925, 40.120582878240903 ], [ -74.826226, 40.124066 ], [ -74.822531, 40.126844 ], [ -74.819499, 40.127614 ], [ -74.816121, 40.12774 ], [ -74.815646027527194, 40.127621041897299 ], [ -74.812807, 40.12691 ], [ -74.810424327964697, 40.1261092659553 ], [ -74.805336541925698, 40.124399436220898 ], [ -74.800607, 40.12281 ], [ -74.7916519900689, 40.121004099333298 ], [ -74.788706, 40.12041 ], [ -74.785106, 40.12031 ], [ -74.782106, 40.12081 ], [ -74.781965466095002, 40.120902831676801 ], [ -74.7758221526813, 40.124960885037297 ], [ -74.769488, 40.129145 ], [ -74.762864, 40.132541 ], [ -74.758882, 40.134036 ], [ -74.75313, 40.135033 ], [ -74.744411, 40.134419 ], [ -74.741552276699693, 40.135214490171499 ], [ -74.740555, 40.135492 ], [ -74.731691, 40.141942 ], [ -74.724362, 40.146443 ], [ -74.722189, 40.14994 ], [ -74.722131021546602, 40.1503235497687 ], [ -74.721604, 40.15381 ], [ -74.721504, 40.158409 ], [ -74.722304, 40.160609 ], [ -74.733804, 40.174509 ], [ -74.737205, 40.177609 ], [ -74.744105, 40.181009 ], [ -74.751705, 40.183309 ], [ -74.751993331726098, 40.183519703953699 ], [ -74.754305, 40.185209 ], [ -74.755605, 40.186709 ], [ -74.756905, 40.189409 ], [ -74.759505, 40.196909 ], [ -74.759898492127604, 40.197431104153203 ], [ -74.7611647738199, 40.1991112671964 ], [ -74.7644300939657, 40.203443849959598 ], [ -74.767677, 40.207752 ], [ -74.768509, 40.21019 ], [ -74.771678709991406, 40.215223025490999 ], [ -74.771719, 40.215287 ], [ -74.778412793376802, 40.219676384272901 ], [ -74.781206, 40.221508 ], [ -74.781952576857904, 40.221926294835299 ], [ -74.783524300819195, 40.222806906132803 ], [ -74.789433313835104, 40.226117629737402 ], [ -74.795306, 40.229408 ], [ -74.819033518158605, 40.238329962532298 ], [ -74.819507, 40.238508 ], [ -74.823907, 40.241508 ], [ -74.826178123217403, 40.242368828961403 ], [ -74.831378382190394, 40.244339894862499 ], [ -74.836307, 40.246208 ], [ -74.842308, 40.250508 ], [ -74.842415810025201, 40.250716098420703 ], [ -74.846608, 40.258808 ], [ -74.846717996791497, 40.258992439235399 ], [ -74.846764573445597, 40.259070537535898 ], [ -74.853108, 40.269707 ], [ -74.853118148928004, 40.269729984336998 ], [ -74.856508, 40.277407 ], [ -74.856646380083404, 40.277656285607002 ], [ -74.860492, 40.284584 ], [ -74.864334444849604, 40.290164693710103 ], [ -74.864692, 40.290684 ], [ -74.868209, 40.295207 ], [ -74.868263841783701, 40.295252996334703 ], [ -74.873461445326797, 40.299612276725703 ], [ -74.880609, 40.305607 ], [ -74.887109, 40.310307 ], [ -74.887949658132001, 40.310811394879202 ], [ -74.891609, 40.313007 ], [ -74.895654114754095, 40.314776737704896 ], [ -74.896409, 40.315107 ], [ -74.901391032590297, 40.315467964540701 ], [ -74.90331, 40.315607 ], [ -74.90831, 40.316907 ], [ -74.91741, 40.322406 ], [ -74.92681, 40.329406 ], [ -74.926907761406994, 40.329463406317402 ], [ -74.933111, 40.333106 ], [ -74.939711, 40.338006 ], [ -74.9429542775691, 40.341642619719501 ], [ -74.943776, 40.342564 ], [ -74.945088, 40.347332 ], [ -74.945351787214406, 40.349744412986801 ], [ -74.945969011093695, 40.355389110001902 ], [ -74.946024, 40.355892 ], [ -74.948722, 40.364768 ], [ -74.948788608163795, 40.364910511083899 ], [ -74.952826761800395, 40.373550317656999 ], [ -74.953939, 40.37593 ], [ -74.9542604530821, 40.3765473382118 ], [ -74.963997, 40.395246 ], [ -74.966783083996404, 40.3978635572606 ], [ -74.96813, 40.399129 ], [ -74.976867, 40.401855 ], [ -74.979428086118901, 40.402979730560403 ], [ -74.982735, 40.404432 ], [ -74.985153339770307, 40.4057624409498 ], [ -74.985467, 40.405935 ], [ -74.988901, 40.408773 ], [ -74.996378, 40.410528 ], [ -74.998651, 40.410093 ], [ -75.003784, 40.407621 ], [ -75.006739, 40.407646 ], [ -75.024775, 40.403455 ], [ -75.028315, 40.403883 ], [ -75.034427, 40.406066 ], [ -75.035504, 40.407443 ], [ -75.041160188392993, 40.410552520776399 ], [ -75.043071, 40.411603 ], [ -75.044353765726797, 40.412585941558902 ], [ -75.04616, 40.41397 ], [ -75.055711, 40.416399 ], [ -75.058848, 40.418065 ], [ -75.060662174720406, 40.421350572770898 ], [ -75.061489, 40.422848 ], [ -75.062923, 40.433407 ], [ -75.066515, 40.447176 ], [ -75.070568, 40.455165 ], [ -75.070419, 40.458407 ], [ -75.067016, 40.465308 ], [ -75.067543, 40.468133 ], [ -75.067715, 40.473669 ], [ -75.064327, 40.476795 ], [ -75.062868, 40.481637 ], [ -75.062625, 40.48955 ], [ -75.063268, 40.499355 ], [ -75.064842, 40.503503 ], [ -75.064949, 40.510706 ], [ -75.065601789499794, 40.517052644816502 ], [ -75.065853, 40.519495 ], [ -75.06509, 40.526148 ], [ -75.066400436300199, 40.536519623888601 ], [ -75.066402, 40.536532 ], [ -75.067257, 40.539584 ], [ -75.068615, 40.542223 ], [ -75.078503, 40.548296 ], [ -75.083930681244894, 40.553379026484201 ], [ -75.087224729249101, 40.5564639042599 ], [ -75.0957, 40.564401 ], [ -75.100325, 40.567811 ], [ -75.103889261344094, 40.568774678147498 ], [ -75.110903, 40.570671 ], [ -75.117292, 40.573211 ], [ -75.136748, 40.575731 ], [ -75.141906, 40.575273 ], [ -75.147368, 40.573152 ], [ -75.150569055688194, 40.570879071308603 ], [ -75.158446, 40.565286 ], [ -75.162871, 40.564096 ], [ -75.166931813911006, 40.5641066155818 ], [ -75.168609, 40.564111 ], [ -75.175307, 40.564996 ], [ -75.183151, 40.567354 ], [ -75.186737, 40.569406 ], [ -75.192352, 40.574257 ], [ -75.194046, 40.576256 ], [ -75.19487, 40.578591 ], [ -75.195114, 40.579689 ], [ -75.194656, 40.58194 ], [ -75.191664992029501, 40.5857353256579 ], [ -75.190796, 40.586838 ], [ -75.190146, 40.590359 ], [ -75.190369434453004, 40.591642003336702 ], [ -75.192291, 40.602676 ], [ -75.193733327858894, 40.604308943875502 ], [ -75.195923, 40.606788 ], [ -75.196803, 40.60858 ], [ -75.198499, 40.611492 ], [ -75.201348, 40.614628 ], [ -75.201812, 40.617188 ], [ -75.201102223191299, 40.617938923290403 ], [ -75.200708, 40.618356 ], [ -75.197891, 40.619332 ], [ -75.1936461899069, 40.619699883541401 ], [ -75.190691, 40.619956 ], [ -75.189283, 40.621492 ], [ -75.188579, 40.624628 ], [ -75.188867025473897, 40.626163999485001 ], [ -75.190347365900095, 40.634058447506298 ], [ -75.190691, 40.635891 ], [ -75.194125, 40.639967 ], [ -75.195394, 40.643083 ], [ -75.197369951320894, 40.644569052471503 ], [ -75.200468, 40.646899 ], [ -75.200452, 40.649219 ], [ -75.196676, 40.655123 ], [ -75.190852, 40.661939 ], [ -75.18794, 40.663811 ], [ -75.182756, 40.665971 ], [ -75.182526578762094, 40.6662596393694 ], [ -75.178282793480406, 40.671598829057103 ], [ -75.177491, 40.672595 ], [ -75.176803, 40.675715 ], [ -75.177587, 40.677731 ], [ -75.180564, 40.679363 ], [ -75.184516, 40.679971 ], [ -75.189662819765104, 40.679468540022903 ], [ -75.190158599358696, 40.679420139376603 ], [ -75.19058, 40.679379 ], [ -75.19692, 40.681299 ], [ -75.20092, 40.685498 ], [ -75.202123548589299, 40.6879050971787 ], [ -75.2029, 40.689458 ], [ -75.203907061772597, 40.691472123545203 ], [ -75.2039076, 40.6914732 ], [ -75.20392, 40.691498 ], [ -75.202774555475301, 40.694537833546299 ], [ -75.202438521243295, 40.695429616700402 ], [ -75.19872, 40.705298 ], [ -75.198108662751096, 40.706537735072203 ], [ -75.19442, 40.714018 ], [ -75.192856911611003, 40.715622586310801 ], [ -75.192612, 40.715874 ], [ -75.186372, 40.720274 ], [ -75.185783018751394, 40.7248536297082 ], [ -75.185712628145595, 40.725400952582198 ], [ -75.185588, 40.72637 ], [ -75.1825, 40.729922 ], [ -75.182084, 40.731522 ], [ -75.182804, 40.73365 ], [ -75.18578, 40.737266 ], [ -75.195349, 40.745473 ], [ -75.196325, 40.747137 ], [ -75.196861, 40.750097 ], [ -75.196533, 40.751631 ], [ -75.1955484676933, 40.752503715042401 ], [ -75.191796, 40.75583 ], [ -75.190433871659906, 40.756376468659298 ], [ -75.183037, 40.759344 ], [ -75.181565584652503, 40.760283835722298 ], [ -75.17904, 40.761897 ], [ -75.177477, 40.764225 ], [ -75.176855, 40.768721 ], [ -75.17562, 40.772923 ], [ -75.174991290388206, 40.773810557470398 ], [ -75.174248265430805, 40.774859495389201 ], [ -75.173349, 40.776129 ], [ -75.172530839662699, 40.776879367256001 ], [ -75.171587, 40.777745 ], [ -75.169523, 40.778473 ], [ -75.16365, 40.778386 ], [ -75.149378, 40.774786 ], [ -75.141281930892504, 40.773855960908598 ], [ -75.139106, 40.773606 ], [ -75.1344, 40.773765 ], [ -75.133376992664793, 40.774099785445202 ], [ -75.133303, 40.774124 ], [ -75.131465, 40.77595 ], [ -75.125867, 40.784026 ], [ -75.123088, 40.786746 ], [ -75.118988319162099, 40.788455184902602 ], [ -75.116842, 40.78935 ], [ -75.111343, 40.789896 ], [ -75.111328042361606, 40.789902314041903 ], [ -75.108505, 40.791094 ], [ -75.1008, 40.799797 ], [ -75.100277, 40.801176 ], [ -75.100165, 40.803 ], [ -75.100739, 40.805488 ], [ -75.100277, 40.807578 ], [ -75.098279, 40.810286 ], [ -75.096147, 40.812211 ], [ -75.090518, 40.815913 ], [ -75.085387, 40.821972 ], [ -75.083955861821906, 40.824424959058298 ], [ -75.083929, 40.824471 ], [ -75.083841223490396, 40.827206017597902 ], [ -75.083822, 40.827805 ], [ -75.084105204916696, 40.828185948206503 ], [ -75.085517, 40.830085 ], [ -75.088427178403606, 40.832252423542002 ], [ -75.09494, 40.837103 ], [ -75.097006, 40.839336 ], [ -75.097572, 40.840967 ], [ -75.097586, 40.843042 ], [ -75.097221, 40.844672 ], [ -75.095784, 40.847082 ], [ -75.090962, 40.849187 ], [ -75.076684, 40.849875 ], [ -75.073544, 40.84894 ], [ -75.07083, 40.847392 ], [ -75.066014, 40.847591 ], [ -75.063498, 40.849458 ], [ -75.063302, 40.851124 ], [ -75.064298, 40.853857 ], [ -75.063925, 40.855424 ], [ -75.058886, 40.860394 ], [ -75.053124, 40.863633 ], [ -75.051573, 40.864043 ], [ -75.051510199833899, 40.864229899758897 ], [ -75.051029, 40.865662 ], [ -75.050839, 40.868067 ], [ -75.051508, 40.870224 ], [ -75.053664, 40.87366 ], [ -75.058655, 40.877654 ], [ -75.058746923535494, 40.877775942068403 ], [ -75.062149, 40.882289 ], [ -75.065438, 40.885682 ], [ -75.07392, 40.892176 ], [ -75.07534, 40.894162 ], [ -75.075957, 40.895694 ], [ -75.075223973023498, 40.899945365819399 ], [ -75.075188, 40.900154 ], [ -75.076092, 40.907042 ], [ -75.076956, 40.90988 ], [ -75.079279, 40.91389 ], [ -75.087447809903594, 40.919049618836098 ], [ -75.088502271103195, 40.919715642153101 ], [ -75.091599433628204, 40.921671885264502 ], [ -75.095526, 40.924152 ], [ -75.09772, 40.926679 ], [ -75.099196949706297, 40.928498691366798 ], [ -75.100590476781093, 40.930215601005898 ], [ -75.105524, 40.936294 ], [ -75.106153, 40.939671 ], [ -75.111683, 40.948111 ], [ -75.117764, 40.953023 ], [ -75.118904, 40.956361 ], [ -75.1191, 40.958939 ], [ -75.120695, 40.962529 ], [ -75.12065, 40.964028 ], [ -75.119548, 40.96626 ], [ -75.119575104872794, 40.966356769151098 ], [ -75.120232, 40.968702 ], [ -75.122603, 40.970152 ], [ -75.129074, 40.968976 ], [ -75.131364, 40.969277 ], [ -75.13378, 40.970973 ], [ -75.135526, 40.973807 ], [ -75.135521, 40.976865 ], [ -75.133086, 40.980179 ], [ -75.132106, 40.982566 ], [ -75.13153, 40.984914 ], [ -75.131619, 40.9889 ], [ -75.131460751092703, 40.9892324136529 ], [ -75.130575, 40.991093 ], [ -75.127196, 40.993954 ], [ -75.123423, 40.996129 ], [ -75.110595, 41.002174 ], [ -75.109114, 41.004102 ], [ -75.100682, 41.006716 ], [ -75.092628, 41.00992 ], [ -75.08533, 41.014913 ], [ -75.084217, 41.016007 ], [ -75.081101, 41.016838 ], [ -75.074999, 41.01713 ], [ -75.052472, 41.027168 ], [ -75.044224312439397, 41.030666878594502 ], [ -75.041789, 41.0317 ], [ -75.036003, 41.036224 ], [ -75.030512, 41.038762 ], [ -75.027102, 41.039529 ], [ -75.026129, 41.041947 ], [ -75.027359, 41.044543 ], [ -75.026398, 41.046438 ], [ -75.017069, 41.056774 ], [ -75.01652, 41.05947 ], [ -75.013099, 41.066487 ], [ -75.010868, 41.067664 ], [ -75.006376, 41.067546 ], [ -74.999617, 41.073943 ], [ -74.994847, 41.076556 ], [ -74.989332, 41.078319 ], [ -74.98259, 41.079172 ], [ -74.970987, 41.085293 ], [ -74.968389, 41.087797 ], [ -74.966759, 41.093425 ], [ -74.967097756914697, 41.094338922910197 ], [ -74.967464, 41.095327 ], [ -74.969434, 41.096074 ], [ -74.972036, 41.095562 ], [ -74.975298, 41.094073 ], [ -74.981314, 41.08986 ], [ -74.984782, 41.088545 ], [ -74.988263, 41.088222 ], [ -74.991013, 41.088578 ], [ -74.991815, 41.089132 ], [ -74.991718, 41.092284 ], [ -74.982212, 41.108245 ], [ -74.979873, 41.110423 ], [ -74.972917, 41.113327 ], [ -74.969312, 41.113869 ], [ -74.966298, 41.113669 ], [ -74.964294, 41.114237 ], [ -74.947912, 41.12356 ], [ -74.947334, 41.124439 ], [ -74.947633520599297, 41.125899557027701 ], [ -74.947714, 41.126292 ], [ -74.945067, 41.129052 ], [ -74.931141, 41.133387 ], [ -74.923169, 41.138146 ], [ -74.905256, 41.155668 ], [ -74.90178, 41.161394 ], [ -74.901172, 41.16387 ], [ -74.899701, 41.166181 ], [ -74.889424, 41.1736 ], [ -74.882365480124093, 41.180611043215102 ], [ -74.882139, 41.180836 ], [ -74.878492, 41.187504 ], [ -74.878275, 41.190489 ], [ -74.874034, 41.198543 ], [ -74.872201005015498, 41.201317079114602 ], [ -74.867287, 41.208754 ], [ -74.860398, 41.217454 ], [ -74.859632, 41.219077 ], [ -74.859417522633706, 41.220069565157701 ], [ -74.859323, 41.220507 ], [ -74.860837, 41.222317 ], [ -74.866839, 41.226865 ], [ -74.867405, 41.22777 ], [ -74.866182, 41.232132 ], [ -74.862049, 41.237609 ], [ -74.861678, 41.241575 ], [ -74.857151, 41.248975 ], [ -74.856003, 41.250094 ], [ -74.854669, 41.25051 ], [ -74.848987, 41.251192 ], [ -74.846932, 41.253318 ], [ -74.845883, 41.254945 ], [ -74.845031, 41.258055 ], [ -74.846506, 41.261576 ], [ -74.846319, 41.263077 ], [ -74.841137, 41.27098 ], [ -74.838729890278699, 41.276457890257198 ], [ -74.838366, 41.277286 ], [ -74.836394844660703, 41.2790398193005 ], [ -74.834067, 41.281111 ], [ -74.830057, 41.2872 ], [ -74.821884, 41.293838 ], [ -74.815703, 41.296151 ], [ -74.812033, 41.298157 ], [ -74.806858, 41.303155 ], [ -74.792558, 41.310628 ], [ -74.791991, 41.311639 ], [ -74.792377, 41.314088 ], [ -74.795616091829203, 41.318251337770597 ], [ -74.795822, 41.318516 ], [ -74.79504, 41.320407 ], [ -74.792116, 41.322465 ], [ -74.790888251563103, 41.322796626191497 ], [ -74.789095, 41.323281 ], [ -74.781584, 41.324229 ], [ -74.774887, 41.324326 ], [ -74.771588, 41.325079 ], [ -74.770647355674399, 41.325750420108498 ], [ -74.766714, 41.328558 ], [ -74.763499, 41.331568 ], [ -74.760325, 41.340325 ], [ -74.755971, 41.344953 ], [ -74.753239, 41.346122 ], [ -74.735622, 41.346518 ], [ -74.730373, 41.345983 ], [ -74.720923, 41.347384 ], [ -74.708514, 41.352734 ], [ -74.704429, 41.354043 ], [ -74.700595, 41.354553 ], [ -74.694914, 41.357423 ], [ -74.693807938874897, 41.356914340373699 ], [ -74.685331723105406, 41.3530162658029 ], [ -74.673926395476201, 41.347771140051897 ], [ -74.649374635990497, 41.3364801828696 ], [ -74.641598901505802, 41.332904248314698 ], [ -74.641544, 41.332879 ], [ -74.607348, 41.317774 ], [ -74.569267737612705, 41.299950549889203 ], [ -74.561035554456197, 41.296097480172797 ], [ -74.556504781928098, 41.293976854077997 ], [ -74.556173048054902, 41.293821586184102 ], [ -74.536868683423606, 41.284786186784103 ], [ -74.536689066822206, 41.284702117312598 ], [ -74.518392162397404, 41.276138259220403 ], [ -74.499603, 41.267344 ], [ -74.476960542955794, 41.257041490748698 ], [ -74.468371447320294, 41.253133379669102 ], [ -74.465068384140295, 41.251630458016102 ], [ -74.457584, 41.248225 ], [ -74.439724217448401, 41.239532564858699 ], [ -74.4237519184056, 41.2317587762873 ], [ -74.418761565975899, 41.229329949693202 ], [ -74.404258, 41.222271 ], [ -74.382977158393004, 41.211431691150302 ], [ -74.367383593890906, 41.203489173423399 ], [ -74.365835304292105, 41.202700558505803 ], [ -74.355127390529105, 41.1972465268205 ], [ -74.344927, 41.192051 ], [ -74.342625330102095, 41.191007895832897 ], [ -74.333969304971603, 41.187085032744797 ], [ -74.332125708600401, 41.186249524986302 ], [ -74.330624216400295, 41.185569056960802 ], [ -74.322333086825395, 41.181811562536097 ], [ -74.302203106546301, 41.172688765939299 ], [ -74.301994, 41.172594 ], [ -74.2807460598153, 41.163300667757099 ], [ -74.280004634676501, 41.162976386434401 ], [ -74.245655750750799, 41.147953020041399 ], [ -74.243175, 41.146868 ], [ -74.242642565627904, 41.146644902653101 ], [ -74.234299970671302, 41.143149240279897 ], [ -74.211326583784, 41.133523074255599 ], [ -74.2064532124094, 41.131481064421301 ], [ -74.195303696008693, 41.126809263241498 ], [ -74.182356, 41.121384 ], [ -74.162755891783902, 41.112828071453997 ], [ -74.1583290122704, 41.1108956298377 ], [ -74.149932267368698, 41.1072302444936 ], [ -74.149831844455605, 41.107186407425999 ], [ -74.146696651468801, 41.105817818698 ], [ -74.142362733600905, 41.103925957122897 ], [ -74.131738, 41.099288 ], [ -74.129496874366595, 41.098299798071302 ], [ -74.127249041258295, 41.097308638548697 ], [ -74.120762431309501, 41.094448432781299 ], [ -74.1207554207448, 41.094445341542901 ], [ -74.103981997144203, 41.087049268201199 ], [ -74.096778584553206, 41.083872995479403 ], [ -74.093057, 41.082232 ], [ -74.092362133006006, 41.0819232002696 ], [ -74.091236082459702, 41.081422782048399 ], [ -74.0912159413366, 41.081413831309 ], [ -74.0817040202177, 41.077186722089102 ], [ -74.081702807747902, 41.0771861832661 ], [ -74.071824082352506, 41.072796065783301 ], [ -74.067887898300199, 41.071046820842 ], [ -74.057210167665602, 41.066301624467002 ], [ -74.057203776369704, 41.066298784167401 ], [ -74.050819480108004, 41.063461595207002 ], [ -74.037294590897005, 41.057451118125996 ], [ -74.031383, 41.054824 ], [ -74.029442829650804, 41.053962185470702 ], [ -74.025812188386396, 41.052349471724497 ], [ -74.024540512770002, 41.051784599406403 ], [ -74.013493704866093, 41.046877659375397 ], [ -74.013489204646106, 41.046875660398896 ], [ -74.012700902975993, 41.046525500510597 ], [ -73.993757093942804, 41.038110749779698 ], [ -73.977283635840294, 41.030793317294702 ], [ -73.976531, 41.030459 ], [ -73.967056606659995, 41.0262061430142 ], [ -73.966574282354003, 41.025989637722503 ], [ -73.958906744099195, 41.0225478401888 ], [ -73.953004064555401, 41.019898250813398 ], [ -73.951879098265096, 41.019393276977702 ], [ -73.945146829820601, 41.016371302497902 ], [ -73.945117265213597, 41.016358031564302 ], [ -73.939065148654294, 41.013641363038502 ], [ -73.921784200424199, 41.0058843068594 ], [ -73.920238280263604, 41.005190375636801 ], [ -73.919881, 41.00503 ], [ -73.90268, 40.997297 ], [ -73.893984026368997, 40.997170191723399 ], [ -73.893628, 40.997165 ], [ -73.896144, 40.981873 ], [ -73.898728844333505, 40.974822474979298 ], [ -73.904857703310995, 40.958105153549702 ], [ -73.907247953698004, 40.951585410778002 ], [ -73.90728, 40.951498 ], [ -73.9102427673362, 40.941496907563597 ], [ -73.912025339677896, 40.935479671398397 ], [ -73.914253, 40.92796 ], [ -73.915466898904, 40.924897338055402 ], [ -73.917609625411899, 40.9194912478847 ], [ -73.918317529126995, 40.917705209721703 ], [ -73.919432345260603, 40.914892533199698 ], [ -73.919935267617007, 40.913623662162003 ], [ -73.927120027462706, 40.895496542607802 ], [ -73.929421422075905, 40.889690133459702 ], [ -73.929821, 40.888682 ], [ -73.933786895522204, 40.882206616177001 ], [ -73.938354266404104, 40.874749163161098 ], [ -73.938946, 40.873783 ], [ -73.945840929906296, 40.862520569294396 ], [ -73.948335568293302, 40.858445735706503 ], [ -73.9525651011988, 40.851537061954502 ], [ -73.952829, 40.851106 ], [ -73.954162015980401, 40.847989320310901 ], [ -73.955660940789897, 40.844484734786199 ], [ -73.957715721336299, 40.8396805217169 ], [ -73.9586862157485, 40.837411441475197 ], [ -73.959971121733801, 40.834407246142398 ], [ -73.961479276070904, 40.8308810813704 ], [ -73.962363690283397, 40.828813262339501 ], [ -73.963182, 40.8269 ], [ -73.963657546337004, 40.826298288308301 ], [ -73.965091811046506, 40.824483504390201 ], [ -73.965709717373898, 40.823701663731001 ], [ -73.965985090312202, 40.8233532326662 ], [ -73.967964031224994, 40.820849266613301 ], [ -73.968082, 40.8207 ], [ -73.971250004954697, 40.816340214555403 ], [ -73.975170847045803, 40.810944380103301 ], [ -73.977250659480305, 40.8080821573135 ], [ -73.9789376576, 40.805760522735099 ], [ -73.980702017041693, 40.803332424066397 ], [ -73.982577837407604, 40.800750933682203 ], [ -73.984417440418696, 40.798219285358897 ], [ -73.984801788299507, 40.797690348592603 ], [ -73.986305491752304, 40.7956209628056 ], [ -73.988193543085799, 40.793022640252403 ], [ -73.990046673715298, 40.790472375318799 ], [ -73.991405036777493, 40.788603005923299 ], [ -73.991727131765998, 40.7881597411359 ], [ -73.9930299710349, 40.786366783182203 ], [ -73.994866853107595, 40.783838879394601 ], [ -73.995787713489506, 40.782571598014997 ], [ -73.997423558559305, 40.780320359892897 ], [ -73.997819207596507, 40.779775870557202 ], [ -74.000450576936601, 40.776154599153799 ], [ -74.001618, 40.774548 ], [ -74.002953334774105, 40.772719244447998 ], [ -74.004653254495906, 40.770391185829801 ], [ -74.006583180165606, 40.767748131554697 ], [ -74.008603460180197, 40.764981336017897 ], [ -74.010234957836204, 40.762746982165702 ], [ -74.014029, 40.757551 ], [ -74.0142468634549, 40.756655747290303 ], [ -74.015013346956493, 40.753506084433297 ], [ -74.016013533946307, 40.749396078405297 ], [ -74.017282893472498, 40.744179978458703 ], [ -74.018137808625397, 40.740666928931503 ], [ -74.019184431916003, 40.736366105108502 ], [ -74.020062222695799, 40.732759054193899 ], [ -74.0206385265314, 40.730390884779403 ], [ -74.020968, 40.729037 ], [ -74.021351206279405, 40.727461806907002 ], [ -74.021831639725704, 40.725486955536198 ], [ -74.021889095515704, 40.725250779960902 ], [ -74.022288298978197, 40.723609829458397 ], [ -74.023065773904804, 40.720413970726497 ], [ -74.023193, 40.719891 ], [ -74.029383, 40.718967 ], [ -74.030800856464296, 40.716587166403798 ], [ -74.033731, 40.711669 ], [ -74.034129485519699, 40.710329871791103 ], [ -74.035495, 40.705741 ], [ -74.039419, 40.70619 ], [ -74.04875, 40.698985 ], [ -74.054302184410602, 40.692104001218702 ], [ -74.055335, 40.690824 ], [ -74.064978, 40.69595 ], [ -74.070112, 40.690652 ], [ -74.069969, 40.683947 ], [ -74.077813, 40.674646 ], [ -74.064225, 40.668865 ], [ -74.065723885586493, 40.666847916065002 ], [ -74.066980196824105, 40.665157269868999 ], [ -74.070198, 40.660827 ], [ -74.08694, 40.66675 ], [ -74.088205569426094, 40.665718807457303 ], [ -74.09079, 40.663613 ], [ -74.087452, 40.653742 ], [ -74.095047, 40.649182 ], [ -74.10758, 40.65008 ], [ -74.120409, 40.645962 ], [ -74.120550957620097, 40.645941109987199 ], [ -74.125646507708694, 40.645191265728897 ], [ -74.127021, 40.644989 ], [ -74.128202025822603, 40.645006599232403 ], [ -74.131729674819297, 40.645059167019902 ], [ -74.135551406728993, 40.645116117127898 ], [ -74.137087, 40.645139 ], [ -74.141395500827898, 40.644180283864799 ], [ -74.143864, 40.643631 ], [ -74.14626, 40.646568 ], [ -74.144185, 40.650649 ], [ -74.1402652490939, 40.654485850928701 ], [ -74.136998, 40.657684 ], [ -74.133234595982998, 40.662507725136003 ], [ -74.130596994895697, 40.665888457740401 ], [ -74.128944900767394, 40.6680060215038 ], [ -74.127043311784604, 40.670443374106299 ], [ -74.125672938232398, 40.672199843865997 ], [ -74.122441991441306, 40.676341094494198 ], [ -74.114241066416795, 40.686852591001099 ], [ -74.106262817453796, 40.697078673529198 ], [ -74.104806383173496, 40.698945451216403 ], [ -74.102481, 40.701926 ], [ -74.106366, 40.704806 ], [ -74.106598, 40.709391 ], [ -74.108154, 40.715963 ], [ -74.113222, 40.717493 ], [ -74.12057, 40.717133 ], [ -74.123188, 40.712222 ], [ -74.121280629087394, 40.706374491788402 ], [ -74.120663, 40.704481 ], [ -74.130324, 40.690203 ], [ -74.136107, 40.689014 ], [ -74.144208, 40.680053 ], [ -74.143723916510993, 40.679500864714903 ], [ -74.138816, 40.673903 ], [ -74.149263, 40.659983 ], [ -74.156823, 40.662751 ], [ -74.166630342432299, 40.655080768697204 ], [ -74.169833, 40.652576 ], [ -74.180158, 40.64779 ], [ -74.184857, 40.647052 ], [ -74.1861443982569, 40.646135070617603 ], [ -74.188041236964295, 40.644784076754497 ], [ -74.196766, 40.63857 ], [ -74.197657, 40.636541 ], [ -74.200168, 40.634205 ], [ -74.201514517270894, 40.634007124702102 ], [ -74.202679, 40.633836 ], [ -74.204461, 40.627872 ], [ -74.206244, 40.626458 ], [ -74.204626, 40.618891 ], [ -74.205947, 40.605995 ], [ -74.200922, 40.601843 ], [ -74.201635, 40.597331 ], [ -74.204487, 40.594263 ], [ -74.205153136739696, 40.593877898166397 ], [ -74.206945, 40.592842 ], [ -74.211617, 40.578018 ], [ -74.214469, 40.565019 ], [ -74.220411, 40.55888 ], [ -74.224452, 40.560505 ], [ -74.228082839996603, 40.5613949697386 ], [ -74.23182, 40.562311 ], [ -74.234710877981797, 40.5604174392735 ], [ -74.238713, 40.557796 ], [ -74.242286057838101, 40.556649748345698 ], [ -74.249408, 40.554365 ], [ -74.25226, 40.55274 ], [ -74.254637, 40.548586 ], [ -74.252973, 40.542265 ], [ -74.252895204777005, 40.540071306012798 ], [ -74.252736, 40.535582 ], [ -74.249557784249603, 40.524629859609 ], [ -74.249171, 40.523297 ], [ -74.250121, 40.520768 ], [ -74.254162, 40.518058 ], [ -74.2558372951991, 40.515822327312698 ], [ -74.258993823277507, 40.511609957089497 ], [ -74.259328, 40.511164 ], [ -74.2603711842564, 40.508457446816102 ], [ -74.262243, 40.503601 ], [ -74.262297348452506, 40.503544449207602 ], [ -74.266759, 40.498902 ], [ -74.269056937278407, 40.494834988094503 ], [ -74.27269, 40.488405 ], [ -74.271112419635202, 40.486414495915497 ], [ -74.270306, 40.485397 ], [ -74.267675999531505, 40.480431336973602 ], [ -74.266991, 40.479138 ], [ -74.266144906599493, 40.471609648942902 ], [ -74.266091, 40.47113 ], [ -74.261889, 40.464706 ], [ -74.257961975349204, 40.463630655866602 ], [ -74.256800921297298, 40.4633127223739 ], [ -74.250119, 40.461483 ], [ -74.246850226881094, 40.459299613440599 ], [ -74.244936, 40.458021 ], [ -74.237357, 40.457718 ], [ -74.236962128515898, 40.457365329534802 ], [ -74.231406, 40.452403 ], [ -74.224631368067094, 40.452509672118197 ], [ -74.224293, 40.452515 ], [ -74.222477524145404, 40.451875672136097 ], [ -74.219195765649602, 40.450719986345298 ], [ -74.216412035769594, 40.449739683537501 ], [ -74.209788, 40.447407 ], [ -74.209105766356899, 40.445855755381402 ], [ -74.206833, 40.440688 ], [ -74.205915, 40.439285 ], [ -74.205100427519298, 40.439304873257697 ], [ -74.202482140246005, 40.4393687520394 ], [ -74.20239, 40.439371 ], [ -74.196265186203306, 40.440543683047103 ], [ -74.193908, 40.440995 ], [ -74.191309, 40.44299 ], [ -74.187826835623, 40.447357041468798 ], [ -74.187787, 40.447407 ], [ -74.187763270043803, 40.447465659514997 ], [ -74.186602377429097, 40.4503353402268 ], [ -74.185558, 40.452917 ], [ -74.180673, 40.457977 ], [ -74.177889, 40.458 ], [ -74.176778, 40.457308 ], [ -74.172816632639496, 40.453754095227097 ], [ -74.170867, 40.452005 ], [ -74.165049, 40.448258 ], [ -74.164623388771005, 40.448298308584398 ], [ -74.162177, 40.44853 ], [ -74.158204, 40.446616 ], [ -74.147643030315905, 40.449207005145503 ], [ -74.142707, 40.450418 ], [ -74.138548, 40.455186 ], [ -74.13532, 40.455446 ], [ -74.134756663243195, 40.455165781712097 ], [ -74.127296074661899, 40.451454691792897 ], [ -74.124795740846906, 40.4502109610183 ], [ -74.116956944921796, 40.446311740974302 ], [ -74.116842233558501, 40.446254680572302 ], [ -74.114195038408099, 40.444937897167101 ], [ -74.111234, 40.443465 ], [ -74.111139371117503, 40.443448150220803 ], [ -74.103473486975204, 40.442083149902203 ], [ -74.102546, 40.441918 ], [ -74.092365196827302, 40.439446193075199 ], [ -74.091083931192102, 40.439135113368103 ], [ -74.088085, 40.438407 ], [ -74.082391763814599, 40.4353356926609 ], [ -74.081413317293297, 40.434807854032002 ], [ -74.081017515116699, 40.434594332216001 ], [ -74.068791191409304, 40.427998646298597 ], [ -74.066830241873504, 40.426940780700797 ], [ -74.0606552777666, 40.4236095975278 ], [ -74.060414568491694, 40.423479743058699 ], [ -74.058984, 40.422708 ], [ -74.048035979875095, 40.418960029146398 ], [ -74.047884, 40.418908 ], [ -74.036761413704596, 40.416817540177199 ], [ -74.006383, 40.411108 ], [ -74.001313211304193, 40.4115090104874 ], [ -74.000795, 40.41155 ], [ -73.995486, 40.419472 ], [ -73.991682, 40.442908 ], [ -73.994675, 40.447174 ], [ -74.002383, 40.449269 ], [ -74.002221, 40.451714 ], [ -74.006077, 40.464625 ], [ -74.011718, 40.468962 ], [ -74.017615, 40.470493 ], [ -74.019451, 40.474682 ], [ -74.017065, 40.477334 ], [ -74.010999, 40.478114 ], [ -74.002506, 40.476314 ], [ -73.986059, 40.454427 ], [ -73.983629, 40.442418 ], [ -73.982048, 40.419993 ], [ -73.97628, 40.406042 ], [ -73.975615900792903, 40.3994292212939 ], [ -73.974138, 40.384713 ], [ -73.972368858196106, 40.361508353754203 ], [ -73.971817, 40.35427 ], [ -73.972683829180198, 40.345810209510397 ], [ -73.974106104573707, 40.331929560215997 ], [ -73.975105912960302, 40.322171963594002 ], [ -73.9759832112683, 40.31361 ], [ -73.976627038750607, 40.307326587148502 ], [ -73.977173432817196, 40.301994072467899 ], [ -73.977442, 40.299373 ], [ -73.978520102597898, 40.294296075239799 ], [ -73.978548646374094, 40.294161658900897 ], [ -73.980263528978199, 40.286086054620696 ], [ -73.981681, 40.279411 ], [ -73.982578167968498, 40.276185645996101 ], [ -73.987057804488899, 40.260081177161702 ], [ -73.993292, 40.237669 ], [ -73.993394572387501, 40.237379528313603 ], [ -73.994978390886004, 40.232909800904899 ], [ -73.995881676400302, 40.230360619906797 ], [ -73.997986959984402, 40.224419254941097 ], [ -73.999184578283405, 40.2210394312172 ], [ -74.000180425931902, 40.218229028678202 ], [ -74.000671585635303, 40.216842916576098 ], [ -74.003608, 40.208556 ], [ -74.003728605144303, 40.208210281934299 ], [ -74.005891062040206, 40.202011537927604 ], [ -74.007150956500794, 40.198400014733103 ], [ -74.007946, 40.196121 ], [ -74.008023009466896, 40.195589144567201 ], [ -74.009192854454696, 40.187509768905201 ], [ -74.009313, 40.18668 ], [ -74.010874016966397, 40.1819695757478 ], [ -74.011916055553996, 40.178825187224 ], [ -74.012519794817294, 40.177003382510001 ], [ -74.013435180676495, 40.1742411731015 ], [ -74.015674029158404, 40.167485368127203 ], [ -74.020701690878496, 40.152314219954 ], [ -74.025393640029804, 40.138156096404799 ], [ -74.030527, 40.122666 ], [ -74.031516841018401, 40.117445891050401 ], [ -74.034137, 40.103628 ], [ -74.033734300030204, 40.101980248251003 ], [ -74.033603, 40.101443 ], [ -74.033634, 40.100579 ], [ -74.036183267867202, 40.092737877260497 ], [ -74.038583611569905, 40.085354820410203 ], [ -74.039845, 40.081475 ], [ -74.041210016286797, 40.075733210626801 ], [ -74.045483193376896, 40.057758565897601 ], [ -74.052870871201804, 40.026683119811899 ], [ -74.057792458787105, 40.005981008364998 ], [ -74.058910887441797, 40.001276462473598 ], [ -74.060981975754302, 39.9925646595606 ], [ -74.061928903875497, 39.9885815116115 ], [ -74.063937701175703, 39.980131728922302 ], [ -74.064231, 39.978898 ], [ -74.065194218382899, 39.972814966143901 ], [ -74.065751959436597, 39.969292652022098 ], [ -74.0664331805378, 39.964990521690098 ], [ -74.066900123724906, 39.962041625295797 ], [ -74.067341843952306, 39.9592520200043 ], [ -74.067464265872502, 39.958478886207899 ], [ -74.067517678117198, 39.958141570705301 ], [ -74.068006802909494, 39.955052590340699 ], [ -74.069095031642107, 39.948180075923702 ], [ -74.069692849295294, 39.944404665187498 ], [ -74.069968, 39.942667 ], [ -74.070671007383496, 39.939587551971101 ], [ -74.071303774049895, 39.936815785828301 ], [ -74.072088943433201, 39.933376436019998 ], [ -74.074831252821596, 39.921364045483401 ], [ -74.076804023061499, 39.9127225381974 ], [ -74.077059979800197, 39.9116013473066 ], [ -74.077298086140402, 39.910558348161601 ], [ -74.077363, 39.910274 ], [ -74.078265622767901, 39.904614324169998 ], [ -74.084941, 39.862758 ], [ -74.091831, 39.800523 ], [ -74.097673, 39.76869 ], [ -74.099612884079207, 39.763780101597199 ], [ -74.100332, 39.76196 ], [ -74.0991, 39.756825 ], [ -74.102861, 39.75129 ], [ -74.11006, 39.745756 ], [ -74.114834440614899, 39.738904286585502 ], [ -74.117323, 39.735333 ], [ -74.130332528239293, 39.711351536070097 ], [ -74.130430929328199, 39.711170145775199 ], [ -74.135372397418493, 39.702061157609798 ], [ -74.136070686200796, 39.700773948193898 ], [ -74.1406260324447, 39.692376728123698 ], [ -74.142032, 39.689785 ], [ -74.145546820935607, 39.685196913292401 ], [ -74.157485364881396, 39.669612883326501 ], [ -74.170983515780506, 39.651993013679899 ], [ -74.183876300191201, 39.6351633617966 ], [ -74.19145, 39.625277 ], [ -74.2062795933074, 39.604320180578 ], [ -74.216599184648601, 39.589736785891297 ], [ -74.230582611472499, 39.569975748297402 ], [ -74.240009772571, 39.5566535142544 ], [ -74.240647, 39.555753 ], [ -74.249441, 39.548239 ], [ -74.250278946643405, 39.547190332859401 ], [ -74.262854, 39.531453 ], [ -74.266096, 39.530353 ], [ -74.285471, 39.512143 ], [ -74.290959, 39.508796 ], [ -74.296018635882007, 39.508661039350201 ], [ -74.300069, 39.508553 ], [ -74.311748734665798, 39.508464539751003 ], [ -74.31182, 39.508464 ], [ -74.323833, 39.507808 ], [ -74.326382, 39.506332 ], [ -74.323327, 39.499888 ], [ -74.318695, 39.493314 ], [ -74.312156, 39.483564 ], [ -74.311918, 39.479895 ], [ -74.313106, 39.473657 ], [ -74.317098, 39.467646 ], [ -74.319209, 39.464519 ], [ -74.32805, 39.454345 ], [ -74.326038505413607, 39.4498797464951 ], [ -74.325312, 39.448267 ], [ -74.326754918681701, 39.442935370148099 ], [ -74.327063, 39.441797 ], [ -74.328561, 39.43965 ], [ -74.328646892996105, 39.439563670150903 ], [ -74.335246, 39.432931 ], [ -74.337099, 39.431114 ], [ -74.338692, 39.429576 ], [ -74.341152, 39.427277 ], [ -74.343366, 39.425106 ], [ -74.345229, 39.423106 ], [ -74.347607, 39.420418 ], [ -74.354275358919907, 39.414087479828403 ], [ -74.362348007636896, 39.406423815326498 ], [ -74.36699, 39.402017 ], [ -74.367187800652701, 39.401873070877599 ], [ -74.3733064904103, 39.397420822438399 ], [ -74.3823413048909, 39.390846663547698 ], [ -74.387283690675403, 39.387250349587298 ], [ -74.388587, 39.386302 ], [ -74.395013467021101, 39.3811956356246 ], [ -74.403215753219897, 39.374678234709698 ], [ -74.404369144969394, 39.373761768707197 ], [ -74.405572, 39.372806 ], [ -74.406357634402596, 39.370525744051101 ], [ -74.406369041407203, 39.370492635915603 ], [ -74.406955994502098, 39.3687890403476 ], [ -74.408237, 39.365071 ], [ -74.412692, 39.360816 ], [ -74.413950120434606, 39.360193210250301 ], [ -74.423627, 39.355403 ], [ -74.432132086875399, 39.353861550847 ], [ -74.438839, 39.352646 ], [ -74.440531848640205, 39.352032538346002 ], [ -74.447480070815303, 39.349514612190902 ], [ -74.452949070336103, 39.347532733001003 ], [ -74.4530752848612, 39.347486994847202 ], [ -74.456614314472901, 39.346204506320198 ], [ -74.459081940732602, 39.3453102774738 ], [ -74.459894, 39.345016 ], [ -74.461067384887002, 39.344460672820098 ], [ -74.464159542796907, 39.342997249052701 ], [ -74.464197686413598, 39.342979196845498 ], [ -74.468546895951505, 39.340920848988503 ], [ -74.469583635217006, 39.340430192002103 ], [ -74.475201154739494, 39.337771591819802 ], [ -74.479122723030798, 39.335915633485797 ], [ -74.482168160221704, 39.334474321205697 ], [ -74.490535331855995, 39.330514394774902 ], [ -74.492123, 39.329763 ], [ -74.497409870808298, 39.327002025785298 ], [ -74.498462150193404, 39.326452491598801 ], [ -74.501980802923697, 39.324614937814999 ], [ -74.507808599048801, 39.321571474977901 ], [ -74.510242025341697, 39.320300661392302 ], [ -74.513111696103707, 39.318802026894602 ], [ -74.51549, 39.31756 ], [ -74.515980375099602, 39.3172241490159 ], [ -74.520786594918903, 39.313932436901503 ], [ -74.526924987511194, 39.309728338458399 ], [ -74.535908, 39.303576 ], [ -74.538816, 39.303498 ], [ -74.541357685725501, 39.302879223742202 ], [ -74.544628484115904, 39.302082944183397 ], [ -74.548661765823098, 39.301101037200802 ], [ -74.552597, 39.300143 ], [ -74.551151, 39.293539 ], [ -74.551243477644803, 39.293034395268201 ], [ -74.55245, 39.286451 ], [ -74.555885757838496, 39.282774598808302 ], [ -74.560531, 39.277804 ], [ -74.562725991217206, 39.276995941406703 ], [ -74.562900318331799, 39.276931765057398 ], [ -74.570222465877407, 39.274236207918399 ], [ -74.5703537986725, 39.2741878593907 ], [ -74.576961470861903, 39.271755327427698 ], [ -74.579942772849705, 39.270657798347997 ], [ -74.580021, 39.270629 ], [ -74.585821600831096, 39.266568245089601 ], [ -74.587069378578406, 39.2656947287485 ], [ -74.591151693723404, 39.262836872855097 ], [ -74.594533644035593, 39.2604693127114 ], [ -74.597371, 39.258483 ], [ -74.605404032008394, 39.251853020130902 ], [ -74.619165207176394, 39.240495376560901 ], [ -74.619305, 39.24038 ], [ -74.631441169329605, 39.226570252483398 ], [ -74.635991, 39.221393 ], [ -74.646579, 39.210132 ], [ -74.648393301095098, 39.207044482038697 ], [ -74.654841, 39.196072 ], [ -74.660302, 39.192463 ], [ -74.669152742635305, 39.1823929737144 ], [ -74.669795812575401, 39.1816613140711 ], [ -74.67143, 39.179802 ], [ -74.683158329959298, 39.163832838816099 ], [ -74.689865931363798, 39.154699844744798 ], [ -74.693819922311704, 39.149316135470997 ], [ -74.694871, 39.147885 ], [ -74.704216629010304, 39.1321570058834 ], [ -74.708202595007606, 39.125448923454101 ], [ -74.709407, 39.123422 ], [ -74.714341, 39.119804 ], [ -74.7148773833744, 39.118209094992103 ], [ -74.71532, 39.116893 ], [ -74.714135, 39.114631 ], [ -74.707715450936405, 39.1101605490636 ], [ -74.704845779575194, 39.108162164925297 ], [ -74.704409, 39.107858 ], [ -74.705876, 39.102937 ], [ -74.713860617852006, 39.095839111121002 ], [ -74.713957517345605, 39.095752972767102 ], [ -74.7226581280853, 39.088018605342697 ], [ -74.737365, 39.074945 ], [ -74.746853698190705, 39.062173851025698 ], [ -74.749503442626306, 39.058607473399199 ], [ -74.751625, 39.055752 ], [ -74.762908525361297, 39.042407619779802 ], [ -74.764845930525098, 39.0401163614791 ], [ -74.769200166538099, 39.0349668555343 ], [ -74.771248, 39.032545 ], [ -74.77788, 39.029663 ], [ -74.782600460350295, 39.031541696770802 ], [ -74.787433, 39.033465 ], [ -74.798486, 39.026228 ], [ -74.797672989884205, 39.025254533006503 ], [ -74.794696, 39.02169 ], [ -74.793749, 39.013777 ], [ -74.78988, 39.009053 ], [ -74.788117046665903, 39.004886624178901 ], [ -74.787500907365597, 39.003430506292098 ], [ -74.786965, 39.002164 ], [ -74.787183, 39.000958 ], [ -74.791691156738295, 38.996222593800702 ], [ -74.79367, 38.994144 ], [ -74.795595221534498, 38.992840684325998 ], [ -74.802078203728797, 38.9884519050837 ], [ -74.813956000369203, 38.980411002644402 ], [ -74.821001178776996, 38.975641633883498 ], [ -74.822692, 38.974497 ], [ -74.826170925249798, 38.9720220973389 ], [ -74.846683817406898, 38.957429253934102 ], [ -74.850748, 38.954538 ], [ -74.850922000059995, 38.954358694905402 ], [ -74.8574240169917, 38.947658439966503 ], [ -74.863507892217797, 38.941389075327997 ], [ -74.864458, 38.94041 ], [ -74.865198, 38.941439 ], [ -74.868468006074295, 38.942737375689802 ], [ -74.870497, 38.943543 ], [ -74.871112380708098, 38.943491153900801 ], [ -74.875940289866307, 38.943084400400203 ], [ -74.883945, 38.94241 ], [ -74.890534145974897, 38.939439537135897 ], [ -74.90705, 38.931994 ], [ -74.910355929695299, 38.931287000069602 ], [ -74.920414, 38.929136 ], [ -74.925890693327304, 38.928879169432001 ], [ -74.933571, 38.928519 ], [ -74.934559904546305, 38.929252513388498 ], [ -74.934909540933504, 38.929511853859701 ], [ -74.936487899679804, 38.930682590991502 ], [ -74.937265, 38.931259 ], [ -74.938845699962997, 38.931377897299399 ], [ -74.947236, 38.932009 ], [ -74.957253, 38.930638 ], [ -74.959783970913193, 38.930864605447297 ], [ -74.961080435440806, 38.9309806818205 ], [ -74.963463, 38.931194 ], [ -74.967274, 38.933413 ], [ -74.971995, 38.94037 ], [ -74.971908603890697, 38.940582017256801 ], [ -74.970430639039193, 38.944208963608197 ], [ -74.963101, 38.962196 ], [ -74.963862983863095, 38.966880635037903 ], [ -74.964101783266003, 38.968348760681799 ], [ -74.964196, 38.968928 ], [ -74.960574063648707, 38.9821864274859 ], [ -74.960223567657394, 38.983469449945098 ], [ -74.956744068567801, 38.996206472877603 ], [ -74.955363, 39.001262 ], [ -74.94947, 39.015637 ], [ -74.945825135334601, 39.022027117890502 ], [ -74.941133666151302, 39.030252125925898 ], [ -74.938488535099296, 39.0348895269846 ], [ -74.93832, 39.035185 ], [ -74.937499457291693, 39.036422159441202 ], [ -74.9362244355667, 39.038344551961302 ], [ -74.935717394547396, 39.0391090345137 ], [ -74.935352763048598, 39.0396588015116 ], [ -74.928088936837696, 39.050610713075798 ], [ -74.926541888552805, 39.052943249057599 ], [ -74.919202474896807, 39.064009126318503 ], [ -74.903664, 39.087437 ], [ -74.897784, 39.098811 ], [ -74.892547, 39.113183 ], [ -74.891576376842494, 39.125530991500703 ], [ -74.891451, 39.127126 ], [ -74.889342, 39.127894 ], [ -74.889561, 39.140378 ], [ -74.885914, 39.143627 ], [ -74.8864416854761, 39.1500274500129 ], [ -74.887167, 39.158825 ], [ -74.892515576360907, 39.164377738274297 ], [ -74.894057, 39.165978 ], [ -74.899852, 39.17331 ], [ -74.904295, 39.175657 ], [ -74.914775989724902, 39.177623973507004 ], [ -74.91492, 39.177651 ], [ -74.918001, 39.176724 ], [ -74.927033, 39.181883 ], [ -74.9489, 39.18741 ], [ -74.954129, 39.190173 ], [ -74.96316, 39.192015 ], [ -74.976266, 39.192271 ], [ -74.985754712770898, 39.191826598564603 ], [ -74.998002, 39.191253 ], [ -74.998765427365697, 39.191206907802503 ], [ -75.00365, 39.190912 ], [ -75.007275, 39.192431 ], [ -75.026179, 39.193621 ], [ -75.028885, 39.19456 ], [ -75.027824, 39.199482 ], [ -75.023586, 39.202594 ], [ -75.023437, 39.204791 ], [ -75.024006, 39.20804 ], [ -75.026383, 39.213196 ], [ -75.021328, 39.218745 ], [ -75.023556, 39.222244 ], [ -75.029795, 39.225466 ], [ -75.030748440568402, 39.223205611058397 ], [ -75.031923, 39.220421 ], [ -75.037554, 39.221667 ], [ -75.043496, 39.22093 ], [ -75.048487, 39.215222 ], [ -75.049852978494599, 39.215222 ], [ -75.052528, 39.215222 ], [ -75.063699, 39.214853 ], [ -75.073681, 39.214117 ], [ -75.0825, 39.212392 ], [ -75.094065, 39.212081 ], [ -75.098217, 39.213704 ], [ -75.100089, 39.215223 ], [ -75.100148, 39.217019 ], [ -75.102881, 39.218193 ], [ -75.107427, 39.218354 ], [ -75.108289196548895, 39.217337632514202 ], [ -75.110844, 39.214326 ], [ -75.118628, 39.212162 ], [ -75.12047, 39.208502 ], [ -75.123263, 39.204381 ], [ -75.125045, 39.201434 ], [ -75.127363, 39.200536 ], [ -75.129739, 39.200421 ], [ -75.130571, 39.198326 ], [ -75.128462, 39.195609 ], [ -75.127838, 39.190359 ], [ -75.133899, 39.187573 ], [ -75.136914, 39.182088 ], [ -75.137731, 39.184648 ], [ -75.138949, 39.186767 ], [ -75.142465, 39.186698 ], [ -75.145486, 39.187596 ], [ -75.151405, 39.189996 ], [ -75.155082, 39.194043 ], [ -75.156632, 39.197541 ], [ -75.160786, 39.19851 ], [ -75.163308, 39.200397 ], [ -75.167352, 39.203299 ], [ -75.167020662838297, 39.207672268589299 ], [ -75.167005, 39.207879 ], [ -75.163974, 39.21132 ], [ -75.163121393069503, 39.213976776207303 ], [ -75.163009, 39.214327 ], [ -75.166609, 39.218929 ], [ -75.166166, 39.222406 ], [ -75.166283146855804, 39.222625606643 ], [ -75.167841, 39.225546 ], [ -75.168798, 39.231476 ], [ -75.171899, 39.23784 ], [ -75.178169455865302, 39.243007262660399 ], [ -75.182005, 39.246168 ], [ -75.187607, 39.247101 ], [ -75.190768, 39.246276 ], [ -75.195849, 39.252042 ], [ -75.197983, 39.253838 ], [ -75.199142, 39.256691 ], [ -75.205857, 39.262619 ], [ -75.212380819773102, 39.2627523593099 ], [ -75.21251, 39.262755 ], [ -75.223955153079899, 39.2672114154702 ], [ -75.226641348451494, 39.268257343167903 ], [ -75.227106908686196, 39.268438619016102 ], [ -75.236775794562803, 39.2722034068087 ], [ -75.239491908365906, 39.273260983888399 ], [ -75.241639, 39.274097 ], [ -75.244056, 39.27769 ], [ -75.243029815300503, 39.280208737594201 ], [ -75.242881, 39.280574 ], [ -75.240052, 39.282337 ], [ -75.237765, 39.284038 ], [ -75.238268163770698, 39.284487427834001 ], [ -75.23931, 39.285418 ], [ -75.24335, 39.285901 ], [ -75.24816, 39.292957 ], [ -75.252709, 39.296432 ], [ -75.251699, 39.300341 ], [ -75.268012453250407, 39.303332474232903 ], [ -75.271951448754706, 39.304054786264203 ] ] ], [ [ [ -74.044064, 40.698278 ], [ -74.042196, 40.699966 ], [ -74.038997, 40.697619 ], [ -74.041658, 40.696435 ], [ -74.044064, 40.698278 ] ] ] ] } }
]
}
