{
"type": "FeatureCollection",
"name": "state-25-outline",
"crs": { "type": "name", "properties": { "name": "urn:ogc:def:crs:OGC:1.3:CRS84" } },
"features": [
{ "type": "Feature", "properties": { "state_fips": "25", "state_abbr": "MA", "state_name": "Massachusetts" }, "geometry": { "type": "MultiPolygon", "coordinates": [ [ [ [ -72.589826291139204, 42.024695 ], [ -72.590233, 42.024695 ], [ -72.606933, 42.024995 ], [ -72.606956057324894, 42.025128732484497 ], [ -72.607933, 42.030795 ], [ -72.607990970769706, 42.030797634960102 ], [ -72.616903602541896, 42.031202743077401 ], [ -72.616904640729999, 42.031202790266398 ], [ -72.643134, 42.032395 ], [ -72.672963354671595, 42.034877153980098 ], [ -72.686080111332799, 42.035968622773602 ], [ -72.695927, 42.036788 ], [ -72.699402986690501, 42.036753594630198 ], [ -72.712827438960701, 42.036620719195099 ], [ -72.714557957256005, 42.036603590498402 ], [ -72.7192527914859, 42.0365571209569 ], [ -72.755838, 42.036195 ], [ -72.757538, 42.033295 ], [ -72.753538, 42.032095 ], [ -72.751738, 42.030195 ], [ -72.754038, 42.025395 ], [ -72.757467, 42.020947 ], [ -72.758151, 42.020865 ], [ -72.760558, 42.021846 ], [ -72.762151, 42.021527 ], [ -72.76231, 42.019775 ], [ -72.761354, 42.018183 ], [ -72.759738, 42.016995 ], [ -72.761238, 42.014595 ], [ -72.763238, 42.012795 ], [ -72.763265, 42.009742 ], [ -72.766139, 42.007695 ], [ -72.766739, 42.002995 ], [ -72.770645260311795, 42.002573140760703 ], [ -72.77475938856, 42.002128832682203 ], [ -72.794900245813594, 41.999953707103799 ], [ -72.816741, 41.997595 ], [ -72.816735743220306, 41.997658901085003 ], [ -72.813541, 42.036494 ], [ -72.8349699391824, 42.036749098826597 ], [ -72.847142, 42.036894 ], [ -72.863619, 42.037709 ], [ -72.863638410787104, 42.037709170270098 ], [ -72.863733, 42.03771 ], [ -72.924229742985801, 42.038130042032101 ], [ -72.978978634367294, 42.038510175481598 ], [ -72.999549, 42.038653 ], [ -73.008764306658705, 42.038860282198002 ], [ -73.053254, 42.039861 ], [ -73.053288086132596, 42.039861968461302 ], [ -73.1272774996918, 42.041964169036902 ], [ -73.1721252790948, 42.043238392241797 ], [ -73.229798, 42.044877 ], [ -73.231056, 42.044945 ], [ -73.232959186524397, 42.045006199160497 ], [ -73.233363151540104, 42.045019189122101 ], [ -73.293097, 42.04694 ], [ -73.29442, 42.046984 ], [ -73.296329965682901, 42.047033725463599 ], [ -73.325626585080499, 42.047796455387903 ], [ -73.327730831567095, 42.047851238902098 ], [ -73.340530426451195, 42.048184473051201 ], [ -73.426168171005301, 42.0504140296269 ], [ -73.432812, 42.050587 ], [ -73.436754218471705, 42.0505183572836 ], [ -73.487314, 42.049638 ], [ -73.496879, 42.049675 ], [ -73.503041942298097, 42.069692114014998 ], [ -73.508142, 42.086257 ], [ -73.497174992430004, 42.116120539008101 ], [ -73.482963373963997, 42.154819265138997 ], [ -73.475918043929994, 42.174003941264601 ], [ -73.459935234225, 42.217525682089402 ], [ -73.442891759420704, 42.263935650478999 ], [ -73.431400343940396, 42.295227170272803 ], [ -73.431083661342996, 42.296089507883103 ], [ -73.414076883445105, 42.3423995493335 ], [ -73.411974025716106, 42.348125703292801 ], [ -73.410644407427299, 42.3517462996479 ], [ -73.400626511901905, 42.379025373897903 ], [ -73.391556146682305, 42.403724290519001 ], [ -73.388684075732201, 42.411545038549299 ], [ -73.383565812227303, 42.425482246202101 ], [ -73.382123060516193, 42.429410908759301 ], [ -73.352527, 42.510002 ], [ -73.347276444439998, 42.5241484608622 ], [ -73.341644486865505, 42.5393225251104 ], [ -73.312549678309395, 42.6177120528152 ], [ -73.307004076180604, 42.6326534514115 ], [ -73.274145059306704, 42.721184806021597 ], [ -73.273102434817005, 42.723993927145798 ], [ -73.264957, 42.74594 ], [ -73.213170274011105, 42.744911556793802 ], [ -73.163642086057806, 42.743927966357397 ], [ -73.142670427253194, 42.7435114858866 ], [ -73.089901607319803, 42.742463539075501 ], [ -73.079419528784499, 42.7422553733293 ], [ -73.048442883883098, 42.741640201788897 ], [ -73.042195196056497, 42.741516127675801 ], [ -73.023014995548706, 42.741135224142603 ], [ -73.022903, 42.741133 ], [ -73.018645354583995, 42.741042346546003 ], [ -72.930260821819004, 42.739160469970102 ], [ -72.930104828662095, 42.739157148575998 ], [ -72.927190368029599, 42.739095094107597 ], [ -72.864300520714295, 42.7377560483853 ], [ -72.857658583506307, 42.737614628776498 ], [ -72.809113, 42.736581 ], [ -72.806957788681103, 42.736521198931797 ], [ -72.791076431289696, 42.736080535815198 ], [ -72.779257080969302, 42.735752581999897 ], [ -72.685763488431704, 42.733158397078803 ], [ -72.674684822182698, 42.732850995168697 ], [ -72.616353485467997, 42.731232464208297 ], [ -72.598620323978096, 42.730740418722696 ], [ -72.570288455082903, 42.729954288838499 ], [ -72.565356427372805, 42.729817438905101 ], [ -72.516711182782203, 42.7284676698292 ], [ -72.458519, 42.726853 ], [ -72.451195743325101, 42.726631390482702 ], [ -72.437871926157499, 42.726228197638001 ], [ -72.429220084710906, 42.725966383735802 ], [ -72.412033237422307, 42.725446291500703 ], [ -72.326282472605996, 42.722851382371601 ], [ -72.285954, 42.721631 ], [ -72.283032875650903, 42.721558708379099 ], [ -72.203569553658198, 42.719592160002399 ], [ -72.1453998112964, 42.718152582477202 ], [ -72.124526, 42.717636 ], [ -72.111058349948095, 42.7172274274578 ], [ -72.089326931404997, 42.716568154245003 ], [ -72.078626996368499, 42.716243546786203 ], [ -72.077672557328199, 42.7162145916542 ], [ -72.015729214808104, 42.714335396039097 ], [ -71.981429003221095, 42.713294819205601 ], [ -71.981402, 42.713294 ], [ -71.955866542370202, 42.712779319064303 ], [ -71.929019404364794, 42.712238200502497 ], [ -71.928811, 42.712234 ], [ -71.898770029480005, 42.711421882219298 ], [ -71.823802474552394, 42.709395233836197 ], [ -71.805390068401493, 42.708897478864799 ], [ -71.772556879175596, 42.708009877156002 ], [ -71.745817, 42.707287 ], [ -71.726856504954299, 42.706871991034802 ], [ -71.701391660188307, 42.706314614297 ], [ -71.672385089970405, 42.705679715964301 ], [ -71.651825915830599, 42.705229714971999 ], [ -71.636214, 42.704888 ], [ -71.631814, 42.704788 ], [ -71.630622319120306, 42.704759759623599 ], [ -71.619789600454098, 42.704503046557903 ], [ -71.567309278074603, 42.703259371275102 ], [ -71.5426896188347, 42.702675936184001 ], [ -71.542537731342094, 42.702672336764003 ], [ -71.488101021295805, 42.701382299132902 ], [ -71.488035032965996, 42.701380735345701 ], [ -71.467553246573004, 42.700895359297597 ], [ -71.457687763627007, 42.700661567721298 ], [ -71.451714344807201, 42.700520010028796 ], [ -71.449174167048596, 42.700459813060696 ], [ -71.4323540138531, 42.700061210158999 ], [ -71.432335697233, 42.700060776092897 ], [ -71.388194833244796, 42.699014728755301 ], [ -71.386943026923205, 42.698985063530102 ], [ -71.369725041666797, 42.698577032830002 ], [ -71.367434834858997, 42.698522759657301 ], [ -71.365186651846798, 42.698469482361801 ], [ -71.351874, 42.698154 ], [ -71.351797292683102, 42.698150587324498 ], [ -71.351624238497195, 42.6981428882182 ], [ -71.330330636992699, 42.697195545046199 ], [ -71.330206, 42.69719 ], [ -71.313492215809404, 42.697097148222497 ], [ -71.313446645428996, 42.697096895060803 ], [ -71.294205, 42.69699 ], [ -71.288832514129695, 42.702007977768901 ], [ -71.278929, 42.711258 ], [ -71.278516885459695, 42.7118049938274 ], [ -71.275406885434194, 42.715932853077597 ], [ -71.267905, 42.72589 ], [ -71.266374565148695, 42.727196344349899 ], [ -71.255605, 42.736389 ], [ -71.255198770389399, 42.736638343984403 ], [ -71.245539259393993, 42.742567357762297 ], [ -71.245504, 42.742589 ], [ -71.233404, 42.745489 ], [ -71.223904, 42.746689 ], [ -71.216506462121799, 42.745088776289002 ], [ -71.213638703006893, 42.744468427166296 ], [ -71.208302, 42.743314 ], [ -71.208227, 42.743294 ], [ -71.208137, 42.743273 ], [ -71.197751124231701, 42.741031679578001 ], [ -71.1937396072816, 42.740165975513797 ], [ -71.181803, 42.73759 ], [ -71.182888900248301, 42.750996235127403 ], [ -71.184080459176599, 42.765706904166201 ], [ -71.186104, 42.790689 ], [ -71.184653925959495, 42.792039808224999 ], [ -71.182278710330706, 42.794252426834902 ], [ -71.174403, 42.801589 ], [ -71.1743700929581, 42.801617486692997 ], [ -71.167703, 42.807389 ], [ -71.166271832786904, 42.808274960655702 ], [ -71.165603, 42.808689 ], [ -71.149703, 42.815489 ], [ -71.147905816287405, 42.816105475808399 ], [ -71.132503, 42.821389 ], [ -71.115753530338395, 42.817686077803202 ], [ -71.102787752512, 42.814819642776698 ], [ -71.099743964331594, 42.814146731272999 ], [ -71.091179642333302, 42.812253356815802 ], [ -71.065419322756597, 42.8065583431177 ], [ -71.064201, 42.806289 ], [ -71.053601, 42.833089 ], [ -71.053590420031597, 42.833108078631497 ], [ -71.053565269831196, 42.833153431451898 ], [ -71.047501, 42.844089 ], [ -71.044401, 42.848789 ], [ -71.034844624727995, 42.8562458685835 ], [ -71.031201, 42.859089 ], [ -71.004638745097196, 42.8631533316724 ], [ -70.997441328618706, 42.864254619490801 ], [ -70.997238514725694, 42.864285652357999 ], [ -70.974724441921595, 42.867730565431401 ], [ -70.9665, 42.868989 ], [ -70.955660932677802, 42.873437146233599 ], [ -70.949199, 42.876089 ], [ -70.931699, 42.884189 ], [ -70.930799, 42.884589 ], [ -70.930564578650404, 42.884643501115001 ], [ -70.927629, 42.885326 ], [ -70.914899, 42.886589 ], [ -70.914886, 42.886564 ], [ -70.914599197429098, 42.886563195305499 ], [ -70.914525235716695, 42.886562987787897 ], [ -70.902768, 42.88653 ], [ -70.886136, 42.88261 ], [ -70.8834992324132, 42.8810866764316 ], [ -70.883389666287499, 42.881023377465702 ], [ -70.872553814497707, 42.874763247260198 ], [ -70.848859671469199, 42.861074575308798 ], [ -70.848625, 42.860939 ], [ -70.837376, 42.864996 ], [ -70.830795, 42.868918 ], [ -70.824185838764905, 42.8710868827364 ], [ -70.823271639464494, 42.871386889198597 ], [ -70.821769, 42.87188 ], [ -70.817296, 42.87229 ], [ -70.817731, 42.850613 ], [ -70.816314880060006, 42.842825884167297 ], [ -70.812686, 42.822871 ], [ -70.812148703734906, 42.821843450051603 ], [ -70.810546514434805, 42.8187793499647 ], [ -70.80854, 42.814942 ], [ -70.808212780365906, 42.811675323026599 ], [ -70.80522, 42.781798 ], [ -70.795024200361894, 42.753174157091301 ], [ -70.792867, 42.747118 ], [ -70.788156141995699, 42.738873083762797 ], [ -70.772267, 42.711064 ], [ -70.770453, 42.704824 ], [ -70.775791, 42.700669 ], [ -70.7759455897273, 42.695689834297298 ], [ -70.776083, 42.691264 ], [ -70.764421, 42.68565 ], [ -70.752742, 42.684329 ], [ -70.744602, 42.681308 ], [ -70.732534, 42.670237 ], [ -70.730547, 42.666563 ], [ -70.725035366505594, 42.665202264084598 ], [ -70.719153, 42.66375 ], [ -70.705832, 42.658245 ], [ -70.695942, 42.655825 ], [ -70.691231, 42.65579 ], [ -70.688769, 42.65261 ], [ -70.68463, 42.651813 ], [ -70.683391510164, 42.653193576854903 ], [ -70.682294, 42.654417 ], [ -70.679918, 42.660336 ], [ -70.681299, 42.661479 ], [ -70.681382, 42.662263 ], [ -70.676097, 42.666157 ], [ -70.673137, 42.666545 ], [ -70.671693273734903, 42.667733451403201 ], [ -70.666848, 42.671722 ], [ -70.663548, 42.677603 ], [ -70.657437, 42.681519 ], [ -70.654389, 42.68169 ], [ -70.649077, 42.685643 ], [ -70.647111, 42.687857 ], [ -70.645056, 42.688543 ], [ -70.643603, 42.687494 ], [ -70.643223, 42.685115 ], [ -70.641404879451898, 42.685053836964698 ], [ -70.64138, 42.685053 ], [ -70.6406197827894, 42.685835928102101 ], [ -70.636292, 42.690293 ], [ -70.630077, 42.692699 ], [ -70.62732, 42.691411 ], [ -70.627243, 42.688418 ], [ -70.623255, 42.686897 ], [ -70.620851, 42.68684 ], [ -70.620507, 42.684608 ], [ -70.623699, 42.681567 ], [ -70.622705, 42.678351 ], [ -70.624059, 42.67691 ], [ -70.621475, 42.672739 ], [ -70.6235753633797, 42.667985137280802 ], [ -70.623909, 42.66723 ], [ -70.623457076651405, 42.666014584071903 ], [ -70.623401178763203, 42.665864250649399 ], [ -70.623000715578101, 42.664787233196598 ], [ -70.62284, 42.664355 ], [ -70.623927, 42.661635 ], [ -70.621632070701807, 42.659558976052601 ], [ -70.620719, 42.658733 ], [ -70.618922243195499, 42.658953977410803 ], [ -70.617987, 42.659069 ], [ -70.616127, 42.660305 ], [ -70.614892, 42.660219 ], [ -70.614734424185301, 42.660056312416998 ], [ -70.613474, 42.658755 ], [ -70.613263484252997, 42.658826893781097 ], [ -70.610499, 42.659771 ], [ -70.607175, 42.658556 ], [ -70.598585, 42.659876 ], [ -70.597421, 42.659605 ], [ -70.597452143452898, 42.659343741034199 ], [ -70.597601, 42.658095 ], [ -70.595052, 42.656071 ], [ -70.597461, 42.653486 ], [ -70.597103, 42.651468 ], [ -70.591742, 42.648508 ], [ -70.595865, 42.642514 ], [ -70.595409, 42.640322 ], [ -70.592405, 42.640486 ], [ -70.591469, 42.639821 ], [ -70.594014, 42.63503 ], [ -70.597818081138897, 42.634986700982097 ], [ -70.603235324302801, 42.634925040544303 ], [ -70.605127213459397, 42.634903506581303 ], [ -70.605611, 42.634898 ], [ -70.610831789646397, 42.632347316761098 ], [ -70.6122250042703, 42.631666644021898 ], [ -70.615901036806406, 42.629870671532899 ], [ -70.61842, 42.62864 ], [ -70.618007546107606, 42.626012884042801 ], [ -70.617922, 42.625468 ], [ -70.620485, 42.623032 ], [ -70.627173, 42.621338 ], [ -70.632217, 42.616795 ], [ -70.632303155471305, 42.610113081314601 ], [ -70.632332, 42.607876 ], [ -70.635635, 42.600243 ], [ -70.635814719106506, 42.600073479404301 ], [ -70.641697, 42.594525 ], [ -70.646087, 42.592205 ], [ -70.64804, 42.587549 ], [ -70.654727, 42.582234 ], [ -70.664887, 42.580436 ], [ -70.666037, 42.584082 ], [ -70.663898, 42.588282 ], [ -70.65962, 42.592131 ], [ -70.657005, 42.598255 ], [ -70.658907, 42.603504 ], [ -70.663396606819106, 42.607280531776603 ], [ -70.665562, 42.609102 ], [ -70.670658917981299, 42.608383385209798 ], [ -70.676733, 42.607527 ], [ -70.676495, 42.603329 ], [ -70.681486, 42.600704 ], [ -70.684338, 42.596155 ], [ -70.680803, 42.593464 ], [ -70.684502, 42.588858 ], [ -70.687609078783794, 42.586326434969699 ], [ -70.688076, 42.585946 ], [ -70.692932, 42.584214 ], [ -70.698574, 42.577393 ], [ -70.708191, 42.575575 ], [ -70.710349, 42.572568 ], [ -70.715328998871698, 42.5722955537098 ], [ -70.729688, 42.57151 ], [ -70.730934, 42.574487 ], [ -70.735507, 42.575521 ], [ -70.737044, 42.576863 ], [ -70.74014, 42.574807 ], [ -70.757283, 42.570455 ], [ -70.758607896405906, 42.5686493143238 ], [ -70.763723, 42.561678 ], [ -70.772132, 42.559606 ], [ -70.777476, 42.559357 ], [ -70.7876948152838, 42.562987540246702 ], [ -70.788442, 42.563253 ], [ -70.793326401208404, 42.5642720477341 ], [ -70.793495748239295, 42.564307379128998 ], [ -70.794419, 42.5645 ], [ -70.802672717773305, 42.562020983236998 ], [ -70.804091, 42.561595 ], [ -70.815391, 42.554195 ], [ -70.823798, 42.551866 ], [ -70.836591, 42.551279 ], [ -70.845485, 42.548196 ], [ -70.847928, 42.54914 ], [ -70.8481713840346, 42.549631838570001 ], [ -70.84836, 42.550013 ], [ -70.85013, 42.551144 ], [ -70.854874, 42.549365 ], [ -70.855167, 42.547526 ], [ -70.856610752182206, 42.546943935821602 ], [ -70.857687185277797, 42.546509960272999 ], [ -70.861115, 42.545128 ], [ -70.868648, 42.54852 ], [ -70.870619551464998, 42.547262447087498 ], [ -70.875195, 42.544344 ], [ -70.875915023048194, 42.543419833609299 ], [ -70.880607690603398, 42.537396685255601 ], [ -70.882563, 42.534887 ], [ -70.881222253128001, 42.533876928956403 ], [ -70.878922, 42.532144 ], [ -70.875512369050199, 42.533754363273601 ], [ -70.871867896228494, 42.535475641989699 ], [ -70.87163, 42.535588 ], [ -70.867589, 42.536288 ], [ -70.864207, 42.533429 ], [ -70.86632, 42.526729 ], [ -70.877572, 42.523502 ], [ -70.881748388890401, 42.5189813308263 ], [ -70.884134918961905, 42.5163980673399 ], [ -70.885178, 42.515269 ], [ -70.885718982690506, 42.512237128995203 ], [ -70.886044587267406, 42.510412318159403 ], [ -70.886366, 42.508611 ], [ -70.88185, 42.505632 ], [ -70.878728648058697, 42.505325118133101 ], [ -70.87472, 42.504931 ], [ -70.873645911079393, 42.506370718730999 ], [ -70.872127276963198, 42.508406309956897 ], [ -70.869491, 42.51194 ], [ -70.866757299196706, 42.515268744511999 ], [ -70.864024, 42.518597 ], [ -70.859751, 42.520441 ], [ -70.857125, 42.521492 ], [ -70.848707, 42.519208 ], [ -70.845623, 42.517475 ], [ -70.842091, 42.519495 ], [ -70.842197636710594, 42.515738511401402 ], [ -70.842395, 42.508786 ], [ -70.847079377170402, 42.504447266193601 ], [ -70.850038656262299, 42.501706341675501 ], [ -70.851665, 42.5002 ], [ -70.852798254263305, 42.496857456219303 ], [ -70.853091, 42.495994 ], [ -70.853329, 42.493015 ], [ -70.847387, 42.493891 ], [ -70.844772, 42.49652 ], [ -70.840732, 42.499324 ], [ -70.83381, 42.505868 ], [ -70.831091, 42.503596 ], [ -70.833788, 42.499379 ], [ -70.835991, 42.490496 ], [ -70.841591, 42.487596 ], [ -70.847391, 42.491496 ], [ -70.857791, 42.490296 ], [ -70.860919131703298, 42.488653448765497 ], [ -70.870039328841997, 42.483864522821598 ], [ -70.879692, 42.478796 ], [ -70.879699060245201, 42.478787073217298 ], [ -70.886273046167901, 42.470475103661599 ], [ -70.886493, 42.470197 ], [ -70.887992, 42.467096 ], [ -70.887292, 42.464896 ], [ -70.894292, 42.460896 ], [ -70.901453, 42.464226 ], [ -70.907275, 42.462855 ], [ -70.907393069861101, 42.463438990586198 ], [ -70.908092, 42.466896 ], [ -70.921919298471096, 42.466697060377399 ], [ -70.921993, 42.466696 ], [ -70.925539811231303, 42.463097102729698 ], [ -70.926791720602296, 42.461826808675603 ], [ -70.927713, 42.460892 ], [ -70.931487, 42.46063 ], [ -70.934263977742901, 42.4584644959643 ], [ -70.934993, 42.457896 ], [ -70.935168553266706, 42.456638962375003 ], [ -70.935181056912398, 42.456549430842202 ], [ -70.93748, 42.440088 ], [ -70.936159, 42.437403 ], [ -70.928489, 42.438326 ], [ -70.928018, 42.437216 ], [ -70.933402, 42.433435 ], [ -70.928628, 42.428834 ], [ -70.925085, 42.430299 ], [ -70.913192, 42.427697 ], [ -70.908392, 42.425197 ], [ -70.907647, 42.421834 ], [ -70.902872, 42.420053 ], [ -70.905692, 42.416197 ], [ -70.910213356776396, 42.416476517986702 ], [ -70.910852, 42.416516 ], [ -70.9183580702162, 42.422360023617998 ], [ -70.919934, 42.423587 ], [ -70.928046, 42.420663 ], [ -70.927971, 42.41713 ], [ -70.936393, 42.418097 ], [ -70.937432, 42.4258 ], [ -70.936776531336804, 42.427792124272202 ], [ -70.936338252490202, 42.429124157331003 ], [ -70.936160275600002, 42.429665071187898 ], [ -70.935546, 42.431532 ], [ -70.939771, 42.438472 ], [ -70.940475, 42.44376 ], [ -70.938528, 42.45409 ], [ -70.938780931026002, 42.455717411469799 ], [ -70.938984, 42.457024 ], [ -70.943664, 42.458338 ], [ -70.944352867728199, 42.457856778089699 ], [ -70.944557002753001, 42.457714175609503 ], [ -70.948945902651602, 42.454648224473999 ], [ -70.962607, 42.445105 ], [ -70.965398, 42.445424 ], [ -70.966133661135302, 42.443505473197199 ], [ -70.966138811784703, 42.443492040845797 ], [ -70.966309297147006, 42.443047432966601 ], [ -70.966538, 42.442451 ], [ -70.959934, 42.441218 ], [ -70.959698, 42.440667 ], [ -70.968638628522498, 42.435531170954299 ], [ -70.97551, 42.431584 ], [ -70.976642882874103, 42.430435374231898 ], [ -70.982994, 42.423996 ], [ -70.983704244203906, 42.422892854747197 ], [ -70.986815000949903, 42.418061253843803 ], [ -70.987694, 42.416696 ], [ -70.990559694341698, 42.407214809275402 ], [ -70.990595, 42.407098 ], [ -70.989195, 42.402598 ], [ -70.9877229583999, 42.402399326103399 ], [ -70.985068, 42.402041 ], [ -70.983426, 42.396246 ], [ -70.983010975058406, 42.395596916975798 ], [ -70.982957366276196, 42.395513074905203 ], [ -70.980508792323903, 42.391683599549303 ], [ -70.979791, 42.390561 ], [ -70.976300585554696, 42.389603429478797 ], [ -70.975796, 42.389465 ], [ -70.972836650002407, 42.3897312633081 ], [ -70.968605, 42.390112 ], [ -70.967273, 42.388229 ], [ -70.971772986307201, 42.3854920808472 ], [ -70.972513, 42.385042 ], [ -70.972706, 42.381759 ], [ -70.972547487181799, 42.381146494158898 ], [ -70.971573, 42.377381 ], [ -70.970474068748004, 42.375207577940301 ], [ -70.967337828305205, 42.369004847650899 ], [ -70.966627, 42.367599 ], [ -70.969214, 42.364254 ], [ -70.968784737327198, 42.3618301210265 ], [ -70.968034, 42.357591 ], [ -70.966874875442798, 42.357056318271802 ], [ -70.962365, 42.354976 ], [ -70.958599, 42.35551 ], [ -70.953292, 42.349698 ], [ -70.953022, 42.343973 ], [ -70.960047, 42.346506 ], [ -70.965276, 42.351424 ], [ -70.970024451422503, 42.355284031478902 ], [ -70.972406, 42.35722 ], [ -70.97454, 42.35925 ], [ -70.975377, 42.362286 ], [ -70.974005345256202, 42.364697518505402 ], [ -70.971283721079502, 42.369482430376799 ], [ -70.97066, 42.370579 ], [ -70.972828, 42.371928 ], [ -70.972966964456901, 42.371896973687299 ], [ -70.981003447064793, 42.370102684498498 ], [ -70.988128, 42.368512 ], [ -70.989318234424701, 42.369058652342098 ], [ -70.994589986860603, 42.371479869336198 ], [ -70.997227, 42.372691 ], [ -70.997853130730107, 42.372634267942502 ], [ -71.00024, 42.372418 ], [ -71.002822, 42.365945 ], [ -71.001619995910104, 42.3646770423249 ], [ -70.997719, 42.360562 ], [ -70.988035, 42.36188 ], [ -70.985885271333402, 42.359061150490199 ], [ -70.985317, 42.358316 ], [ -70.985739596391298, 42.357934535126098 ], [ -70.98955, 42.354495 ], [ -70.994337, 42.353909 ], [ -70.999577, 42.356408 ], [ -71.003741, 42.356037 ], [ -71.005579, 42.347362 ], [ -71.007807, 42.347145 ], [ -71.0277, 42.358625 ], [ -71.026351, 42.361819 ], [ -71.026462852430498, 42.362205039361903 ], [ -71.026916, 42.363769 ], [ -71.029638, 42.363352 ], [ -71.037999, 42.363753 ], [ -71.041682169761501, 42.366487317728698 ], [ -71.042626, 42.367188 ], [ -71.0437334980831, 42.369911007823802 ], [ -71.04466, 42.372189 ], [ -71.046817295921002, 42.373040756786402 ], [ -71.047018, 42.37312 ], [ -71.050598, 42.372872 ], [ -71.052642, 42.370788 ], [ -71.052619407687502, 42.370697 ], [ -71.052248, 42.369201 ], [ -71.05048, 42.368073 ], [ -71.050352119294402, 42.366254621937202 ], [ -71.050210217423896, 42.364236872291002 ], [ -71.050200365449498, 42.364096783808002 ], [ -71.049895643500406, 42.3597638415945 ], [ -71.049673, 42.356598 ], [ -71.0482832741435, 42.356018539708003 ], [ -71.033966285969896, 42.350048926270297 ], [ -71.013895, 42.34168 ], [ -71.010948294935204, 42.339671198702803 ], [ -71.010926, 42.339656 ], [ -71.010177, 42.337557 ], [ -71.015664, 42.330518 ], [ -71.024151, 42.333159 ], [ -71.034704, 42.328762 ], [ -71.042333, 42.330142 ], [ -71.047648, 42.328087 ], [ -71.047426, 42.323428 ], [ -71.046726000941405, 42.323070744949 ], [ -71.040029806647397, 42.319653241446602 ], [ -71.033099, 42.316116 ], [ -71.032777, 42.313472 ], [ -71.037293, 42.310132 ], [ -71.039158723427803, 42.3098996198039 ], [ -71.040159578689099, 42.309774960951202 ], [ -71.044832, 42.309193 ], [ -71.047439347548305, 42.303746977732203 ], [ -71.047616, 42.303378 ], [ -71.044495, 42.301496 ], [ -71.045971080436004, 42.299312483370699 ], [ -71.046786, 42.298107 ], [ -71.0437321577228, 42.292958275306098 ], [ -71.043697, 42.292899 ], [ -71.03988, 42.292455 ], [ -71.037974, 42.288675 ], [ -71.039306, 42.285495 ], [ -71.038127122892405, 42.284715047516002 ], [ -71.037264, 42.284144 ], [ -71.037113377051597, 42.284216841690899 ], [ -71.032812, 42.286297 ], [ -71.032108, 42.288565 ], [ -71.033373, 42.290036 ], [ -71.03905, 42.300138 ], [ -71.036797, 42.301392 ], [ -71.030394, 42.300496 ], [ -71.025837, 42.299698 ], [ -71.023297, 42.297948 ], [ -71.023367, 42.294474 ], [ -71.021523, 42.294346 ], [ -71.020328108621499, 42.295369183252703 ], [ -71.019638071742804, 42.295960060541397 ], [ -71.014941453244205, 42.299981766178199 ], [ -71.014654184779403, 42.300227753627397 ], [ -71.014502603184297, 42.300357552663797 ], [ -71.014251, 42.300573 ], [ -71.013903, 42.303429 ], [ -71.010807, 42.30451 ], [ -71.010674335672206, 42.304334540727702 ], [ -71.009102, 42.302255 ], [ -71.001309, 42.303455 ], [ -70.994908, 42.305385 ], [ -70.99047, 42.308023 ], [ -70.987428, 42.30608 ], [ -70.990246, 42.304073 ], [ -71.005206, 42.300599 ], [ -71.00611, 42.297125 ], [ -71.004616, 42.294481 ], [ -71.011204023516498, 42.291011237583703 ], [ -71.012769, 42.290187 ], [ -71.02021, 42.290495 ], [ -71.02231, 42.288188 ], [ -71.020915418442897, 42.286301292935597 ], [ -71.020145247971399, 42.285259341633299 ], [ -71.017252942860097, 42.2813463883477 ], [ -71.016138, 42.279838 ], [ -71.013151621569506, 42.278591396338697 ], [ -71.008794023411397, 42.276772404558301 ], [ -70.998341, 42.272409 ], [ -70.996002, 42.266837 ], [ -70.995797112252703, 42.266789427220203 ], [ -70.986674146401697, 42.264671170509203 ], [ -70.985278, 42.264347 ], [ -70.980714, 42.265318 ], [ -70.973357, 42.263009 ], [ -70.970479104301802, 42.265034601044398 ], [ -70.968498609164698, 42.266428568525797 ], [ -70.968008850703498, 42.266773284024403 ], [ -70.964885, 42.268972 ], [ -70.958812200647799, 42.2702487874936 ], [ -70.957240074112605, 42.270579322290203 ], [ -70.956219, 42.270794 ], [ -70.954105, 42.274793 ], [ -70.955724, 42.279419 ], [ -70.954894, 42.280466 ], [ -70.953186, 42.279854 ], [ -70.949284, 42.274205 ], [ -70.950110801151396, 42.269304517639299 ], [ -70.950449, 42.2673 ], [ -70.952173, 42.264062 ], [ -70.951185, 42.261266 ], [ -70.951803, 42.260558 ], [ -70.954091325140098, 42.261175345192001 ], [ -70.959361, 42.262597 ], [ -70.962111, 42.260737 ], [ -70.963803, 42.260922 ], [ -70.964241483624804, 42.260589766404799 ], [ -70.965429, 42.25969 ], [ -70.965811, 42.257765 ], [ -70.960204, 42.255771 ], [ -70.95839, 42.256687 ], [ -70.95727, 42.254988 ], [ -70.960186, 42.251877 ], [ -70.961216615130795, 42.250238526576702 ], [ -70.962211835104597, 42.248656324425198 ], [ -70.962402, 42.248354 ], [ -70.962270937061405, 42.247428933949799 ], [ -70.962130362580396, 42.246436733703597 ], [ -70.962127, 42.246413 ], [ -70.962051295753199, 42.246381792132297 ], [ -70.959495, 42.245328 ], [ -70.957457, 42.247339 ], [ -70.955368, 42.247388 ], [ -70.954839815823703, 42.247592197145899 ], [ -70.949223675707699, 42.249763409071697 ], [ -70.944553422060096, 42.251568939241302 ], [ -70.943172, 42.252103 ], [ -70.936164, 42.256818 ], [ -70.927227, 42.257381 ], [ -70.92483, 42.263339 ], [ -70.925897, 42.26917 ], [ -70.918236, 42.271861 ], [ -70.912932, 42.269792 ], [ -70.909421, 42.268286 ], [ -70.908285909280195, 42.2647153306132 ], [ -70.90752, 42.262306 ], [ -70.906850162252596, 42.262327904559498 ], [ -70.903881, 42.262425 ], [ -70.899817, 42.26115 ], [ -70.895873, 42.262657 ], [ -70.893784, 42.262316 ], [ -70.89386, 42.261085 ], [ -70.895879, 42.259846 ], [ -70.896751, 42.257557 ], [ -70.898367, 42.257232 ], [ -70.897893, 42.256001 ], [ -70.892857, 42.253412 ], [ -70.891115259311604, 42.250804 ], [ -70.890024, 42.24917 ], [ -70.887217101032803, 42.247403921605503 ], [ -70.884269, 42.245549 ], [ -70.883994697879501, 42.2456697333458 ], [ -70.883579311165704, 42.245852564698602 ], [ -70.880922037602602, 42.247022156561599 ], [ -70.877753, 42.248417 ], [ -70.875529, 42.256863 ], [ -70.87876, 42.258963 ], [ -70.882801, 42.26811 ], [ -70.887334164044205, 42.273087374744499 ], [ -70.8901577364405, 42.276187632709501 ], [ -70.890169, 42.2762 ], [ -70.902059, 42.28041 ], [ -70.903238, 42.281335 ], [ -70.90152, 42.282694 ], [ -70.893972, 42.281476 ], [ -70.884702, 42.277783 ], [ -70.878285, 42.278311 ], [ -70.879473, 42.282003 ], [ -70.879653035746898, 42.282313745940002 ], [ -70.880481310456503, 42.283743367599399 ], [ -70.883039, 42.288158 ], [ -70.885141093708199, 42.290587319444597 ], [ -70.886842, 42.292553 ], [ -70.887317, 42.297652 ], [ -70.891530013720697, 42.298400019097201 ], [ -70.893259, 42.298707 ], [ -70.903954, 42.301695 ], [ -70.910372, 42.299058 ], [ -70.915588, 42.302463 ], [ -70.923444, 42.302398 ], [ -70.92392, 42.305035 ], [ -70.91749, 42.305686 ], [ -70.907556, 42.307889 ], [ -70.895862, 42.305934 ], [ -70.889456, 42.310484 ], [ -70.88268, 42.310393 ], [ -70.881899975236195, 42.305115085568801 ], [ -70.881242, 42.300663 ], [ -70.879297352875696, 42.297850772819999 ], [ -70.8758586416714, 42.292877923508698 ], [ -70.871852488373406, 42.287084474892303 ], [ -70.870873, 42.285668 ], [ -70.867559024946601, 42.282121176710397 ], [ -70.861807, 42.275965 ], [ -70.857337473493004, 42.2727549004601 ], [ -70.851093, 42.26827 ], [ -70.831075, 42.267424 ], [ -70.824660723928503, 42.265934645772298 ], [ -70.811742, 42.262935 ], [ -70.791381909819705, 42.254960970415503 ], [ -70.788724, 42.25392 ], [ -70.786778, 42.250871 ], [ -70.784402, 42.248584 ], [ -70.781461923044603, 42.2487180195672 ], [ -70.776307, 42.248953 ], [ -70.773944, 42.254214 ], [ -70.766338, 42.254742 ], [ -70.762773, 42.250343 ], [ -70.764757, 42.244062 ], [ -70.760683, 42.241241 ], [ -70.760158, 42.235035 ], [ -70.754488, 42.228673 ], [ -70.748784725823299, 42.223284828185399 ], [ -70.74723, 42.221816 ], [ -70.739145, 42.219619 ], [ -70.733772739792599, 42.214187917141601 ], [ -70.73056, 42.21094 ], [ -70.722269, 42.207959 ], [ -70.718089, 42.208985 ], [ -70.712993, 42.204431 ], [ -70.713450581603794, 42.202366751357403 ], [ -70.714286, 42.198598 ], [ -70.715895, 42.195899 ], [ -70.71595, 42.190145 ], [ -70.718707, 42.184853 ], [ -70.718642879831904, 42.184718633636599 ], [ -70.714761, 42.176584 ], [ -70.714301, 42.168783 ], [ -70.711436381357501, 42.166770602730402 ], [ -70.706264, 42.163137 ], [ -70.685315, 42.133025 ], [ -70.679464914725202, 42.126270755922697 ], [ -70.663931, 42.108336 ], [ -70.660224555751299, 42.105262686683297 ], [ -70.652026359257604, 42.098464897544503 ], [ -70.645093736601098, 42.092716498243099 ], [ -70.640169, 42.088633 ], [ -70.63848, 42.081579 ], [ -70.644008370576103, 42.078307730546399 ], [ -70.647349, 42.076331 ], [ -70.6477037799946, 42.073002564616303 ], [ -70.64819, 42.068441 ], [ -70.645904260916694, 42.060356952900797 ], [ -70.643208, 42.050821 ], [ -70.63086, 42.036045 ], [ -70.620277, 42.027087 ], [ -70.610983, 42.015737 ], [ -70.608470768139298, 42.013590155769201 ], [ -70.597892, 42.00455 ], [ -70.602704, 42.002144 ], [ -70.614046, 42.006612 ], [ -70.622542, 42.002142 ], [ -70.631919, 41.992864 ], [ -70.639137, 41.993895 ], [ -70.641199, 42.005925 ], [ -70.639655, 42.010796 ], [ -70.636387, 42.01383 ], [ -70.63395, 42.012032 ], [ -70.634426, 42.004968 ], [ -70.629857, 42.001456 ], [ -70.624205, 42.006028 ], [ -70.614223, 42.011149 ], [ -70.615552241294296, 42.013519635666 ], [ -70.617788, 42.017507 ], [ -70.644337, 42.045895 ], [ -70.650367818276493, 42.0462197434654 ], [ -70.650874, 42.046247 ], [ -70.656054, 42.042047 ], [ -70.664373, 42.041164 ], [ -70.66936, 42.037116 ], [ -70.670755656409597, 42.027598180096703 ], [ -70.671666, 42.02139 ], [ -70.667512, 42.01232 ], [ -70.670934, 42.007786 ], [ -70.678798, 42.00551 ], [ -70.686798, 42.012764 ], [ -70.695809, 42.013346 ], [ -70.712204, 42.007586 ], [ -70.711020823490699, 42.0032011587613 ], [ -70.710034, 41.999544 ], [ -70.706443, 42.000729 ], [ -70.700025, 41.998256 ], [ -70.698837, 41.991897 ], [ -70.698981, 41.987103 ], [ -70.693457942717203, 41.983092825199897 ], [ -70.690986, 41.981298 ], [ -70.681357, 41.979145 ], [ -70.678822, 41.977178 ], [ -70.676257, 41.972286 ], [ -70.672698654726403, 41.968591969203899 ], [ -70.666616431531693, 41.962277820895501 ], [ -70.664482, 41.960062 ], [ -70.660164491839396, 41.957164140577703 ], [ -70.656510660393494, 41.954711732964398 ], [ -70.653202, 41.952491 ], [ -70.652377285450797, 41.952082048512402 ], [ -70.646785, 41.949309 ], [ -70.645356288672204, 41.949322620327102 ], [ -70.639757, 41.949376 ], [ -70.632012, 41.946033 ], [ -70.630574, 41.946055 ], [ -70.630321, 41.947048 ], [ -70.6303360738099, 41.947065270570199 ], [ -70.630576761614407, 41.947341034669797 ], [ -70.636383771094501, 41.953994320424002 ], [ -70.636934147874697, 41.9546249055822 ], [ -70.638466, 41.95638 ], [ -70.640131295498193, 41.9589717994319 ], [ -70.6439548549763, 41.964922634760597 ], [ -70.644004146950493, 41.964999350821401 ], [ -70.645934395481007, 41.9680035125754 ], [ -70.648313026217295, 41.971705518494403 ], [ -70.648686, 41.972286 ], [ -70.652900738582503, 41.976840102077801 ], [ -70.653008, 41.976956 ], [ -70.652507, 41.978871 ], [ -70.64936, 41.97862 ], [ -70.645546, 41.975197 ], [ -70.631573, 41.953022 ], [ -70.623945, 41.943061 ], [ -70.616491, 41.940204 ], [ -70.608166, 41.940701 ], [ -70.598078, 41.947772 ], [ -70.591593, 41.949326 ], [ -70.583572, 41.950007 ], [ -70.567767, 41.939499 ], [ -70.565974, 41.936227 ], [ -70.560774575796401, 41.933599561359301 ], [ -70.554613969864207, 41.930486406239901 ], [ -70.552941, 41.929641 ], [ -70.543975, 41.926279 ], [ -70.542179418086803, 41.926464335868197 ], [ -70.539189, 41.926773 ], [ -70.540067, 41.923673 ], [ -70.53787, 41.920946 ], [ -70.541933, 41.918945 ], [ -70.544916, 41.918637 ], [ -70.546386, 41.916751 ], [ -70.54741, 41.911934 ], [ -70.545949, 41.907158 ], [ -70.534283671127795, 41.892358639389698 ], [ -70.532084, 41.889568 ], [ -70.532972, 41.885818 ], [ -70.531439, 41.880858 ], [ -70.531324749320305, 41.878271126693797 ], [ -70.530978, 41.87042 ], [ -70.530494, 41.865492 ], [ -70.525567, 41.85873 ], [ -70.53255, 41.840662 ], [ -70.533149760178304, 41.839692597643896 ], [ -70.536264, 41.834659 ], [ -70.542065, 41.831263 ], [ -70.543168, 41.824446 ], [ -70.54103, 41.815754 ], [ -70.537289333993201, 41.810859061129399 ], [ -70.532656, 41.804796 ], [ -70.519413196753902, 41.792771065573199 ], [ -70.517411, 41.790953 ], [ -70.517314666214403, 41.790899488711403 ], [ -70.497008400617105, 41.779619807017603 ], [ -70.494519, 41.778237 ], [ -70.494364802135195, 41.7768115700568 ], [ -70.494353701816905, 41.7767089569234 ], [ -70.494228616673098, 41.775552649670601 ], [ -70.494210574432302, 41.775385864285198 ], [ -70.494048, 41.773883 ], [ -70.475782820624204, 41.763880021252199 ], [ -70.471552, 41.761563 ], [ -70.447822422682293, 41.754350768634403 ], [ -70.429816, 41.748878 ], [ -70.428650182688699, 41.747942715906198 ], [ -70.428585313276301, 41.747890674021903 ], [ -70.428578967893003, 41.747885583399203 ], [ -70.428309, 41.747669 ], [ -70.399988, 41.741721 ], [ -70.383591396255298, 41.739763812179298 ], [ -70.375341, 41.738779 ], [ -70.363415857177699, 41.738126241179401 ], [ -70.320694047357193, 41.735787733489701 ], [ -70.295561, 41.734412 ], [ -70.28834, 41.731981 ], [ -70.283091, 41.728951 ], [ -70.275248, 41.725807 ], [ -70.273879, 41.72431 ], [ -70.274404, 41.723498 ], [ -70.278905, 41.722574 ], [ -70.281774, 41.72242 ], [ -70.285524, 41.725247 ], [ -70.288168, 41.729208 ], [ -70.290249, 41.729502 ], [ -70.292124, 41.728774 ], [ -70.292049, 41.72757 ], [ -70.293193, 41.725345 ], [ -70.296268, 41.725261 ], [ -70.303262, 41.727486 ], [ -70.31924, 41.728887 ], [ -70.332496, 41.731806 ], [ -70.340795, 41.730776 ], [ -70.346043, 41.732125 ], [ -70.348896, 41.731486 ], [ -70.363299, 41.732976 ], [ -70.373139, 41.732976 ], [ -70.382836, 41.734679 ], [ -70.385261, 41.733934 ], [ -70.38412, 41.730954 ], [ -70.388968, 41.729145 ], [ -70.393245825869201, 41.729834867313798 ], [ -70.394245, 41.729996 ], [ -70.396384, 41.727868 ], [ -70.396038944591695, 41.727031217953702 ], [ -70.395243, 41.725101 ], [ -70.385546, 41.72063 ], [ -70.382123, 41.721482 ], [ -70.362586, 41.711901 ], [ -70.360875, 41.708814 ], [ -70.362871, 41.705088 ], [ -70.357309, 41.702532 ], [ -70.34205, 41.701361 ], [ -70.341314500764895, 41.701499717099402 ], [ -70.328503, 41.703916 ], [ -70.327077, 41.70562 ], [ -70.329216, 41.70892 ], [ -70.327362, 41.711263 ], [ -70.319804, 41.709666 ], [ -70.306541, 41.710304 ], [ -70.300715191888798, 41.708544292724497 ], [ -70.300552, 41.708495 ], [ -70.294277, 41.710837 ], [ -70.284009, 41.709879 ], [ -70.278019, 41.709985 ], [ -70.26855, 41.712927 ], [ -70.267101, 41.712875 ], [ -70.264273, 41.711706 ], [ -70.26418, 41.711287 ], [ -70.26633, 41.70867 ], [ -70.265348, 41.707187 ], [ -70.263128, 41.707048 ], [ -70.262803792361495, 41.707569400597201 ], [ -70.261913, 41.709002 ], [ -70.258138, 41.710044 ], [ -70.257012, 41.709951 ], [ -70.256183, 41.709367 ], [ -70.256136, 41.708269 ], [ -70.255711, 41.707915 ], [ -70.254978, 41.708047 ], [ -70.253422, 41.70804 ], [ -70.252838, 41.70746 ], [ -70.251195, 41.707339 ], [ -70.250238, 41.707737 ], [ -70.250347, 41.708451 ], [ -70.250656, 41.709259 ], [ -70.248368, 41.711682 ], [ -70.244324, 41.712271 ], [ -70.242668, 41.711154 ], [ -70.24102, 41.710539 ], [ -70.240186, 41.710649 ], [ -70.239931, 41.711175 ], [ -70.240588, 41.712644 ], [ -70.241087, 41.714632 ], [ -70.239298, 41.716216 ], [ -70.239506, 41.718141 ], [ -70.238175, 41.720066 ], [ -70.235304, 41.722457 ], [ -70.239318, 41.725625 ], [ -70.239318, 41.726033666666702 ], [ -70.239318, 41.726881 ], [ -70.240777, 41.727528 ], [ -70.234648, 41.732042 ], [ -70.216073, 41.742981 ], [ -70.206018115460097, 41.746355623056203 ], [ -70.189254, 41.751982 ], [ -70.183804, 41.75058 ], [ -70.180718413673702, 41.7511628147655 ], [ -70.14991, 41.756982 ], [ -70.141533, 41.760072 ], [ -70.121978, 41.758841 ], [ -70.121962065740902, 41.7588457390234 ], [ -70.114617683566394, 41.761030038818902 ], [ -70.096061, 41.766549 ], [ -70.082994, 41.768961 ], [ -70.072457, 41.772937 ], [ -70.069671405071503, 41.772905528216398 ], [ -70.066363942189398, 41.772868160343997 ], [ -70.0650271768599, 41.772853057505998 ], [ -70.064314, 41.772845 ], [ -70.059426995114606, 41.774637683777897 ], [ -70.047954023258995, 41.778846275955097 ], [ -70.042697939500101, 41.780774347710903 ], [ -70.036646540923002, 41.782994162161202 ], [ -70.024734, 41.787364 ], [ -70.023030156159606, 41.788194487278901 ], [ -70.022707, 41.788352 ], [ -70.022535, 41.789433 ], [ -70.015508, 41.796042 ], [ -70.008938116827807, 41.800465435391601 ], [ -70.008462, 41.800786 ], [ -70.003842, 41.80852 ], [ -70.005287, 41.812342 ], [ -70.0048861895485, 41.814804821951199 ], [ -70.004388, 41.817866 ], [ -70.004486, 41.838826 ], [ -70.004992615746204, 41.843056079211301 ], [ -70.005785935765402, 41.849680047270802 ], [ -70.006047473352695, 41.851863802354202 ], [ -70.007524668167704, 41.8641979059134 ], [ -70.009013, 41.876625 ], [ -70.006444104931205, 41.880813484605902 ], [ -70.005763, 41.881924 ], [ -70.000188, 41.886938 ], [ -70.002922, 41.890315 ], [ -70.012154, 41.891656 ], [ -70.018497, 41.891528 ], [ -70.02424, 41.896343 ], [ -70.024335, 41.89882 ], [ -70.021212, 41.900148 ], [ -70.013606, 41.90121 ], [ -70.013419444737593, 41.904969442757 ], [ -70.013369, 41.905986 ], [ -70.020089, 41.907582 ], [ -70.025553, 41.911699 ], [ -70.032305, 41.920441 ], [ -70.032024, 41.924207 ], [ -70.028706123271803, 41.927877293686301 ], [ -70.027392, 41.929331 ], [ -70.035235, 41.930039 ], [ -70.044995, 41.930049 ], [ -70.054962, 41.927917 ], [ -70.059003, 41.925618 ], [ -70.061617, 41.923496 ], [ -70.057815, 41.920489 ], [ -70.054203, 41.920949 ], [ -70.058947, 41.917105 ], [ -70.063137, 41.91521 ], [ -70.065671, 41.911658 ], [ -70.065723, 41.899641 ], [ -70.068986, 41.896256 ], [ -70.066371, 41.886348 ], [ -70.066846, 41.88334 ], [ -70.06901, 41.884924 ], [ -70.073039, 41.899783 ], [ -70.074006, 41.93865 ], [ -70.077225, 41.943358 ], [ -70.077292382846693, 41.957844968256602 ], [ -70.077421, 41.985497 ], [ -70.078928580710098, 41.991794957564998 ], [ -70.083775, 42.012041 ], [ -70.089578, 42.024896 ], [ -70.091361765631802, 42.027248661468199 ], [ -70.095595, 42.032832 ], [ -70.10806, 42.043601 ], [ -70.123043, 42.051668 ], [ -70.139743200153703, 42.057519014105203 ], [ -70.141907232765305, 42.058277195756801 ], [ -70.142429, 42.05846 ], [ -70.147436055535806, 42.0604623360137 ], [ -70.148608, 42.060931 ], [ -70.155415, 42.062409 ], [ -70.169781, 42.059736 ], [ -70.176742227247601, 42.057078761649201 ], [ -70.178468, 42.05642 ], [ -70.1831060184861, 42.053103161192901 ], [ -70.185266157551993, 42.051558356422497 ], [ -70.186816, 42.05045 ], [ -70.190448161187703, 42.0452299568272 ], [ -70.194456, 42.03947 ], [ -70.19497, 42.036399 ], [ -70.196151765517797, 42.0361281427937 ], [ -70.201135, 42.034986 ], [ -70.205889, 42.032691 ], [ -70.19662, 42.025452 ], [ -70.192341, 42.023157 ], [ -70.189461, 42.024236 ], [ -70.173758, 42.027357 ], [ -70.166884, 42.034575 ], [ -70.171008, 42.028045 ], [ -70.179601, 42.021858 ], [ -70.186708, 42.019904 ], [ -70.190834, 42.020028 ], [ -70.196312, 42.021984 ], [ -70.208741, 42.030749 ], [ -70.213012, 42.036134 ], [ -70.218701, 42.045848 ], [ -70.228617, 42.053932 ], [ -70.235361, 42.057402 ], [ -70.238875, 42.060479 ], [ -70.24354, 42.060569 ], [ -70.245385, 42.063733 ], [ -70.238087, 42.072878 ], [ -70.225626, 42.078601 ], [ -70.206899, 42.0819 ], [ -70.189305, 42.082337 ], [ -70.160166, 42.078628 ], [ -70.154255357940798, 42.0771582964788 ], [ -70.115968, 42.067638 ], [ -70.082624, 42.054657 ], [ -70.059109287121998, 42.040706088702997 ], [ -70.058531, 42.040363 ], [ -70.036670678864994, 42.020601374497801 ], [ -70.033501, 42.017736 ], [ -70.011898, 41.98972 ], [ -70.010510415715402, 41.987563178078901 ], [ -70.005717315605096, 41.980112918297898 ], [ -69.997125223343701, 41.966757612141897 ], [ -69.986195895124197, 41.949769372256902 ], [ -69.986085, 41.949597 ], [ -69.986024074230599, 41.949464964551701 ], [ -69.983709669055699, 41.944449295030701 ], [ -69.968598, 41.9117 ], [ -69.957460195804003, 41.8799005262265 ], [ -69.950302539421699, 41.859464747108603 ], [ -69.945314, 41.845222 ], [ -69.942778, 41.833065 ], [ -69.941352, 41.822793 ], [ -69.939659, 41.818602 ], [ -69.938178977766597, 41.810369093447598 ], [ -69.938024, 41.809507 ], [ -69.928652, 41.74125 ], [ -69.9285040274615, 41.722510049289298 ], [ -69.928393, 41.708449 ], [ -69.930418, 41.691944 ], [ -69.933746, 41.678631 ], [ -69.943728, 41.664783 ], [ -69.943966, 41.65555 ], [ -69.947531, 41.651465 ], [ -69.951507548849307, 41.642211358700102 ], [ -69.952255, 41.640472 ], [ -69.954023, 41.634033 ], [ -69.956801, 41.629795 ], [ -69.957775, 41.620364 ], [ -69.967192, 41.611956 ], [ -69.976053, 41.611671 ], [ -69.983183, 41.608295 ], [ -69.988412, 41.594432 ], [ -69.988375, 41.586967 ], [ -69.989363, 41.581455 ], [ -69.988215, 41.554704 ], [ -69.991977, 41.547488 ], [ -69.997682, 41.54233 ], [ -70.003861, 41.540551 ], [ -70.008377, 41.54144 ], [ -70.011229, 41.543931 ], [ -70.012655, 41.546777 ], [ -70.013606, 41.551046 ], [ -70.012697, 41.553228 ], [ -70.008615, 41.557982 ], [ -70.002911, 41.562073 ], [ -69.99885, 41.565904 ], [ -69.993879, 41.576299 ], [ -69.991306, 41.588721 ], [ -69.992215, 41.603319 ], [ -69.989827, 41.607152 ], [ -69.985211, 41.613124 ], [ -69.98556, 41.619668 ], [ -69.977478, 41.630786 ], [ -69.975916, 41.638863 ], [ -69.973073, 41.642941 ], [ -69.970489, 41.645458 ], [ -69.975719, 41.653738 ], [ -69.983240900193294, 41.657243207056602 ], [ -69.985322, 41.658213 ], [ -69.996359, 41.667184 ], [ -69.9985495682932, 41.668087825351897 ], [ -70.007011, 41.671579 ], [ -70.007153442178605, 41.671586755185302 ], [ -70.012478311586307, 41.671876664741902 ], [ -70.014211, 41.671971 ], [ -70.015789052296597, 41.671530271420004 ], [ -70.021452930992396, 41.669948427003298 ], [ -70.029118926293805, 41.667807418602997 ], [ -70.029346, 41.667744 ], [ -70.032112555039504, 41.6676590390922 ], [ -70.037264892194898, 41.6675008108136 ], [ -70.037395297542503, 41.667496806065202 ], [ -70.040515, 41.667401 ], [ -70.055523, 41.664843 ], [ -70.062114, 41.664446 ], [ -70.064508538550001, 41.663051855342502 ], [ -70.065702, 41.662357 ], [ -70.075974, 41.663954 ], [ -70.086578083720397, 41.663041812158902 ], [ -70.089238, 41.662813 ], [ -70.116506, 41.655503 ], [ -70.117564831406995, 41.655282292456299 ], [ -70.117752741829506, 41.6552431235692 ], [ -70.136707357971005, 41.6512921387923 ], [ -70.140877, 41.650423 ], [ -70.157515144947098, 41.651771386616304 ], [ -70.158115, 41.65182 ], [ -70.168336, 41.651998 ], [ -70.168357353422294, 41.651995098220603 ], [ -70.187167, 41.649439 ], [ -70.193308529145995, 41.648271298345797 ], [ -70.195193, 41.647913 ], [ -70.198, 41.644152 ], [ -70.203285340642594, 41.6431923516054 ], [ -70.207082, 41.642503 ], [ -70.219773, 41.636469 ], [ -70.220416126721105, 41.636272074174101 ], [ -70.235444053530699, 41.6316705130792 ], [ -70.245867, 41.628479 ], [ -70.25621, 41.620698 ], [ -70.25542, 41.617541 ], [ -70.259601, 41.610863 ], [ -70.265424, 41.609333 ], [ -70.267587, 41.610912 ], [ -70.269687, 41.617775 ], [ -70.26913, 41.625742 ], [ -70.270787247380198, 41.627950331310601 ], [ -70.274522, 41.632927 ], [ -70.28132, 41.635125 ], [ -70.29062, 41.635196 ], [ -70.296009, 41.63438 ], [ -70.300248, 41.63246 ], [ -70.300653, 41.62951 ], [ -70.311687, 41.627408 ], [ -70.316626, 41.625448 ], [ -70.321588, 41.630508 ], [ -70.3223718358594, 41.630890702968799 ], [ -70.329924, 41.634578 ], [ -70.333984620946694, 41.635455648638903 ], [ -70.338067, 41.636338 ], [ -70.338573468122306, 41.636276366708202 ], [ -70.350535375211805, 41.634820694223102 ], [ -70.351634, 41.634687 ], [ -70.360352, 41.631069 ], [ -70.364892, 41.626721 ], [ -70.364763446756598, 41.624071760863004 ], [ -70.364744, 41.623671 ], [ -70.369854, 41.615888 ], [ -70.379151, 41.611361 ], [ -70.400581, 41.606382 ], [ -70.401147596482303, 41.606450598492899 ], [ -70.408535, 41.607345 ], [ -70.424737217325799, 41.605017100306497 ], [ -70.426812, 41.604719 ], [ -70.431652, 41.605722 ], [ -70.432748674034102, 41.605644954434098 ], [ -70.437246, 41.605329 ], [ -70.441571763383493, 41.600275297283098 ], [ -70.442618, 41.599053 ], [ -70.444379446098196, 41.594279751456902 ], [ -70.445289, 41.591815 ], [ -70.446551, 41.590237 ], [ -70.450177, 41.589043 ], [ -70.450361248786905, 41.587588045154199 ], [ -70.45069, 41.584992 ], [ -70.461278, 41.57182 ], [ -70.4636936400764, 41.569672083419803 ], [ -70.465092207667297, 41.568428517978802 ], [ -70.476256, 41.558502 ], [ -70.485571, 41.554244 ], [ -70.493244, 41.552044 ], [ -70.495170763070902, 41.551840014733799 ], [ -70.500004693458493, 41.551328249384198 ], [ -70.522008910421903, 41.548998675955403 ], [ -70.522327, 41.548965 ], [ -70.528623, 41.546721 ], [ -70.528813900133798, 41.546852488634599 ], [ -70.532376, 41.549306 ], [ -70.538821, 41.551256 ], [ -70.546823, 41.551411 ], [ -70.547919543826694, 41.5511484124413 ], [ -70.559689, 41.54833 ], [ -70.560908643136997, 41.548203262454102 ], [ -70.561261256935197, 41.548166621074202 ], [ -70.570480525282406, 41.547208613432197 ], [ -70.573768, 41.546867 ], [ -70.574371188975306, 41.546633527561802 ], [ -70.580555, 41.54424 ], [ -70.586415, 41.54543 ], [ -70.588810011202696, 41.545322475494402 ], [ -70.59381, 41.545098 ], [ -70.601839, 41.542082 ], [ -70.607830999611906, 41.5426700484363 ], [ -70.611081, 41.542989 ], [ -70.616715128054693, 41.541804697578797 ], [ -70.617911143093593, 41.541553293370001 ], [ -70.6229964555056, 41.5404843528448 ], [ -70.633607, 41.538254 ], [ -70.633712548999497, 41.538191881990997 ], [ -70.633799623515102, 41.538140636639902 ], [ -70.641209878989301, 41.533779531197602 ], [ -70.643627, 41.532357 ], [ -70.650058866842201, 41.524172438699999 ], [ -70.654104, 41.519025 ], [ -70.654011, 41.515905 ], [ -70.656625, 41.514779 ], [ -70.662828, 41.517953 ], [ -70.664623095238099, 41.517953 ], [ -70.668295, 41.517953 ], [ -70.670196, 41.520801 ], [ -70.673049, 41.523648 ], [ -70.678515, 41.521512 ], [ -70.685408, 41.521335 ], [ -70.687785, 41.524182 ], [ -70.686981, 41.52949 ], [ -70.683269, 41.5329 ], [ -70.680571166266901, 41.531474641172899 ], [ -70.679228, 41.530765 ], [ -70.676868399894701, 41.529293145656602 ], [ -70.676376, 41.528986 ], [ -70.672012, 41.531779 ], [ -70.668057, 41.5329 ], [ -70.668555, 41.536461 ], [ -70.666508, 41.539958 ], [ -70.658659, 41.543385 ], [ -70.656660701338197, 41.546384970518098 ], [ -70.654302, 41.549926 ], [ -70.655365, 41.557498 ], [ -70.653899, 41.56516 ], [ -70.649281, 41.565807 ], [ -70.64878, 41.56987 ], [ -70.642748, 41.572385 ], [ -70.641560786689496, 41.575643240974401 ], [ -70.641197018108599, 41.576641583635102 ], [ -70.640948, 41.577325 ], [ -70.64204, 41.583066 ], [ -70.642311250991597, 41.583643056581501 ], [ -70.652449, 41.60521 ], [ -70.652418174481596, 41.6055411579446 ], [ -70.652299320761102, 41.606818001153798 ], [ -70.651986, 41.610184 ], [ -70.646849, 41.613502 ], [ -70.646128, 41.619716 ], [ -70.640948269990005, 41.623859784007998 ], [ -70.640003, 41.624616 ], [ -70.640031179311293, 41.624691339424103 ], [ -70.641789, 41.629391 ], [ -70.646782, 41.635028 ], [ -70.646267, 41.635412 ], [ -70.643771, 41.634816 ], [ -70.642047, 41.635566 ], [ -70.644868, 41.640218 ], [ -70.64616, 41.640704 ], [ -70.652614, 41.637829 ], [ -70.65327, 41.638982 ], [ -70.650437, 41.641663 ], [ -70.650724, 41.64613 ], [ -70.648001221539502, 41.6464068619538 ], [ -70.645868691599006, 41.646623705304997 ], [ -70.644725, 41.64674 ], [ -70.640477, 41.648914 ], [ -70.633734, 41.648933 ], [ -70.630294983722393, 41.650620115520802 ], [ -70.62609, 41.652683 ], [ -70.623851, 41.65626 ], [ -70.621303, 41.656106 ], [ -70.620533, 41.657266 ], [ -70.620840806997705, 41.657442813008203 ], [ -70.631725, 41.663695 ], [ -70.634719, 41.66376 ], [ -70.640724, 41.659456 ], [ -70.645715, 41.659456 ], [ -70.647487859806503, 41.660475231050398 ], [ -70.651956, 41.663044 ], [ -70.651977374084495, 41.663092097633999 ], [ -70.653754, 41.66709 ], [ -70.648613, 41.670328 ], [ -70.642481, 41.671165 ], [ -70.637277, 41.669362 ], [ -70.636143, 41.667799 ], [ -70.635021420939907, 41.668719974249903 ], [ -70.632917, 41.670448 ], [ -70.632742, 41.675594 ], [ -70.636347, 41.680002 ], [ -70.638934, 41.679828 ], [ -70.645213, 41.681391 ], [ -70.657339, 41.68148 ], [ -70.660359, 41.679958 ], [ -70.662036, 41.68094 ], [ -70.660736, 41.683063 ], [ -70.657655, 41.684431 ], [ -70.655562, 41.686776 ], [ -70.652016, 41.687774 ], [ -70.650184, 41.690184 ], [ -70.649109, 41.690596 ], [ -70.645911, 41.690205 ], [ -70.644748, 41.691486 ], [ -70.645962, 41.693794 ], [ -70.642452, 41.695241 ], [ -70.636667, 41.696631 ], [ -70.631492, 41.696305 ], [ -70.62544, 41.698691 ], [ -70.623407163827295, 41.699499034793597 ], [ -70.620816, 41.700529 ], [ -70.617572, 41.701141 ], [ -70.618299919206507, 41.702228596932102 ], [ -70.618677, 41.702792 ], [ -70.623847, 41.703723 ], [ -70.623652, 41.707398 ], [ -70.626529, 41.712995 ], [ -70.630988244546003, 41.713685077559099 ], [ -70.633831, 41.714125 ], [ -70.639725, 41.717355 ], [ -70.642354938789694, 41.717550217923403 ], [ -70.643073912618206, 41.717603586685499 ], [ -70.6435581909479, 41.717639534217902 ], [ -70.648805, 41.718029 ], [ -70.650469, 41.713416 ], [ -70.660452, 41.705076 ], [ -70.674064, 41.691371 ], [ -70.676138, 41.692654 ], [ -70.665205, 41.703834 ], [ -70.656206, 41.713387 ], [ -70.656596, 41.715401 ], [ -70.664005, 41.716201 ], [ -70.670453, 41.721912 ], [ -70.679228, 41.727431 ], [ -70.685883, 41.727076 ], [ -70.687587610020401, 41.7246585661007 ], [ -70.68826, 41.723705 ], [ -70.697054, 41.729204 ], [ -70.706166, 41.728984 ], [ -70.708193, 41.730959 ], [ -70.715118, 41.732397 ], [ -70.717202070180605, 41.734321067001801 ], [ -70.718739, 41.73574 ], [ -70.724610671329103, 41.733412832056203 ], [ -70.726331, 41.732731 ], [ -70.720822, 41.727608 ], [ -70.720949, 41.72322 ], [ -70.725813, 41.724592 ], [ -70.726782403445696, 41.723978485176502 ], [ -70.728526, 41.722875 ], [ -70.721302, 41.712968 ], [ -70.714886, 41.710312 ], [ -70.712028, 41.707028 ], [ -70.71423, 41.701731 ], [ -70.722724, 41.703834 ], [ -70.727477, 41.702414 ], [ -70.726051, 41.70064 ], [ -70.723199, 41.696026 ], [ -70.717451, 41.69398 ], [ -70.714906, 41.691938 ], [ -70.718355, 41.690157 ], [ -70.715045, 41.681008 ], [ -70.715593, 41.675258 ], [ -70.719829, 41.677993 ], [ -70.721535, 41.681471 ], [ -70.729395, 41.68814 ], [ -70.739599, 41.691766 ], [ -70.743197176560301, 41.696467698105302 ], [ -70.744353, 41.697978 ], [ -70.748868, 41.697446 ], [ -70.752420008409203, 41.695735509764397 ], [ -70.755297188382301, 41.694349987073203 ], [ -70.755347, 41.694326 ], [ -70.752434, 41.690169 ], [ -70.751721, 41.685554 ], [ -70.749106, 41.680406 ], [ -70.743402, 41.674726 ], [ -70.745104, 41.672445 ], [ -70.75077, 41.675613 ], [ -70.752434, 41.678454 ], [ -70.758376, 41.680584 ], [ -70.763170341735304, 41.677314094037797 ], [ -70.763842, 41.676856 ], [ -70.761856, 41.672933 ], [ -70.756712, 41.666914 ], [ -70.76236, 41.667735 ], [ -70.761941, 41.665493 ], [ -70.758198, 41.661225 ], [ -70.757065, 41.652891 ], [ -70.762416, 41.652708 ], [ -70.762178, 41.648268 ], [ -70.766457, 41.648446 ], [ -70.768358, 41.645782 ], [ -70.765463, 41.641575 ], [ -70.769318, 41.641145 ], [ -70.773654, 41.645033 ], [ -70.775798, 41.649145 ], [ -70.776709, 41.650756 ], [ -70.777225174325906, 41.650838151376398 ], [ -70.778529454851906, 41.651045733263103 ], [ -70.784729038211196, 41.6520324237677 ], [ -70.785084569753806, 41.652089008150298 ], [ -70.786027, 41.652239 ], [ -70.790829, 41.653231 ], [ -70.795216, 41.650932 ], [ -70.802346, 41.655727 ], [ -70.809001, 41.658391 ], [ -70.810160840281497, 41.658138295097302 ], [ -70.813425783007204, 41.657426932466599 ], [ -70.8134994453536, 41.657410882984301 ], [ -70.813837727958898, 41.657337178290497 ], [ -70.814706, 41.657148 ], [ -70.820577586780303, 41.655180865078997 ], [ -70.821598, 41.654839 ], [ -70.821759004171597, 41.654272002135997 ], [ -70.823262, 41.648979 ], [ -70.816351, 41.645995 ], [ -70.804664, 41.641157 ], [ -70.801287927084402, 41.634020881839 ], [ -70.800215, 41.631753 ], [ -70.801063, 41.629513 ], [ -70.804296164322494, 41.627885191573696 ], [ -70.810279, 41.624873 ], [ -70.817683, 41.623432 ], [ -70.822074, 41.627485 ], [ -70.827774, 41.624635 ], [ -70.835296, 41.624532 ], [ -70.843176309500706, 41.628486815377997 ], [ -70.844165, 41.628983 ], [ -70.852518, 41.626919 ], [ -70.859654, 41.624124 ], [ -70.859639955987404, 41.6241168911491 ], [ -70.855201915930806, 41.621870427410201 ], [ -70.855126, 41.621832 ], [ -70.854726919394395, 41.620341086411003 ], [ -70.854259, 41.618593 ], [ -70.854265954777105, 41.618485471649599 ], [ -70.854426, 41.616011 ], [ -70.853665, 41.613969 ], [ -70.853090085791806, 41.613437132850699 ], [ -70.8497190008041, 41.610318459947898 ], [ -70.849645, 41.61025 ], [ -70.847981, 41.602963 ], [ -70.843227, 41.596565 ], [ -70.844267, 41.595052 ], [ -70.847414, 41.595403 ], [ -70.850869, 41.593368 ], [ -70.850504, 41.592114 ], [ -70.853236, 41.588104 ], [ -70.853452, 41.585488 ], [ -70.853185, 41.582975 ], [ -70.854804, 41.582431 ], [ -70.856723, 41.583709 ], [ -70.857239, 41.587705 ], [ -70.860237, 41.594635 ], [ -70.863661, 41.597594 ], [ -70.863638, 41.600919 ], [ -70.862955, 41.603852 ], [ -70.868736150494996, 41.614358942200703 ], [ -70.868904, 41.614664 ], [ -70.86836, 41.622664 ], [ -70.869624, 41.625608 ], [ -70.872665, 41.627816 ], [ -70.874652252834096, 41.628427166732301 ], [ -70.877733012313399, 41.629374634347798 ], [ -70.879039840925799, 41.629776541019702 ], [ -70.882012268817704, 41.630690691957497 ], [ -70.8820617027785, 41.630705895051797 ], [ -70.884415318711405, 41.6314297343812 ], [ -70.8870586118137, 41.632242662047098 ], [ -70.889209, 41.632904 ], [ -70.889258357368107, 41.632769157389298 ], [ -70.890817, 41.628511 ], [ -70.894566, 41.62411 ], [ -70.896380751588396, 41.623996962417102 ], [ -70.903123, 41.623577 ], [ -70.905821235443, 41.623577 ], [ -70.908827, 41.623577 ], [ -70.908861170444894, 41.623543329419903 ], [ -70.913202, 41.619266 ], [ -70.911695573779397, 41.617720524712702 ], [ -70.909830394880402, 41.615806997282299 ], [ -70.9071685427121, 41.613076145489799 ], [ -70.905365722074706, 41.611226592750597 ], [ -70.904522, 41.610361 ], [ -70.903306694531196, 41.606722891135199 ], [ -70.8996639885777, 41.595818175273997 ], [ -70.899557307810596, 41.595498818326703 ], [ -70.898607, 41.592654 ], [ -70.902051, 41.591583 ], [ -70.90908, 41.5937 ], [ -70.910814, 41.595506 ], [ -70.912335700118504, 41.5986662917147 ], [ -70.916581, 41.607483 ], [ -70.917052278995698, 41.607931882112403 ], [ -70.918413795499703, 41.609228694425298 ], [ -70.920074, 41.61081 ], [ -70.921772801431501, 41.613413942915699 ], [ -70.922375, 41.614337 ], [ -70.922685990211093, 41.614295975923099 ], [ -70.925636986674903, 41.613906697092503 ], [ -70.930456, 41.613271 ], [ -70.929722, 41.609479 ], [ -70.930294208972498, 41.608448470226399 ], [ -70.930586647417201, 41.607921798086203 ], [ -70.931046524792606, 41.607093573870301 ], [ -70.931169, 41.606873 ], [ -70.93, 41.600441 ], [ -70.927393, 41.594064 ], [ -70.927820121794397, 41.592996033110197 ], [ -70.928131563171306, 41.5922173112493 ], [ -70.931297018713295, 41.584302468798903 ], [ -70.931326572165702, 41.584228573930901 ], [ -70.931338, 41.5842 ], [ -70.933777, 41.58043 ], [ -70.937618, 41.577481 ], [ -70.938813, 41.5777 ], [ -70.939306, 41.58023 ], [ -70.942468, 41.58154 ], [ -70.943891, 41.586015 ], [ -70.945625, 41.58659 ], [ -70.946849920968901, 41.5860618522576 ], [ -70.950245, 41.584598 ], [ -70.949195, 41.579048 ], [ -70.947014, 41.572722 ], [ -70.93783, 41.565239 ], [ -70.935431, 41.555673 ], [ -70.935315897095705, 41.554755488126503 ], [ -70.934825007676807, 41.550842495025897 ], [ -70.934562, 41.548746 ], [ -70.92852, 41.539776 ], [ -70.941785, 41.540121 ], [ -70.946302, 41.537564 ], [ -70.947929, 41.529802 ], [ -70.954884, 41.527567 ], [ -70.952617, 41.51812 ], [ -70.953299, 41.51501 ], [ -70.956601, 41.515462 ], [ -70.958027, 41.52169 ], [ -70.961354, 41.529698 ], [ -70.966583, 41.531655 ], [ -70.972287, 41.530765 ], [ -70.976617365560401, 41.528997301055 ], [ -70.980131, 41.527563 ], [ -70.984647, 41.520445 ], [ -70.981557, 41.513682 ], [ -70.981708, 41.51007 ], [ -70.983956, 41.5089 ], [ -70.99389, 41.511256 ], [ -71.003275, 41.511912 ], [ -71.019354, 41.508857 ], [ -71.0222534069229, 41.504470942109599 ], [ -71.022336, 41.504346 ], [ -71.035514, 41.499047 ], [ -71.038349, 41.492182 ], [ -71.033609, 41.486802 ], [ -71.03551, 41.481639 ], [ -71.038362, 41.481105 ], [ -71.041214, 41.490541 ], [ -71.041203443403404, 41.490908275024303 ], [ -71.041076389916995, 41.495328598560903 ], [ -71.041013, 41.497534 ], [ -71.048593, 41.502659 ], [ -71.058418, 41.505967 ], [ -71.068767825846905, 41.508421804239497 ], [ -71.070687, 41.508877 ], [ -71.085663, 41.509292 ], [ -71.086554238002606, 41.508679507568402 ], [ -71.093052, 41.504214 ], [ -71.106814, 41.502469 ], [ -71.1138, 41.500106 ], [ -71.115781, 41.496509 ], [ -71.12057, 41.497448 ], [ -71.1224, 41.522156 ], [ -71.126595222831597, 41.555179257639701 ], [ -71.127618079575299, 41.5632308113072 ], [ -71.131312, 41.592308 ], [ -71.131491526431006, 41.593252567169898 ], [ -71.131618, 41.593918 ], [ -71.136691559521097, 41.601383232369898 ], [ -71.137492, 41.602561 ], [ -71.138549070002597, 41.603428575864598 ], [ -71.140588, 41.605102 ], [ -71.140867889254807, 41.607103816627003 ], [ -71.14091, 41.607405 ], [ -71.141509, 41.616076 ], [ -71.140468, 41.623893 ], [ -71.135688, 41.628402 ], [ -71.135675749491995, 41.628532197259297 ], [ -71.134701171322703, 41.6388899233839 ], [ -71.134484, 41.641198 ], [ -71.134478, 41.641262 ], [ -71.13267, 41.658744 ], [ -71.132888, 41.660102 ], [ -71.134688, 41.660502 ], [ -71.135188, 41.660502 ], [ -71.14587, 41.662795 ], [ -71.153588612189196, 41.664037545403502 ], [ -71.153989, 41.664102 ], [ -71.1621482835032, 41.665578726573997 ], [ -71.17609, 41.668102 ], [ -71.17609, 41.668502 ], [ -71.1760865819477, 41.668601123515401 ], [ -71.17599, 41.671402 ], [ -71.18129, 41.672502 ], [ -71.184329906138004, 41.673052473645598 ], [ -71.184333189886402, 41.673053068274797 ], [ -71.191175, 41.674292 ], [ -71.191178, 41.674216 ], [ -71.19439, 41.674802 ], [ -71.19564, 41.67509 ], [ -71.19569, 41.675102 ], [ -71.201220958491504, 41.6818607518953 ], [ -71.208292753245402, 41.6905023835889 ], [ -71.208371, 41.690598 ], [ -71.222470996298995, 41.707679020657999 ], [ -71.224798, 41.710498 ], [ -71.225791, 41.711701 ], [ -71.226236731664699, 41.712209320147899 ], [ -71.245246495566306, 41.733888385747399 ], [ -71.245332603860604, 41.733986585144798 ], [ -71.252130745750705, 41.741739304471203 ], [ -71.254742994474697, 41.7447183583796 ], [ -71.261392, 41.752301 ], [ -71.284401771686902, 41.762010280821002 ], [ -71.294758051420303, 41.766380251525703 ], [ -71.297687564849397, 41.767616398886901 ], [ -71.316387844273095, 41.775507231826303 ], [ -71.317795, 41.776101 ], [ -71.317924233562906, 41.776157294196302 ], [ -71.327896, 41.780501 ], [ -71.329396, 41.7826 ], [ -71.329296, 41.7868 ], [ -71.330116164759104, 41.788355484887902 ], [ -71.331060754267995, 41.790146947749598 ], [ -71.332196, 41.7923 ], [ -71.333896, 41.7945 ], [ -71.335797, 41.7948 ], [ -71.339297, 41.7963 ], [ -71.340697, 41.7983 ], [ -71.340797, 41.8002 ], [ -71.339297, 41.8044 ], [ -71.339297, 41.8065 ], [ -71.339273611764696, 41.806605247058798 ], [ -71.338897, 41.8083 ], [ -71.339003743144204, 41.808549067336401 ], [ -71.339021706896503, 41.808590982758602 ], [ -71.339197, 41.809 ], [ -71.347197, 41.8231 ], [ -71.345888731740601, 41.825887180204802 ], [ -71.344897, 41.828 ], [ -71.342839369299099, 41.8295529288309 ], [ -71.339597, 41.832 ], [ -71.337597, 41.8337 ], [ -71.33750452, 41.83376936 ], [ -71.335197, 41.8355 ], [ -71.3407956584837, 41.842455909025297 ], [ -71.341797, 41.8437 ], [ -71.342198, 41.8448 ], [ -71.341673422639502, 41.845919388344001 ], [ -71.334493988682297, 41.861239482753298 ], [ -71.333997, 41.8623 ], [ -71.3378266820677, 41.873167940583301 ], [ -71.337828866172401, 41.873174138674997 ], [ -71.338863843395004, 41.8761112156336 ], [ -71.340798, 41.8816 ], [ -71.339718870789795, 41.8900884303672 ], [ -71.3397157557079, 41.890112933601301 ], [ -71.339298, 41.893399 ], [ -71.339298, 41.893599 ], [ -71.339177716981098, 41.894561264150902 ], [ -71.338698, 41.898399 ], [ -71.338762493722101, 41.898391169178801 ], [ -71.339763189638504, 41.898269664782099 ], [ -71.345874909416096, 41.897527580386601 ], [ -71.349053635403394, 41.897141619799598 ], [ -71.352699, 41.896699 ], [ -71.354518825625505, 41.896517017437397 ], [ -71.354699, 41.896499 ], [ -71.362499, 41.895599 ], [ -71.364699, 41.895399 ], [ -71.365399, 41.895299 ], [ -71.370999, 41.894599 ], [ -71.371190326560196, 41.894585333817098 ], [ -71.373799, 41.894399 ], [ -71.376352344061203, 41.894034366788802 ], [ -71.376496397719706, 41.894013795041801 ], [ -71.3766, 41.893999 ], [ -71.381529354391105, 41.893225767938603 ], [ -71.3817, 41.893199 ], [ -71.3817, 41.8937517472528 ], [ -71.3817, 41.897062 ], [ -71.3817, 41.903598 ], [ -71.3817, 41.914659653225797 ], [ -71.3817, 41.914816 ], [ -71.3817, 41.915577138679197 ], [ -71.3817, 41.922699 ], [ -71.3816, 41.922899 ], [ -71.381481898708998, 41.9477655532284 ], [ -71.381457692281202, 41.952862283502697 ], [ -71.381457682511694, 41.952864340490599 ], [ -71.381401, 41.964799 ], [ -71.381501, 41.966699 ], [ -71.381491978293695, 41.971399218772497 ], [ -71.381470259693401, 41.982714392318499 ], [ -71.381465710800597, 41.985084319988502 ], [ -71.3814370412492, 42.000020869558398 ], [ -71.381401, 42.018798 ], [ -71.414418614614107, 42.018352207593097 ], [ -71.424356923381694, 42.018218023987302 ], [ -71.458103519194296, 42.017762389128499 ], [ -71.458116645126296, 42.0177622119067 ], [ -71.483712882956993, 42.017416620361097 ], [ -71.483783117964904, 42.017415672072303 ], [ -71.491354280241097, 42.017313448859198 ], [ -71.498258301061995, 42.0172202331592 ], [ -71.499905, 42.017198 ], [ -71.500905, 42.017098 ], [ -71.502049541112896, 42.017011295624201 ], [ -71.502055503273596, 42.017010843962503 ], [ -71.511633399473496, 42.016285273249302 ], [ -71.524641187533902, 42.015299872085599 ], [ -71.527306, 42.015098 ], [ -71.527606, 42.014998 ], [ -71.527699961165496, 42.014996063691001 ], [ -71.528928067352396, 42.0149707554367 ], [ -71.538036206165103, 42.014783059050501 ], [ -71.553360975429001, 42.014467253168696 ], [ -71.553614862859305, 42.014462021171902 ], [ -71.559439, 42.014342 ], [ -71.563665021229198, 42.014282972626901 ], [ -71.576908, 42.014098 ], [ -71.591103192297396, 42.013771236284803 ], [ -71.594118919225195, 42.013701816292901 ], [ -71.606734025316598, 42.013411425092301 ], [ -71.661603714443999, 42.012148362000502 ], [ -71.678022968574695, 42.011770401887802 ], [ -71.680875816310504, 42.011704731264601 ], [ -71.755109198053304, 42.009995929079899 ], [ -71.76601, 42.009745 ], [ -71.799242, 42.008065 ], [ -71.80065, 42.023569 ], [ -71.804566563501496, 42.023603720228998 ], [ -71.841647093630797, 42.023932438120603 ], [ -71.845712226274799, 42.023968475411003 ], [ -71.860396771016696, 42.024098653500999 ], [ -71.865951506224704, 42.024147896077601 ], [ -71.877396643978997, 42.024249356912698 ], [ -71.882803750427996, 42.024297290764402 ], [ -71.883947767419002, 42.024307432443898 ], [ -71.89078, 42.024368 ], [ -71.901088069350706, 42.024636202413397 ], [ -71.920882886306302, 42.025151237528199 ], [ -71.920986416938206, 42.025153931259098 ], [ -71.952326956176506, 42.025969370889598 ], [ -71.963019308635495, 42.026247571844401 ], [ -71.987326, 42.02688 ], [ -71.993102077169596, 42.026915413260298 ], [ -72.010039698933596, 42.027019258204 ], [ -72.010044415149196, 42.027019287119202 ], [ -72.034578823346493, 42.027169708133101 ], [ -72.063496, 42.027347 ], [ -72.099725259707697, 42.028801369583903 ], [ -72.102168777190698, 42.028899460947997 ], [ -72.135687, 42.030245 ], [ -72.135715, 42.030245339681599 ], [ -72.143230250259293, 42.030336510845501 ], [ -72.150088017396499, 42.030419705761098 ], [ -72.198832120778206, 42.031011044237196 ], [ -72.205080783455202, 42.031086849809803 ], [ -72.2412901545176, 42.031526123338701 ], [ -72.249523, 42.031626 ], [ -72.270656136798607, 42.031713813847503 ], [ -72.317148, 42.031907 ], [ -72.321266798330299, 42.031968753046698 ], [ -72.321821071414803, 42.031977063249997 ], [ -72.366991760049103, 42.032654306324098 ], [ -72.397433374541905, 42.0331107167355 ], [ -72.441494143745103, 42.033771318813699 ], [ -72.45668, 42.033999 ], [ -72.458291322866501, 42.034005675225899 ], [ -72.459691170165598, 42.0340114743722 ], [ -72.460120424041904, 42.034013252641898 ], [ -72.509204051235798, 42.034216591344602 ], [ -72.524615259579704, 42.034280435345003 ], [ -72.528131, 42.034295 ], [ -72.5314944001573, 42.033985209218301 ], [ -72.550111162210598, 42.032270485724503 ], [ -72.552858204223995, 42.032017465491201 ], [ -72.5530545610102, 42.0319993797686 ], [ -72.560958712171001, 42.031271356621801 ], [ -72.560975247644507, 42.031269833598401 ], [ -72.563426778498297, 42.031044031843003 ], [ -72.573231, 42.030141 ], [ -72.574189321916293, 42.029567544208703 ], [ -72.582332, 42.024695 ], [ -72.589826291139204, 42.024695 ] ] ], [ [ [ -71.016643, 42.313731 ], [ -71.01132, 42.316355 ], [ -71.006364, 42.320911 ], [ -71.000305, 42.321282 ], [ -70.999534, 42.31992 ], [ -71.000371, 42.319326 ], [ -71.003251, 42.319524 ], [ -71.006699, 42.316133 ], [ -71.011487, 42.309299 ], [ -71.014601, 42.309869 ], [ -71.017179, 42.311751 ], [ -71.016643, 42.313731 ] ] ], [ [ [ -70.942561, 42.287522 ], [ -70.94902, 42.285946 ], [ -70.95108, 42.289726 ], [ -70.94864, 42.291637 ], [ -70.941654, 42.292214 ], [ -70.9357, 42.296523 ], [ -70.935272, 42.302101 ], [ -70.929357, 42.303321 ], [ -70.92638, 42.301406 ], [ -70.926638, 42.299204 ], [ -70.930004, 42.296811 ], [ -70.935311, 42.291927 ], [ -70.937332, 42.284916 ], [ -70.942561, 42.287522 ] ] ], [ [ [ -70.951492, 42.313564 ], [ -70.948515, 42.311937 ], [ -70.94968, 42.311076 ], [ -70.952399, 42.31098 ], [ -70.954286600998799, 42.3086528340082 ], [ -70.95434, 42.308587 ], [ -70.957835, 42.309831 ], [ -70.958094, 42.31165 ], [ -70.95434, 42.31299 ], [ -70.951492, 42.313564 ] ] ], [ [ [ -70.965732, 42.313469 ], [ -70.968968, 42.31299 ], [ -70.971169, 42.311171 ], [ -70.974273, 42.310198 ], [ -70.977219, 42.310249 ], [ -70.977402, 42.312294 ], [ -70.976904764244694, 42.312574253704597 ], [ -70.974155829484701, 42.314123617647098 ], [ -70.970392, 42.316245 ], [ -70.967545, 42.322895 ], [ -70.957268, 42.331661 ], [ -70.952805, 42.330627 ], [ -70.953693, 42.327921 ], [ -70.95913, 42.324572 ], [ -70.963531, 42.318542 ], [ -70.965732, 42.313469 ] ] ], [ [ [ -70.983984, 42.321317 ], [ -70.985667, 42.318733 ], [ -70.988774, 42.319212 ], [ -70.988903, 42.32371 ], [ -70.991621, 42.326294 ], [ -70.989162, 42.328304 ], [ -70.984243, 42.3284 ], [ -70.983078, 42.327156 ], [ -70.983984, 42.321317 ] ] ], [ [ [ -70.936544, 42.324866 ], [ -70.939854, 42.324245 ], [ -70.942948, 42.325695 ], [ -70.94278, 42.327181 ], [ -70.940749, 42.328139 ], [ -70.937248, 42.3275 ], [ -70.934947, 42.326807 ], [ -70.936544, 42.324866 ] ] ], [ [ [ -70.802718, 41.259052 ], [ -70.801561, 41.25841 ], [ -70.803519, 41.253261 ], [ -70.803315, 41.250225 ], [ -70.804236, 41.249458 ], [ -70.805945, 41.249265 ], [ -70.809245, 41.249068 ], [ -70.810928, 41.249554 ], [ -70.812222, 41.249408 ], [ -70.813096, 41.25005 ], [ -70.81384, 41.250576 ], [ -70.8152, 41.250674 ], [ -70.81733, 41.250556 ], [ -70.821284, 41.251014 ], [ -70.825508, 41.252277 ], [ -70.828371, 41.254745 ], [ -70.830718, 41.256278 ], [ -70.832333, 41.258362 ], [ -70.832039, 41.259495 ], [ -70.829832, 41.259748 ], [ -70.823872, 41.259472 ], [ -70.819665, 41.260064 ], [ -70.817263, 41.261639 ], [ -70.816041, 41.261816 ], [ -70.814154, 41.26228 ], [ -70.812874, 41.264103 ], [ -70.811965, 41.264839 ], [ -70.811876, 41.263388 ], [ -70.809607, 41.260703 ], [ -70.802718, 41.259052 ] ] ], [ [ [ -70.909139, 41.423089 ], [ -70.908587, 41.422417 ], [ -70.908999, 41.421604 ], [ -70.912813, 41.421733 ], [ -70.919085, 41.423382 ], [ -70.923341, 41.422463 ], [ -70.926188, 41.41979 ], [ -70.929039, 41.415589 ], [ -70.937155, 41.412093 ], [ -70.948996, 41.409551 ], [ -70.95095, 41.411882 ], [ -70.949185, 41.415776 ], [ -70.943735, 41.415014 ], [ -70.941228, 41.418766 ], [ -70.941099, 41.421739 ], [ -70.937008, 41.425268 ], [ -70.932356, 41.425068 ], [ -70.929762, 41.429744 ], [ -70.927475, 41.431811 ], [ -70.923088, 41.430248 ], [ -70.919932, 41.425633 ], [ -70.914795, 41.42469 ], [ -70.909139, 41.423089 ] ] ], [ [ [ -70.854636, 41.4486 ], [ -70.855111, 41.444859 ], [ -70.855824, 41.440583 ], [ -70.851071, 41.43595 ], [ -70.849169, 41.435415 ], [ -70.848563, 41.432844 ], [ -70.853725, 41.428505 ], [ -70.857793, 41.426 ], [ -70.862663, 41.424115 ], [ -70.871216, 41.422085 ], [ -70.884405, 41.421498 ], [ -70.889371, 41.422631 ], [ -70.896051, 41.421826 ], [ -70.902347, 41.421718 ], [ -70.9055, 41.425253 ], [ -70.903598, 41.430782 ], [ -70.901011, 41.434453 ], [ -70.894566, 41.432742 ], [ -70.887576, 41.43323 ], [ -70.882207, 41.432564 ], [ -70.8803, 41.437969 ], [ -70.872517, 41.43936 ], [ -70.868018, 41.442354 ], [ -70.863668, 41.442542 ], [ -70.860816, 41.445749 ], [ -70.857103, 41.450253 ], [ -70.854636, 41.4486 ] ] ], [ [ [ -70.810115, 41.443692 ], [ -70.814468, 41.445928 ], [ -70.822883, 41.445311 ], [ -70.830868, 41.441295 ], [ -70.836868, 41.441968 ], [ -70.841564, 41.449134 ], [ -70.840375, 41.452875 ], [ -70.838202, 41.456012 ], [ -70.832508, 41.457951 ], [ -70.82857, 41.456728 ], [ -70.82268, 41.456783 ], [ -70.820595, 41.458507 ], [ -70.816369, 41.456082 ], [ -70.812329, 41.453232 ], [ -70.808288, 41.449491 ], [ -70.809952, 41.44664 ], [ -70.808051, 41.445037 ], [ -70.810115, 41.443692 ] ] ], [ [ [ -70.920666, 41.454553 ], [ -70.917394, 41.452339 ], [ -70.915354, 41.452477 ], [ -70.915165, 41.451034 ], [ -70.920334, 41.448889 ], [ -70.921186, 41.445393 ], [ -70.925781, 41.449585 ], [ -70.925416, 41.451732 ], [ -70.923518, 41.454366 ], [ -70.920666, 41.454553 ] ] ], [ [ [ -70.823506, 41.591748 ], [ -70.819967, 41.591369 ], [ -70.81844, 41.59084 ], [ -70.818902, 41.589333 ], [ -70.82178, 41.587065 ], [ -70.822066, 41.583551 ], [ -70.823145, 41.582865 ], [ -70.829548, 41.584598 ], [ -70.835132, 41.590875 ], [ -70.838452, 41.59646 ], [ -70.835735, 41.602349 ], [ -70.834793, 41.602655 ], [ -70.832758, 41.601515 ], [ -70.831552, 41.602001 ], [ -70.831493, 41.60422 ], [ -70.830961, 41.604697 ], [ -70.830003, 41.604539 ], [ -70.826927552696006, 41.601969684630397 ], [ -70.824036, 41.599554 ], [ -70.82553, 41.59634 ], [ -70.823506, 41.591748 ] ] ], [ [ [ -70.925308, 42.317223 ], [ -70.928055, 42.317223 ], [ -70.93076, 42.319027 ], [ -70.93091, 42.321605 ], [ -70.930248, 42.322292 ], [ -70.925969, 42.321909 ], [ -70.925473, 42.319212 ], [ -70.925308, 42.317223 ] ] ], [ [ [ -70.888775, 42.328461 ], [ -70.889151, 42.32774 ], [ -70.89077, 42.327607 ], [ -70.891952, 42.327231 ], [ -70.892492, 42.32803 ], [ -70.892296, 42.328394 ], [ -70.89111, 42.328445 ], [ -70.888954, 42.328902 ], [ -70.888775, 42.328461 ] ] ], [ [ [ -70.92679, 42.32536 ], [ -70.92705, 42.32635 ], [ -70.927698, 42.327341 ], [ -70.929383, 42.328171 ], [ -70.930593, 42.328107 ], [ -70.931414, 42.328267 ], [ -70.93211, 42.328915 ], [ -70.931025, 42.329673 ], [ -70.930809, 42.331015 ], [ -70.931241, 42.331909 ], [ -70.932464, 42.332228 ], [ -70.932091, 42.332698 ], [ -70.931758, 42.333116 ], [ -70.93068, 42.333698 ], [ -70.929717, 42.333973 ], [ -70.928692, 42.332324 ], [ -70.926834, 42.330376 ], [ -70.923068, 42.32699 ], [ -70.922598, 42.326144 ], [ -70.923722, 42.32536 ], [ -70.924716, 42.32488 ], [ -70.925883, 42.324944 ], [ -70.92679, 42.32536 ] ] ], [ [ [ -70.897853, 42.330678 ], [ -70.898586, 42.330501 ], [ -70.898439, 42.331191 ], [ -70.897259, 42.332644 ], [ -70.897063, 42.333952 ], [ -70.896031, 42.334715 ], [ -70.894601, 42.335096 ], [ -70.894065, 42.33498 ], [ -70.893967, 42.334497 ], [ -70.895013, 42.333807 ], [ -70.895692, 42.331945 ], [ -70.89608, 42.330355 ], [ -70.897554, 42.330246 ], [ -70.897853, 42.330678 ] ] ], [ [ [ -70.886251, 42.339946 ], [ -70.884777, 42.339328 ], [ -70.885956, 42.338456 ], [ -70.887529, 42.338202 ], [ -70.889544, 42.338311 ], [ -70.891018, 42.338057 ], [ -70.891804, 42.338129 ], [ -70.891755, 42.338856 ], [ -70.88861, 42.339655 ], [ -70.886251, 42.339946 ] ] ], [ [ [ -70.8956, 42.343892 ], [ -70.894605, 42.342379 ], [ -70.894605, 42.340309 ], [ -70.895156, 42.338879 ], [ -70.896714, 42.338475 ], [ -70.897354, 42.339492 ], [ -70.898407, 42.340266 ], [ -70.89721, 42.343324 ], [ -70.8956, 42.343892 ] ] ], [ [ [ -70.87605, 42.341229 ], [ -70.877096, 42.341162 ], [ -70.878874, 42.341033 ], [ -70.880089, 42.34096 ], [ -70.880621, 42.341163 ], [ -70.881681, 42.340527 ], [ -70.882656, 42.340238 ], [ -70.883465, 42.340035 ], [ -70.883352, 42.340491 ], [ -70.881583, 42.341471 ], [ -70.880207, 42.342307 ], [ -70.878634, 42.342743 ], [ -70.877583, 42.34287 ], [ -70.877166, 42.343304 ], [ -70.875989, 42.343506 ], [ -70.875199, 42.343666 ], [ -70.873953, 42.343634 ], [ -70.874386, 42.342675 ], [ -70.875264, 42.341764 ], [ -70.87605, 42.341229 ] ] ], [ [ [ -70.834621, 42.481962 ], [ -70.835355, 42.482255 ], [ -70.835549, 42.482936 ], [ -70.835581, 42.483833 ], [ -70.834885, 42.484883 ], [ -70.834286, 42.485337 ], [ -70.833705, 42.485272 ], [ -70.833, 42.484187 ], [ -70.83345, 42.483634 ], [ -70.83396, 42.483545 ], [ -70.83405, 42.483191 ], [ -70.83357, 42.48287 ], [ -70.83349621875, 42.482255156249998 ], [ -70.833465, 42.481995 ], [ -70.834621, 42.481962 ] ] ], [ [ [ -70.816898, 42.513324 ], [ -70.817433, 42.514027 ], [ -70.816396, 42.514606 ], [ -70.815091, 42.514051 ], [ -70.813635, 42.512756 ], [ -70.812062, 42.511992 ], [ -70.811942510880797, 42.511024494818599 ], [ -70.811928, 42.510907 ], [ -70.812146, 42.510327 ], [ -70.812665, 42.510117 ], [ -70.81407, 42.510401 ], [ -70.815743, 42.512349 ], [ -70.816898, 42.513324 ] ] ], [ [ [ -70.783537, 42.53285 ], [ -70.784275, 42.532494 ], [ -70.78491, 42.532544 ], [ -70.785309, 42.531956 ], [ -70.785617, 42.531206 ], [ -70.786491, 42.530827 ], [ -70.787223, 42.530896 ], [ -70.787708, 42.530579 ], [ -70.788669, 42.530915 ], [ -70.789403, 42.531931 ], [ -70.788783, 42.534006 ], [ -70.78866, 42.535775 ], [ -70.788239, 42.536836 ], [ -70.787031, 42.537295 ], [ -70.78559, 42.536978 ], [ -70.784528, 42.536355 ], [ -70.783006, 42.535481 ], [ -70.782649, 42.534605 ], [ -70.782252, 42.533716 ], [ -70.783036, 42.533261 ], [ -70.783537, 42.53285 ] ] ], [ [ [ -70.802091, 42.547188 ], [ -70.80334, 42.548299 ], [ -70.802228, 42.551048 ], [ -70.801634, 42.551474 ], [ -70.79938, 42.551238 ], [ -70.798512, 42.549757 ], [ -70.797568, 42.549712 ], [ -70.796273, 42.551126 ], [ -70.79503, 42.550678 ], [ -70.794610969355205, 42.548930384040801 ], [ -70.794397, 42.548038 ], [ -70.796669, 42.546459 ], [ -70.800065, 42.547704 ], [ -70.802091, 42.547188 ] ] ], [ [ [ -70.162963917075899, 41.255271743412301 ], [ -70.170356, 41.257428 ], [ -70.195635063167003, 41.2671515938288 ], [ -70.212652395722401, 41.2736973122649 ], [ -70.22134, 41.277039 ], [ -70.237144, 41.285117 ], [ -70.234054, 41.285653 ], [ -70.221219, 41.281903 ], [ -70.21504, 41.279581 ], [ -70.211712, 41.275651 ], [ -70.211609223035893, 41.275660194533103 ], [ -70.210526936578503, 41.275757016994099 ], [ -70.206125414541702, 41.2761507816885 ], [ -70.20173, 41.276544 ], [ -70.200523098827901, 41.2771211400174 ], [ -70.193886, 41.280295 ], [ -70.191887002776895, 41.286136856774903 ], [ -70.191747, 41.286546 ], [ -70.192305329693895, 41.2871135868306 ], [ -70.195622876999593, 41.2904861392513 ], [ -70.195788, 41.290654 ], [ -70.202205, 41.287975 ], [ -70.207434, 41.288689 ], [ -70.205692, 41.291246 ], [ -70.199115, 41.29619 ], [ -70.193411, 41.296726 ], [ -70.192173752157203, 41.2962995156579 ], [ -70.188017659454204, 41.294866893671703 ], [ -70.186991, 41.294513 ], [ -70.185510503934495, 41.294497326359803 ], [ -70.172798431146703, 41.294362746836299 ], [ -70.167729870520105, 41.294309087257297 ], [ -70.12446, 41.293851 ], [ -70.122855348756701, 41.294016144951797 ], [ -70.109613, 41.295379 ], [ -70.104415, 41.297327 ], [ -70.094686753637504, 41.297655158884901 ], [ -70.092142, 41.297741 ], [ -70.082072, 41.299093 ], [ -70.062565, 41.308726 ], [ -70.046088, 41.321651 ], [ -70.031332, 41.339332 ], [ -70.024421, 41.360622 ], [ -70.024031, 41.368613 ], [ -70.030363, 41.37507 ], [ -70.034641, 41.378994 ], [ -70.041517, 41.381539 ], [ -70.045586, 41.383598 ], [ -70.049564, 41.3879 ], [ -70.049053, 41.391702 ], [ -70.04274, 41.389311 ], [ -70.037371, 41.384066 ], [ -70.02038, 41.369006 ], [ -69.975185364360698, 41.301123436195503 ], [ -69.968616068945295, 41.291256322347202 ], [ -69.960277, 41.278731 ], [ -69.960181, 41.264546 ], [ -69.964129, 41.255382 ], [ -69.968088, 41.250978 ], [ -69.974983, 41.246528 ], [ -69.985009608407296, 41.244037544147602 ], [ -70.001603, 41.239916 ], [ -70.015225, 41.237964 ], [ -70.036972831897998, 41.241437464812698 ], [ -70.05318, 41.244026 ], [ -70.075093731793402, 41.244567535026299 ], [ -70.083489, 41.244775 ], [ -70.092404, 41.24332 ], [ -70.097861, 41.241149 ], [ -70.100495, 41.240553 ], [ -70.102260741746605, 41.240727689317701 ], [ -70.118669, 41.242351 ], [ -70.162963917075899, 41.255271743412301 ] ] ], [ [ [ -70.241875, 41.299801 ], [ -70.240249, 41.2974 ], [ -70.239816, 41.295823 ], [ -70.241095, 41.294954 ], [ -70.242495, 41.294222 ], [ -70.243287, 41.293124 ], [ -70.242617, 41.290562 ], [ -70.242739, 41.28919 ], [ -70.244322, 41.288138 ], [ -70.24767, 41.288641 ], [ -70.252541, 41.293033 ], [ -70.255951, 41.294954 ], [ -70.259665, 41.296006 ], [ -70.261553, 41.297653 ], [ -70.268616, 41.30177 ], [ -70.273121, 41.305521 ], [ -70.276653, 41.308631 ], [ -70.277262, 41.310506 ], [ -70.276653, 41.311283 ], [ -70.272999, 41.310872 ], [ -70.271051, 41.311238 ], [ -70.26752, 41.311192 ], [ -70.265389, 41.311375 ], [ -70.26295, 41.311452 ], [ -70.253477, 41.308641 ], [ -70.246552, 41.306186 ], [ -70.24281, 41.303384 ], [ -70.242069, 41.300947 ], [ -70.241875, 41.299801 ] ] ], [ [ [ -70.307001, 41.332391 ], [ -70.309245, 41.334579 ], [ -70.30897, 41.336057 ], [ -70.308104, 41.337683 ], [ -70.304319, 41.33842 ], [ -70.297204, 41.337681 ], [ -70.292027, 41.337788 ], [ -70.289719, 41.336323 ], [ -70.289325, 41.335022 ], [ -70.29086, 41.333663 ], [ -70.29649, 41.333426 ], [ -70.302513, 41.332598 ], [ -70.307001, 41.332391 ] ] ], [ [ [ -70.774974, 41.349176 ], [ -70.768901, 41.353246 ], [ -70.768534074509802, 41.353735829799902 ], [ -70.768300334684099, 41.354047862447302 ], [ -70.758637, 41.366948 ], [ -70.749086, 41.375188 ], [ -70.745066, 41.376586 ], [ -70.740428, 41.382777 ], [ -70.736979, 41.391526 ], [ -70.731859, 41.397797 ], [ -70.729225, 41.397728 ], [ -70.724366, 41.398942 ], [ -70.719709, 41.404664 ], [ -70.712432, 41.40885 ], [ -70.712351442333599, 41.409417077928303 ], [ -70.711493, 41.41546 ], [ -70.709399, 41.418661 ], [ -70.706561, 41.419198 ], [ -70.705724, 41.424023 ], [ -70.701378, 41.430925 ], [ -70.700964, 41.43401 ], [ -70.697928, 41.435589 ], [ -70.695478, 41.43501 ], [ -70.689924, 41.436841 ], [ -70.686881, 41.441334 ], [ -70.684164, 41.441938 ], [ -70.679255, 41.440598 ], [ -70.67186, 41.442364 ], [ -70.669536, 41.447174 ], [ -70.665918, 41.451094 ], [ -70.665083, 41.456226 ], [ -70.659652, 41.460677 ], [ -70.656088039126004, 41.460812003749403 ], [ -70.64933, 41.461068 ], [ -70.64215, 41.462316 ], [ -70.632737493213597, 41.467211145763002 ], [ -70.632184, 41.467499 ], [ -70.620025, 41.474592 ], [ -70.603555, 41.482384 ], [ -70.598444, 41.481151 ], [ -70.59628, 41.471905 ], [ -70.596203938168102, 41.471398399497197 ], [ -70.595803, 41.468728 ], [ -70.598843720816902, 41.463232122919599 ], [ -70.599843, 41.461426 ], [ -70.599843, 41.460177224719097 ], [ -70.599843, 41.458576 ], [ -70.59913, 41.455369 ], [ -70.597752565761994, 41.454711899581199 ], [ -70.596516, 41.454122 ], [ -70.596045236233607, 41.4543077619645 ], [ -70.592, 41.455904 ], [ -70.591947443895705, 41.4559643989788 ], [ -70.590347593912099, 41.457802992353997 ], [ -70.588435, 41.460001 ], [ -70.588300764657404, 41.460021104241498 ], [ -70.583681, 41.460713 ], [ -70.578438044628797, 41.465193052228599 ], [ -70.57485, 41.468259 ], [ -70.567356, 41.471208 ], [ -70.56328, 41.469127 ], [ -70.559408501046704, 41.462867889625898 ], [ -70.558029337213199, 41.460638174788798 ], [ -70.5578187255079, 41.460297675688601 ], [ -70.557672898086096, 41.4600619143106 ], [ -70.553277, 41.452955 ], [ -70.553243814268001, 41.452005033581898 ], [ -70.553107371423096, 41.448099255017397 ], [ -70.552943, 41.443394 ], [ -70.553025919010096, 41.443001757030302 ], [ -70.5538258918114, 41.439217537866 ], [ -70.555588, 41.430882 ], [ -70.553096, 41.423952 ], [ -70.548207325681304, 41.416771510916597 ], [ -70.547567, 41.415831 ], [ -70.538301, 41.409241 ], [ -70.528581, 41.4051 ], [ -70.517584, 41.403769 ], [ -70.517300288913106, 41.403674599150598 ], [ -70.506984, 41.400242 ], [ -70.502372, 41.392005 ], [ -70.501958032562399, 41.389436537868299 ], [ -70.501306, 41.385391 ], [ -70.498959, 41.384339 ], [ -70.490758, 41.383634 ], [ -70.484503, 41.38629 ], [ -70.478389, 41.392101 ], [ -70.471687, 41.3962 ], [ -70.472604, 41.399128 ], [ -70.473035, 41.408757 ], [ -70.470788, 41.412875 ], [ -70.463833, 41.419145 ], [ -70.452497, 41.42143 ], [ -70.450431, 41.420703 ], [ -70.446233, 41.39648 ], [ -70.449268, 41.380422 ], [ -70.448262, 41.353651 ], [ -70.452244, 41.349828 ], [ -70.463292, 41.347479 ], [ -70.482429, 41.348401 ], [ -70.495026, 41.347509 ], [ -70.511805563035793, 41.348070929990698 ], [ -70.528777305941503, 41.348639295883999 ], [ -70.538294, 41.348958 ], [ -70.579165, 41.350007 ], [ -70.599157, 41.349272 ], [ -70.606757495024596, 41.348920051521503 ], [ -70.648805, 41.346973 ], [ -70.651194313448499, 41.346821871279303 ], [ -70.691112, 41.344297 ], [ -70.709826, 41.341723 ], [ -70.733253, 41.336226 ], [ -70.742487, 41.332798 ], [ -70.747541, 41.329952 ], [ -70.748393, 41.326807 ], [ -70.75408, 41.324893 ], [ -70.764188, 41.318706 ], [ -70.768015, 41.311959 ], [ -70.766166, 41.308962 ], [ -70.768687, 41.303702 ], [ -70.775665, 41.300982 ], [ -70.799905462057893, 41.313116912208201 ], [ -70.802083, 41.314207 ], [ -70.819415, 41.327212 ], [ -70.832649109533506, 41.340880138019898 ], [ -70.837410069063793, 41.345797238925201 ], [ -70.838777, 41.347209 ], [ -70.834109509177495, 41.353004194132801 ], [ -70.833802, 41.353386 ], [ -70.833080924227502, 41.353395821103703 ], [ -70.819852, 41.353576 ], [ -70.812309, 41.355745 ], [ -70.808093, 41.355761 ], [ -70.800289, 41.3538 ], [ -70.783859848774, 41.348028823275101 ], [ -70.783460524632801, 41.347888550040203 ], [ -70.783291, 41.347829 ], [ -70.774974, 41.349176 ] ] ], [ [ [ -70.775489, 41.477098 ], [ -70.771394, 41.481782 ], [ -70.770345, 41.484945 ], [ -70.767993, 41.487788 ], [ -70.761751, 41.488076 ], [ -70.757187, 41.490986 ], [ -70.754901, 41.491016 ], [ -70.750057, 41.495437 ], [ -70.747152, 41.499889 ], [ -70.743402, 41.500956 ], [ -70.737602, 41.504261 ], [ -70.73503, 41.503783 ], [ -70.730166, 41.503176 ], [ -70.726465, 41.505625 ], [ -70.722086, 41.509272 ], [ -70.718787, 41.512874 ], [ -70.715202, 41.515466 ], [ -70.710222, 41.518915 ], [ -70.707235, 41.519947 ], [ -70.702521, 41.519644 ], [ -70.700619, 41.521779 ], [ -70.698243, 41.52089 ], [ -70.700382, 41.51733 ], [ -70.699431, 41.513593 ], [ -70.69444, 41.513949 ], [ -70.692063, 41.512525 ], [ -70.687309, 41.512347 ], [ -70.682793, 41.514305 ], [ -70.678278, 41.51733 ], [ -70.676851, 41.516797 ], [ -70.675188, 41.513949 ], [ -70.674712, 41.512347 ], [ -70.677231, 41.509755 ], [ -70.681562, 41.507269 ], [ -70.685537, 41.506668 ], [ -70.689894, 41.504529 ], [ -70.693727, 41.50683 ], [ -70.698005, 41.504516 ], [ -70.702046, 41.503982 ], [ -70.707037, 41.50149 ], [ -70.706086, 41.498108 ], [ -70.704541, 41.49681 ], [ -70.709889, 41.493657 ], [ -70.712266, 41.49063 ], [ -70.717495, 41.489384 ], [ -70.722311, 41.488279 ], [ -70.72575, 41.488432 ], [ -70.73437, 41.486891 ], [ -70.739579, 41.482365 ], [ -70.747205, 41.47781 ], [ -70.752909, 41.478701 ], [ -70.756712, 41.479057 ], [ -70.759802, 41.47692 ], [ -70.76099, 41.473002 ], [ -70.757187, 41.470687 ], [ -70.755664, 41.467146 ], [ -70.758138, 41.463029 ], [ -70.761128, 41.461112 ], [ -70.766426, 41.460527 ], [ -70.767883, 41.457685 ], [ -70.776308, 41.457664 ], [ -70.780513, 41.453894 ], [ -70.784433, 41.450333 ], [ -70.790395, 41.446535 ], [ -70.796078, 41.446793 ], [ -70.799996, 41.446167 ], [ -70.805199, 41.450381 ], [ -70.806625, 41.455013 ], [ -70.8071, 41.458576 ], [ -70.802584, 41.459288 ], [ -70.801972, 41.461912 ], [ -70.802964, 41.46487 ], [ -70.801723, 41.467275 ], [ -70.798351, 41.468806 ], [ -70.792447, 41.469289 ], [ -70.789036, 41.471934 ], [ -70.787014, 41.476687 ], [ -70.784153, 41.47796 ], [ -70.779824, 41.47707 ], [ -70.775489, 41.477098 ] ] ], [ [ [ -70.783239, 42.552342 ], [ -70.783055, 42.553461 ], [ -70.781606, 42.554016 ], [ -70.780695, 42.553641 ], [ -70.780991, 42.552408 ], [ -70.782303, 42.551834 ], [ -70.783239, 42.552342 ] ] ], [ [ [ -70.722921, 42.566502 ], [ -70.723736, 42.567019 ], [ -70.723148, 42.568157 ], [ -70.721223, 42.569933 ], [ -70.72064, 42.569659 ], [ -70.720476, 42.568882 ], [ -70.720532, 42.568406 ], [ -70.721151, 42.567764 ], [ -70.721038, 42.567164 ], [ -70.720898, 42.56673 ], [ -70.721207, 42.566481 ], [ -70.721516, 42.566351 ], [ -70.721656, 42.566088 ], [ -70.722921, 42.566502 ] ] ], [ [ [ -70.588245, 42.630605 ], [ -70.586819, 42.628157 ], [ -70.588037, 42.626413 ], [ -70.591607, 42.627503 ], [ -70.592189, 42.629471 ], [ -70.588245, 42.630605 ] ] ], [ [ [ -70.57871, 42.634548 ], [ -70.580285, 42.636025 ], [ -70.575088, 42.63978 ], [ -70.573377, 42.639507 ], [ -70.573509, 42.636376 ], [ -70.575648, 42.634452 ], [ -70.57871, 42.634548 ] ] ], [ [ [ -70.589252, 42.662745 ], [ -70.588105, 42.662642 ], [ -70.587568, 42.661908 ], [ -70.590001, 42.658981 ], [ -70.593092, 42.659308 ], [ -70.593681, 42.660455 ], [ -70.592951, 42.661198 ], [ -70.591064, 42.661312 ], [ -70.589252, 42.662745 ] ] ] ] } }
]
}
