{
"type": "FeatureCollection",
"name": "state-47-outline",
"crs": { "type": "name", "properties": { "name": "urn:ogc:def:crs:OGC:1.3:CRS84" } },
"features": [
{ "type": "Feature", "properties": { "state_fips": "47", "state_abbr": "TN", "state_name": "Tennessee" }, "geometry": { "type": "Polygon", "coordinates": [ [ [ -90.043036404717597, 34.994838483410398 ], [ -90.060784308202102, 34.994895710015598 ], [ -90.096337199225303, 34.995010347288698 ], [ -90.126945002541603, 34.995109039547003 ], [ -90.127345628555304, 34.995110331331503 ], [ -90.127605622627797, 34.995111169660298 ], [ -90.137451583610101, 34.995142917123999 ], [ -90.137656608619906, 34.995143578209699 ], [ -90.302645036857101, 34.995675569363002 ], [ -90.308361, 34.995694 ], [ -90.309977337411595, 35.001103940036401 ], [ -90.310453, 35.002696 ], [ -90.309256, 35.009592 ], [ -90.30528, 35.013596 ], [ -90.305741, 35.019082 ], [ -90.302985, 35.024411 ], [ -90.299468, 35.030292 ], [ -90.296968, 35.038175 ], [ -90.294256978989097, 35.0400416142501 ], [ -90.292348, 35.041356 ], [ -90.264818, 35.040448 ], [ -90.261703, 35.036226 ], [ -90.256218, 35.034735 ], [ -90.251797, 35.03161 ], [ -90.242979, 35.032678 ], [ -90.232352, 35.03124 ], [ -90.219925, 35.027439 ], [ -90.213233, 35.025502 ], [ -90.209852941827293, 35.025656781305301 ], [ -90.207315, 35.025773 ], [ -90.200730229138102, 35.031679577913103 ], [ -90.191217, 35.040213 ], [ -90.186547, 35.045423 ], [ -90.181157, 35.053943 ], [ -90.180541554457804, 35.055663015646999 ], [ -90.177615, 35.063842 ], [ -90.176759, 35.069736 ], [ -90.175, 35.076064 ], [ -90.175994353393904, 35.077124587010204 ], [ -90.178513, 35.079811 ], [ -90.180987, 35.084993 ], [ -90.181374, 35.094013 ], [ -90.176843, 35.112088 ], [ -90.172896837489304, 35.118059293570802 ], [ -90.172332, 35.118914 ], [ -90.167911639589207, 35.123065086344802 ], [ -90.167358, 35.123585 ], [ -90.154697, 35.130924 ], [ -90.15068, 35.132477 ], [ -90.141805, 35.133041 ], [ -90.1291, 35.128466 ], [ -90.106838, 35.119445 ], [ -90.095009, 35.117535 ], [ -90.089667, 35.118053 ], [ -90.086626525144396, 35.119465758972503 ], [ -90.082623, 35.121326 ], [ -90.075362649131407, 35.127300931531302 ], [ -90.075028759769395, 35.127575706967498 ], [ -90.073021, 35.129228 ], [ -90.066547, 35.136844 ], [ -90.065714248803005, 35.138403959568301 ], [ -90.065182, 35.139401 ], [ -90.064628710571498, 35.141871446739898 ], [ -90.06401, 35.144634 ], [ -90.065381, 35.151383 ], [ -90.0665291739856, 35.152992954774497 ], [ -90.066631603684399, 35.153136580378799 ], [ -90.066928973022996, 35.153553547835401 ], [ -90.068673, 35.155999 ], [ -90.068822111306901, 35.156048869415699 ], [ -90.078875, 35.159411 ], [ -90.101426, 35.171089 ], [ -90.105701497019496, 35.175129965741903 ], [ -90.106658, 35.176034 ], [ -90.108138, 35.181571 ], [ -90.11365, 35.183293 ], [ -90.116743, 35.186906 ], [ -90.117383, 35.190059 ], [ -90.11606, 35.19859 ], [ -90.108707, 35.199263 ], [ -90.097408, 35.194794 ], [ -90.096466, 35.194848 ], [ -90.093285, 35.203282 ], [ -90.08856, 35.212318 ], [ -90.08412, 35.210423 ], [ -90.080677, 35.208536 ], [ -90.078207, 35.209669 ], [ -90.077299510419806, 35.211118467122198 ], [ -90.075466, 35.214047 ], [ -90.074859, 35.218105 ], [ -90.07616, 35.221477 ], [ -90.080413, 35.226464 ], [ -90.084542, 35.231035 ], [ -90.086352, 35.238183 ], [ -90.092603, 35.246775 ], [ -90.094337, 35.24879 ], [ -90.097668, 35.25012 ], [ -90.105144, 35.254417 ], [ -90.112051, 35.255677 ], [ -90.117346, 35.255796 ], [ -90.127833, 35.253932 ], [ -90.139717, 35.252301 ], [ -90.145195319880898, 35.253347215564098 ], [ -90.14632, 35.253562 ], [ -90.152094, 35.255989 ], [ -90.158546653506207, 35.2626086565866 ], [ -90.158817, 35.262886 ], [ -90.166594, 35.274588 ], [ -90.168794, 35.279088 ], [ -90.168871, 35.281997 ], [ -90.165194, 35.293188 ], [ -90.163812, 35.296115 ], [ -90.161225, 35.298951 ], [ -90.157325, 35.301492 ], [ -90.151351, 35.303024 ], [ -90.148499, 35.302889 ], [ -90.139504, 35.298828 ], [ -90.129849, 35.301166 ], [ -90.123707, 35.30453 ], [ -90.122489, 35.304512 ], [ -90.117167, 35.303364 ], [ -90.109966, 35.304988 ], [ -90.108555, 35.311968 ], [ -90.103783, 35.324259 ], [ -90.100577, 35.333833 ], [ -90.100246425974504, 35.334962668097603 ], [ -90.096182, 35.348852 ], [ -90.093384, 35.354088 ], [ -90.087879, 35.360564 ], [ -90.08386, 35.365599 ], [ -90.078263, 35.37493 ], [ -90.078613, 35.380618 ], [ -90.080666, 35.385664 ], [ -90.080953383610705, 35.385911761359701 ], [ -90.084191, 35.388703 ], [ -90.093589, 35.393333 ], [ -90.102336, 35.399687 ], [ -90.107347, 35.404211 ], [ -90.111624, 35.409589 ], [ -90.11509, 35.411405 ], [ -90.129342, 35.41383 ], [ -90.134289, 35.413251 ], [ -90.139295, 35.410521 ], [ -90.14324, 35.406998 ], [ -90.145085, 35.403757 ], [ -90.146191, 35.399468 ], [ -90.14587, 35.395079 ], [ -90.143475, 35.387602 ], [ -90.13551, 35.376668 ], [ -90.146542, 35.373991 ], [ -90.156022, 35.374633 ], [ -90.165282, 35.373982 ], [ -90.172138, 35.377493 ], [ -90.178341, 35.382092 ], [ -90.179265, 35.385194 ], [ -90.1707, 35.410065 ], [ -90.170599, 35.418352 ], [ -90.16888, 35.421878 ], [ -90.140060434227905, 35.4366666127721 ], [ -90.129435, 35.442119 ], [ -90.123142, 35.459853 ], [ -90.120024, 35.4666 ], [ -90.114412, 35.472467 ], [ -90.107723, 35.476935 ], [ -90.10052, 35.478089 ], [ -90.090136990652596, 35.478499763723697 ], [ -90.088033, 35.478583 ], [ -90.079007, 35.476874 ], [ -90.072154, 35.470752 ], [ -90.067798, 35.466224 ], [ -90.067206, 35.460957 ], [ -90.071327, 35.450338 ], [ -90.074063, 35.439611 ], [ -90.074082, 35.433983 ], [ -90.070549, 35.423291 ], [ -90.062018, 35.41518 ], [ -90.069528, 35.408132 ], [ -90.054322, 35.389277 ], [ -90.045738110539602, 35.392620418597097 ], [ -90.044856, 35.392964 ], [ -90.041563, 35.39662 ], [ -90.044044, 35.396722 ], [ -90.056782, 35.403863 ], [ -90.048086, 35.411737 ], [ -90.021191, 35.420226 ], [ -90.013819, 35.423432 ], [ -90.003322, 35.429629 ], [ -90.002675, 35.430529 ], [ -90.004028, 35.443248 ], [ -90.006801, 35.453252 ], [ -90.011917, 35.462597 ], [ -90.014687574319296, 35.466367760962598 ], [ -90.019651, 35.473123 ], [ -90.027735, 35.477291 ], [ -90.035112, 35.482711 ], [ -90.043984, 35.494376 ], [ -90.047678, 35.50261 ], [ -90.050153, 35.515639 ], [ -90.04909, 35.522257 ], [ -90.046127, 35.529602 ], [ -90.042152, 35.536559 ], [ -90.039849, 35.547057 ], [ -90.038109, 35.549731 ], [ -90.034505, 35.552631 ], [ -90.028287, 35.555262 ], [ -90.023903, 35.556336 ], [ -90.019187428833206, 35.556092362156399 ], [ -90.017903, 35.556026 ], [ -90.008293, 35.560065 ], [ -90.000095465709293, 35.561004337280401 ], [ -89.998929, 35.561138 ], [ -89.991644, 35.560645 ], [ -89.989363, 35.560043 ], [ -89.97631, 35.553872 ], [ -89.958498, 35.541703 ], [ -89.956706, 35.539369 ], [ -89.955641, 35.534518 ], [ -89.95578, 35.533214 ], [ -89.957006, 35.531643 ], [ -89.958214, 35.526791 ], [ -89.958749, 35.523837 ], [ -89.952643, 35.521536 ], [ -89.935885562065593, 35.515736156901497 ], [ -89.935105, 35.515466 ], [ -89.928889, 35.512365 ], [ -89.924373, 35.511303 ], [ -89.918499, 35.511383 ], [ -89.911923, 35.512841 ], [ -89.908934, 35.51424 ], [ -89.904638, 35.519348 ], [ -89.902375, 35.525036 ], [ -89.90231, 35.530225 ], [ -89.904398, 35.535888 ], [ -89.90679, 35.537468 ], [ -89.909698, 35.537955 ], [ -89.911948, 35.535926 ], [ -89.913176, 35.536728 ], [ -89.909802, 35.543707 ], [ -89.910681, 35.547451 ], [ -89.912881, 35.549094 ], [ -89.916189, 35.549872 ], [ -89.919319, 35.549829 ], [ -89.924145, 35.550561 ], [ -89.929101, 35.551545 ], [ -89.941995, 35.556903 ], [ -89.946911, 35.56358 ], [ -89.954192, 35.575829 ], [ -89.95669, 35.581426 ], [ -89.957868, 35.584887 ], [ -89.957896, 35.587261 ], [ -89.956592, 35.590622 ], [ -89.953911, 35.594301 ], [ -89.951147, 35.597491 ], [ -89.945405, 35.601611 ], [ -89.932487, 35.608007 ], [ -89.924548023202405, 35.610616102648201 ], [ -89.919619, 35.612236 ], [ -89.911275, 35.617594 ], [ -89.910499, 35.61758 ], [ -89.904996, 35.616017 ], [ -89.899789, 35.615061 ], [ -89.894452, 35.615196 ], [ -89.890259, 35.616416 ], [ -89.874067, 35.626618 ], [ -89.872849, 35.627755 ], [ -89.863875, 35.630788 ], [ -89.856619, 35.634444 ], [ -89.85389, 35.638261 ], [ -89.853296134842594, 35.639986803781802 ], [ -89.851943965758494, 35.6439162791687 ], [ -89.851825, 35.644262 ], [ -89.850863, 35.650208 ], [ -89.851176, 35.657432 ], [ -89.853271, 35.662261 ], [ -89.858574, 35.668932 ], [ -89.8622, 35.670419 ], [ -89.86689, 35.670204 ], [ -89.876446, 35.666726 ], [ -89.878534, 35.66482 ], [ -89.88207, 35.65854 ], [ -89.88364, 35.656295 ], [ -89.886979, 35.653637 ], [ -89.89051, 35.652408 ], [ -89.898916, 35.650904 ], [ -89.906147, 35.651145 ], [ -89.919285, 35.655297 ], [ -89.92735, 35.659461 ], [ -89.930058555383795, 35.661547314544599 ], [ -89.934467, 35.664943 ], [ -89.939267, 35.670943 ], [ -89.940333, 35.673408 ], [ -89.950385, 35.68275 ], [ -89.953356709905904, 35.6868805642045 ], [ -89.955665, 35.690089 ], [ -89.956717, 35.694282 ], [ -89.957066, 35.711813 ], [ -89.958279836210906, 35.7193440125153 ], [ -89.958877, 35.723049 ], [ -89.958336, 35.72656 ], [ -89.953765, 35.730999 ], [ -89.944697, 35.735431 ], [ -89.940289, 35.739088 ], [ -89.939358156512199, 35.741319625765101 ], [ -89.938271, 35.743926 ], [ -89.931306930200506, 35.747286056679798 ], [ -89.921990998112904, 35.7517808507788 ], [ -89.919171352983795, 35.753141286231603 ], [ -89.915491, 35.754917 ], [ -89.911984, 35.758313 ], [ -89.911300455628094, 35.758386587030202 ], [ -89.906366899770504, 35.758917709425099 ], [ -89.906197, 35.758936 ], [ -89.902455, 35.755071 ], [ -89.894107, 35.750839 ], [ -89.889068, 35.751057 ], [ -89.871006, 35.75622 ], [ -89.863064, 35.757134 ], [ -89.852359, 35.755426 ], [ -89.850467, 35.746851 ], [ -89.846753, 35.744129 ], [ -89.838957, 35.742141 ], [ -89.825451, 35.745188 ], [ -89.816857, 35.748692 ], [ -89.800728, 35.757152 ], [ -89.79895, 35.759356 ], [ -89.799535, 35.773779 ], [ -89.797268, 35.779121 ], [ -89.796917, 35.781373 ], [ -89.799565, 35.788331 ], [ -89.796324, 35.792807 ], [ -89.781662, 35.805228 ], [ -89.765359, 35.809606 ], [ -89.765391, 35.811207 ], [ -89.758431, 35.810438 ], [ -89.742619, 35.805915 ], [ -89.737377, 35.805818 ], [ -89.734268, 35.803356 ], [ -89.730251, 35.802467 ], [ -89.72817, 35.802697 ], [ -89.716154, 35.807931 ], [ -89.714315699325695, 35.809038193564199 ], [ -89.701319, 35.816866 ], [ -89.696497, 35.820583 ], [ -89.694753431063106, 35.823787733694999 ], [ -89.693978, 35.825213 ], [ -89.693499, 35.831727 ], [ -89.694709, 35.834769 ], [ -89.69741, 35.836683 ], [ -89.712201, 35.842494 ], [ -89.72369, 35.846095 ], [ -89.749424, 35.852955 ], [ -89.762109, 35.857165 ], [ -89.768521, 35.860533 ], [ -89.772467, 35.865098 ], [ -89.773858, 35.86766 ], [ -89.774271, 35.870816 ], [ -89.773617, 35.875705 ], [ -89.771674, 35.883678 ], [ -89.767242, 35.890852 ], [ -89.756554841246995, 35.900323381968299 ], [ -89.751683, 35.904641 ], [ -89.748279, 35.908252 ], [ -89.743132, 35.911176 ], [ -89.733329, 35.911923 ], [ -89.727787, 35.911243 ], [ -89.714934, 35.906247 ], [ -89.700887, 35.89577 ], [ -89.693229, 35.890722 ], [ -89.676378, 35.876698 ], [ -89.669079, 35.87451 ], [ -89.663284, 35.874703 ], [ -89.657917, 35.876743 ], [ -89.649963, 35.881781 ], [ -89.645617, 35.885833 ], [ -89.643585, 35.889742 ], [ -89.642047, 35.895573 ], [ -89.641071855700403, 35.906236072149802 ], [ -89.641003, 35.906989 ], [ -89.642647, 35.915913 ], [ -89.644307, 35.920943 ], [ -89.650267, 35.927663 ], [ -89.654027, 35.930183 ], [ -89.664777, 35.934743 ], [ -89.669657, 35.937693 ], [ -89.675477, 35.941593 ], [ -89.695907, 35.950733 ], [ -89.714007, 35.959813 ], [ -89.718497, 35.963123 ], [ -89.721677, 35.967673 ], [ -89.724027, 35.980803 ], [ -89.722916, 35.989061 ], [ -89.727493, 35.992798 ], [ -89.731096, 35.99662 ], [ -89.733056, 36.000809 ], [ -89.706932, 36.000981 ], [ -89.705677, 36.005018 ], [ -89.703571, 36.00804 ], [ -89.692437, 36.020507 ], [ -89.688577, 36.029238 ], [ -89.687254, 36.034048 ], [ -89.685367154423702, 36.045892564184399 ], [ -89.684439, 36.051719 ], [ -89.681946, 36.072336 ], [ -89.680029, 36.082494 ], [ -89.678821, 36.084636 ], [ -89.672463, 36.091837 ], [ -89.666598, 36.095802 ], [ -89.657709, 36.099128 ], [ -89.64302, 36.10362 ], [ -89.628305, 36.106853 ], [ -89.625078, 36.108131 ], [ -89.621241563536401, 36.110322973999502 ], [ -89.615128, 36.113816 ], [ -89.612878996100704, 36.1147799075232 ], [ -89.601936, 36.11947 ], [ -89.598946, 36.121778 ], [ -89.594, 36.12719 ], [ -89.59307, 36.129699 ], [ -89.592102, 36.135637 ], [ -89.591605, 36.144096 ], [ -89.592206, 36.15012 ], [ -89.594397, 36.155457 ], [ -89.598644822670806, 36.161428491215197 ], [ -89.600871, 36.164558 ], [ -89.607004, 36.171179 ], [ -89.613993838188307, 36.176651176421998 ], [ -89.618228, 36.179966 ], [ -89.623804, 36.183128 ], [ -89.629452, 36.185382 ], [ -89.636893, 36.188951 ], [ -89.64479, 36.194101 ], [ -89.654876, 36.20153 ], [ -89.658172507997094, 36.203304878604399 ], [ -89.664144, 36.20652 ], [ -89.672537833054804, 36.211637273839102 ], [ -89.679548, 36.215911 ], [ -89.685092801076706, 36.219745991602302 ], [ -89.69263, 36.224959 ], [ -89.699677, 36.230821 ], [ -89.700393, 36.231516786700098 ], [ -89.704459, 36.235468 ], [ -89.70525, 36.236568 ], [ -89.705545, 36.238136 ], [ -89.705328, 36.239898 ], [ -89.703511, 36.243412 ], [ -89.700643716160499, 36.2472712677991 ], [ -89.699817, 36.248384 ], [ -89.698568, 36.250591 ], [ -89.695235, 36.252766 ], [ -89.693789419163494, 36.252513106179101 ], [ -89.691308, 36.252079 ], [ -89.686229, 36.249507 ], [ -89.678046, 36.248284 ], [ -89.652518, 36.250692 ], [ -89.642182, 36.249486 ], [ -89.63679, 36.248079 ], [ -89.624416, 36.243305 ], [ -89.611145, 36.239271 ], [ -89.60651, 36.238328 ], [ -89.602374, 36.238106 ], [ -89.587326, 36.239484 ], [ -89.577544, 36.242262 ], [ -89.573928, 36.243843 ], [ -89.564997, 36.250067 ], [ -89.562206, 36.250909 ], [ -89.557991, 36.251037 ], [ -89.553563, 36.250341 ], [ -89.548952, 36.2482 ], [ -89.544743, 36.247484 ], [ -89.541621, 36.247891 ], [ -89.539229, 36.248821 ], [ -89.534745, 36.252576 ], [ -89.534507, 36.261802 ], [ -89.535529, 36.270541 ], [ -89.537255254344103, 36.274352273570599 ], [ -89.537675, 36.275279 ], [ -89.539487, 36.277368 ], [ -89.544797, 36.280458 ], [ -89.546577, 36.280439 ], [ -89.549219, 36.27875 ], [ -89.554289, 36.277751 ], [ -89.578492, 36.288317 ], [ -89.584337, 36.29334 ], [ -89.58982, 36.296814 ], [ -89.611819, 36.309088 ], [ -89.619242, 36.320726 ], [ -89.620165746160694, 36.322805112780301 ], [ -89.620255, 36.323006 ], [ -89.6198, 36.329546 ], [ -89.615841, 36.336085 ], [ -89.610689, 36.340442 ], [ -89.605668, 36.342234 ], [ -89.600544, 36.342985 ], [ -89.581636, 36.342357 ], [ -89.560439, 36.337746 ], [ -89.545006, 36.336809 ], [ -89.538079, 36.337496 ], [ -89.531822, 36.339246 ], [ -89.527029, 36.341679 ], [ -89.522695, 36.344789 ], [ -89.519, 36.3486 ], [ -89.513178, 36.359897 ], [ -89.5111775125918, 36.367843959382697 ], [ -89.509722, 36.373626 ], [ -89.509558, 36.375065 ], [ -89.51038, 36.378356 ], [ -89.513956, 36.384891 ], [ -89.525293, 36.400446 ], [ -89.542337, 36.420103 ], [ -89.544221, 36.423684 ], [ -89.545255, 36.427079 ], [ -89.545503, 36.4307 ], [ -89.545061, 36.434915 ], [ -89.543406, 36.43877 ], [ -89.540868, 36.441559 ], [ -89.527274, 36.451545 ], [ -89.52519, 36.453991 ], [ -89.523427, 36.456572 ], [ -89.521021, 36.461934 ], [ -89.51972, 36.467002 ], [ -89.519675435396906, 36.468714786594902 ], [ -89.519501, 36.475419 ], [ -89.520642, 36.478668 ], [ -89.522674, 36.481305 ], [ -89.534524, 36.491432 ], [ -89.538506726418902, 36.496932358363601 ], [ -89.539232, 36.497934 ], [ -89.498036, 36.497887 ], [ -89.492537, 36.497775 ], [ -89.485427, 36.497491 ], [ -89.48671, 36.494954 ], [ -89.493495, 36.4787 ], [ -89.494248, 36.475972 ], [ -89.494074, 36.473225 ], [ -89.493198, 36.470124 ], [ -89.49067, 36.465528 ], [ -89.486215, 36.46162 ], [ -89.476532, 36.457846 ], [ -89.471718, 36.457001 ], [ -89.464153, 36.457189 ], [ -89.460436, 36.45814 ], [ -89.453081, 36.461285 ], [ -89.448468, 36.46442 ], [ -89.436763, 36.474432 ], [ -89.429311, 36.481875 ], [ -89.422942, 36.489381 ], [ -89.41977, 36.493896 ], [ -89.417275, 36.499011 ], [ -89.403913, 36.499141 ], [ -89.391044, 36.499079 ], [ -89.381792, 36.500062 ], [ -89.380085, 36.500416 ], [ -89.356593, 36.502195 ], [ -89.346053, 36.50321 ], [ -89.300284, 36.507147 ], [ -89.282298, 36.506782 ], [ -89.279091, 36.506511 ], [ -89.256343231665696, 36.506214897876802 ], [ -89.211409, 36.50563 ], [ -89.163429, 36.504526 ], [ -89.163224, 36.504522 ], [ -89.160257025451102, 36.5044622081409 ], [ -89.120002076277004, 36.5036509715733 ], [ -89.119805, 36.503647 ], [ -89.117537, 36.503603 ], [ -89.090146, 36.503392 ], [ -89.072406998235607, 36.503251292364503 ], [ -89.072118, 36.503249 ], [ -89.058871, 36.503157 ], [ -89.034649, 36.502964 ], [ -89.010439, 36.50271 ], [ -89.006825, 36.502684 ], [ -89.000063, 36.502633 ], [ -88.964471, 36.502191 ], [ -88.964166028731398, 36.502191126756401 ], [ -88.919841441582903, 36.502209549561698 ], [ -88.89951, 36.502218 ], [ -88.899344944978395, 36.502212326337101 ], [ -88.894555085905296, 36.502047677934499 ], [ -88.886277001623498, 36.501763123977398 ], [ -88.884557, 36.501704 ], [ -88.875789037470099, 36.502365699369101 ], [ -88.874725, 36.502446 ], [ -88.871609927974305, 36.502482356360701 ], [ -88.871545016716794, 36.502483113947399 ], [ -88.859294, 36.50262609696 ], [ -88.855256076357094, 36.502673224027099 ], [ -88.843562125468296, 36.502809705460997 ], [ -88.836544810724902, 36.502891605341297 ], [ -88.834865800811002, 36.502911201257398 ], [ -88.834626, 36.502914 ], [ -88.827301155561699, 36.502852430516903 ], [ -88.827012, 36.50285 ], [ -88.816765186036505, 36.502815243500699 ], [ -88.799594, 36.502757 ], [ -88.747523, 36.502834 ], [ -88.728360505038694, 36.502731857036899 ], [ -88.715266736637702, 36.502662062560503 ], [ -88.715255, 36.502662 ], [ -88.700548936607106, 36.502548149060203 ], [ -88.661464692362699, 36.502245567885502 ], [ -88.661133, 36.502243 ], [ -88.577283, 36.50194 ], [ -88.545192, 36.501814 ], [ -88.5448912453585, 36.501809985058799 ], [ -88.516427, 36.50143 ], [ -88.516345685948806, 36.5014314866172 ], [ -88.51227, 36.501506 ], [ -88.51192, 36.501457 ], [ -88.48921, 36.501068 ], [ -88.489075214643506, 36.5010676761135 ], [ -88.472564, 36.501028 ], [ -88.452543, 36.500872 ], [ -88.450161, 36.501101 ], [ -88.430106425818295, 36.500896307 ], [ -88.41636, 36.500756 ], [ -88.330799, 36.500531 ], [ -88.330391663655206, 36.500527013021099 ], [ -88.326057632053804, 36.500484591830897 ], [ -88.325895, 36.500483 ], [ -88.320928046588804, 36.500433340203102 ], [ -88.320794, 36.500432 ], [ -88.309323960596799, 36.5003197997965 ], [ -88.176057926660604, 36.499016188222498 ], [ -88.1377328246476, 36.498641291145702 ], [ -88.127378, 36.49854 ], [ -88.088223546029795, 36.497795161115903 ], [ -88.053291618015095, 36.497130647742701 ], [ -88.053205, 36.497129 ], [ -88.050466, 36.500053 ], [ -88.045304, 36.504081 ], [ -88.039481, 36.510408 ], [ -88.037822, 36.51385 ], [ -88.037329, 36.51783 ], [ -88.03783, 36.521015 ], [ -88.03727, 36.523783 ], [ -88.035854, 36.525912 ], [ -88.034132, 36.53112 ], [ -88.032489, 36.540662 ], [ -88.033802, 36.551733 ], [ -88.035625, 36.561736 ], [ -88.039625, 36.572783 ], [ -88.041196, 36.584123 ], [ -88.045127, 36.602939 ], [ -88.055738, 36.630475 ], [ -88.055653776285894, 36.633765381666102 ], [ -88.055604, 36.63571 ], [ -88.057042, 36.64054 ], [ -88.05858, 36.643315 ], [ -88.064401, 36.650854 ], [ -88.068208, 36.659747 ], [ -88.070532, 36.678118 ], [ -88.044772, 36.677983 ], [ -88.011792, 36.677025 ], [ -87.912313069972797, 36.668527322272901 ], [ -87.911941277302802, 36.6684955630422 ], [ -87.902003759245801, 36.667646681516899 ], [ -87.872062, 36.665089 ], [ -87.849567, 36.663701 ], [ -87.853204, 36.633247 ], [ -87.802098080796199, 36.634615656067801 ], [ -87.801843072862098, 36.634622485377598 ], [ -87.797501077985302, 36.634738767360702 ], [ -87.796763907071494, 36.634758509368297 ], [ -87.744768, 36.636151 ], [ -87.694191328388996, 36.637071081703802 ], [ -87.64115, 36.638036 ], [ -87.564928, 36.639113 ], [ -87.563052, 36.639113 ], [ -87.475676001798703, 36.6402412519069 ], [ -87.475463704721307, 36.640243993215599 ], [ -87.460898206074404, 36.640432071772203 ], [ -87.451628421677199, 36.640551768853101 ], [ -87.436509, 36.640747 ], [ -87.436325649311797, 36.640751783061503 ], [ -87.436321544959895, 36.640751890131497 ], [ -87.426206949977299, 36.641015749131 ], [ -87.425009, 36.641047 ], [ -87.414309, 36.641047 ], [ -87.414295970911795, 36.641047076983902 ], [ -87.409447832502195, 36.641075722788401 ], [ -87.398353641194007, 36.6411412741421 ], [ -87.393494051530197, 36.641169987607697 ], [ -87.386283459220607, 36.641212592253098 ], [ -87.362762613948604, 36.641351567975001 ], [ -87.355869150924406, 36.641392298824101 ], [ -87.347796, 36.64144 ], [ -87.347662254283904, 36.6414425544884 ], [ -87.344131, 36.64151 ], [ -87.339230640562405, 36.641529640562297 ], [ -87.335979533754994, 36.6415426709465 ], [ -87.314949244438694, 36.641626960010299 ], [ -87.285586998948503, 36.641744643421397 ], [ -87.281506, 36.641761 ], [ -87.278398, 36.641718 ], [ -87.275215625728094, 36.641730732395501 ], [ -87.248362452781294, 36.641838169544499 ], [ -87.247655, 36.641841 ], [ -87.231037, 36.641888 ], [ -87.23053, 36.641895 ], [ -87.2035604632039, 36.642016131155998 ], [ -87.197961253189604, 36.6420412794849 ], [ -87.197758821623196, 36.642042188687299 ], [ -87.1743840726663, 36.642147174189397 ], [ -87.167997511386304, 36.642175858832999 ], [ -87.150957155725195, 36.6422523939992 ], [ -87.114976, 36.642414 ], [ -87.060845815014204, 36.643217157286799 ], [ -87.011522, 36.643949 ], [ -86.987465090576407, 36.644477642669798 ], [ -86.980887541619595, 36.644622182144097 ], [ -86.919790961598196, 36.645964759389301 ], [ -86.906583, 36.646255 ], [ -86.906023, 36.646302 ], [ -86.854268, 36.646884 ], [ -86.854038171026602, 36.646887548725701 ], [ -86.854025529846098, 36.646887743914697 ], [ -86.833155, 36.64721 ], [ -86.818405, 36.647639 ], [ -86.816186, 36.647722 ], [ -86.813037, 36.647647 ], [ -86.763294813570297, 36.648907168479298 ], [ -86.75892, 36.649018 ], [ -86.713786, 36.649341 ], [ -86.699117566017094, 36.649718801776601 ], [ -86.679072830645097, 36.6502350761549 ], [ -86.653017764919099, 36.6509061532538 ], [ -86.606394, 36.652107 ], [ -86.605042, 36.652125 ], [ -86.594227832915394, 36.652382922457498 ], [ -86.589906, 36.652486 ], [ -86.577933437101706, 36.643649827545403 ], [ -86.571446816719799, 36.6388624735904 ], [ -86.571188058507204, 36.638671500929803 ], [ -86.571186186594204, 36.638670119392202 ], [ -86.567263542641001, 36.635775070208297 ], [ -86.564143, 36.633472 ], [ -86.563915748419106, 36.633551805959399 ], [ -86.563893568476402, 36.633559595087199 ], [ -86.555438587112903, 36.636528806113098 ], [ -86.551292, 36.637985 ], [ -86.550317910604804, 36.6433605886495 ], [ -86.550056796240995, 36.644801568724802 ], [ -86.550054, 36.644817 ], [ -86.545724561589395, 36.644214931382102 ], [ -86.543388, 36.64389 ], [ -86.543777, 36.640536 ], [ -86.536280306142999, 36.643015534720398 ], [ -86.507771, 36.652445 ], [ -86.473917841255698, 36.651680503738497 ], [ -86.473497, 36.651671 ], [ -86.473413, 36.651676 ], [ -86.47219, 36.651763 ], [ -86.468497, 36.651841 ], [ -86.459672989408503, 36.651648677223001 ], [ -86.411386143517404, 36.650596246449297 ], [ -86.411052400762301, 36.6505889723948 ], [ -86.374991, 36.649803 ], [ -86.373784, 36.650126 ], [ -86.359073, 36.649845 ], [ -86.333051, 36.648778 ], [ -86.296185476125203, 36.645599841520102 ], [ -86.293357, 36.645356 ], [ -86.264420106921904, 36.643541500834303 ], [ -86.222151, 36.640891 ], [ -86.219081, 36.640824 ], [ -86.21641, 36.640595 ], [ -86.216183, 36.640527 ], [ -86.205468610001205, 36.6397833130926 ], [ -86.204859, 36.639741 ], [ -86.197573, 36.639363 ], [ -86.1650459242246, 36.637811600066598 ], [ -86.128116321959993, 36.6360502187826 ], [ -86.094334870060095, 36.634438990568 ], [ -86.081944, 36.633848 ], [ -86.080666, 36.63394 ], [ -86.038366, 36.630804 ], [ -86.033139, 36.630413 ], [ -86.03277, 36.630367 ], [ -86.002972858981707, 36.629447570158597 ], [ -85.979124477302193, 36.628711697083702 ], [ -85.9764138326519, 36.628628056590102 ], [ -85.975845622259101, 36.628610523713697 ], [ -85.972921448646701, 36.628520294504099 ], [ -85.959981, 36.628121 ], [ -85.920728016658501, 36.626079593279599 ], [ -85.9194944925774, 36.6260154421213 ], [ -85.873857, 36.623642 ], [ -85.832172, 36.622046 ], [ -85.831973362359307, 36.622048408356797 ], [ -85.80149, 36.622418 ], [ -85.788645, 36.621846 ], [ -85.788612995121497, 36.6218452013294 ], [ -85.745219237935899, 36.620762325223303 ], [ -85.731862, 36.620429 ], [ -85.677789, 36.618157 ], [ -85.665916026051093, 36.617932798165498 ], [ -85.665347626840102, 36.617922064869298 ], [ -85.587060838849098, 36.6164437459949 ], [ -85.552017, 36.615782 ], [ -85.551483, 36.615727 ], [ -85.508590271723804, 36.615228974182997 ], [ -85.502290658021494, 36.615155829610799 ], [ -85.488353, 36.614994 ], [ -85.436433034201599, 36.618523095391197 ], [ -85.430123, 36.618952 ], [ -85.413352567413796, 36.619650600609503 ], [ -85.334124, 36.622951 ], [ -85.324654, 36.62455 ], [ -85.300402, 36.624437 ], [ -85.296073, 36.625824 ], [ -85.2959488756198, 36.6258382676941 ], [ -85.290627, 36.62645 ], [ -85.276372894246194, 36.6265106430779 ], [ -85.276289, 36.626511 ], [ -85.213285333275095, 36.625722257036301 ], [ -85.203827139469794, 36.6256038498991 ], [ -85.195372, 36.625498 ], [ -85.188166800321298, 36.625279108409302 ], [ -85.186269590730902, 36.6252214718074 ], [ -85.170138781001498, 36.624731423126001 ], [ -85.096128, 36.622483 ], [ -85.086415, 36.621913 ], [ -85.024627, 36.619354 ], [ -84.986448, 36.616668 ], [ -84.974875057622199, 36.615551823745697 ], [ -84.943948, 36.612569 ], [ -84.912583936758594, 36.610306735184302 ], [ -84.859738, 36.606495 ], [ -84.859759, 36.606428 ], [ -84.843091, 36.605127 ], [ -84.803744, 36.604265 ], [ -84.785399556603906, 36.6033748414415 ], [ -84.785341, 36.603372 ], [ -84.778455916990794, 36.603209017866398 ], [ -84.642216464834505, 36.599983988254401 ], [ -84.624939, 36.599575 ], [ -84.605190883728596, 36.598778808175197 ], [ -84.562402412903296, 36.597053690184197 ], [ -84.543138, 36.596277 ], [ -84.5209215590057, 36.596483222056399 ], [ -84.499938, 36.596678 ], [ -84.450109053187504, 36.596155285176401 ], [ -84.442837, 36.596079 ], [ -84.439102667516295, 36.595987697995298 ], [ -84.439101181486905, 36.595987661662797 ], [ -84.435935769235499, 36.595910269388398 ], [ -84.434914331808699, 36.595885295906498 ], [ -84.417993868254896, 36.595471601558103 ], [ -84.271176, 36.591882 ], [ -84.261333, 36.591981 ], [ -84.227332, 36.592181 ], [ -84.227193653463104, 36.592179935678601 ], [ -84.226830952612602, 36.592177145364602 ], [ -84.201315855392707, 36.591980853759303 ], [ -84.197614173938604, 36.591952376149003 ], [ -84.149108398289997, 36.591579213684298 ], [ -84.144732281314802, 36.591545547536803 ], [ -84.127503, 36.591413 ], [ -84.126121479887303, 36.591395065888399 ], [ -84.104643234129895, 36.5911162474669 ], [ -84.104061616248302, 36.591108697232997 ], [ -84.050945551834403, 36.590419174569 ], [ -84.024288585068504, 36.590073128924601 ], [ -84.021218327885606, 36.590033272584797 ], [ -83.987842, 36.5896 ], [ -83.987610950682793, 36.589592286072502 ], [ -83.930760783943896, 36.5876942581124 ], [ -83.894421, 36.586481 ], [ -83.840463400786206, 36.5851500281398 ], [ -83.789017, 36.583881 ], [ -83.690798043373505, 36.582582111424699 ], [ -83.690714, 36.582581 ], [ -83.688814, 36.584382 ], [ -83.687514, 36.587182 ], [ -83.683014, 36.592182 ], [ -83.679514, 36.594082 ], [ -83.677114, 36.596582 ], [ -83.676138239699796, 36.5978830137336 ], [ -83.675614, 36.598582 ], [ -83.675395, 36.600784 ], [ -83.670141, 36.600797 ], [ -83.670128, 36.600764 ], [ -83.660368169088002, 36.600460968822603 ], [ -83.649721645829302, 36.600130406899297 ], [ -83.645586, 36.600002 ], [ -83.625551026876394, 36.598308424404102 ], [ -83.622624, 36.598061 ], [ -83.6220922793228, 36.598055530420602 ], [ -83.622050248072, 36.598055098063398 ], [ -83.595216772936695, 36.597779073772699 ], [ -83.55681, 36.597384 ], [ -83.472108, 36.597284 ], [ -83.455507987847596, 36.597301419049003 ], [ -83.374904, 36.597386 ], [ -83.346815782064596, 36.597614171905498 ], [ -83.3082877900125, 36.597927150300201 ], [ -83.284903952125802, 36.598117106632102 ], [ -83.2763, 36.598187 ], [ -83.261099, 36.593887 ], [ -83.250304, 36.593935 ], [ -83.249899, 36.593898 ], [ -83.248933, 36.593827 ], [ -83.225469558932303, 36.593834020651002 ], [ -83.211581977910598, 36.593838176045701 ], [ -83.207243756579601, 36.593839474113601 ], [ -83.174647141396505, 36.593849227561797 ], [ -83.101715581275599, 36.593871049895 ], [ -83.028357, 36.593893 ], [ -83.02725, 36.593847 ], [ -82.985123549262497, 36.593730214878299 ], [ -82.9617413121737, 36.593665393433497 ], [ -82.888013, 36.593461 ], [ -82.830433, 36.593761 ], [ -82.828278466880604, 36.593759991960198 ], [ -82.796805116421098, 36.593745266546897 ], [ -82.699544998708006, 36.593699761527198 ], [ -82.69578, 36.593698 ], [ -82.688144783783798, 36.593698 ], [ -82.679879, 36.593698 ], [ -82.654077458959506, 36.593844336335899 ], [ -82.650857360711598, 36.593862599484503 ], [ -82.632712533004096, 36.593965509911399 ], [ -82.609599417422402, 36.594096598540602 ], [ -82.609273829602898, 36.594098445148397 ], [ -82.609176, 36.594099 ], [ -82.593406992522603, 36.594333688737898 ], [ -82.587832619897497, 36.594416651630603 ], [ -82.5738607976201, 36.594624593020697 ], [ -82.572134763217093, 36.594650281437403 ], [ -82.572130242777007, 36.594650348714701 ], [ -82.571746834260793, 36.594656054949603 ], [ -82.562075, 36.5948 ], [ -82.554001, 36.594779 ], [ -82.549182565175002, 36.594877814767003 ], [ -82.545571488889706, 36.594951869449602 ], [ -82.536154, 36.595145 ], [ -82.520720101486205, 36.595313528684201 ], [ -82.517253494329395, 36.595351381903399 ], [ -82.4938202418749, 36.595607258615303 ], [ -82.491646, 36.595631 ], [ -82.487117339073194, 36.595687373372499 ], [ -82.481524, 36.595757 ], [ -82.466613, 36.594481 ], [ -82.465640043372403, 36.594488015328302 ], [ -82.386909286172198, 36.5950556892547 ], [ -82.296995, 36.595704 ], [ -82.294139192401104, 36.595705583357002 ], [ -82.293800360834894, 36.595705771216799 ], [ -82.290403497491198, 36.5957076545535 ], [ -82.272647038532796, 36.595717499338903 ], [ -82.265820045066903, 36.595721284456502 ], [ -82.244090048420006, 36.595733332306601 ], [ -82.2426815243427, 36.595734113240297 ], [ -82.239447933415804, 36.5957359060532 ], [ -82.235065037333399, 36.595738336080103 ], [ -82.226653, 36.595743 ], [ -82.225716, 36.595744 ], [ -82.223445, 36.595721 ], [ -82.221713, 36.595814 ], [ -82.211005, 36.59586 ], [ -82.210660865928602, 36.5958003862238 ], [ -82.210497, 36.595772 ], [ -82.208995015733805, 36.595731525735303 ], [ -82.198114021454401, 36.595438313447403 ], [ -82.191578889506999, 36.595262209964503 ], [ -82.189757457027497, 36.595213127466103 ], [ -82.189738932129202, 36.595212628272002 ], [ -82.188491, 36.595179 ], [ -82.180819883846596, 36.594930586872103 ], [ -82.18074, 36.594928 ], [ -82.180085035246606, 36.594897998751598 ], [ -82.180083324288304, 36.594897920379601 ], [ -82.177377411089594, 36.594773973597 ], [ -82.177247, 36.594768 ], [ -82.173982, 36.594607 ], [ -82.173846865448198, 36.5946073835253 ], [ -82.1574269233286, 36.594653984952103 ], [ -82.1512694710039, 36.594671460413402 ], [ -82.150727, 36.594673 ], [ -82.148569, 36.594718 ], [ -82.145573033103602, 36.594710944090998 ], [ -82.138541911749201, 36.594694384845198 ], [ -82.125665042255704, 36.594664058068503 ], [ -82.107843284139804, 36.594622085407401 ], [ -82.102299461873699, 36.594609028953002 ], [ -82.097875881210399, 36.594598610819702 ], [ -82.053729877523097, 36.594494640984699 ], [ -82.046728934812293, 36.5944781528137 ], [ -82.019463651301294, 36.594413939367598 ], [ -82.014228210527506, 36.594401609193497 ], [ -81.934144, 36.594213 ], [ -81.922644, 36.616213 ], [ -81.919729202633604, 36.616152273788501 ], [ -81.869387636090806, 36.6151034692802 ], [ -81.826742, 36.614215 ], [ -81.770526062744594, 36.613065666345904 ], [ -81.754636121429897, 36.612740796830202 ], [ -81.73694, 36.612379 ], [ -81.6469, 36.611918 ], [ -81.677535, 36.588117 ], [ -81.680137, 36.585518 ], [ -81.679401192033893, 36.581107162056099 ], [ -81.679036, 36.578918 ], [ -81.677236, 36.574406 ], [ -81.677036, 36.570718 ], [ -81.679936, 36.568618 ], [ -81.686436, 36.567918 ], [ -81.690236, 36.568718 ], [ -81.692506, 36.565748 ], [ -81.692167, 36.562695 ], [ -81.690132, 36.559643 ], [ -81.689115, 36.555912 ], [ -81.69003, 36.552154 ], [ -81.693844, 36.549083 ], [ -81.697539, 36.544359 ], [ -81.699962, 36.539714 ], [ -81.699962, 36.536829 ], [ -81.707963, 36.536209 ], [ -81.708262, 36.532113 ], [ -81.707573, 36.526101 ], [ -81.706831589724501, 36.525248451882 ], [ -81.702543, 36.520317 ], [ -81.700553, 36.51519 ], [ -81.700093, 36.514158 ], [ -81.699601, 36.512883 ], [ -81.699446, 36.511504 ], [ -81.697744, 36.508448 ], [ -81.697829, 36.507544 ], [ -81.69729, 36.504887 ], [ -81.69797, 36.504063 ], [ -81.699923, 36.500865 ], [ -81.700238, 36.500475 ], [ -81.699928, 36.498018 ], [ -81.698265, 36.497221 ], [ -81.697364315567896, 36.496252136268303 ], [ -81.697261, 36.496141 ], [ -81.696835, 36.493393 ], [ -81.695907, 36.49158 ], [ -81.697287, 36.484738 ], [ -81.696281, 36.475499 ], [ -81.694829, 36.474463 ], [ -81.694533, 36.473283 ], [ -81.695311, 36.467912 ], [ -81.695396905392698, 36.467809745495401 ], [ -81.695398320010099, 36.467808061654601 ], [ -81.697975, 36.464741 ], [ -81.699223, 36.463959 ], [ -81.701076, 36.464212 ], [ -81.708247, 36.462217 ], [ -81.71489, 36.45722 ], [ -81.715082, 36.453365 ], [ -81.715078995301397, 36.453356090415603 ], [ -81.714277, 36.450978 ], [ -81.713736, 36.447114 ], [ -81.717443, 36.445159 ], [ -81.717182, 36.443894 ], [ -81.714186, 36.441458 ], [ -81.715434, 36.438571 ], [ -81.714564, 36.437107 ], [ -81.721228, 36.433947 ], [ -81.717561, 36.430395 ], [ -81.717939, 36.428762 ], [ -81.7201160064064, 36.423913390025 ], [ -81.720734, 36.422537 ], [ -81.723435, 36.422237 ], [ -81.723992, 36.420502 ], [ -81.727164, 36.419925 ], [ -81.727498, 36.418371 ], [ -81.729164, 36.417669 ], [ -81.729924, 36.415422 ], [ -81.733392, 36.414887 ], [ -81.734312, 36.413342 ], [ -81.734297, 36.412597 ], [ -81.735434, 36.412302 ], [ -81.737298, 36.413591 ], [ -81.740651, 36.413141 ], [ -81.741995, 36.41096 ], [ -81.740123, 36.40811 ], [ -81.740539, 36.404868 ], [ -81.741339, 36.404297 ], [ -81.741364, 36.403169 ], [ -81.740756, 36.402519 ], [ -81.740651, 36.401743 ], [ -81.739648, 36.401599 ], [ -81.738656, 36.401205 ], [ -81.739194, 36.398279 ], [ -81.738718, 36.394803 ], [ -81.733877, 36.39457 ], [ -81.730987, 36.393909 ], [ -81.72857, 36.391242 ], [ -81.728585547934202, 36.391218721207501 ], [ -81.730193, 36.388812 ], [ -81.730105, 36.386426 ], [ -81.729306, 36.3856 ], [ -81.730737, 36.382943 ], [ -81.733585, 36.382034 ], [ -81.734611, 36.37957 ], [ -81.732414, 36.377927 ], [ -81.731178, 36.374062 ], [ -81.726082, 36.368893 ], [ -81.724047, 36.364293 ], [ -81.724047, 36.360901 ], [ -81.72432, 36.357758 ], [ -81.723216, 36.354765 ], [ -81.721455, 36.351167 ], [ -81.717405, 36.347779 ], [ -81.713236, 36.346659 ], [ -81.708669, 36.346402 ], [ -81.707785, 36.346007 ], [ -81.705299, 36.341852 ], [ -81.705966, 36.338496 ], [ -81.706971, 36.337253 ], [ -81.707290136425598, 36.335830211909801 ], [ -81.707438, 36.335171 ], [ -81.713237, 36.336049 ], [ -81.717186, 36.336169 ], [ -81.71831, 36.336055 ], [ -81.721015, 36.338645 ], [ -81.723572, 36.338942 ], [ -81.724633, 36.339908 ], [ -81.725938, 36.340364 ], [ -81.728092, 36.34144 ], [ -81.730976, 36.341187 ], [ -81.735957, 36.342987 ], [ -81.739498, 36.339757 ], [ -81.740337608401106, 36.339422205515604 ], [ -81.744461, 36.337778 ], [ -81.747842, 36.337356 ], [ -81.750227, 36.337857 ], [ -81.751277, 36.337193 ], [ -81.75442, 36.337044 ], [ -81.756821, 36.338954 ], [ -81.759393, 36.34005 ], [ -81.762035, 36.340187 ], [ -81.764927, 36.338672 ], [ -81.768977, 36.341042 ], [ -81.769006, 36.342283 ], [ -81.771677, 36.343572 ], [ -81.772955, 36.343375 ], [ -81.77484, 36.344481 ], [ -81.778913, 36.34864 ], [ -81.781318, 36.347656 ], [ -81.784077, 36.347674 ], [ -81.788636196041196, 36.3480862860022 ], [ -81.789385, 36.348154 ], [ -81.790525, 36.350845 ], [ -81.790614357679203, 36.352055861304997 ], [ -81.790732, 36.35365 ], [ -81.7908, 36.355907 ], [ -81.793044, 36.357801 ], [ -81.793597, 36.362209 ], [ -81.795684, 36.361241 ], [ -81.796531297656699, 36.359771092931503 ], [ -81.797166, 36.35867 ], [ -81.800812, 36.358073 ], [ -81.808255, 36.354121 ], [ -81.812904, 36.351066 ], [ -81.822493, 36.348819 ], [ -81.833202, 36.347339 ], [ -81.841268, 36.343321 ], [ -81.845638, 36.34036 ], [ -81.850889, 36.3375 ], [ -81.857333, 36.334787 ], [ -81.862652551867697, 36.330599053576897 ], [ -81.863148, 36.330209 ], [ -81.874336, 36.31919 ], [ -81.876182, 36.316075 ], [ -81.879382, 36.313767 ], [ -81.887243, 36.309193 ], [ -81.894569, 36.307183 ], [ -81.897701, 36.307446 ], [ -81.908137, 36.302013 ], [ -81.918111258658101, 36.287113206280203 ], [ -81.932994, 36.264881 ], [ -81.933019683861005, 36.264842650423397 ], [ -81.938897, 36.256067 ], [ -81.960101, 36.228131 ], [ -81.970805896881302, 36.212379249165899 ], [ -81.975723186798504, 36.205143688990603 ], [ -81.976043498466296, 36.204672365479801 ], [ -81.989700717494699, 36.184576411860903 ], [ -81.999437122236003, 36.170249751529099 ], [ -82.016520466166099, 36.145112416720103 ], [ -82.019323156885505, 36.1409883895234 ], [ -82.02664, 36.130222 ], [ -82.02634, 36.129222 ], [ -82.02874, 36.124322 ], [ -82.033141, 36.120422 ], [ -82.033832032724206, 36.1205227756056 ], [ -82.037941, 36.121122 ], [ -82.043941, 36.125421 ], [ -82.054142, 36.126821 ], [ -82.055322314402005, 36.125019467491597 ], [ -82.056042, 36.123921 ], [ -82.056042, 36.120721 ], [ -82.061342, 36.113121 ], [ -82.067142, 36.11202 ], [ -82.079743, 36.10652 ], [ -82.080143, 36.10572 ], [ -82.080944957900996, 36.105761480581101 ], [ -82.085943, 36.10602 ], [ -82.098544, 36.105719 ], [ -82.101644, 36.106219 ], [ -82.105444, 36.108119 ], [ -82.109145, 36.107218 ], [ -82.110445935957401, 36.106663502706702 ], [ -82.115245, 36.104618 ], [ -82.127146, 36.104417 ], [ -82.130030861538501, 36.1060654923077 ], [ -82.130646, 36.106417 ], [ -82.137974, 36.119576 ], [ -82.136546, 36.123717 ], [ -82.136547, 36.128817 ], [ -82.140847, 36.136216 ], [ -82.141029687541703, 36.136658878889001 ], [ -82.144147, 36.144216 ], [ -82.147948, 36.149516 ], [ -82.1484717152983, 36.149424284358403 ], [ -82.155948, 36.148115 ], [ -82.160883, 36.146548 ], [ -82.169249, 36.146614 ], [ -82.172149, 36.146414 ], [ -82.173849, 36.145314 ], [ -82.174649, 36.143614 ], [ -82.176849, 36.142214 ], [ -82.178861, 36.143296 ], [ -82.180349, 36.143914 ], [ -82.182549, 36.143714 ], [ -82.18365, 36.144414 ], [ -82.18475, 36.145414 ], [ -82.18545, 36.147214 ], [ -82.18685, 36.149113 ], [ -82.18685, 36.150013 ], [ -82.187509, 36.151098 ], [ -82.190274, 36.150101 ], [ -82.19195, 36.148813 ], [ -82.19535, 36.150013 ], [ -82.199251, 36.152713 ], [ -82.201812, 36.154963 ], [ -82.204872, 36.157067 ], [ -82.211251, 36.159012 ], [ -82.213852, 36.159112 ], [ -82.218451, 36.157832 ], [ -82.222052, 36.156911 ], [ -82.223232, 36.154772 ], [ -82.224852, 36.150011 ], [ -82.228288, 36.146622 ], [ -82.233063482109998, 36.143031048427197 ], [ -82.234807, 36.14172 ], [ -82.235479, 36.140748 ], [ -82.236415, 36.139926 ], [ -82.237737, 36.139189 ], [ -82.241553, 36.137111 ], [ -82.243353, 36.134311 ], [ -82.244461, 36.132777 ], [ -82.245702527585394, 36.132001248123103 ], [ -82.247521, 36.130865 ], [ -82.251853, 36.13221 ], [ -82.253253, 36.13371 ], [ -82.256319, 36.133925 ], [ -82.260353, 36.13371 ], [ -82.263354, 36.13011 ], [ -82.26569, 36.127614 ], [ -82.26875, 36.12704 ], [ -82.270954, 36.12761 ], [ -82.274054, 36.12941 ], [ -82.278654, 36.12851 ], [ -82.280354, 36.12881 ], [ -82.288455, 36.13541 ], [ -82.289455, 36.13571 ], [ -82.297311369034404, 36.133602193673703 ], [ -82.297655, 36.13351 ], [ -82.302855, 36.13131 ], [ -82.307255, 36.12851 ], [ -82.308655, 36.12651 ], [ -82.318156, 36.12091 ], [ -82.321448, 36.119551 ], [ -82.325169, 36.119363 ], [ -82.325598607338193, 36.119155485078103 ], [ -82.329177, 36.117427 ], [ -82.332289, 36.116935 ], [ -82.336756, 36.114909 ], [ -82.346857, 36.115209 ], [ -82.348422, 36.115929 ], [ -82.349957, 36.117109 ], [ -82.355157, 36.115609 ], [ -82.360357, 36.111609 ], [ -82.360919, 36.110614 ], [ -82.360985289442894, 36.110579205966197 ], [ -82.366566, 36.10765 ], [ -82.371383, 36.106388 ], [ -82.373960464341494, 36.105907079108498 ], [ -82.375558, 36.105609 ], [ -82.378758, 36.102809 ], [ -82.380458, 36.099309 ], [ -82.389958, 36.096909 ], [ -82.404458, 36.087609 ], [ -82.409458, 36.083409 ], [ -82.416660288916503, 36.072774370271503 ], [ -82.416660772701903, 36.072773655932203 ], [ -82.460558911467203, 36.007955310411702 ], [ -82.460658, 36.007809 ], [ -82.464558, 36.006508 ], [ -82.47419, 36.000108 ], [ -82.482292, 35.997823 ], [ -82.483498, 35.996284 ], [ -82.483666, 35.993866 ], [ -82.484678, 35.992849 ], [ -82.487411, 35.991634 ], [ -82.487451, 35.991557 ], [ -82.500206, 35.982561 ], [ -82.505384, 35.97768 ], [ -82.505454150453104, 35.9776714603071 ], [ -82.507068, 35.977475 ], [ -82.512598, 35.975664 ], [ -82.516444, 35.975958 ], [ -82.52066, 35.974633 ], [ -82.522702, 35.973436 ], [ -82.531292, 35.972188 ], [ -82.534763, 35.969887 ], [ -82.539273, 35.969115 ], [ -82.539685591608603, 35.9689700109112 ], [ -82.542463, 35.967994 ], [ -82.549682, 35.964275 ], [ -82.553192, 35.960627 ], [ -82.557874, 35.953901 ], [ -82.567503, 35.955552 ], [ -82.57517, 35.958384 ], [ -82.576678, 35.959255 ], [ -82.577719, 35.964196 ], [ -82.581003, 35.965557 ], [ -82.591977, 35.966385 ], [ -82.59486, 35.965347 ], [ -82.60037, 35.964626 ], [ -82.607761, 35.966023 ], [ -82.609424193132796, 35.966759951944397 ], [ -82.610421808749507, 35.967201990066101 ], [ -82.610889, 35.967409 ], [ -82.611602, 35.971418 ], [ -82.610885, 35.974442 ], [ -82.60674, 35.984446 ], [ -82.604239, 35.987319 ], [ -82.606944, 35.99217 ], [ -82.612604, 35.993488 ], [ -82.613028, 35.994 ], [ -82.615062, 36.000306 ], [ -82.614362, 36.003506 ], [ -82.613862, 36.004706 ], [ -82.611862, 36.006206 ], [ -82.608462, 36.008307 ], [ -82.607563, 36.010207 ], [ -82.609363, 36.011407 ], [ -82.608263, 36.015307 ], [ -82.606964, 36.016307 ], [ -82.6033, 36.01734 ], [ -82.602864, 36.017907 ], [ -82.603963, 36.021307 ], [ -82.601763, 36.024307 ], [ -82.600163, 36.025706 ], [ -82.594873, 36.029598 ], [ -82.590763, 36.031906 ], [ -82.590963, 36.033606 ], [ -82.591964, 36.035706 ], [ -82.596042, 36.036606 ], [ -82.600064, 36.036293 ], [ -82.601763, 36.036006 ], [ -82.601663, 36.038006 ], [ -82.602877, 36.039833 ], [ -82.606163, 36.041006 ], [ -82.609663, 36.044906 ], [ -82.613563, 36.046406 ], [ -82.618164, 36.047005 ], [ -82.618064, 36.051205 ], [ -82.617264, 36.054205 ], [ -82.618664, 36.056105 ], [ -82.628365, 36.062105 ], [ -82.632265, 36.065705 ], [ -82.637165, 36.065805 ], [ -82.643565, 36.062805 ], [ -82.647290211591795, 36.059982870006202 ], [ -82.650165, 36.057805 ], [ -82.654815, 36.056225 ], [ -82.657249, 36.056636 ], [ -82.662665, 36.055005 ], [ -82.668365, 36.052905 ], [ -82.672965, 36.050405 ], [ -82.683565, 36.046104 ], [ -82.684765, 36.045004 ], [ -82.685565, 36.042004 ], [ -82.688865, 36.038604 ], [ -82.701065, 36.034404 ], [ -82.703165, 36.032404 ], [ -82.707465, 36.030104 ], [ -82.715165, 36.028604 ], [ -82.715565, 36.026904 ], [ -82.715365, 36.024253 ], [ -82.715965, 36.022804 ], [ -82.725065, 36.018204 ], [ -82.727865, 36.018504 ], [ -82.731865, 36.017604 ], [ -82.750065, 36.006004 ], [ -82.754465, 36.004304 ], [ -82.759165, 36.004203 ], [ -82.765365, 36.003003 ], [ -82.776001, 36.000103 ], [ -82.777283, 35.998811 ], [ -82.778589, 35.997001 ], [ -82.779397, 35.992511 ], [ -82.785267, 35.987927 ], [ -82.785291858279507, 35.987061487669997 ], [ -82.785558, 35.977795 ], [ -82.781809, 35.974562 ], [ -82.780319, 35.974365 ], [ -82.778625, 35.974792 ], [ -82.776434, 35.973886 ], [ -82.774905, 35.971978 ], [ -82.777751, 35.966912 ], [ -82.783085, 35.964982 ], [ -82.784536, 35.963905 ], [ -82.785356, 35.96253 ], [ -82.785191, 35.959231 ], [ -82.787465, 35.952163 ], [ -82.787626591116805, 35.9520631988537 ], [ -82.7885180949947, 35.951512592417203 ], [ -82.800431, 35.944155 ], [ -82.805851, 35.937938 ], [ -82.806174, 35.936908 ], [ -82.805771, 35.935316 ], [ -82.802769, 35.930129 ], [ -82.802892, 35.929013 ], [ -82.804997, 35.927168 ], [ -82.809038, 35.927241 ], [ -82.811067, 35.926801 ], [ -82.81613, 35.923986 ], [ -82.821861, 35.921839 ], [ -82.82257, 35.922531 ], [ -82.826045, 35.929721 ], [ -82.828933, 35.932932 ], [ -82.830112, 35.932972 ], [ -82.833268, 35.934993 ], [ -82.839994, 35.940166 ], [ -82.841259, 35.941721 ], [ -82.849849, 35.947772 ], [ -82.852554, 35.949089 ], [ -82.860724, 35.94743 ], [ -82.869315, 35.950565 ], [ -82.870666, 35.95199 ], [ -82.874159, 35.952698 ], [ -82.883933, 35.949192 ], [ -82.892659, 35.945182 ], [ -82.896947, 35.944624 ], [ -82.898462858630296, 35.945088097924703 ], [ -82.898505, 35.945101 ], [ -82.901713, 35.937713 ], [ -82.899676, 35.932623 ], [ -82.899007, 35.930381 ], [ -82.900322, 35.929048 ], [ -82.901623, 35.927384 ], [ -82.904829, 35.926102 ], [ -82.910608, 35.92693 ], [ -82.914381, 35.929683 ], [ -82.92001, 35.928422 ], [ -82.920396, 35.927224 ], [ -82.916824, 35.924151 ], [ -82.913337, 35.924113 ], [ -82.913479, 35.922072 ], [ -82.912293, 35.92031 ], [ -82.911895099220203, 35.917943222284599 ], [ -82.911695, 35.916753 ], [ -82.914503, 35.915154 ], [ -82.910279, 35.912569 ], [ -82.906917, 35.907397 ], [ -82.908417, 35.905074 ], [ -82.905958, 35.903203 ], [ -82.904543, 35.897011 ], [ -82.901843, 35.89293 ], [ -82.901843, 35.890274 ], [ -82.903702, 35.887617 ], [ -82.906528, 35.884089 ], [ -82.903561, 35.880378 ], [ -82.900029, 35.881228 ], [ -82.896324, 35.8803 ], [ -82.897273, 35.877882 ], [ -82.899718, 35.874602 ], [ -82.901301, 35.872593 ], [ -82.912265, 35.868536 ], [ -82.920609, 35.868472 ], [ -82.921214, 35.863826 ], [ -82.919374, 35.860523 ], [ -82.920974, 35.851073 ], [ -82.918058, 35.845201 ], [ -82.916604132027004, 35.841504104132397 ], [ -82.916551, 35.841369 ], [ -82.923358, 35.839273 ], [ -82.927569, 35.838586 ], [ -82.931859, 35.836351 ], [ -82.933221, 35.832915 ], [ -82.937437, 35.82732 ], [ -82.94383, 35.825638 ], [ -82.945515, 35.824662 ], [ -82.952026, 35.816183 ], [ -82.955751, 35.809802 ], [ -82.956127, 35.807874 ], [ -82.95895, 35.803323 ], [ -82.961724, 35.800491 ], [ -82.962842, 35.795126 ], [ -82.962206, 35.792755 ], [ -82.962897902712797, 35.791734792758703 ], [ -82.964088, 35.78998 ], [ -82.969648, 35.789663 ], [ -82.974463, 35.78679 ], [ -82.978414, 35.78261 ], [ -82.98397, 35.77801 ], [ -82.992053, 35.773948 ], [ -82.995803, 35.773128 ], [ -83.001473, 35.773752 ], [ -83.006067, 35.778404 ], [ -83.012377, 35.779818 ], [ -83.024909843139696, 35.783807874156601 ], [ -83.036209, 35.787405 ], [ -83.03951, 35.786777 ], [ -83.042666, 35.785407 ], [ -83.044108, 35.785347 ], [ -83.046307, 35.785853 ], [ -83.04853, 35.787706 ], [ -83.052677, 35.789548 ], [ -83.05834, 35.788241 ], [ -83.061507, 35.786774 ], [ -83.063975, 35.786643 ], [ -83.072221, 35.78831 ], [ -83.07403, 35.790016 ], [ -83.078732, 35.789472 ], [ -83.085205, 35.785794 ], [ -83.086054, 35.783627 ], [ -83.097193, 35.776067 ], [ -83.098054010481704, 35.775697265287903 ], [ -83.099432559618293, 35.775105289372299 ], [ -83.099437670657295, 35.775103094592403 ], [ -83.100225, 35.774765 ], [ -83.100329, 35.774804 ], [ -83.100233, 35.774745 ], [ -83.10232, 35.775071 ], [ -83.104584, 35.77423 ], [ -83.104805, 35.77348 ], [ -83.110491, 35.770913 ], [ -83.111146436410195, 35.770767898656601 ], [ -83.111205303399601, 35.770754866607902 ], [ -83.113662, 35.770211 ], [ -83.120183, 35.766234 ], [ -83.127707, 35.768093 ], [ -83.14697, 35.765124 ], [ -83.14808, 35.764295 ], [ -83.15408, 35.76428 ], [ -83.159208, 35.764892 ], [ -83.161537, 35.763363 ], [ -83.164909, 35.759965 ], [ -83.165427, 35.7587 ], [ -83.16477, 35.754618 ], [ -83.170173, 35.746107 ], [ -83.171867, 35.745978 ], [ -83.177499, 35.743913 ], [ -83.180836, 35.738882 ], [ -83.182097, 35.735492 ], [ -83.185685, 35.72989 ], [ -83.18837, 35.729798 ], [ -83.198267, 35.725494 ], [ -83.200126, 35.725331 ], [ -83.203752, 35.726553 ], [ -83.214501, 35.724434 ], [ -83.216972, 35.725752 ], [ -83.219981, 35.726601 ], [ -83.222627, 35.726138 ], [ -83.232042, 35.726098 ], [ -83.240669, 35.72676 ], [ -83.242132, 35.723638 ], [ -83.243501, 35.722533 ], [ -83.251247, 35.719916 ], [ -83.255351, 35.71623 ], [ -83.255476179897002, 35.715090681516799 ], [ -83.255489, 35.714974 ], [ -83.254481, 35.712362 ], [ -83.25423, 35.709478 ], [ -83.255108, 35.707096 ], [ -83.256111, 35.703961 ], [ -83.255126, 35.701493 ], [ -83.25561, 35.696061 ], [ -83.258117, 35.691924 ], [ -83.261252, 35.689165 ], [ -83.26539, 35.687535 ], [ -83.269277, 35.685403 ], [ -83.271378, 35.681476 ], [ -83.27548, 35.679463 ], [ -83.281178, 35.677802 ], [ -83.289165, 35.674509 ], [ -83.290682, 35.672638 ], [ -83.291075, 35.667131 ], [ -83.293676, 35.661919 ], [ -83.297154, 35.65775 ], [ -83.302279, 35.656064 ], [ -83.31049, 35.654452 ], [ -83.312757, 35.654809 ], [ -83.317905, 35.659015 ], [ -83.321101, 35.662815 ], [ -83.334965, 35.665471 ], [ -83.337683, 35.663074 ], [ -83.347262, 35.660474 ], [ -83.349255, 35.660854 ], [ -83.35156, 35.659858 ], [ -83.353776, 35.657478 ], [ -83.355537, 35.654632 ], [ -83.355367, 35.652338 ], [ -83.356202, 35.650019 ], [ -83.358209, 35.647277 ], [ -83.366941, 35.638728 ], [ -83.368162, 35.638202 ], [ -83.370369, 35.638204 ], [ -83.372174, 35.63931 ], [ -83.373712, 35.638935 ], [ -83.376785, 35.636638 ], [ -83.377984, 35.634496 ], [ -83.380251, 35.634705 ], [ -83.388722, 35.633584 ], [ -83.388602, 35.632352 ], [ -83.392652, 35.625095 ], [ -83.396626, 35.62272 ], [ -83.403569, 35.621313 ], [ -83.406061, 35.620185 ], [ -83.411852, 35.61692 ], [ -83.42037, 35.613467 ], [ -83.420964, 35.611596 ], [ -83.421576, 35.611186 ], [ -83.432298, 35.609941 ], [ -83.441197, 35.611739 ], [ -83.445802, 35.611803 ], [ -83.447137, 35.608664 ], [ -83.452431, 35.602918 ], [ -83.455722, 35.598045 ], [ -83.462678, 35.5926 ], [ -83.471362, 35.590304 ], [ -83.472668, 35.589125 ], [ -83.472684, 35.586552 ], [ -83.4728691161081, 35.586429394213901 ], [ -83.475367, 35.584775 ], [ -83.479082, 35.583316 ], [ -83.479317, 35.582764 ], [ -83.478523, 35.579202 ], [ -83.480617, 35.576633 ], [ -83.485527, 35.568204 ], [ -83.491647, 35.566867 ], [ -83.498335, 35.562981 ], [ -83.517564, 35.562871 ], [ -83.520469, 35.565602 ], [ -83.534169, 35.564668 ], [ -83.540826, 35.565702 ], [ -83.552167, 35.564346 ], [ -83.559264, 35.564796 ], [ -83.56609, 35.565993 ], [ -83.572424, 35.565518 ], [ -83.576345, 35.564019 ], [ -83.582, 35.562684 ], [ -83.58559, 35.562941 ], [ -83.58714, 35.564017 ], [ -83.587827, 35.566963 ], [ -83.59427, 35.572912 ], [ -83.601854, 35.578228 ], [ -83.604806, 35.57934 ], [ -83.608889, 35.579451 ], [ -83.615312, 35.574026 ], [ -83.629734, 35.567889 ], [ -83.632358, 35.569093 ], [ -83.635832, 35.568169 ], [ -83.637182, 35.567096 ], [ -83.640498, 35.566075 ], [ -83.645481, 35.565825 ], [ -83.653159, 35.568309 ], [ -83.657933, 35.569211 ], [ -83.660925, 35.568207 ], [ -83.662957, 35.569138 ], [ -83.663023604582605, 35.569143043061899 ], [ -83.666272, 35.569389 ], [ -83.673093, 35.568974 ], [ -83.676268, 35.570289 ], [ -83.684154, 35.568848 ], [ -83.697827, 35.568352 ], [ -83.700663, 35.567621 ], [ -83.702099, 35.567634 ], [ -83.703846, 35.568476 ], [ -83.707199, 35.568533 ], [ -83.720787, 35.563347 ], [ -83.723459, 35.561874 ], [ -83.732947, 35.563149 ], [ -83.735669, 35.565455 ], [ -83.749894, 35.561146 ], [ -83.756917, 35.563604 ], [ -83.759675, 35.562492 ], [ -83.764606, 35.561538 ], [ -83.771736, 35.562118 ], [ -83.773092, 35.557465 ], [ -83.780129, 35.550387 ], [ -83.786802, 35.5472 ], [ -83.802434, 35.541588 ], [ -83.808713, 35.536415 ], [ -83.809798, 35.53431 ], [ -83.82559, 35.523829 ], [ -83.827428, 35.524653 ], [ -83.831895, 35.524766 ], [ -83.840203, 35.52156 ], [ -83.848502, 35.519259 ], [ -83.853898, 35.521059 ], [ -83.859261, 35.521851 ], [ -83.866413, 35.52091 ], [ -83.87263, 35.521145 ], [ -83.880074, 35.518745 ], [ -83.882563, 35.517182 ], [ -83.884262, 35.512754 ], [ -83.892074, 35.503089 ], [ -83.893031, 35.502253 ], [ -83.895669, 35.501868 ], [ -83.901381, 35.496553 ], [ -83.901403, 35.495278 ], [ -83.9002, 35.494191 ], [ -83.900338, 35.493095 ], [ -83.901527, 35.491026 ], [ -83.905612, 35.48906 ], [ -83.90804, 35.484397 ], [ -83.909265, 35.479714 ], [ -83.911773, 35.476028 ], [ -83.916801, 35.473612 ], [ -83.919564, 35.473367 ], [ -83.920878382418906, 35.473494468713298 ], [ -83.924895, 35.473884 ], [ -83.929743, 35.47333 ], [ -83.937015, 35.471511 ], [ -83.942172, 35.467254 ], [ -83.942987, 35.465084 ], [ -83.949389, 35.461164 ], [ -83.952882, 35.460635 ], [ -83.955416, 35.463456 ], [ -83.957821, 35.464211 ], [ -83.961053, 35.464143 ], [ -83.961055884011898, 35.463753658400101 ], [ -83.961056, 35.463738 ], [ -83.961054, 35.462838 ], [ -83.9614, 35.459496 ], [ -83.965229, 35.455399 ], [ -83.966656, 35.454941 ], [ -83.969845, 35.455443 ], [ -83.971439, 35.455145 ], [ -83.973171, 35.452582 ], [ -83.973057, 35.448921 ], [ -83.978286, 35.44782 ], [ -83.983233, 35.44235 ], [ -83.992568, 35.438065 ], [ -83.996619, 35.433761 ], [ -83.998154, 35.430786 ], [ -83.999242, 35.42614 ], [ -83.999906, 35.425201 ], [ -84.00225, 35.422548 ], [ -84.005306, 35.420883 ], [ -84.011706, 35.415383 ], [ -84.014707, 35.411983 ], [ -84.017607, 35.411183 ], [ -84.021207, 35.412084 ], [ -84.023007, 35.411684 ], [ -84.023107, 35.409684 ], [ -84.021782, 35.407418 ], [ -84.021507, 35.404183 ], [ -84.018807, 35.399783 ], [ -84.018107, 35.399083 ], [ -84.015207, 35.398483 ], [ -84.014107, 35.397783 ], [ -84.008207, 35.390383 ], [ -84.008207, 35.389683 ], [ -84.010607, 35.386183 ], [ -84.011207, 35.384383 ], [ -84.009807, 35.382683 ], [ -84.009506164170205, 35.381920882564401 ], [ -84.008307, 35.378883 ], [ -84.007678678570201, 35.372589328202601 ], [ -84.007586, 35.371661 ], [ -84.007658028782103, 35.371596064164997 ], [ -84.015121, 35.364868 ], [ -84.019193, 35.359569 ], [ -84.020188, 35.357503 ], [ -84.023456, 35.354217 ], [ -84.024756, 35.353896 ], [ -84.029113, 35.353554 ], [ -84.032466, 35.352594 ], [ -84.032801, 35.351908 ], [ -84.034338, 35.350947 ], [ -84.035343, 35.350833 ], [ -84.036897, 35.350672 ], [ -84.0381543595187, 35.348158160235002 ], [ -84.038327, 35.347813 ], [ -84.033975, 35.342771 ], [ -84.035572, 35.341486 ], [ -84.036303, 35.339158 ], [ -84.036194, 35.337674 ], [ -84.03243, 35.336845 ], [ -84.031272, 35.336438 ], [ -84.029377, 35.333197 ], [ -84.030409, 35.330483 ], [ -84.032209, 35.328583 ], [ -84.03245, 35.32653 ], [ -84.032479, 35.325318 ], [ -84.03551, 35.317783 ], [ -84.03571, 35.312883 ], [ -84.03501, 35.311983 ], [ -84.02871, 35.310383 ], [ -84.02651, 35.309283 ], [ -84.02141, 35.301383 ], [ -84.02351, 35.295783 ], [ -84.02791, 35.292783 ], [ -84.029084969782403, 35.292188335624203 ], [ -84.036011, 35.288683 ], [ -84.042711, 35.278383 ], [ -84.052612, 35.269982 ], [ -84.055712, 35.268182 ], [ -84.063712, 35.266682 ], [ -84.070612, 35.263782 ], [ -84.074713, 35.263182 ], [ -84.081117, 35.261146 ], [ -84.082813, 35.258882 ], [ -84.082913, 35.257082 ], [ -84.092213, 35.249981 ], [ -84.098068, 35.247209 ], [ -84.100729, 35.248362 ], [ -84.10227, 35.248115 ], [ -84.103135, 35.248781 ], [ -84.104193, 35.250183 ], [ -84.105232, 35.250219 ], [ -84.1067, 35.25151 ], [ -84.108449, 35.25033 ], [ -84.109032, 35.249625 ], [ -84.110183, 35.250463 ], [ -84.11118, 35.249573 ], [ -84.113314, 35.248981 ], [ -84.114414, 35.249081 ], [ -84.115048, 35.249765 ], [ -84.115279, 35.250438 ], [ -84.11661, 35.251429 ], [ -84.118914, 35.252281 ], [ -84.120114, 35.251981 ], [ -84.12115, 35.250644 ], [ -84.123613, 35.24974 ], [ -84.124915, 35.24983 ], [ -84.125615, 35.249381 ], [ -84.126815, 35.246481 ], [ -84.125715, 35.242781 ], [ -84.126415, 35.241381 ], [ -84.127915, 35.241081 ], [ -84.129815, 35.241781 ], [ -84.132504, 35.242078 ], [ -84.136415, 35.24478 ], [ -84.139715, 35.24618 ], [ -84.143124, 35.246879 ], [ -84.155316, 35.24648 ], [ -84.158916, 35.24588 ], [ -84.160416, 35.24388 ], [ -84.161316, 35.24348 ], [ -84.168616, 35.24578 ], [ -84.170416, 35.245779 ], [ -84.177016, 35.242379 ], [ -84.178516, 35.240679 ], [ -84.188417, 35.239979 ], [ -84.192217, 35.243079 ], [ -84.199117, 35.243679 ], [ -84.200117, 35.244679 ], [ -84.201717, 35.247779 ], [ -84.202879, 35.255772 ], [ -84.205317, 35.258279 ], [ -84.205517, 35.259679 ], [ -84.211818, 35.266078 ], [ -84.216318, 35.267978 ], [ -84.223718, 35.269078 ], [ -84.227818, 35.267878 ], [ -84.231818, 35.264778 ], [ -84.240219, 35.255178 ], [ -84.243019, 35.253178 ], [ -84.252819, 35.249477 ], [ -84.257719, 35.246177 ], [ -84.260319, 35.241877 ], [ -84.27542, 35.234777 ], [ -84.28252, 35.227877 ], [ -84.28322, 35.226577 ], [ -84.287982, 35.224468 ], [ -84.289621, 35.224677 ], [ -84.29024, 35.225572 ], [ -84.292319677454998, 35.206689008403501 ], [ -84.292321, 35.206677 ], [ -84.295238, 35.182442 ], [ -84.297843666829294, 35.1683461708446 ], [ -84.298006, 35.167468 ], [ -84.304809, 35.121702 ], [ -84.304845637062897, 35.121413902214002 ], [ -84.308437, 35.093173 ], [ -84.308568992914701, 35.092781769202503 ], [ -84.308576, 35.092761 ], [ -84.310022, 35.078883 ], [ -84.310850978447803, 35.072552129309997 ], [ -84.317475160427094, 35.021963552912602 ], [ -84.317490793375299, 35.021844164798203 ], [ -84.321869, 34.988408 ], [ -84.340488925235903, 34.988320153101597 ], [ -84.355709015787397, 34.988248346274702 ], [ -84.371890554975906, 34.9881720034317 ], [ -84.382889561954599, 34.988120111244399 ], [ -84.387916675410594, 34.988096393838497 ], [ -84.393935, 34.988068 ], [ -84.394903, 34.98803 ], [ -84.455374502152907, 34.988031589278101 ], [ -84.509052, 34.988033 ], [ -84.509886, 34.98801 ], [ -84.568240346433399, 34.988176805886503 ], [ -84.621483, 34.988329 ], [ -84.624933, 34.987978 ], [ -84.682280073551297, 34.988001498083797 ], [ -84.727434, 34.98802 ], [ -84.731022, 34.988088 ], [ -84.738485299359695, 34.988039990188902 ], [ -84.775852457170899, 34.987799615242103 ], [ -84.776097956725806, 34.987798035995901 ], [ -84.808127, 34.987592 ], [ -84.809184, 34.987569 ], [ -84.810476935813398, 34.987607173971398 ], [ -84.810742, 34.987615 ], [ -84.817279, 34.987753 ], [ -84.820478, 34.987913 ], [ -84.82401, 34.987707 ], [ -84.831799, 34.988004 ], [ -84.858032, 34.987746 ], [ -84.858190093679397, 34.987748167646401 ], [ -84.861314, 34.987791 ], [ -84.886527063452505, 34.987831409694998 ], [ -84.891525931474206, 34.987839421523198 ], [ -84.930699999668406, 34.9879022069181 ], [ -84.930780171506598, 34.987902335411803 ], [ -84.930860181622407, 34.9879024636463 ], [ -84.939306, 34.987916 ], [ -84.943897982794994, 34.987869307957503 ], [ -84.94442, 34.987864 ], [ -84.955623, 34.98783 ], [ -84.976973374441201, 34.987668795291398 ], [ -84.97986, 34.987647 ], [ -84.980433928233793, 34.987640062715499 ], [ -85.045052, 34.986859 ], [ -85.045183, 34.986883 ], [ -85.046505137929898, 34.986875108388503 ], [ -85.064837226098305, 34.9867656873407 ], [ -85.083608317429494, 34.986653645959301 ], [ -85.096088321342094, 34.9865791549853 ], [ -85.096092245507094, 34.9865791315626 ], [ -85.126697117772693, 34.986396456399802 ], [ -85.126874393556903, 34.986395398271497 ], [ -85.138824254324206, 34.986324071629703 ], [ -85.140601638663597, 34.986313462731502 ], [ -85.143885533606294, 34.986293861733401 ], [ -85.154374738884698, 34.986231253490303 ], [ -85.175249426048893, 34.986106656110998 ], [ -85.180483008462403, 34.986075417767303 ], [ -85.180553, 34.986075 ], [ -85.185905, 34.985995 ], [ -85.192313890906703, 34.985928086068398 ], [ -85.195695198421106, 34.985892782521603 ], [ -85.201361557531698, 34.985833621213999 ], [ -85.216540001525999, 34.985675146155202 ], [ -85.216554, 34.985675 ], [ -85.217854, 34.985675 ], [ -85.220554, 34.985575 ], [ -85.221854, 34.985475 ], [ -85.227925, 34.985475 ], [ -85.230354, 34.985475 ], [ -85.230410419475604, 34.985475 ], [ -85.235555, 34.985475 ], [ -85.2421827037588, 34.985372509735598 ], [ -85.242287709624307, 34.985370885933598 ], [ -85.254814152997497, 34.985177178046399 ], [ -85.254955, 34.985175 ], [ -85.265055, 34.985075 ], [ -85.273020243075393, 34.985001254577597 ], [ -85.275856, 34.984975 ], [ -85.277556, 34.984975 ], [ -85.280200856867395, 34.9849244255415 ], [ -85.281148011012206, 34.984906314237001 ], [ -85.285778836855599, 34.984817764451101 ], [ -85.286906607920997, 34.984796199423599 ], [ -85.2945, 34.984651 ], [ -85.2946458897122, 34.984647325616898 ], [ -85.3010011577055, 34.984487261626199 ], [ -85.301488, 34.984475 ], [ -85.305457, 34.984475 ], [ -85.305461993630601, 34.984474821656001 ], [ -85.308257, 34.984375 ], [ -85.322818252608201, 34.984113398681203 ], [ -85.327424964642404, 34.984030636436998 ], [ -85.327428980279095, 34.984030564293803 ], [ -85.3332660962799, 34.983925697131298 ], [ -85.342473873379205, 34.983760274094003 ], [ -85.344392092525894, 34.983725812178399 ], [ -85.345365699058107, 34.983708320774298 ], [ -85.363919, 34.983375 ], [ -85.364757714992507, 34.983359539081299 ], [ -85.365239099871701, 34.983350665205698 ], [ -85.379512968523798, 34.983087539918898 ], [ -85.384967, 34.982987 ], [ -85.394921714644298, 34.982985173357498 ], [ -85.407620865289502, 34.982982843123999 ], [ -85.409162164521206, 34.982982560303 ], [ -85.409182003955607, 34.982982556662598 ], [ -85.410454328096193, 34.982982323197199 ], [ -85.431695003931495, 34.982978425634798 ], [ -85.432297739234897, 34.982978315035801 ], [ -85.458016991852006, 34.982973595675901 ], [ -85.466713, 34.982972 ], [ -85.474105315865103, 34.983063087820099 ], [ -85.514201271173604, 34.983557148575798 ], [ -85.518551207272296, 34.983610748314199 ], [ -85.552592573439, 34.984030204664997 ], [ -85.605165, 34.984678 ], [ -85.611432553074593, 34.984777024857202 ], [ -85.611494932011993, 34.984778010419703 ], [ -85.615686780013206, 34.984844239958598 ], [ -85.694766327826699, 34.986093665506203 ], [ -85.700826268662397, 34.986189410172301 ], [ -85.7008436226794, 34.986189684358898 ], [ -85.702251260536599, 34.986211924479797 ], [ -85.722321600907904, 34.9865290279118 ], [ -85.726239039383003, 34.986590921888698 ], [ -85.726500269204294, 34.986595049216497 ], [ -85.745416849759195, 34.986893923700201 ], [ -85.748942822757996, 34.9869496326776 ], [ -85.757949170286096, 34.987091929402901 ], [ -85.796052982986296, 34.987693954558203 ], [ -85.8081505497085, 34.987885091322902 ], [ -85.824411, 34.988142 ], [ -85.828724, 34.988165 ], [ -85.860920284646497, 34.988360693094698 ], [ -85.863935475546398, 34.9883790198068 ], [ -86.067059652340902, 34.9896136342727 ], [ -86.067068388009403, 34.9896136873692 ], [ -86.067136391575204, 34.989614100703498 ], [ -86.067211388804594, 34.989614556546201 ], [ -86.152931128541795, 34.990135571978101 ], [ -86.253946170006301, 34.990749554190501 ], [ -86.311274, 34.991098 ], [ -86.318761144095205, 34.991146968043203 ], [ -86.377752638215199, 34.991532789124498 ], [ -86.397203, 34.99166 ], [ -86.428607625902899, 34.9911682872265 ], [ -86.433927, 34.991085 ], [ -86.467798, 34.990692 ], [ -86.473299036492193, 34.990690640309303 ], [ -86.5224600055586, 34.9906784891973 ], [ -86.5227079907133, 34.9906784279028 ], [ -86.528485, 34.990677 ], [ -86.555767670189397, 34.990969965595397 ], [ -86.555864, 34.990971 ], [ -86.571217, 34.991011 ], [ -86.571308000483697, 34.991011953851199 ], [ -86.588962, 34.991197 ], [ -86.600039, 34.99124 ], [ -86.641212, 34.99174 ], [ -86.641392848756396, 34.991740511149899 ], [ -86.65961, 34.991792 ], [ -86.670853, 34.992 ], [ -86.67436, 34.992001 ], [ -86.676726, 34.99207 ], [ -86.677616, 34.99207 ], [ -86.677672708677704, 34.992069922450199 ], [ -86.694302028966106, 34.992047181660297 ], [ -86.721712416041399, 34.992009697635403 ], [ -86.775339918443507, 34.9919363613987 ], [ -86.783628017090606, 34.9919250273269 ], [ -86.783648, 34.991925 ], [ -86.819396024528302, 34.991769485612998 ], [ -86.820657, 34.991764 ], [ -86.836306, 34.991764 ], [ -86.83637, 34.991764 ], [ -86.846466, 34.99186 ], [ -86.849794, 34.991924 ], [ -86.8573743674567, 34.991943636667898 ], [ -86.862147, 34.991956 ], [ -86.877715428089999, 34.992318466903399 ], [ -86.879203662682002, 34.992353116245098 ], [ -86.8792364883071, 34.992353880497099 ], [ -86.937460599054901, 34.9937094645679 ], [ -86.96712, 34.9944 ], [ -86.970236, 34.994546 ], [ -86.972613, 34.99461 ], [ -86.974412, 34.994513 ], [ -86.988678247085303, 34.994851889557602 ], [ -87.000007, 34.995121 ], [ -87.011174, 34.995162 ], [ -87.030094069137604, 34.995528106205398 ], [ -87.089978449400704, 34.996686878039803 ], [ -87.094593359221605, 34.9967761772443 ], [ -87.120487314976799, 34.997277229212798 ], [ -87.125649314275407, 34.997377114681598 ], [ -87.1396209266955, 34.997647467499498 ], [ -87.162752437573502, 34.998095065740898 ], [ -87.210759, 34.999024 ], [ -87.215236205961006, 34.999117715992398 ], [ -87.216683, 34.999148 ], [ -87.219771760367806, 34.999222873637102 ], [ -87.224053220296994, 34.999326659116903 ], [ -87.230544, 34.999484 ], [ -87.270014, 35.00039 ], [ -87.299185, 35.000915 ], [ -87.299215677729606, 35.000915457721099 ], [ -87.349251, 35.001662 ], [ -87.349324522521499, 35.001663180172102 ], [ -87.359267430383696, 35.0018227821826 ], [ -87.359281, 35.001823 ], [ -87.381071, 35.002118 ], [ -87.391314, 35.002374 ], [ -87.4174, 35.002669 ], [ -87.421543, 35.002679 ], [ -87.428613, 35.002795 ], [ -87.437042792076895, 35.002835215033599 ], [ -87.437073716805898, 35.0028353625626 ], [ -87.443286522935495, 35.002865001277897 ], [ -87.492917948154201, 35.003101772175 ], [ -87.492951766558605, 35.003101933508503 ], [ -87.4958434829136, 35.003115728685103 ], [ -87.522389992495306, 35.003242371046397 ], [ -87.577487647461496, 35.003505219053203 ], [ -87.606178379167005, 35.003642090606903 ], [ -87.619281561800904, 35.003704600444003 ], [ -87.625025, 35.003732 ], [ -87.664123, 35.003523 ], [ -87.671405, 35.003537 ], [ -87.688709375107507, 35.003751356764297 ], [ -87.696834, 35.003852 ], [ -87.700543, 35.003988 ], [ -87.702321, 35.003945 ], [ -87.709459582142401, 35.004088369013701 ], [ -87.709491, 35.004089 ], [ -87.722324028492693, 35.0042505851277 ], [ -87.75889, 35.004711 ], [ -87.767602, 35.004783 ], [ -87.773586, 35.004946 ], [ -87.8211342757523, 35.005377152947403 ], [ -87.821161386503903, 35.005377398779203 ], [ -87.851886, 35.005656 ], [ -87.853411, 35.005576 ], [ -87.853528, 35.005541 ], [ -87.872626, 35.005571 ], [ -87.877742, 35.005512 ], [ -87.877969, 35.005468 ], [ -87.926976661954299, 35.005657104059203 ], [ -87.984916201911403, 35.005880673226898 ], [ -88.000032, 35.005939 ], [ -88.202959, 35.008028 ], [ -88.201987, 35.005421 ], [ -88.20082, 34.997774 ], [ -88.200064, 34.995634 ], [ -88.200341005397803, 34.9956335826447 ], [ -88.251657242649898, 34.995556266091498 ], [ -88.251664132972095, 34.995556255710099 ], [ -88.253825, 34.995553 ], [ -88.258111, 34.995463 ], [ -88.363530862351894, 34.9955896102908 ], [ -88.380508, 34.99561 ], [ -88.462819319568197, 34.996017440709203 ], [ -88.469801, 34.996052 ], [ -88.469877, 34.996033 ], [ -88.474158525998007, 34.996022442683 ], [ -88.478834, 34.996010913975397 ], [ -88.504833179522905, 34.995946805622303 ], [ -88.505408460107205, 34.995945387104797 ], [ -88.514213131191596, 34.995923676690403 ], [ -88.528497151535703, 34.995888455385902 ], [ -88.531046145900703, 34.995882170117099 ], [ -88.531685149412894, 34.995880594472702 ], [ -88.563864353281701, 34.995801247516297 ], [ -88.584989711944601, 34.995749156951298 ], [ -88.6058652359321, 34.995697682424499 ], [ -88.684438288344495, 34.995503938272698 ], [ -88.719688525258306, 34.9954170188131 ], [ -88.786612, 34.995252 ], [ -88.823048733932296, 34.995157550103698 ], [ -88.823050835513499, 34.995157544656102 ], [ -88.851037, 34.995085 ], [ -88.858232932106503, 34.995241764087702 ], [ -88.886979, 34.995868 ], [ -88.8937681261162, 34.995685948789998 ], [ -88.925241, 34.994842 ], [ -88.931124984670305, 34.994848621726298 ], [ -88.993684213934102, 34.9949190247129 ], [ -89.017127087288898, 34.994945406884099 ], [ -89.02654, 34.994956 ], [ -89.138997, 34.99433 ], [ -89.139136, 34.994307 ], [ -89.156827, 34.993926 ], [ -89.158585179106794, 34.9939496623319 ], [ -89.158591043857498, 34.993949741262199 ], [ -89.198288, 34.994484 ], [ -89.217433, 34.994729 ], [ -89.233190055454202, 34.9946583717431 ], [ -89.352680164410202, 34.994122778139598 ], [ -89.381128040337401, 34.993995265490099 ], [ -89.405720169787003, 34.993885035552701 ], [ -89.434954, 34.993754 ], [ -89.441017068941207, 34.993779796319799 ], [ -89.484462014295801, 34.993964639954598 ], [ -89.486897, 34.993975 ], [ -89.493739, 34.994361 ], [ -89.511133227188694, 34.994754552630802 ], [ -89.511153, 34.994755 ], [ -89.528748299395602, 34.994826106003003 ], [ -89.565059510503602, 34.994972846619802 ], [ -89.571777072767404, 34.994999993586298 ], [ -89.582590086113498, 34.995043691061497 ], [ -89.591016073783706, 34.995077742105003 ], [ -89.617940571877099, 34.995186549201698 ], [ -89.644049979505795, 34.995292062360399 ], [ -89.644282, 34.995293 ], [ -89.647269475534699, 34.9952899666566 ], [ -89.688935, 34.9952476614258 ], [ -89.706605936762898, 34.9952297191805 ], [ -89.724324428203602, 34.995211728650503 ], [ -89.741785, 34.995194 ], [ -89.741945029860901, 34.9951912999718 ], [ -89.759612330555996, 34.994893216792804 ], [ -89.795187, 34.994293 ], [ -89.795356490970093, 34.994292682011597 ], [ -89.813128730232194, 34.9942593388487 ], [ -89.815601477870302, 34.994254699634403 ], [ -89.830689490426906, 34.994226392449598 ], [ -89.830764409497505, 34.994226251891099 ], [ -89.837779463594799, 34.994213090685697 ], [ -89.848384595118304, 34.994193194001802 ], [ -89.848488, 34.994193 ], [ -89.861799044935594, 34.9942189526638 ], [ -89.878309785667597, 34.994251143803197 ], [ -89.883365, 34.994261 ], [ -89.893402, 34.994356 ], [ -89.901460604039698, 34.994381984283301 ], [ -89.918878810459105, 34.994438147808303 ], [ -89.919041638761698, 34.994438672834299 ], [ -89.936752719800396, 34.994495780708696 ], [ -89.936755225958706, 34.9944957887896 ], [ -89.955898281659998, 34.9945575139445 ], [ -89.9721955249383, 34.994610063019202 ], [ -89.989900691426499, 34.994667151822497 ], [ -89.989907360144201, 34.994667173325197 ], [ -90.002264951140106, 34.994707019326299 ], [ -90.002538470531604, 34.994707901266302 ], [ -90.008136959500405, 34.994725953117801 ], [ -90.008154757703593, 34.994726010506596 ], [ -90.025017571900193, 34.9947803832167 ], [ -90.025072249700202, 34.994780559520599 ], [ -90.031306588600202, 34.994800661616097 ], [ -90.031329194320904, 34.994800734506299 ], [ -90.043036404717597, 34.994838483410398 ] ] ] } }
]
}
