{
"type": "FeatureCollection",
"name": "state-40-outline",
"crs": { "type": "name", "properties": { "name": "urn:ogc:def:crs:OGC:1.3:CRS84" } },
"features": [
{ "type": "Feature", "properties": { "state_fips": "40", "state_abbr": "OK", "state_name": "Oklahoma" }, "geometry": { "type": "Polygon", "coordinates": [ [ [ -98.16912, 34.114171 ], [ -98.191455, 34.115753 ], [ -98.200075, 34.116783 ], [ -98.203711, 34.117676 ], [ -98.216463, 34.121821 ], [ -98.2236, 34.125093 ], [ -98.231042, 34.134023 ], [ -98.241013, 34.133103 ], [ -98.247954, 34.130717 ], [ -98.256467, 34.129481 ], [ -98.257955, 34.129825 ], [ -98.2617, 34.131568 ], [ -98.266217, 34.132051 ], [ -98.267291, 34.131959 ], [ -98.267664084805801, 34.131853167920397 ], [ -98.268338, 34.131662 ], [ -98.268972, 34.131616 ], [ -98.271561, 34.132282 ], [ -98.272994, 34.132213 ], [ -98.276878, 34.131046 ], [ -98.280321, 34.13075 ], [ -98.293901, 34.13302 ], [ -98.300209, 34.134579 ], [ -98.31875, 34.146421 ], [ -98.32258, 34.14972 ], [ -98.325445, 34.151025 ], [ -98.348154443228694, 34.1546064260097 ], [ -98.364023, 34.157109 ], [ -98.365621, 34.156993 ], [ -98.367494, 34.156191 ], [ -98.370495, 34.152135 ], [ -98.374461, 34.150758 ], [ -98.376911, 34.150552 ], [ -98.381651, 34.149202 ], [ -98.384546, 34.145997 ], [ -98.38485, 34.143844 ], [ -98.387084, 34.140912 ], [ -98.386232, 34.137728 ], [ -98.384965, 34.136651 ], [ -98.381055, 34.134771 ], [ -98.379927, 34.132274 ], [ -98.379762, 34.131174 ], [ -98.380865, 34.130534 ], [ -98.382959, 34.129549 ], [ -98.385271, 34.13175 ], [ -98.388686, 34.133217 ], [ -98.395024, 34.131318 ], [ -98.400967, 34.122236 ], [ -98.400494, 34.121778 ], [ -98.39816, 34.121396 ], [ -98.398389, 34.104566 ], [ -98.399777, 34.099973 ], [ -98.402158, 34.098653 ], [ -98.406735, 34.10114 ], [ -98.409318, 34.101293 ], [ -98.411374, 34.100324 ], [ -98.411511, 34.098615 ], [ -98.409596, 34.09407 ], [ -98.411587, 34.088057 ], [ -98.417355517482704, 34.083739802515701 ], [ -98.418805, 34.082655 ], [ -98.423533, 34.082843 ], [ -98.42523, 34.084799 ], [ -98.42914, 34.085564 ], [ -98.440092, 34.084311 ], [ -98.443724, 34.082152 ], [ -98.445784, 34.076827 ], [ -98.449034, 34.073462 ], [ -98.454665, 34.072577 ], [ -98.462951, 34.073836 ], [ -98.466002, 34.073081 ], [ -98.471465, 34.065665 ], [ -98.48204, 34.06227 ], [ -98.486328, 34.062598 ], [ -98.4888, 34.066076 ], [ -98.494154, 34.069825 ], [ -98.504149, 34.072287 ], [ -98.516875, 34.085984 ], [ -98.5282, 34.094961 ], [ -98.536257, 34.107343 ], [ -98.550917, 34.119334 ], [ -98.55387, 34.119542 ], [ -98.55682, 34.121079 ], [ -98.558027, 34.122856 ], [ -98.559557, 34.123418 ], [ -98.560574, 34.123567 ], [ -98.560977, 34.124631 ], [ -98.560136, 34.126926 ], [ -98.558593, 34.128254 ], [ -98.556252, 34.127727 ], [ -98.554324, 34.126605 ], [ -98.551845, 34.127131 ], [ -98.551046, 34.127818 ], [ -98.550219, 34.130132 ], [ -98.550522, 34.132194 ], [ -98.551982, 34.13295 ], [ -98.552836, 34.133568 ], [ -98.560191, 34.133202 ], [ -98.567215, 34.138105 ], [ -98.572451, 34.145091 ], [ -98.577136, 34.148962 ], [ -98.58554, 34.152328 ], [ -98.599789, 34.160571 ], [ -98.603978, 34.160249 ], [ -98.608853, 34.157521 ], [ -98.609987002566101, 34.157154049572803 ], [ -98.611829, 34.156558 ], [ -98.616733, 34.156418 ], [ -98.618616157999298, 34.156714617426601 ], [ -98.621666, 34.157195 ], [ -98.63573, 34.161618 ], [ -98.643223, 34.164531 ], [ -98.648073, 34.164441 ], [ -98.650583, 34.163113 ], [ -98.655655, 34.158258 ], [ -98.677379, 34.142537 ], [ -98.678693, 34.142135 ], [ -98.68412, 34.13879 ], [ -98.685627, 34.136568 ], [ -98.690595, 34.132972 ], [ -98.693405, 34.13375 ], [ -98.696518, 34.133521 ], [ -98.700182, 34.135995 ], [ -98.703047, 34.135903 ], [ -98.706132, 34.134986 ], [ -98.70996, 34.131549 ], [ -98.712467, 34.13116 ], [ -98.71412, 34.132144 ], [ -98.71423, 34.133404 ], [ -98.714947, 34.134847 ], [ -98.716104, 34.135947 ], [ -98.717537, 34.13645 ], [ -98.71922, 34.13638 ], [ -98.722717, 34.135281 ], [ -98.723626, 34.135189 ], [ -98.725003, 34.135463 ], [ -98.728502, 34.135279 ], [ -98.73043, 34.135917 ], [ -98.734287, 34.135758 ], [ -98.735471, 34.135208 ], [ -98.73682, 34.133374 ], [ -98.737232, 34.130992 ], [ -98.739461, 34.127394 ], [ -98.741966, 34.12553 ], [ -98.749291, 34.124238 ], [ -98.750760007138794, 34.124312910640299 ], [ -98.753709604526406, 34.124463322590699 ], [ -98.757037, 34.124633 ], [ -98.759653, 34.126912 ], [ -98.759486, 34.128882 ], [ -98.760558, 34.132388 ], [ -98.761797, 34.133785 ], [ -98.76557, 34.136376 ], [ -98.779425, 34.140232 ], [ -98.788405, 34.146668 ], [ -98.792015, 34.143736 ], [ -98.796203, 34.142775 ], [ -98.799756, 34.147883 ], [ -98.804413, 34.153931 ], [ -98.80681, 34.155901 ], [ -98.812954, 34.158444 ], [ -98.815269, 34.158101 ], [ -98.831115, 34.162154 ], [ -98.832135, 34.161787 ], [ -98.833346, 34.159107 ], [ -98.83668, 34.156495 ], [ -98.840676, 34.157296 ], [ -98.842191, 34.158051 ], [ -98.843542, 34.158143 ], [ -98.844727, 34.159082 ], [ -98.846991976587304, 34.159726481359101 ], [ -98.847774, 34.159949 ], [ -98.84966, 34.159699 ], [ -98.851671, 34.160294 ], [ -98.854184, 34.161652 ], [ -98.855585, 34.161621 ], [ -98.857322, 34.161094 ], [ -98.8579, 34.159627 ], [ -98.858419, 34.152732 ], [ -98.860125, 34.149913 ], [ -98.86255, 34.149111 ], [ -98.868116, 34.149635 ], [ -98.873271, 34.153596 ], [ -98.874872, 34.155657 ], [ -98.874955, 34.157031 ], [ -98.872229, 34.160446 ], [ -98.871211, 34.163012 ], [ -98.871543, 34.165027 ], [ -98.872922, 34.166584 ], [ -98.874849, 34.167522 ], [ -98.876291, 34.167593 ], [ -98.881326, 34.16735 ], [ -98.886037, 34.167916 ], [ -98.888958, 34.169406 ], [ -98.892146, 34.172345 ], [ -98.909349, 34.177499 ], [ -98.918333, 34.181831 ], [ -98.920704, 34.183435 ], [ -98.923129, 34.185978 ], [ -98.923431106202401, 34.186339452232403 ], [ -98.927456, 34.191155 ], [ -98.928145, 34.192689 ], [ -98.94022, 34.203686 ], [ -98.950396, 34.21168 ], [ -98.952357534912693, 34.212578766587299 ], [ -98.952513, 34.21265 ], [ -98.958475, 34.213855 ], [ -98.960791, 34.21303 ], [ -98.962307, 34.211312 ], [ -98.962085, 34.206386 ], [ -98.96247, 34.204668 ], [ -98.966302, 34.201323 ], [ -98.969003, 34.201299 ], [ -98.974132, 34.203566 ], [ -98.976587, 34.206291 ], [ -98.978685, 34.210231 ], [ -98.981364, 34.217583 ], [ -98.987294, 34.221223 ], [ -98.990852, 34.221633 ], [ -99.000761, 34.217643 ], [ -99.003433, 34.214466 ], [ -99.002916, 34.208782 ], [ -99.00579, 34.206647 ], [ -99.013075, 34.203222 ], [ -99.027935340857695, 34.205585766607697 ], [ -99.036273, 34.206912 ], [ -99.037459, 34.206454 ], [ -99.039004, 34.204667 ], [ -99.040962, 34.200842 ], [ -99.043471, 34.198208 ], [ -99.048792, 34.198209 ], [ -99.058084, 34.200569 ], [ -99.0588, 34.201256 ], [ -99.059159, 34.202929 ], [ -99.060344, 34.204761 ], [ -99.066465, 34.208404 ], [ -99.075978, 34.211221 ], [ -99.079535, 34.211518 ], [ -99.084609, 34.209434 ], [ -99.088923, 34.208475 ], [ -99.092191, 34.209316 ], [ -99.092851, 34.210742 ], [ -99.095271, 34.211842 ], [ -99.097876, 34.211019 ], [ -99.100249, 34.208867 ], [ -99.102186, 34.205483 ], [ -99.106301, 34.204698 ], [ -99.1093, 34.205453 ], [ -99.112844, 34.205818 ], [ -99.116965, 34.203729 ], [ -99.119204, 34.201747 ], [ -99.119969991380501, 34.201877768866702 ], [ -99.126567, 34.203004 ], [ -99.129792, 34.204403 ], [ -99.131168, 34.205742 ], [ -99.131885, 34.207382 ], [ -99.131553, 34.209352 ], [ -99.13009, 34.212192 ], [ -99.127525, 34.213771 ], [ -99.126614, 34.215329 ], [ -99.126799, 34.217115 ], [ -99.127549, 34.217986 ], [ -99.128514, 34.218766 ], [ -99.130609, 34.219408 ], [ -99.133397, 34.219665 ], [ -99.13822, 34.219159 ], [ -99.13918, 34.217605 ], [ -99.141504, 34.216655 ], [ -99.142471, 34.215408 ], [ -99.143985, 34.214763 ], [ -99.144481, 34.213329 ], [ -99.147848, 34.209444 ], [ -99.15134, 34.207603 ], [ -99.156823, 34.207214 ], [ -99.159016, 34.20888 ], [ -99.189511, 34.214312 ], [ -99.192104, 34.216694 ], [ -99.192683, 34.218825 ], [ -99.192076, 34.222192 ], [ -99.190036, 34.227186 ], [ -99.190146, 34.22966 ], [ -99.191139, 34.23234 ], [ -99.195553, 34.24006 ], [ -99.197153, 34.244298 ], [ -99.191805, 34.256444 ], [ -99.197128673111493, 34.261825091994098 ], [ -99.198017, 34.262723 ], [ -99.194459, 34.271881 ], [ -99.19626, 34.281463 ], [ -99.200222, 34.281152 ], [ -99.207766, 34.283823 ], [ -99.211449, 34.29275 ], [ -99.21025, 34.300942 ], [ -99.211728452107707, 34.3054011875413 ], [ -99.213476, 34.310672 ], [ -99.206584, 34.31696 ], [ -99.205824, 34.320082 ], [ -99.209724, 34.324935 ], [ -99.210779, 34.330983 ], [ -99.210716, 34.336304 ], [ -99.210078, 34.337705 ], [ -99.206905, 34.338277 ], [ -99.213135, 34.340369 ], [ -99.217335, 34.34152 ], [ -99.221975, 34.34002 ], [ -99.229245, 34.336516 ], [ -99.234256, 34.340865 ], [ -99.228636, 34.348564 ], [ -99.234252, 34.353459 ], [ -99.234741, 34.354977 ], [ -99.234843, 34.356441 ], [ -99.235422, 34.357094 ], [ -99.236521, 34.358569 ], [ -99.237233, 34.362717 ], [ -99.236441, 34.363598 ], [ -99.236177, 34.365172 ], [ -99.237562, 34.366701 ], [ -99.241476, 34.364536 ], [ -99.243217, 34.364032 ], [ -99.244454, 34.363701 ], [ -99.247009, 34.36478 ], [ -99.247372, 34.365985 ], [ -99.24812, 34.367433 ], [ -99.247942, 34.368487 ], [ -99.246231, 34.369896 ], [ -99.243543, 34.370711 ], [ -99.243024, 34.371142 ], [ -99.242855, 34.372676 ], [ -99.246699, 34.374687 ], [ -99.247584, 34.375551 ], [ -99.248969, 34.375984 ], [ -99.25071, 34.375449 ], [ -99.254631, 34.372419 ], [ -99.256498, 34.372229 ], [ -99.258606, 34.37265 ], [ -99.259334, 34.373621 ], [ -99.259141, 34.376812 ], [ -99.260441, 34.378078 ], [ -99.264958, 34.378756 ], [ -99.271281, 34.381604 ], [ -99.272922, 34.383547 ], [ -99.274858, 34.384922 ], [ -99.27534, 34.386599 ], [ -99.273894, 34.387577 ], [ -99.271655, 34.38769 ], [ -99.264508, 34.388085 ], [ -99.261126, 34.389561 ], [ -99.25898, 34.391243 ], [ -99.258807, 34.392078 ], [ -99.261822, 34.395036 ], [ -99.261825, 34.398677 ], [ -99.260987, 34.401751 ], [ -99.261321, 34.403499 ], [ -99.264167, 34.405149 ], [ -99.266308, 34.405481 ], [ -99.267745, 34.404955 ], [ -99.269566, 34.40191 ], [ -99.27526, 34.400104 ], [ -99.278828, 34.400265 ], [ -99.28151, 34.401457 ], [ -99.28317, 34.402946 ], [ -99.282814, 34.405465 ], [ -99.282843, 34.40748 ], [ -99.283773, 34.409558 ], [ -99.286437, 34.413025 ], [ -99.28791, 34.41403 ], [ -99.289922, 34.414731 ], [ -99.294648, 34.415373 ], [ -99.299098, 34.414228 ], [ -99.308274, 34.410014 ], [ -99.314996352801401, 34.408512489169297 ], [ -99.316373, 34.408205 ], [ -99.319606, 34.408869 ], [ -99.324222, 34.414458 ], [ -99.328674, 34.422383 ], [ -99.334037, 34.427536 ], [ -99.341337, 34.431061 ], [ -99.350407, 34.437083 ], [ -99.356713, 34.442144 ], [ -99.356771, 34.446542 ], [ -99.3557925991894, 34.449019465606497 ], [ -99.354672, 34.451857 ], [ -99.358795, 34.455863 ], [ -99.36961, 34.458699 ], [ -99.375365, 34.458845 ], [ -99.381011, 34.456936 ], [ -99.394956, 34.442099 ], [ -99.395605, 34.440378 ], [ -99.396115, 34.43497 ], [ -99.394625, 34.4327 ], [ -99.393049, 34.431921 ], [ -99.393802, 34.42901 ], [ -99.393306, 34.427613 ], [ -99.396824, 34.424703 ], [ -99.397379, 34.423259 ], [ -99.396665, 34.421203 ], [ -99.397135, 34.419409 ], [ -99.396488, 34.417291 ], [ -99.393919, 34.415274 ], [ -99.387653, 34.411984 ], [ -99.391492, 34.405631 ], [ -99.395921, 34.395726 ], [ -99.396839, 34.379417 ], [ -99.40296, 34.373481 ], [ -99.407168, 34.372605 ], [ -99.413045, 34.377012 ], [ -99.420714, 34.380386 ], [ -99.421908, 34.384201 ], [ -99.423679, 34.385663 ], [ -99.424897, 34.385823 ], [ -99.427497, 34.385136 ], [ -99.429154, 34.382849 ], [ -99.43001, 34.381019 ], [ -99.430284, 34.378801 ], [ -99.429324, 34.375834 ], [ -99.430609, 34.374426 ], [ -99.431121, 34.373989 ], [ -99.430901, 34.371996 ], [ -99.431043, 34.371117 ], [ -99.433458, 34.370223 ], [ -99.434968, 34.370699 ], [ -99.436474, 34.370539 ], [ -99.437572, 34.371259 ], [ -99.438269, 34.371164 ], [ -99.440671, 34.372774 ], [ -99.441057, 34.374042 ], [ -99.441937, 34.374412 ], [ -99.442394, 34.375453 ], [ -99.443669, 34.376457 ], [ -99.445336, 34.379768 ], [ -99.452648, 34.388252 ], [ -99.454229, 34.388755 ], [ -99.454726, 34.388411 ], [ -99.455472, 34.386097 ], [ -99.454997, 34.38178 ], [ -99.455085, 34.381264 ], [ -99.456328, 34.380392 ], [ -99.459395, 34.380117 ], [ -99.461053, 34.380666 ], [ -99.461827, 34.382414 ], [ -99.462048, 34.384401 ], [ -99.461854, 34.387241 ], [ -99.462462, 34.391137 ], [ -99.464036, 34.393634 ], [ -99.466383, 34.3959 ], [ -99.468427, 34.396634 ], [ -99.470306, 34.396748 ], [ -99.470969, 34.396471 ], [ -99.472268, 34.395602 ], [ -99.473789, 34.39535 ], [ -99.475080691643299, 34.395998351528 ], [ -99.475851, 34.396385 ], [ -99.477547, 34.396355 ], [ -99.487219, 34.397955 ], [ -99.490426, 34.399694 ], [ -99.494104, 34.404755 ], [ -99.496399, 34.406495 ], [ -99.497091, 34.407731 ], [ -99.499875, 34.409608 ], [ -99.502836, 34.409327 ], [ -99.506903, 34.40952 ], [ -99.507621, 34.409887 ], [ -99.50911, 34.411267 ], [ -99.511102, 34.412705 ], [ -99.51428, 34.414035 ], [ -99.517624, 34.414494 ], [ -99.52365, 34.412206 ], [ -99.529786, 34.411452 ], [ -99.549242, 34.412715 ], [ -99.555986, 34.41464 ], [ -99.562204, 34.417319 ], [ -99.569696, 34.418418 ], [ -99.574367, 34.418281 ], [ -99.58006, 34.416653 ], [ -99.58448, 34.407673 ], [ -99.585306, 34.398122 ], [ -99.584531, 34.391205 ], [ -99.585442, 34.388914 ], [ -99.586751594655993, 34.387061476825998 ], [ -99.587596, 34.385867 ], [ -99.589671, 34.384787 ], [ -99.592983, 34.382407 ], [ -99.596186, 34.379016 ], [ -99.596323, 34.377137 ], [ -99.600026, 34.374688 ], [ -99.604782, 34.376326 ], [ -99.607263, 34.376928 ], [ -99.610136, 34.37656 ], [ -99.611572, 34.375643 ], [ -99.616793, 34.375391 ], [ -99.619556, 34.374627 ], [ -99.621513, 34.3737 ], [ -99.624197, 34.373577 ], [ -99.630905, 34.376007 ], [ -99.631181, 34.377061 ], [ -99.631843, 34.377703 ], [ -99.633859, 34.378757 ], [ -99.635324, 34.37917 ], [ -99.639661, 34.379905 ], [ -99.641763, 34.38109 ], [ -99.642755, 34.381555 ], [ -99.643694, 34.381463 ], [ -99.644578, 34.38167 ], [ -99.646511, 34.382541 ], [ -99.648142, 34.382312 ], [ -99.648584, 34.3819 ], [ -99.649662, 34.379885 ], [ -99.654194, 34.376519 ], [ -99.659362, 34.37439 ], [ -99.662705, 34.37368 ], [ -99.665992, 34.374185 ], [ -99.671377, 34.377714 ], [ -99.67485, 34.378956 ], [ -99.678283, 34.379799 ], [ -99.682482, 34.379822 ], [ -99.684361, 34.379501 ], [ -99.687234, 34.378585 ], [ -99.690604, 34.378219 ], [ -99.69497, 34.378333 ], [ -99.695566, 34.378899 ], [ -99.696462, 34.381036 ], [ -99.698424, 34.383074 ], [ -99.701187, 34.385203 ], [ -99.702734, 34.385501 ], [ -99.704005, 34.385982 ], [ -99.705249, 34.385775 ], [ -99.706658, 34.385981 ], [ -99.707901, 34.387539 ], [ -99.712682, 34.390928 ], [ -99.714838, 34.394524 ], [ -99.714232, 34.397822 ], [ -99.715089, 34.400754 ], [ -99.716416, 34.402815 ], [ -99.720259, 34.406295 ], [ -99.730348, 34.41124 ], [ -99.740907, 34.414763 ], [ -99.754248, 34.421289 ], [ -99.767234, 34.430502 ], [ -99.767648, 34.431854 ], [ -99.764882, 34.435266 ], [ -99.764826, 34.436434 ], [ -99.765599, 34.437488 ], [ -99.773053, 34.441587 ], [ -99.773992, 34.443062 ], [ -99.775743, 34.444225 ], [ -99.782986, 34.444364 ], [ -99.78376, 34.445005 ], [ -99.785445, 34.450045 ], [ -99.786606, 34.451511 ], [ -99.787767, 34.451809 ], [ -99.78879, 34.451489 ], [ -99.791583, 34.45252 ], [ -99.793684, 34.453894 ], [ -99.814313, 34.476204 ], [ -99.814535098088299, 34.476644181751098 ], [ -99.818739, 34.484976 ], [ -99.818186, 34.48784 ], [ -99.81672, 34.489718 ], [ -99.819376, 34.49494 ], [ -99.822281, 34.4981 ], [ -99.825325, 34.497596 ], [ -99.832904, 34.500068 ], [ -99.844658203658099, 34.506786936472501 ], [ -99.853066, 34.511593 ], [ -99.868953, 34.527615 ], [ -99.872357, 34.532096 ], [ -99.873254, 34.535351 ], [ -99.873617010795698, 34.535901992887503 ], [ -99.874403, 34.537095 ], [ -99.887147, 34.549047 ], [ -99.89376, 34.554219 ], [ -99.896007, 34.55553 ], [ -99.898943, 34.555804 ], [ -99.915771, 34.565975 ], [ -99.921801, 34.570253 ], [ -99.923211, 34.574552 ], [ -99.929334, 34.576714 ], [ -99.94572, 34.579273 ], [ -99.954567, 34.578195 ], [ -99.956521665024695, 34.576675816159899 ], [ -99.956717, 34.576524 ], [ -99.957553, 34.574169 ], [ -99.957541, 34.572709 ], [ -99.958898, 34.571271 ], [ -99.965608, 34.565844 ], [ -99.971555, 34.562179 ], [ -99.974762, 34.561318 ], [ -99.985833, 34.560079 ], [ -99.997501410946697, 34.560423887043399 ], [ -100.000381, 34.560509 ], [ -100.000381, 34.570426199215703 ], [ -100.000381, 34.616297 ], [ -100.000381, 34.746358 ], [ -100.000381, 34.746461 ], [ -100.000381979734001, 34.853311000000197 ], [ -100.000383599195999, 35.029930000203898 ], [ -100.000384602330001, 35.139332000003598 ], [ -100.000385, 35.182702 ], [ -100.000385585790994, 35.219222997921399 ], [ -100.000385600949002, 35.220167997680598 ], [ -100.000386882596999, 35.300072000001897 ], [ -100.000386884967995, 35.300219822563598 ], [ -100.000388841577006, 35.422203994889301 ], [ -100.000388844143004, 35.422363988309399 ], [ -100.000388942772005, 35.428512953191898 ], [ -100.000390930799995, 35.552455999707803 ], [ -100.000392, 35.619115 ], [ -100.000392093753007, 35.624961999982503 ], [ -100.000394036974996, 35.746153000276699 ], [ -100.000396202898997, 35.881232999996698 ], [ -100.000398790976007, 36.0426410036671 ], [ -100.000399, 36.055677 ], [ -100.000400703064003, 36.163705999988899 ], [ -100.000401313984995, 36.202457999994998 ], [ -100.000402224683995, 36.260225587313002 ], [ -100.000402433432996, 36.273466999320497 ], [ -100.000406, 36.499702 ], [ -100.003761886524003, 36.499699453548097 ], [ -100.025724867048993, 36.499682788004698 ], [ -100.090021, 36.499634 ], [ -100.181221, 36.499633 ], [ -100.253333137412, 36.499638014674701 ], [ -100.258247025540996, 36.499638356386299 ], [ -100.310643, 36.499642 ], [ -100.310911387708003, 36.499674922225601 ], [ -100.311018, 36.499688 ], [ -100.311245, 36.499631 ], [ -100.32415, 36.499679 ], [ -100.334441, 36.49944 ], [ -100.334464, 36.49942 ], [ -100.351842, 36.499473 ], [ -100.351852, 36.499487 ], [ -100.378592, 36.499445 ], [ -100.378634, 36.499517 ], [ -100.41355, 36.499469 ], [ -100.413634, 36.499444 ], [ -100.421301, 36.499488 ], [ -100.421328, 36.499447 ], [ -100.424473999827995, 36.499449241627602 ], [ -100.433959, 36.499456 ], [ -100.441064, 36.499462 ], [ -100.441065, 36.49949 ], [ -100.450508913803006, 36.499466844596597 ], [ -100.486568034645998, 36.499378431730399 ], [ -100.489069748185997, 36.499372297813103 ], [ -100.522122998184997, 36.4992912550006 ], [ -100.522227, 36.499291 ], [ -100.530314, 36.499357 ], [ -100.530478, 36.49924 ], [ -100.531215, 36.49929 ], [ -100.531215, 36.499341 ], [ -100.546145, 36.499343 ], [ -100.578114, 36.499439 ], [ -100.578114, 36.499463 ], [ -100.583379, 36.499443 ], [ -100.583539, 36.499483 ], [ -100.592551, 36.499429 ], [ -100.592556, 36.499469 ], [ -100.592614, 36.499469 ], [ -100.612161000742006, 36.499466895531903 ], [ -100.648344, 36.499463 ], [ -100.648343, 36.499495 ], [ -100.657763, 36.4995 ], [ -100.657763, 36.499483 ], [ -100.708628, 36.499521 ], [ -100.708626, 36.499553 ], [ -100.724361, 36.499558 ], [ -100.724362, 36.49958 ], [ -100.761811, 36.49958 ], [ -100.761811, 36.499618 ], [ -100.802886, 36.499621 ], [ -100.802909, 36.499621 ], [ -100.806126905829004, 36.499633820341899 ], [ -100.806172, 36.499634 ], [ -100.80619, 36.499674 ], [ -100.824218, 36.499618 ], [ -100.824236, 36.499618 ], [ -100.85084, 36.4997 ], [ -100.859657, 36.499687 ], [ -100.88408, 36.499682 ], [ -100.884174, 36.499682 ], [ -100.918513, 36.499621 ], [ -100.936058, 36.499602 ], [ -100.954152945903004, 36.4995989128779 ], [ -100.977088, 36.499595 ], [ -101.045331, 36.49954 ], [ -101.052418, 36.499563 ], [ -101.085156, 36.499244 ], [ -101.204790103731, 36.499307063606302 ], [ -101.366842098844998, 36.499392487268103 ], [ -101.583013007147997, 36.499506439031201 ], [ -101.623915, 36.499528 ], [ -101.649966, 36.499573 ], [ -101.653708, 36.499573 ], [ -101.672774979829001, 36.499545444723097 ], [ -101.690633999472993, 36.499519635169797 ], [ -101.698685, 36.499508 ], [ -101.709314, 36.499722 ], [ -101.751677321420999, 36.499729249751901 ], [ -101.773235947556003, 36.499732939139001 ], [ -101.778134001577996, 36.499733777356496 ], [ -101.779435, 36.499734 ], [ -101.78061, 36.499727 ], [ -101.781987, 36.499718 ], [ -101.783359, 36.499709 ], [ -101.787183, 36.499684048621297 ], [ -101.78811, 36.499678 ], [ -101.814493093514002, 36.4995797197465 ], [ -101.826498, 36.499535 ], [ -101.826565, 36.499654 ], [ -101.914828339438998, 36.5003963382715 ], [ -101.930245, 36.500526 ], [ -101.931657648976, 36.500527163577203 ], [ -102.032339034055994, 36.500610093281601 ], [ -102.122066, 36.500684 ], [ -102.12545, 36.500324 ], [ -102.1438, 36.500324991543501 ], [ -102.162463, 36.500326 ], [ -102.24499, 36.500704 ], [ -102.250453, 36.500369 ], [ -102.382613575418006, 36.5003739209968 ], [ -102.570696000934007, 36.500380924242798 ], [ -102.792202179534996, 36.500389172021698 ], [ -103.002434, 36.500397 ], [ -103.002565, 36.526588 ], [ -103.002188, 36.602716 ], [ -103.002252, 36.61718 ], [ -103.002518, 36.675186 ], [ -103.002198, 36.719427 ], [ -103.002143744581005, 36.763514396807302 ], [ -103.001964, 36.909573 ], [ -103.002247, 36.911587 ], [ -103.002199, 37.000104 ], [ -102.986976, 36.998524 ], [ -102.985807, 36.998571 ], [ -102.979613, 36.998549 ], [ -102.886686995861993, 36.999511594676797 ], [ -102.877863, 36.999603 ], [ -102.841933096288003, 36.999679105881398 ], [ -102.832541, 36.999699 ], [ -102.812469, 36.999725 ], [ -102.74206, 36.997689 ], [ -102.698142, 36.995149 ], [ -102.355367, 36.994575 ], [ -102.355288, 36.994506 ], [ -102.325156624789003, 36.994468375239201 ], [ -102.270250050420003, 36.994399813923401 ], [ -102.260789, 36.994388 ], [ -102.252197617288999, 36.994280265930598 ], [ -102.208316, 36.99373 ], [ -102.184271, 36.993593 ], [ -102.136450934192993, 36.9934146439195 ], [ -102.054503, 36.993109 ], [ -102.042089, 36.993016 ], [ -102.028207, 36.993125 ], [ -102.000447, 36.993272 ], [ -102.000447, 36.993249 ], [ -101.935216302727994, 36.993550504033998 ], [ -101.908051206127993, 36.993676064338501 ], [ -101.90244, 36.993702 ], [ -101.898975209824997, 36.993718042881298 ], [ -101.880869062710005, 36.9938018790603 ], [ -101.862678891165999, 36.993886104294198 ], [ -101.826552132885993, 36.994053380598402 ], [ -101.718255341420999, 36.994554822961199 ], [ -101.703684195818994, 36.994622291162102 ], [ -101.632505170710999, 36.994951868595003 ], [ -101.601593, 36.995095 ], [ -101.600396, 36.995153 ], [ -101.595196508927003, 36.995183052199401 ], [ -101.555260303913002, 36.995413876866898 ], [ -101.555239, 36.995414 ], [ -101.519066, 36.995546 ], [ -101.485326, 36.995611 ], [ -101.415005, 36.995966 ], [ -101.413868, 36.996008 ], [ -101.397040795980004, 36.996081555363901 ], [ -101.37818, 36.996164 ], [ -101.361127690394, 36.996226658437998 ], [ -101.359674, 36.996232 ], [ -101.357797, 36.996271 ], [ -101.283207834316002, 36.996668944792297 ], [ -101.214917193591006, 36.997033285975 ], [ -101.212909, 36.997044 ], [ -101.211486, 36.997124 ], [ -101.090050193514003, 36.997792658720002 ], [ -101.066742, 36.997921 ], [ -101.066451000186007, 36.997922017713897 ], [ -101.053589, 36.997967 ], [ -101.017729108601003, 36.998150030118701 ], [ -101.012641, 36.998176 ], [ -100.996502, 36.998044 ], [ -100.958226495697005, 36.998125155851703 ], [ -100.945566, 36.998152 ], [ -100.945468897552004, 36.998152969176203 ], [ -100.904588, 36.998561 ], [ -100.904274, 36.998745 ], [ -100.904215897903001, 36.998744350531503 ], [ -100.89166, 36.998604 ], [ -100.868239870721993, 36.998618301972002 ], [ -100.855634, 36.998626 ], [ -100.849999795024004, 36.998688531133404 ], [ -100.814277, 36.999085 ], [ -100.806116, 36.999091 ], [ -100.765484, 36.999177 ], [ -100.756894, 36.999357 ], [ -100.734517, 36.999059 ], [ -100.729364903664006, 36.999113959189302 ], [ -100.675552, 36.999688 ], [ -100.675320239550999, 36.999689361198101 ], [ -100.633327, 36.999936 ], [ -100.62977, 37.000025 ], [ -100.591413, 37.000399 ], [ -100.591328, 37.000376 ], [ -100.552683, 37.000735 ], [ -100.552218029946999, 37.000685717459803 ], [ -100.551598, 37.00062 ], [ -100.434274261089001, 37.001109851974299 ], [ -100.269986614996995, 37.001795788414199 ], [ -100.216074999502993, 37.002020881064098 ], [ -100.201676, 37.002081 ], [ -100.193754, 37.002133 ], [ -100.192371, 37.002036 ], [ -100.187547, 37.002082 ], [ -100.124494240073005, 37.002190855443502 ], [ -100.115722, 37.002206 ], [ -100.089483739431003, 37.002091522423299 ], [ -100.005706, 37.001726 ], [ -100.002563, 37.001706 ], [ -100.001286, 37.001699 ], [ -99.995201, 37.001631 ], [ -99.904897139605694, 37.001652107487097 ], [ -99.875409, 37.001659 ], [ -99.828644615941499, 37.001278159536 ], [ -99.786016, 37.000931 ], [ -99.774816, 37.000841 ], [ -99.774255, 37.000837 ], [ -99.774172401145904, 37.000836546615503 ], [ -99.722587154595303, 37.000553395609998 ], [ -99.657658, 37.000197 ], [ -99.648652, 36.999604 ], [ -99.625399, 36.999671 ], [ -99.558068, 36.999528 ], [ -99.5411159015717, 36.999572526059602 ], [ -99.508574, 36.999658 ], [ -99.504093, 36.999648 ], [ -99.502665, 36.999645 ], [ -99.500395, 36.999637 ], [ -99.500395, 36.999576 ], [ -99.484333, 36.999626 ], [ -99.456203, 36.999471 ], [ -99.407015, 36.999579 ], [ -99.396673800158894, 36.999774548871301 ], [ -99.375391, 37.000177 ], [ -99.277506, 36.999579 ], [ -99.24812, 36.999565 ], [ -99.215433037823104, 36.999525611812601 ], [ -99.129449, 36.999422 ], [ -99.124883, 36.99942 ], [ -99.049695, 36.999221 ], [ -99.029337, 36.999595 ], [ -99.013667908719299, 36.999549291388497 ], [ -99.000302913032499, 36.999510304099097 ], [ -98.994371, 36.999493 ], [ -98.986050309038703, 36.9994795454461 ], [ -98.88058, 36.999309 ], [ -98.880009, 36.999263 ], [ -98.869449, 36.999286 ], [ -98.811832043238894, 36.999240384675304 ], [ -98.797452, 36.999229 ], [ -98.793711, 36.999227 ], [ -98.791936, 36.999255 ], [ -98.761597, 36.999425 ], [ -98.718465, 36.99918 ], [ -98.714512, 36.99906 ], [ -98.6518419384536, 36.999036725926203 ], [ -98.622265005837406, 36.999025741802399 ], [ -98.544872, 36.998997 ], [ -98.544660084855096, 36.998996182346097 ], [ -98.476403780405505, 36.998732822067304 ], [ -98.420209, 36.998516 ], [ -98.418268, 36.998538 ], [ -98.408991, 36.998513 ], [ -98.354073, 36.997961 ], [ -98.347148975507693, 36.997961878126098 ], [ -98.346188, 36.997962 ], [ -98.291792126767305, 36.997967014553701 ], [ -98.237712, 36.997972 ], [ -98.219499, 36.997824 ], [ -98.208218, 36.997997 ], [ -98.190368017591396, 36.998003994964002 ], [ -98.177722572632007, 36.998008950399303 ], [ -98.177596, 36.998009 ], [ -98.147452, 36.998162 ], [ -98.146311223864501, 36.998161067231301 ], [ -98.128177722000302, 36.998146240165198 ], [ -98.111985, 36.998133 ], [ -98.045342, 36.998327 ], [ -98.03989, 36.998349 ], [ -98.038751595421502, 36.998352260805 ], [ -98.033955, 36.998366 ], [ -98.030204985507595, 36.998371617162597 ], [ -97.965291918889505, 36.998468850719597 ], [ -97.876450823208799, 36.998601926172498 ], [ -97.8023129924768, 36.998712977542702 ], [ -97.802298, 36.998713 ], [ -97.783489, 36.998847 ], [ -97.783432, 36.998961 ], [ -97.768704, 36.99875 ], [ -97.697104, 36.998826 ], [ -97.692179983944001, 36.9988447931485 ], [ -97.650466, 36.999004 ], [ -97.637137, 36.99909 ], [ -97.636844005391893, 36.999086091872599 ], [ -97.614789574267306, 36.998791917428399 ], [ -97.606549, 36.998682 ], [ -97.582376688337007, 36.998698685241202 ], [ -97.564536, 36.998711 ], [ -97.546498, 36.998747 ], [ -97.5459, 36.998709 ], [ -97.527292, 36.99875 ], [ -97.472861, 36.998721 ], [ -97.462346321925494, 36.9986852256487 ], [ -97.46228, 36.998685 ], [ -97.414486129739501, 36.9987826204706 ], [ -97.400903929478005, 36.998810362538201 ], [ -97.384925, 36.998843 ], [ -97.372421, 36.998861 ], [ -97.364866050093795, 36.998869405596203 ], [ -97.342757075660799, 36.998894003921201 ], [ -97.342737653289504, 36.998894025530397 ], [ -97.255771123690906, 36.998990784019 ], [ -97.219883393136897, 36.999030712513203 ], [ -97.201465115937395, 36.999051204588397 ], [ -97.156239084026296, 36.999101522826003 ], [ -97.147721, 36.999111 ], [ -97.122597, 36.999036 ], [ -97.120285, 36.999014 ], [ -97.111407156513707, 36.999017327319699 ], [ -97.104276, 36.99902 ], [ -97.100652, 36.998998 ], [ -97.045906000617705, 36.9989997988434 ], [ -97.039784, 36.999 ], [ -97.039694201654399, 36.998999342848599 ], [ -97.030082, 36.998929 ], [ -96.975562, 36.999019 ], [ -96.967371, 36.999067 ], [ -96.934642, 36.99907 ], [ -96.925294003147798, 36.999129494597703 ], [ -96.921915, 36.999151 ], [ -96.917093, 36.999182 ], [ -96.903748155059006, 36.999132876665897 ], [ -96.90351, 36.999132 ], [ -96.902083, 36.999155 ], [ -96.87629, 36.999233 ], [ -96.867517, 36.999217 ], [ -96.867469028200901, 36.999216962459997 ], [ -96.822900021844404, 36.999182085314203 ], [ -96.822791, 36.999182 ], [ -96.795199, 36.99886 ], [ -96.79206, 36.99918 ], [ -96.749838, 36.998988 ], [ -96.74127, 36.999239 ], [ -96.73659, 36.999286 ], [ -96.731983004127301, 36.999283353112503 ], [ -96.710482, 36.999271 ], [ -96.705431, 36.999203 ], [ -96.6244880080759, 36.998982041568603 ], [ -96.6073590074175, 36.998935282769303 ], [ -96.525577673860298, 36.998712035830401 ], [ -96.500288, 36.998643 ], [ -96.415773581916099, 36.999110997743799 ], [ -96.415412, 36.999113 ], [ -96.394272, 36.999221 ], [ -96.381556989653006, 36.999226629383102 ], [ -96.380300062300094, 36.999227185869103 ], [ -96.345283977725401, 36.999242688723598 ], [ -96.284852999753696, 36.999269443646902 ], [ -96.279079, 36.999272 ], [ -96.276368, 36.999271 ], [ -96.235320168615203, 36.999130676274099 ], [ -96.217571, 36.99907 ], [ -96.200028, 36.999028 ], [ -96.184768, 36.999211 ], [ -96.184713016686899, 36.999210910599103 ], [ -96.184708206655401, 36.999210902778202 ], [ -96.154017, 36.999161 ], [ -96.152384, 36.999051 ], [ -96.149709, 36.99904 ], [ -96.147143, 36.999022 ], [ -96.143207, 36.999134 ], [ -96.14121, 36.998973 ], [ -96.091279162728497, 36.998932813499898 ], [ -96.035772063470702, 36.9988881389827 ], [ -96.00081, 36.99886 ], [ -95.964269933557205, 36.999093607244198 ], [ -95.936992, 36.999268 ], [ -95.928122, 36.999245 ], [ -95.91018, 36.999336 ], [ -95.877151, 36.999304 ], [ -95.875257, 36.999302 ], [ -95.873944, 36.9993 ], [ -95.873882523589003, 36.999299659676403 ], [ -95.866899, 36.999261 ], [ -95.819366036098899, 36.999150475108998 ], [ -95.80798, 36.999124 ], [ -95.786762, 36.99931 ], [ -95.768719, 36.999205 ], [ -95.759905, 36.999271 ], [ -95.754790411228996, 36.999263326837998 ], [ -95.746470151656098, 36.999250844368198 ], [ -95.741908, 36.999244 ], [ -95.718054, 36.999255 ], [ -95.714887, 36.999279 ], [ -95.710506543700603, 36.999368416902499 ], [ -95.71038, 36.999371 ], [ -95.696659, 36.999215 ], [ -95.686452, 36.999349 ], [ -95.6740419235188, 36.999333873275901 ], [ -95.664301, 36.999322 ], [ -95.660419999779506, 36.9993217731868 ], [ -95.642369651722106, 36.999320718289503 ], [ -95.637984003830198, 36.9993204619837 ], [ -95.630079, 36.99932 ], [ -95.628749608109601, 36.999329281842499 ], [ -95.62435, 36.99936 ], [ -95.621011730034795, 36.999361983287798 ], [ -95.615934, 36.999365 ], [ -95.615741086568207, 36.999362762733 ], [ -95.61214, 36.999321 ], [ -95.601517061574, 36.999317968182197 ], [ -95.588989991040293, 36.999314392919501 ], [ -95.573598, 36.99931 ], [ -95.534401, 36.999332 ], [ -95.522414988094496, 36.999281058267798 ], [ -95.511578, 36.999235 ], [ -95.407733042694403, 36.99924099711 ], [ -95.407683, 36.999241 ], [ -95.377257884219802, 36.999296301754804 ], [ -95.33121, 36.99938 ], [ -95.328327, 36.999366 ], [ -95.328058, 36.999365 ], [ -95.322565, 36.999358 ], [ -95.286079808624294, 36.999417347425002 ], [ -95.267875873055999, 36.9994469582523 ], [ -95.195307, 36.999565 ], [ -95.177301, 36.99952 ], [ -95.158968947758197, 36.999536719460302 ], [ -95.155372, 36.99954 ], [ -95.155187, 36.999539 ], [ -95.140461015576605, 36.999533591205299 ], [ -95.073509, 36.999509 ], [ -95.049499, 36.99958 ], [ -95.037857, 36.999497 ], [ -95.034953466992903, 36.999504708835801 ], [ -95.030324, 36.999517 ], [ -95.011433, 36.999535 ], [ -95.00762, 36.999514 ], [ -94.995293, 36.999529 ], [ -94.940611824638395, 36.999276943855797 ], [ -94.904382155216496, 36.999109941030497 ], [ -94.866889644524306, 36.998937117062901 ], [ -94.853197, 36.998874 ], [ -94.849801, 36.998876 ], [ -94.844367817457893, 36.998849675848 ], [ -94.840926, 36.998833 ], [ -94.831542921635204, 36.9988125723983 ], [ -94.83128, 36.998812 ], [ -94.808969935869698, 36.9987921772749 ], [ -94.777257, 36.998764 ], [ -94.777042300462199, 36.998763564182497 ], [ -94.749680625539298, 36.998708022860498 ], [ -94.744987081231898, 36.998698495459202 ], [ -94.740697956689601, 36.998689788987498 ], [ -94.739324, 36.998687 ], [ -94.737183, 36.998665 ], [ -94.731507, 36.998694992381097 ], [ -94.722419586906895, 36.998743010907702 ], [ -94.71277, 36.998794 ], [ -94.711269823060405, 36.998796734305898 ], [ -94.701797, 36.998814 ], [ -94.699735, 36.998805 ], [ -94.625224, 36.998672 ], [ -94.617964, 36.998905 ], [ -94.618049, 36.996208 ], [ -94.618045313211994, 36.995899948379098 ], [ -94.618045292103105, 36.995898184608997 ], [ -94.618031, 36.994704 ], [ -94.618026575432694, 36.955284645041601 ], [ -94.618026, 36.950158 ], [ -94.618109, 36.946564 ], [ -94.618166, 36.937584 ], [ -94.618295, 36.929647 ], [ -94.618207, 36.926236 ], [ -94.618207526643204, 36.926132328535502 ], [ -94.618238856640403, 36.919964914156601 ], [ -94.618282, 36.911472 ], [ -94.618243141766797, 36.897079508236097 ], [ -94.618243, 36.897027 ], [ -94.618325814177098, 36.893641995453798 ], [ -94.618658, 36.880064 ], [ -94.618657355519304, 36.879988090372699 ], [ -94.618563270608007, 36.868906376944501 ], [ -94.618563249152999, 36.868903849888099 ], [ -94.618561737446598, 36.868725794801797 ], [ -94.618559131100199, 36.868418808439799 ], [ -94.61838, 36.84732 ], [ -94.618376769419598, 36.843746004508901 ], [ -94.618367759180799, 36.833777964965101 ], [ -94.618359424304799, 36.824557080228203 ], [ -94.618359360866094, 36.824486897881002 ], [ -94.618357008137806, 36.821884071401698 ], [ -94.618311312737205, 36.771331187038001 ], [ -94.618307, 36.76656 ], [ -94.618280430535293, 36.756782286869097 ], [ -94.6182161130955, 36.733113105669297 ], [ -94.618171462704694, 36.716681509595396 ], [ -94.618149452771803, 36.708581729920198 ], [ -94.61813, 36.701423 ], [ -94.618025, 36.66943 ], [ -94.618019516158697, 36.667946072546201 ], [ -94.618019424289599, 36.667921212770501 ], [ -94.617862438161396, 36.625440766478398 ], [ -94.617859864902002, 36.624744442480001 ], [ -94.617859761993998, 36.624716595566397 ], [ -94.617815, 36.612604 ], [ -94.617865, 36.606851 ], [ -94.617864977036604, 36.606836205856602 ], [ -94.617853, 36.59912 ], [ -94.617850961400293, 36.598002011011097 ], [ -94.617824647389099, 36.583571137401897 ], [ -94.617814, 36.577732 ], [ -94.617875670237893, 36.547454885264202 ], [ -94.617897, 36.536983 ], [ -94.617869409876107, 36.536133414460899 ], [ -94.617868, 36.53609 ], [ -94.617997, 36.53428 ], [ -94.617994595351306, 36.533932359512796 ], [ -94.617883, 36.517799 ], [ -94.617877, 36.514999 ], [ -94.617894389758803, 36.508546157354502 ], [ -94.617897143961798, 36.507524151302299 ], [ -94.617900426376806, 36.506306140898801 ], [ -94.617918681554002, 36.499532166225499 ], [ -94.617919, 36.499414 ], [ -94.617722030214395, 36.498324775211501 ], [ -94.615311, 36.484992 ], [ -94.61383, 36.476248 ], [ -94.612686104974998, 36.468666669622998 ], [ -94.611609, 36.461528 ], [ -94.605408, 36.421949 ], [ -94.604018431418893, 36.413633542199896 ], [ -94.602623, 36.405283 ], [ -94.602464793751906, 36.404499891451103 ], [ -94.601984, 36.40212 ], [ -94.600814421403896, 36.394602315021402 ], [ -94.600514021885303, 36.392671440981402 ], [ -94.599723, 36.387587 ], [ -94.593397, 36.345742 ], [ -94.593102943140096, 36.343871795102402 ], [ -94.591686318205106, 36.334862044769103 ], [ -94.591319281200896, 36.332527685342797 ], [ -94.5862, 36.299969 ], [ -94.585932418321605, 36.298363928176897 ], [ -94.584730897207606, 36.2911566795471 ], [ -94.582588111366604, 36.278303313811897 ], [ -94.5810876072279, 36.269302634362802 ], [ -94.577883, 36.25008 ], [ -94.577899, 36.249548 ], [ -94.576003, 36.24007 ], [ -94.575071, 36.233682 ], [ -94.57488, 36.232741 ], [ -94.574395, 36.229996 ], [ -94.573761237322699, 36.226018643499003 ], [ -94.571806, 36.213748 ], [ -94.571267067804897, 36.210973425028101 ], [ -94.571253, 36.210901 ], [ -94.569291006767102, 36.199491998836301 ], [ -94.568066681658706, 36.192372541769998 ], [ -94.567808806060398, 36.1908729937836 ], [ -94.567160656393995, 36.187104 ], [ -94.566588, 36.183774 ], [ -94.566177559523794, 36.1814270547262 ], [ -94.565655, 36.178439 ], [ -94.565313245448607, 36.176439040861602 ], [ -94.563764722957302, 36.167377035118399 ], [ -94.562827691451204, 36.161893495203799 ], [ -94.562803, 36.161749 ], [ -94.561165, 36.15211 ], [ -94.5596915051255, 36.143926860757396 ], [ -94.559509342966194, 36.142915212641 ], [ -94.557228027075496, 36.1302457925349 ], [ -94.552164985998104, 36.102127900274802 ], [ -94.549870537299697, 36.089385546358997 ], [ -94.547871, 36.078281 ], [ -94.547715, 36.077271 ], [ -94.543256077222694, 36.051440409406602 ], [ -94.543255585410094, 36.051437560330903 ], [ -94.537305213024297, 36.016966985115502 ], [ -94.537303579991601, 36.016957524938398 ], [ -94.535724, 36.007807 ], [ -94.535212938830099, 36.004800999150703 ], [ -94.534852, 36.002678 ], [ -94.533672961804797, 35.996935321427202 ], [ -94.533646, 35.996804 ], [ -94.532090949743903, 35.987965390544403 ], [ -94.532071, 35.987852 ], [ -94.532067029771596, 35.987829019904602 ], [ -94.532061349361001, 35.987796141096901 ], [ -94.532047070667801, 35.987713494534603 ], [ -94.528327413129006, 35.9661837295236 ], [ -94.528305, 35.966054 ], [ -94.528162, 35.965665 ], [ -94.52464, 35.945727 ], [ -94.524344, 35.94405 ], [ -94.52291, 35.936127 ], [ -94.522634, 35.934892 ], [ -94.522658, 35.934799 ], [ -94.522658, 35.93425 ], [ -94.522248638527401, 35.931643992150697 ], [ -94.518264515215407, 35.906280939401903 ], [ -94.518231292216299, 35.906069440757598 ], [ -94.517571, 35.901866 ], [ -94.5173768949372, 35.900773133819001 ], [ -94.507631, 35.845901 ], [ -94.507406404683906, 35.844515148660498 ], [ -94.505642, 35.833628 ], [ -94.504438, 35.826369 ], [ -94.503011, 35.81721 ], [ -94.501407213540503, 35.807859638705501 ], [ -94.501162, 35.80643 ], [ -94.500764, 35.80382 ], [ -94.500573096887805, 35.802875109806202 ], [ -94.500526, 35.802642 ], [ -94.499647, 35.79691 ], [ -94.499045, 35.79346 ], [ -94.498874555985395, 35.792506294467103 ], [ -94.496901085903403, 35.781463904153 ], [ -94.494549, 35.768303 ], [ -94.493362, 35.761892 ], [ -94.492944480769197, 35.7592458746266 ], [ -94.48821, 35.72924 ], [ -94.487585, 35.726147 ], [ -94.484290897926996, 35.706831583299298 ], [ -94.484284938465507, 35.706796639184297 ], [ -94.482790185751796, 35.698031952817502 ], [ -94.482467889926994, 35.696142127299296 ], [ -94.472647, 35.638556 ], [ -94.471099399012402, 35.629213945984503 ], [ -94.466196543766998, 35.599617984943897 ], [ -94.465272, 35.594037 ], [ -94.464457, 35.588909 ], [ -94.464212158879405, 35.587790892216198 ], [ -94.464097, 35.587265 ], [ -94.463318, 35.58266 ], [ -94.462898037327193, 35.580010461601901 ], [ -94.460001595771502, 35.561736853927698 ], [ -94.456827177537093, 35.541709495428101 ], [ -94.456584848573797, 35.540180645521097 ], [ -94.454718351975501, 35.528404945612202 ], [ -94.452202166778605, 35.512530369778602 ], [ -94.449896095392006, 35.497981398919798 ], [ -94.449696, 35.496719 ], [ -94.443263173488702, 35.461489186594697 ], [ -94.441448303373903, 35.451549926552701 ], [ -94.441228013236298, 35.450343492580203 ], [ -94.441193197906799, 35.450152824052303 ], [ -94.441143441087704, 35.449880327436702 ], [ -94.438945466380005, 35.4378429689462 ], [ -94.435600983058904, 35.419526677789499 ], [ -94.430840561530999, 35.393455904410999 ], [ -94.430662, 35.392478 ], [ -94.431457553619097, 35.391451916638999 ], [ -94.43559, 35.386122 ], [ -94.433091, 35.378296 ], [ -94.433415, 35.376291 ], [ -94.431596, 35.369538 ], [ -94.433117, 35.365922 ], [ -94.433020314662897, 35.3656608830632 ], [ -94.432245, 35.363567 ], [ -94.432564800314907, 35.353806420762297 ], [ -94.432619572570204, 35.352134724667401 ], [ -94.432805964410903, 35.346445886208201 ], [ -94.433036230011297, 35.3394179830659 ], [ -94.433394647626301, 35.328478770788102 ], [ -94.433673803973406, 35.319958680225902 ], [ -94.433757668039107, 35.317399077184596 ], [ -94.433861868535701, 35.314218788873397 ], [ -94.433868683746198, 35.314010782818897 ], [ -94.433920941296506, 35.3124158376704 ], [ -94.434021331271794, 35.309351849729801 ], [ -94.434115, 35.306493 ], [ -94.434432593848896, 35.301977748683498 ], [ -94.435139009915801, 35.291934587936602 ], [ -94.43517, 35.291494 ], [ -94.43528, 35.287485 ], [ -94.435302286206394, 35.280308841524999 ], [ -94.435307109853298, 35.278755627226197 ], [ -94.435316, 35.275893 ], [ -94.435476103773397, 35.275225490421398 ], [ -94.435706, 35.274267 ], [ -94.435793020746004, 35.271831240061204 ], [ -94.435812, 35.2713 ], [ -94.436297944626801, 35.258139154844997 ], [ -94.436595, 35.250094 ], [ -94.437011827682198, 35.246747505526102 ], [ -94.437465072565303, 35.2431086361292 ], [ -94.437578, 35.242202 ], [ -94.437761340781194, 35.239460306991802 ], [ -94.437774, 35.239271 ], [ -94.437578, 35.230936 ], [ -94.437832901148994, 35.223336973820103 ], [ -94.437895479043405, 35.221471422958302 ], [ -94.438247, 35.210992 ], [ -94.43847, 35.208587 ], [ -94.438832394395604, 35.201924019003101 ], [ -94.439084, 35.197298 ], [ -94.439056, 35.193588 ], [ -94.43886, 35.187183 ], [ -94.438924963817698, 35.1856438880409 ], [ -94.439509, 35.171807 ], [ -94.43955, 35.169037 ], [ -94.439717340571704, 35.163445406528503 ], [ -94.439717441607996, 35.163442030455698 ], [ -94.440754, 35.128806 ], [ -94.441232, 35.119724 ], [ -94.441537313676506, 35.111203118181798 ], [ -94.441537447822299, 35.1111993743583 ], [ -94.442647919681903, 35.080207642886897 ], [ -94.443282750700007, 35.062490388485202 ], [ -94.4444947678289, 35.028664669199898 ], [ -94.445469193346796, 35.001469802688298 ], [ -94.4455986087128, 34.997857999077503 ], [ -94.446301942384096, 34.978228930508699 ], [ -94.447602900194397, 34.941921 ], [ -94.447883725062297, 34.934083566910402 ], [ -94.449253, 34.895869 ], [ -94.449086, 34.894152 ], [ -94.449058, 34.890556 ], [ -94.449108215972203, 34.889212547162103 ], [ -94.449626031560101, 34.875359169643403 ], [ -94.44963, 34.875253 ], [ -94.450065, 34.861335 ], [ -94.45014, 34.858694 ], [ -94.450233, 34.855413 ], [ -94.450323010284293, 34.852792352485302 ], [ -94.4507578062899, 34.840133276017603 ], [ -94.451081948725005, 34.830695875905299 ], [ -94.451188449008598, 34.827595122410798 ], [ -94.453300150893497, 34.766112966887 ], [ -94.454576577671403, 34.728949828362502 ], [ -94.454746940001499, 34.723989732741003 ], [ -94.455340265397098, 34.7067150764506 ], [ -94.455793824050602, 34.693509725886798 ], [ -94.456019341008897, 34.686943804437398 ], [ -94.456204104154196, 34.681564429386199 ], [ -94.456264203850907, 34.679814627993601 ], [ -94.457511758887094, 34.643492089613602 ], [ -94.45753, 34.642961 ], [ -94.4575, 34.634945 ], [ -94.458699356165198, 34.594022140500002 ], [ -94.460052, 34.547869 ], [ -94.460058, 34.545264 ], [ -94.460363325771993, 34.534683384543001 ], [ -94.461082780739602, 34.5097517310505 ], [ -94.461149, 34.507457 ], [ -94.462426963612501, 34.462929950612597 ], [ -94.462870706650307, 34.447468971938399 ], [ -94.463295010088302, 34.432685311469399 ], [ -94.463664221217698, 34.419821187612797 ], [ -94.463671, 34.419585 ], [ -94.463816, 34.414465 ], [ -94.464176, 34.402713 ], [ -94.464894068578502, 34.377896802887904 ], [ -94.465425, 34.359548 ], [ -94.465437420998398, 34.359327983499803 ], [ -94.465847, 34.352073 ], [ -94.466431865745193, 34.330731378869302 ], [ -94.468666086414402, 34.249205162922799 ], [ -94.4702836220645, 34.190181646344698 ], [ -94.471132757523606, 34.159196882054403 ], [ -94.472673400502103, 34.102979161983001 ], [ -94.473865991186301, 34.059461792820798 ], [ -94.474896, 34.021877 ], [ -94.474896, 34.021838 ], [ -94.474895, 34.019655 ], [ -94.475019343635395, 34.0158987608879 ], [ -94.476957, 33.957365 ], [ -94.477038, 33.953838 ], [ -94.477317731755406, 33.940950301161898 ], [ -94.477319713820194, 33.940858984198798 ], [ -94.477387, 33.937759 ], [ -94.478842, 33.881485 ], [ -94.478994, 33.881197 ], [ -94.479781116859996, 33.856708646606101 ], [ -94.479954, 33.85133 ], [ -94.480574, 33.830166 ], [ -94.480775092582704, 33.823142178536898 ], [ -94.481355, 33.802887 ], [ -94.481361, 33.802649 ], [ -94.481534632238194, 33.796037618624403 ], [ -94.481543, 33.795719 ], [ -94.481841416668402, 33.789021092770597 ], [ -94.481842, 33.789008 ], [ -94.482459325972201, 33.764960213734398 ], [ -94.482682, 33.756286 ], [ -94.482777, 33.753638 ], [ -94.4828532911324, 33.751072822864302 ], [ -94.482862, 33.75078 ], [ -94.48287, 33.750564 ], [ -94.483302235187395, 33.7359993101336 ], [ -94.483302546739793, 33.735988811995 ], [ -94.483574094426004, 33.726838682740798 ], [ -94.483652849515906, 33.724184934288502 ], [ -94.483874, 33.716733 ], [ -94.48384, 33.711332 ], [ -94.484616, 33.691592 ], [ -94.48452, 33.687909 ], [ -94.485528, 33.663388 ], [ -94.485577, 33.65331 ], [ -94.485875, 33.637867 ], [ -94.491109, 33.636233 ], [ -94.488434, 33.632367 ], [ -94.487514, 33.628939 ], [ -94.491503, 33.625115 ], [ -94.497801, 33.624013 ], [ -94.504615, 33.620682 ], [ -94.511514, 33.623105 ], [ -94.51726, 33.632729 ], [ -94.520245, 33.629805 ], [ -94.518057, 33.622978 ], [ -94.519838, 33.618077 ], [ -94.523004, 33.616077 ], [ -94.527376, 33.615833 ], [ -94.531871, 33.618648 ], [ -94.535169, 33.621919 ], [ -94.535065, 33.625115 ], [ -94.531992, 33.627833 ], [ -94.524573, 33.632609 ], [ -94.518932, 33.637164 ], [ -94.519133, 33.638298 ], [ -94.521837, 33.640728 ], [ -94.527491, 33.641344 ], [ -94.534818, 33.639277 ], [ -94.541095, 33.636529 ], [ -94.551405, 33.628491 ], [ -94.555747, 33.62709 ], [ -94.564076, 33.626265 ], [ -94.569523, 33.627832 ], [ -94.570447, 33.629947 ], [ -94.568386, 33.637203 ], [ -94.559042, 33.641971 ], [ -94.545436, 33.646228 ], [ -94.542593, 33.651411 ], [ -94.543332, 33.655686 ], [ -94.546366, 33.659161 ], [ -94.549636, 33.660676 ], [ -94.560198, 33.656967 ], [ -94.570566, 33.652226 ], [ -94.577838, 33.645557 ], [ -94.583273, 33.643793 ], [ -94.588632, 33.644183 ], [ -94.59083, 33.645563 ], [ -94.586986, 33.65018 ], [ -94.57557, 33.659409 ], [ -94.563251, 33.662684 ], [ -94.560339, 33.666591 ], [ -94.562166, 33.668965 ], [ -94.569065, 33.668562 ], [ -94.577876, 33.665682 ], [ -94.579864, 33.666167 ], [ -94.580292, 33.678819 ], [ -94.582997, 33.681167 ], [ -94.587072, 33.68582 ], [ -94.590544, 33.686222 ], [ -94.59314, 33.683236 ], [ -94.590027, 33.67585 ], [ -94.591953, 33.672863 ], [ -94.591435, 33.668914 ], [ -94.59312, 33.665429 ], [ -94.59797, 33.663381 ], [ -94.602999, 33.663059 ], [ -94.607683, 33.665569 ], [ -94.611712, 33.670167 ], [ -94.612830252676503, 33.674001108709703 ], [ -94.613317, 33.67567 ], [ -94.617625, 33.681242 ], [ -94.622379, 33.682428 ], [ -94.628191, 33.681073 ], [ -94.63045, 33.677123 ], [ -94.630919, 33.673442 ], [ -94.635573, 33.667527 ], [ -94.637996, 33.664578 ], [ -94.655891, 33.660166 ], [ -94.663195, 33.661084 ], [ -94.669311, 33.664362 ], [ -94.671048, 33.668388 ], [ -94.668848, 33.671878 ], [ -94.661806, 33.675133 ], [ -94.657916, 33.674186 ], [ -94.653996, 33.671147 ], [ -94.651296, 33.670419 ], [ -94.645535, 33.673531 ], [ -94.645579, 33.6755 ], [ -94.648478, 33.682125 ], [ -94.648902, 33.684024 ], [ -94.64547, 33.685344 ], [ -94.643132, 33.690323 ], [ -94.638646, 33.695804 ], [ -94.639003, 33.697681 ], [ -94.644322, 33.701666 ], [ -94.647389, 33.70112 ], [ -94.648641, 33.697988 ], [ -94.647241, 33.692654 ], [ -94.649007, 33.68735 ], [ -94.650961, 33.686558 ], [ -94.652995, 33.687224 ], [ -94.661701, 33.693136 ], [ -94.667852, 33.694607 ], [ -94.671773, 33.693307 ], [ -94.677883, 33.687822 ], [ -94.684792, 33.684353 ], [ -94.705449, 33.688038 ], [ -94.712067, 33.687935 ], [ -94.716188, 33.687902 ], [ -94.717344, 33.688994 ], [ -94.714344, 33.694074 ], [ -94.713935, 33.696835 ], [ -94.712845, 33.697551 ], [ -94.706336, 33.696726 ], [ -94.702187, 33.697452 ], [ -94.701055, 33.700053 ], [ -94.701729, 33.703413 ], [ -94.706024, 33.706293 ], [ -94.711359, 33.708916 ], [ -94.727867, 33.715565 ], [ -94.732309, 33.715987 ], [ -94.734831, 33.713924 ], [ -94.73309, 33.710147 ], [ -94.731306, 33.707081 ], [ -94.72695, 33.705247 ], [ -94.721447, 33.704559 ], [ -94.717788, 33.701846 ], [ -94.716594, 33.695164 ], [ -94.719814, 33.689739 ], [ -94.720742, 33.689056 ], [ -94.725593, 33.690459 ], [ -94.735856, 33.691625 ], [ -94.741877, 33.701223 ], [ -94.746096, 33.702768220185298 ], [ -94.752023, 33.704939 ], [ -94.753801, 33.707729 ], [ -94.75327, 33.710277 ], [ -94.747564, 33.711682 ], [ -94.738572, 33.714501 ], [ -94.732786, 33.720035 ], [ -94.73263, 33.723917 ], [ -94.735178, 33.726616 ], [ -94.738251, 33.727168 ], [ -94.741775, 33.72687 ], [ -94.743976, 33.725001 ], [ -94.744805, 33.722189 ], [ -94.745108, 33.717908 ], [ -94.747149, 33.715293 ], [ -94.752129, 33.713835 ], [ -94.755905, 33.715073 ], [ -94.757611, 33.717164 ], [ -94.757313, 33.718168 ], [ -94.748236, 33.724712 ], [ -94.747998, 33.725539 ], [ -94.751371, 33.733727 ], [ -94.752512, 33.734468 ], [ -94.754396, 33.73339 ], [ -94.754736403852107, 33.733042577511704 ], [ -94.760604, 33.727054 ], [ -94.773126, 33.727187 ], [ -94.782636, 33.730247 ], [ -94.788251, 33.735316 ], [ -94.777393, 33.745196 ], [ -94.773819, 33.746512 ], [ -94.769435, 33.746265 ], [ -94.761751, 33.746795 ], [ -94.757813, 33.750109 ], [ -94.757205, 33.754818 ], [ -94.760058, 33.758291 ], [ -94.76444, 33.760178 ], [ -94.770499, 33.760942 ], [ -94.774923, 33.758115 ], [ -94.776017446164502, 33.756198781544001 ], [ -94.777841, 33.753006 ], [ -94.778202, 33.749739 ], [ -94.780966, 33.744804 ], [ -94.786762, 33.741532 ], [ -94.795844, 33.737588 ], [ -94.802252, 33.732788 ], [ -94.811101, 33.734825 ], [ -94.816065, 33.739215 ], [ -94.816208, 33.741931 ], [ -94.812912, 33.745447 ], [ -94.812155, 33.750936 ], [ -94.814282, 33.7519 ], [ -94.816663, 33.755265 ], [ -94.816158, 33.763403 ], [ -94.818574, 33.767704 ], [ -94.821783, 33.768752 ], [ -94.825294, 33.768525 ], [ -94.83009, 33.763661 ], [ -94.830844, 33.758079 ], [ -94.823042, 33.747525 ], [ -94.820089, 33.734826 ], [ -94.822473, 33.732716 ], [ -94.828321, 33.734947 ], [ -94.828037, 33.73916 ], [ -94.830717, 33.7405 ], [ -94.842574, 33.739445 ], [ -94.849296, 33.739585 ], [ -94.860687, 33.741945 ], [ -94.8693, 33.745871 ], [ -94.874668, 33.749164 ], [ -94.87708, 33.75222 ], [ -94.875376, 33.75492 ], [ -94.86914, 33.759045 ], [ -94.866736, 33.76183 ], [ -94.866064, 33.766156 ], [ -94.868144, 33.768874 ], [ -94.871274, 33.770323 ], [ -94.873837, 33.770315 ], [ -94.87493, 33.767432 ], [ -94.874571, 33.762857 ], [ -94.873944, 33.76057 ], [ -94.8748, 33.757894 ], [ -94.876504, 33.757405 ], [ -94.877814562670196, 33.758446953543299 ], [ -94.883847, 33.763243 ], [ -94.887748, 33.769016 ], [ -94.897718, 33.768839 ], [ -94.904198, 33.773249 ], [ -94.904172, 33.777198 ], [ -94.906243, 33.77819 ], [ -94.911427, 33.778383 ], [ -94.914496, 33.78215 ], [ -94.917522, 33.786512 ], [ -94.921786533070104, 33.791405679162601 ], [ -94.921955, 33.791599 ], [ -94.921667, 33.795919 ], [ -94.91863, 33.802944 ], [ -94.917029, 33.808321 ], [ -94.912621, 33.808678 ], [ -94.910209, 33.812429 ], [ -94.910882, 33.815915 ], [ -94.912085, 33.820468 ], [ -94.914764, 33.824487 ], [ -94.918599, 33.82682 ], [ -94.921999, 33.828775 ], [ -94.926072, 33.828533 ], [ -94.926822, 33.826631 ], [ -94.926287, 33.822612 ], [ -94.924411, 33.81886 ], [ -94.923099, 33.815456 ], [ -94.923071, 33.811357 ], [ -94.925215, 33.808678 ], [ -94.929211, 33.807754 ], [ -94.939992, 33.805679 ], [ -94.947874, 33.808356 ], [ -94.953518, 33.816475 ], [ -94.943831, 33.8293 ], [ -94.949481, 33.833534 ], [ -94.957676, 33.835004 ], [ -94.964401, 33.837021 ], [ -94.965888, 33.848422 ], [ -94.968472793363503, 33.859161743360197 ], [ -94.968895, 33.860916 ], [ -94.971435, 33.862123 ], [ -94.973411, 33.861731 ], [ -94.976208, 33.859847 ], [ -94.98165, 33.852284 ], [ -94.983303, 33.851354 ], [ -94.988487, 33.851 ], [ -94.992671, 33.852455 ], [ -94.995524, 33.857438 ], [ -94.997485, 33.860501 ], [ -95.000223, 33.862505 ], [ -95.001993, 33.863049 ], [ -95.004737, 33.861677 ], [ -95.007873, 33.859521 ], [ -95.012353, 33.858012 ], [ -95.01728, 33.857953 ], [ -95.023944, 33.859325 ], [ -95.031441261579999, 33.859847880717901 ], [ -95.037207, 33.86025 ], [ -95.046568, 33.862565 ], [ -95.049423, 33.864813 ], [ -95.050821, 33.86944 ], [ -95.050572, 33.877497 ], [ -95.058243, 33.887548 ], [ -95.060105, 33.901873 ], [ -95.062554, 33.903031 ], [ -95.065581, 33.903559 ], [ -95.070198, 33.902443 ], [ -95.072413, 33.902699 ], [ -95.072158, 33.905579 ], [ -95.070498, 33.908402 ], [ -95.065923, 33.908703 ], [ -95.064261144014296, 33.910096773221298 ], [ -95.063338, 33.910871 ], [ -95.063248, 33.913262 ], [ -95.06569, 33.915966 ], [ -95.068729, 33.917601 ], [ -95.074052, 33.915349 ], [ -95.074902, 33.910479 ], [ -95.075098, 33.908911 ], [ -95.077058, 33.906559 ], [ -95.078822, 33.903031 ], [ -95.079369, 33.894626 ], [ -95.079834, 33.887479 ], [ -95.080586, 33.882256 ], [ -95.082408, 33.879882 ], [ -95.089607, 33.880857 ], [ -95.093815, 33.885196 ], [ -95.095580016421096, 33.8880245743835 ], [ -95.095833, 33.88843 ], [ -95.098911, 33.89088 ], [ -95.100168, 33.896101 ], [ -95.096755, 33.899699 ], [ -95.091636, 33.902104 ], [ -95.086759, 33.903815 ], [ -95.080488, 33.907735 ], [ -95.078528, 33.910283 ], [ -95.076372, 33.915378 ], [ -95.07795, 33.918696 ], [ -95.082387, 33.921758 ], [ -95.083819, 33.921062 ], [ -95.085975, 33.916946 ], [ -95.089111, 33.914203 ], [ -95.092668, 33.912831 ], [ -95.104789, 33.909595 ], [ -95.112575, 33.904603 ], [ -95.117138, 33.903619 ], [ -95.122038, 33.904795 ], [ -95.126442, 33.90708 ], [ -95.131249, 33.912243 ], [ -95.131642, 33.916027 ], [ -95.12733, 33.920278 ], [ -95.122795, 33.924696 ], [ -95.120862, 33.928118 ], [ -95.121184, 33.931307 ], [ -95.1247, 33.934675 ], [ -95.131056, 33.936925 ], [ -95.135953, 33.93537 ], [ -95.140069, 33.934782 ], [ -95.147909, 33.935566 ], [ -95.154978, 33.936654 ], [ -95.155886470440905, 33.936892754136402 ], [ -95.158296, 33.937526 ], [ -95.163392, 33.940857 ], [ -95.167527, 33.944738 ], [ -95.171154, 33.946506 ], [ -95.174794, 33.947457 ], [ -95.179686, 33.948688 ], [ -95.182232, 33.948941 ], [ -95.184968, 33.949529 ], [ -95.189758, 33.951361 ], [ -95.197029, 33.953105 ], [ -95.19935, 33.953973 ], [ -95.202615, 33.956907 ], [ -95.206882, 33.959088 ], [ -95.211908, 33.961241 ], [ -95.214137, 33.962142 ], [ -95.217633, 33.962646 ], [ -95.220488, 33.961997 ], [ -95.22401, 33.962161 ], [ -95.226393, 33.961954 ], [ -95.227574, 33.960798 ], [ -95.229521, 33.960451 ], [ -95.230637, 33.959799 ], [ -95.230377, 33.955768 ], [ -95.231644, 33.953294 ], [ -95.232879, 33.949736 ], [ -95.235707, 33.948259 ], [ -95.239748, 33.947543 ], [ -95.245847, 33.943747 ], [ -95.250171, 33.938497 ], [ -95.248273, 33.92019 ], [ -95.249743, 33.902755 ], [ -95.252694, 33.894234 ], [ -95.260595, 33.88765 ], [ -95.264019, 33.889757 ], [ -95.265891, 33.895378 ], [ -95.265227, 33.905566 ], [ -95.266126, 33.909773 ], [ -95.270674, 33.91151 ], [ -95.278577, 33.910191 ], [ -95.282981, 33.907402 ], [ -95.285591, 33.903357 ], [ -95.284298, 33.899238 ], [ -95.280351, 33.896751 ], [ -95.27794, 33.887508 ], [ -95.278318, 33.881677 ], [ -95.278767, 33.877906 ], [ -95.280922, 33.875403 ], [ -95.289302, 33.873103 ], [ -95.30579, 33.874805 ], [ -95.310405619391105, 33.877368530190402 ], [ -95.310898, 33.877642 ], [ -95.314428, 33.881632 ], [ -95.322222, 33.884753 ], [ -95.326436, 33.88607 ], [ -95.32986, 33.885543 ], [ -95.331938008190505, 33.879828724036301 ], [ -95.331967, 33.879749 ], [ -95.334854, 33.876831 ], [ -95.343423, 33.872542 ], [ -95.356541, 33.869382 ], [ -95.362517, 33.866581 ], [ -95.365639592379495, 33.866696488932 ], [ -95.369628, 33.866844 ], [ -95.375233, 33.868243 ], [ -95.384639, 33.868425 ], [ -95.392804, 33.867108 ], [ -95.402055, 33.864188 ], [ -95.427313, 33.870446 ], [ -95.440928, 33.866429 ], [ -95.453458, 33.870346 ], [ -95.458564, 33.871678 ], [ -95.462339, 33.871678 ], [ -95.464211, 33.873372 ], [ -95.464115, 33.876119 ], [ -95.461229, 33.882557 ], [ -95.459452, 33.884112 ], [ -95.459452, 33.886332 ], [ -95.461673, 33.886998 ], [ -95.463785, 33.887232 ], [ -95.466113, 33.886554 ], [ -95.467609, 33.884635 ], [ -95.469265, 33.882511 ], [ -95.472552, 33.880337 ], [ -95.478102, 33.878561 ], [ -95.484541, 33.875897 ], [ -95.492028, 33.874822 ], [ -95.497418, 33.874343 ], [ -95.502304, 33.874742 ], [ -95.502582505273296, 33.874950063266702 ], [ -95.502635433439394, 33.874989604374797 ], [ -95.505633, 33.877229 ], [ -95.504523, 33.883668 ], [ -95.504944, 33.889143 ], [ -95.505189, 33.894991 ], [ -95.507556, 33.897216 ], [ -95.510739, 33.897877 ], [ -95.512732, 33.896392 ], [ -95.514955, 33.894735 ], [ -95.520138, 33.889329 ], [ -95.521334098780102, 33.888442539445698 ], [ -95.525322, 33.885487 ], [ -95.533283, 33.881162 ], [ -95.53979, 33.879904 ], [ -95.545197, 33.880294 ], [ -95.548325, 33.882744 ], [ -95.550259, 33.88833 ], [ -95.550925, 33.892992 ], [ -95.548483, 33.896767 ], [ -95.548039, 33.901207 ], [ -95.548483, 33.908534 ], [ -95.550481, 33.915195 ], [ -95.55248, 33.919857 ], [ -95.55248, 33.922965 ], [ -95.553146, 33.925408 ], [ -95.554478, 33.928072 ], [ -95.557364, 33.930514 ], [ -95.561007, 33.931552 ], [ -95.563803, 33.932956 ], [ -95.569353, 33.933178 ], [ -95.573766, 33.933525 ], [ -95.578012, 33.933178 ], [ -95.580898, 33.933844 ], [ -95.584369, 33.936311 ], [ -95.586449, 33.939395 ], [ -95.589557, 33.941615 ], [ -95.593827, 33.943031 ], [ -95.596662, 33.942059 ], [ -95.597047778323798, 33.941239376450703 ], [ -95.598524, 33.938103 ], [ -95.59866, 33.934066 ], [ -95.600695, 33.931268 ], [ -95.603767, 33.929182 ], [ -95.608207, 33.928738 ], [ -95.611981, 33.928738 ], [ -95.616422, 33.927406 ], [ -95.619286, 33.922743 ], [ -95.622394, 33.918303 ], [ -95.625058, 33.913196 ], [ -95.625947, 33.91031 ], [ -95.626835, 33.907868 ], [ -95.629055, 33.90587 ], [ -95.632163, 33.904982 ], [ -95.635938, 33.905204 ], [ -95.640156, 33.904982 ], [ -95.645262, 33.906536 ], [ -95.649703, 33.907424 ], [ -95.651701, 33.9092 ], [ -95.656364, 33.910088 ], [ -95.660138, 33.910088 ], [ -95.665466, 33.908978 ], [ -95.669978, 33.905844 ], [ -95.676925, 33.897237 ], [ -95.684831, 33.890232 ], [ -95.697882, 33.88611 ], [ -95.710537, 33.885 ], [ -95.714089, 33.885888 ], [ -95.718308, 33.889662 ], [ -95.728449, 33.893704 ], [ -95.729075703309306, 33.894006100996897 ], [ -95.732961, 33.895879 ], [ -95.73769, 33.896545 ], [ -95.745905, 33.896323 ], [ -95.756367, 33.892625 ], [ -95.761916, 33.883402 ], [ -95.762559, 33.874367 ], [ -95.761449035939805, 33.873184617670397 ], [ -95.756796, 33.868228 ], [ -95.75321, 33.863656 ], [ -95.751644, 33.8611 ], [ -95.75129, 33.858881 ], [ -95.751746, 33.855557 ], [ -95.75373, 33.853179 ], [ -95.757465, 33.850039 ], [ -95.763586, 33.846824 ], [ -95.770556, 33.845269 ], [ -95.775902, 33.847311 ], [ -95.779884, 33.851331 ], [ -95.782395, 33.85105 ], [ -95.787891, 33.856336 ], [ -95.789867, 33.857686 ], [ -95.800842, 33.861212 ], [ -95.805149, 33.861304 ], [ -95.817618, 33.859023 ], [ -95.821666, 33.856633 ], [ -95.821666, 33.855443 ], [ -95.820677, 33.850751 ], [ -95.819525, 33.848439 ], [ -95.818976, 33.844456 ], [ -95.819358, 33.842785 ], [ -95.820784, 33.840564 ], [ -95.822787, 33.838756 ], [ -95.828245, 33.836054 ], [ -95.831948, 33.835161 ], [ -95.837516, 33.83564 ], [ -95.840012, 33.836486 ], [ -95.845243, 33.83907 ], [ -95.846378177736497, 33.840039745675497 ], [ -95.849367, 33.842593 ], [ -95.855521, 33.849258 ], [ -95.858808, 33.850668 ], [ -95.860912, 33.84992 ], [ -95.866907, 33.851474 ], [ -95.8749, 33.855915 ], [ -95.881292, 33.860627 ], [ -95.883542, 33.862715 ], [ -95.886688, 33.864814 ], [ -95.894556, 33.86741 ], [ -95.905828, 33.874053 ], [ -95.918583, 33.880838 ], [ -95.922712, 33.883758 ], [ -95.925787, 33.885 ], [ -95.929561, 33.885 ], [ -95.931980494072903, 33.883510758237797 ], [ -95.932448, 33.883223 ], [ -95.933558, 33.879449 ], [ -95.935325, 33.875099 ], [ -95.936631, 33.870615 ], [ -95.941267, 33.861619 ], [ -95.944284, 33.859811 ], [ -95.952652, 33.858357 ], [ -95.972156, 33.856371 ], [ -95.984253, 33.852664 ], [ -95.984280783948606, 33.852730897917702 ], [ -95.985511, 33.855693 ], [ -95.983957, 33.858579 ], [ -95.983735, 33.861687 ], [ -95.984254, 33.864403 ], [ -95.989191, 33.86859 ], [ -95.998617, 33.87223 ], [ -96.001186, 33.872344 ], [ -96.003406, 33.872344 ], [ -96.00444, 33.869742 ], [ -96.002962, 33.866794 ], [ -96.001336, 33.863496 ], [ -95.998077, 33.861687 ], [ -95.994525, 33.861465 ], [ -95.995191, 33.858135 ], [ -95.995857, 33.855693 ], [ -95.997709, 33.852182 ], [ -95.998351, 33.851049 ], [ -96.00163, 33.8477 ], [ -96.005296, 33.845505 ], [ -96.019599, 33.840566 ], [ -96.02139, 33.841039 ], [ -96.023241, 33.842479 ], [ -96.021783, 33.846927 ], [ -96.019542, 33.853497 ], [ -96.021168, 33.855471 ], [ -96.023907, 33.857067 ], [ -96.02694, 33.856803 ], [ -96.029438, 33.856348 ], [ -96.031158, 33.852584 ], [ -96.031372, 33.847249 ], [ -96.037191, 33.841245 ], [ -96.048834, 33.836468 ], [ -96.055358, 33.838262 ], [ -96.059203260359297, 33.839725856412798 ], [ -96.063924, 33.841523 ], [ -96.084626, 33.846656 ], [ -96.095121094766398, 33.847548174647201 ], [ -96.100095, 33.847971 ], [ -96.100185074656096, 33.8478885078258 ], [ -96.101473, 33.846709 ], [ -96.101349, 33.845721 ], [ -96.100785, 33.84423 ], [ -96.099153, 33.842409 ], [ -96.097638, 33.837935 ], [ -96.097448, 33.832725 ], [ -96.09936, 33.83047 ], [ -96.104075, 33.83073 ], [ -96.109993, 33.832396 ], [ -96.118169, 33.837884 ], [ -96.122951, 33.839964 ], [ -96.138905, 33.839159 ], [ -96.14807, 33.837799 ], [ -96.150147, 33.835856 ], [ -96.15163, 33.831946 ], [ -96.148792, 33.819197 ], [ -96.150765, 33.816987 ], [ -96.156656, 33.818223 ], [ -96.164808, 33.817797 ], [ -96.17589, 33.814627 ], [ -96.178964, 33.810553 ], [ -96.17734, 33.805117 ], [ -96.17515, 33.801951 ], [ -96.170373, 33.799382 ], [ -96.168829, 33.802605 ], [ -96.169748, 33.804902 ], [ -96.168829, 33.807658 ], [ -96.166991, 33.811103 ], [ -96.161939, 33.81317 ], [ -96.156355, 33.813349 ], [ -96.159182, 33.810184 ], [ -96.161114, 33.805767 ], [ -96.161249, 33.795715 ], [ -96.162757, 33.788769 ], [ -96.169452, 33.770131 ], [ -96.174633, 33.763699 ], [ -96.178059, 33.760518 ], [ -96.186257450331894, 33.7565196268717 ], [ -96.186554, 33.756375 ], [ -96.196374909533702, 33.753241669204598 ], [ -96.196380324258897, 33.753239941653298 ], [ -96.1999, 33.752117 ], [ -96.220521, 33.74739 ], [ -96.229023, 33.748021 ], [ -96.248232, 33.758986 ], [ -96.255565, 33.762079 ], [ -96.257511, 33.763948 ], [ -96.263593, 33.767467 ], [ -96.267876, 33.76777 ], [ -96.269896, 33.768405 ], [ -96.277847, 33.770477 ], [ -96.288254, 33.771221 ], [ -96.293708, 33.769409 ], [ -96.29653, 33.765789 ], [ -96.301706, 33.753756 ], [ -96.303009, 33.750878 ], [ -96.3061, 33.741002 ], [ -96.307389, 33.735005 ], [ -96.306596, 33.726786 ], [ -96.307035, 33.719987 ], [ -96.307840939177694, 33.7173735447901 ], [ -96.308340337899395, 33.715754122100201 ], [ -96.309964, 33.710489 ], [ -96.316925, 33.698997 ], [ -96.31876, 33.696753 ], [ -96.321103, 33.6951 ], [ -96.331874, 33.693449 ], [ -96.334932, 33.69208 ], [ -96.338013, 33.688728 ], [ -96.342665, 33.686975 ], [ -96.348306, 33.686379 ], [ -96.355946, 33.687155 ], [ -96.362198, 33.691818 ], [ -96.363135, 33.694215 ], [ -96.363253, 33.70105 ], [ -96.366945, 33.711222 ], [ -96.36959, 33.716809 ], [ -96.379403992276906, 33.7258163072446 ], [ -96.384116, 33.730141 ], [ -96.403507, 33.746289 ], [ -96.408469, 33.751192 ], [ -96.411873085408203, 33.7556871295874 ], [ -96.413408, 33.757714 ], [ -96.416146, 33.766099 ], [ -96.417562, 33.769038 ], [ -96.419205722102006, 33.771775938107403 ], [ -96.419961, 33.773034 ], [ -96.422643, 33.776041 ], [ -96.430214, 33.778654 ], [ -96.436714, 33.779329 ], [ -96.441206, 33.780327 ], [ -96.448045, 33.781031 ], [ -96.448670661463296, 33.780918558609201 ], [ -96.45051, 33.780588 ], [ -96.456254, 33.776035 ], [ -96.457113372647896, 33.775797042677098 ], [ -96.459154, 33.775232 ], [ -96.467872, 33.775795 ], [ -96.473092, 33.775445 ], [ -96.48606, 33.77301 ], [ -96.500268, 33.772583 ], [ -96.502286, 33.77346 ], [ -96.511914, 33.781478 ], [ -96.515912, 33.787795 ], [ -96.515914724069802, 33.788440604539801 ], [ -96.515948393813204, 33.796420333720597 ], [ -96.515959, 33.798934 ], [ -96.516584, 33.803168 ], [ -96.519911, 33.811347 ], [ -96.523863, 33.818114 ], [ -96.526655, 33.820891 ], [ -96.529234, 33.822127 ], [ -96.532092113683404, 33.822818110937398 ], [ -96.532225678842906, 33.822850407883202 ], [ -96.532865, 33.823005 ], [ -96.533231606046996, 33.822927596958401 ], [ -96.546560488891203, 33.820113415135502 ], [ -96.551223, 33.819129 ], [ -96.566298, 33.818511 ], [ -96.572937, 33.819098 ], [ -96.587067, 33.828009 ], [ -96.592926, 33.830916 ], [ -96.601258, 33.834327 ], [ -96.623155, 33.841483 ], [ -96.62929, 33.845488 ], [ -96.630022, 33.847541 ], [ -96.629747, 33.850866 ], [ -96.628969, 33.852407 ], [ -96.625399, 33.856542 ], [ -96.614678363659095, 33.866500240949897 ], [ -96.61197, 33.869016 ], [ -96.601686, 33.872823 ], [ -96.597348, 33.875101 ], [ -96.590112, 33.880665 ], [ -96.587494, 33.884251 ], [ -96.5873434435115, 33.884582379487597 ], [ -96.58536, 33.888948 ], [ -96.585452, 33.891281 ], [ -96.587934, 33.894784 ], [ -96.588518915748494, 33.8948810582175 ], [ -96.592948, 33.895616 ], [ -96.607562, 33.894735 ], [ -96.6262173962632, 33.894502842357902 ], [ -96.628294, 33.894477 ], [ -96.630117, 33.895422 ], [ -96.639463654016694, 33.902492532788003 ], [ -96.64405, 33.905962 ], [ -96.645951221608996, 33.907246278436403 ], [ -96.659896, 33.916666 ], [ -96.66441, 33.917267 ], [ -96.667187, 33.91694 ], [ -96.670618, 33.914914 ], [ -96.673449, 33.912278 ], [ -96.675306, 33.909114 ], [ -96.678298655814302, 33.902265003977497 ], [ -96.680947, 33.896204 ], [ -96.683464, 33.884217 ], [ -96.683089771088802, 33.882134956417602 ], [ -96.682103, 33.876645 ], [ -96.682209, 33.873876 ], [ -96.684727, 33.862905 ], [ -96.688191, 33.854613 ], [ -96.690708, 33.849959 ], [ -96.691914005345097, 33.848474957780901 ], [ -96.693102950708294, 33.8470119086141 ], [ -96.699574, 33.839049 ], [ -96.702201164109397, 33.836881845170403 ], [ -96.704457, 33.835021 ], [ -96.708134, 33.83306 ], [ -96.712422, 33.831633 ], [ -96.746038, 33.825699 ], [ -96.754041, 33.824658 ], [ -96.761588, 33.824406 ], [ -96.766235, 33.825458 ], [ -96.767935966158504, 33.826550666456903 ], [ -96.769378, 33.827477 ], [ -96.770676, 33.829621 ], [ -96.771615929457298, 33.831527868381698 ], [ -96.776766, 33.841976 ], [ -96.777202, 33.848162 ], [ -96.779588, 33.857939 ], [ -96.780569, 33.860098 ], [ -96.783485, 33.863534 ], [ -96.786859368545393, 33.865207581730601 ], [ -96.788892438372798, 33.866215921061197 ], [ -96.794276, 33.868886 ], [ -96.798389029450306, 33.869721855082297 ], [ -96.812778, 33.872646 ], [ -96.832157, 33.874835 ], [ -96.833891748554905, 33.8736844418831 ], [ -96.837413, 33.871349 ], [ -96.839778, 33.868396 ], [ -96.840819, 33.863645 ], [ -96.841592, 33.852894 ], [ -96.845896, 33.848975 ], [ -96.850593, 33.847211 ], [ -96.85609, 33.84749 ], [ -96.866438, 33.853149 ], [ -96.875281, 33.860505 ], [ -96.88301, 33.868019 ], [ -96.892686357509703, 33.889623039274198 ], [ -96.895728, 33.896414 ], [ -96.897194, 33.902954 ], [ -96.896469, 33.913318 ], [ -96.899442, 33.933728 ], [ -96.902434, 33.942018 ], [ -96.905253, 33.947219 ], [ -96.907387, 33.950025 ], [ -96.910084156179494, 33.9527125942178 ], [ -96.911336, 33.95396 ], [ -96.9163, 33.957798 ], [ -96.918618, 33.958926 ], [ -96.922114, 33.959579 ], [ -96.924268, 33.959159 ], [ -96.932252, 33.955688 ], [ -96.9347906714179, 33.954358787058403 ], [ -96.944611, 33.949217 ], [ -96.952313, 33.944582 ], [ -96.972542, 33.935795 ], [ -96.973807, 33.935697 ], [ -96.976955, 33.937453 ], [ -96.979818, 33.941588 ], [ -96.981031, 33.94916 ], [ -96.980676, 33.951814 ], [ -96.979347, 33.95513 ], [ -96.979415, 33.956178 ], [ -96.981337, 33.956378 ], [ -96.987892, 33.954671 ], [ -96.990835, 33.952701 ], [ -96.994288, 33.949206 ], [ -96.995368, 33.947302 ], [ -96.996183, 33.941728 ], [ -96.995023, 33.932035 ], [ -96.993997, 33.928979 ], [ -96.988745, 33.918468 ], [ -96.984939, 33.904866 ], [ -96.983835, 33.890949 ], [ -96.988043, 33.886013 ], [ -96.991897642823005, 33.879622262158797 ], [ -96.997088, 33.871017 ], [ -97.009856, 33.859762 ], [ -97.021438, 33.846379 ], [ -97.029048652947395, 33.842833624071901 ], [ -97.038858, 33.838264 ], [ -97.041245, 33.837761 ], [ -97.046126, 33.83956 ], [ -97.050952, 33.846568 ], [ -97.055838, 33.855741 ], [ -97.059826, 33.858404 ], [ -97.068071, 33.860465 ], [ -97.075621, 33.858661 ], [ -97.086719524122202, 33.853684515719202 ], [ -97.087247, 33.853448 ], [ -97.089464, 33.849847 ], [ -97.090479, 33.844841 ], [ -97.087731, 33.841956 ], [ -97.08345, 33.840456 ], [ -97.069486, 33.839412 ], [ -97.058343, 33.836764 ], [ -97.053024, 33.833884 ], [ -97.049316, 33.829794 ], [ -97.048146, 33.817456 ], [ -97.052694587657697, 33.816755598006701 ], [ -97.054926, 33.816412 ], [ -97.062632, 33.816079 ], [ -97.067977, 33.814476 ], [ -97.07859, 33.812756 ], [ -97.087999, 33.808747 ], [ -97.092112, 33.804097 ], [ -97.094771, 33.798532 ], [ -97.095236, 33.794136 ], [ -97.093917, 33.789052 ], [ -97.087852, 33.774099 ], [ -97.085218, 33.765512 ], [ -97.084613, 33.759993 ], [ -97.084693, 33.753147 ], [ -97.085963596814196, 33.745352539916098 ], [ -97.086195, 33.743933 ], [ -97.091072, 33.735115 ], [ -97.094085, 33.730992 ], [ -97.097154, 33.727809 ], [ -97.100449429366606, 33.725483735024298 ], [ -97.104525, 33.722608 ], [ -97.108936, 33.720294 ], [ -97.113265, 33.718804 ], [ -97.121102, 33.717174 ], [ -97.126102, 33.716941 ], [ -97.13753, 33.718664 ], [ -97.149394, 33.721967 ], [ -97.155066, 33.724442 ], [ -97.162810327388598, 33.729117531072198 ], [ -97.163149, 33.729322 ], [ -97.172192, 33.737545 ], [ -97.181843, 33.75587 ], [ -97.185325, 33.755503 ], [ -97.192817, 33.761169 ], [ -97.187724, 33.769831 ], [ -97.190809, 33.781772 ], [ -97.200492, 33.793198 ], [ -97.205705, 33.802908 ], [ -97.204939, 33.815229 ], [ -97.203514, 33.821825 ], [ -97.1997, 33.827322 ], [ -97.19369, 33.831307 ], [ -97.186254, 33.830894 ], [ -97.18137, 33.831375 ], [ -97.171627, 33.835335 ], [ -97.166824, 33.840395 ], [ -97.166629, 33.847311 ], [ -97.172547864264104, 33.867803129519601 ], [ -97.179609, 33.89225 ], [ -97.180845, 33.895204 ], [ -97.1814903420956, 33.8959728706173 ], [ -97.185458, 33.9007 ], [ -97.189853154197905, 33.903585760963502 ], [ -97.206141, 33.91428 ], [ -97.210921, 33.916064 ], [ -97.226522, 33.914642 ], [ -97.242092, 33.906277 ], [ -97.243983023281999, 33.904166660422902 ], [ -97.244946, 33.903092 ], [ -97.24618, 33.900344 ], [ -97.249209, 33.875101 ], [ -97.254235, 33.865323 ], [ -97.256625, 33.863286 ], [ -97.265087, 33.862413 ], [ -97.270314, 33.858221 ], [ -97.275607, 33.858168 ], [ -97.275348, 33.863225 ], [ -97.279108, 33.864555 ], [ -97.285983, 33.868526 ], [ -97.294227, 33.876412 ], [ -97.305565, 33.886435 ], [ -97.310143, 33.888532 ], [ -97.309846, 33.883003 ], [ -97.309946, 33.874449 ], [ -97.314413, 33.866989 ], [ -97.315035584309001, 33.866685347914 ], [ -97.318243, 33.865121 ], [ -97.323947, 33.858986 ], [ -97.328729, 33.855434 ], [ -97.329819874972401, 33.855766988334501 ], [ -97.334616, 33.857231 ], [ -97.333382, 33.864148 ], [ -97.32345, 33.87846 ], [ -97.325812, 33.883888 ], [ -97.332457, 33.884253 ], [ -97.335915, 33.879168 ], [ -97.339202, 33.862063 ], [ -97.348338, 33.843876 ], [ -97.358513, 33.830018 ], [ -97.365507, 33.823763 ], [ -97.372941, 33.819454 ], [ -97.403328578773298, 33.818959794064199 ], [ -97.410387, 33.818845 ], [ -97.426493, 33.819398 ], [ -97.444193, 33.823773 ], [ -97.453057, 33.828536 ], [ -97.459068, 33.834581 ], [ -97.462857, 33.841772 ], [ -97.461486, 33.84956 ], [ -97.457617, 33.855126 ], [ -97.451469, 33.87093 ], [ -97.450954, 33.891398 ], [ -97.458069, 33.901635 ], [ -97.460376, 33.903948 ], [ -97.461128731008898, 33.904323832551597 ], [ -97.484037243770004, 33.9157618691195 ], [ -97.486505, 33.916994 ], [ -97.494858, 33.919258 ], [ -97.50096, 33.919643 ], [ -97.509927912231603, 33.916685868983002 ], [ -97.517444640474494, 33.914207259730397 ], [ -97.519171, 33.913638 ], [ -97.525277, 33.911751 ], [ -97.532723, 33.906577 ], [ -97.543246, 33.901289 ], [ -97.551541, 33.897947 ], [ -97.555002, 33.897282 ], [ -97.55827, 33.897099 ], [ -97.559917, 33.897603 ], [ -97.56055, 33.899343 ], [ -97.5608977260312, 33.899588800974698 ], [ -97.562788, 33.900925 ], [ -97.566956, 33.901583 ], [ -97.568715, 33.901379 ], [ -97.572382824879597, 33.899323352634802 ], [ -97.572503, 33.899256 ], [ -97.578082, 33.899216 ], [ -97.581068119481998, 33.899677473070803 ], [ -97.581078, 33.899679 ], [ -97.582777, 33.900418 ], [ -97.585802555411107, 33.901754978924203 ], [ -97.585932322128699, 33.901812322235699 ], [ -97.587441, 33.902479 ], [ -97.589254, 33.903922 ], [ -97.589172, 33.904884 ], [ -97.589667, 33.906601 ], [ -97.590931, 33.909602 ], [ -97.592035, 33.910137 ], [ -97.593676, 33.910112 ], [ -97.596289, 33.913769 ], [ -97.597115, 33.917868 ], [ -97.596979, 33.920228 ], [ -97.596155, 33.922106 ], [ -97.595084, 33.922954 ], [ -97.591514, 33.9282 ], [ -97.591213, 33.931245 ], [ -97.593302, 33.933924 ], [ -97.595419, 33.938917 ], [ -97.59542, 33.941436 ], [ -97.594046, 33.944598 ], [ -97.591739, 33.946614 ], [ -97.591409, 33.948057 ], [ -97.588828, 33.951882 ], [ -97.590422, 33.954104 ], [ -97.5962, 33.954521 ], [ -97.599466, 33.956323 ], [ -97.600896, 33.958888 ], [ -97.600968, 33.960656 ], [ -97.604333, 33.962758 ], [ -97.604389, 33.963811 ], [ -97.606038, 33.965002 ], [ -97.609091, 33.968093 ], [ -97.615553, 33.969556 ], [ -97.623005, 33.97395 ], [ -97.624573, 33.97585 ], [ -97.630672602951094, 33.979432895508602 ], [ -97.633778, 33.981257 ], [ -97.65621, 33.989488 ], [ -97.661489, 33.990818 ], [ -97.671772, 33.99137 ], [ -97.672970707959195, 33.991018671096597 ], [ -97.688023, 33.986607 ], [ -97.69311, 33.983699 ], [ -97.697921, 33.977331 ], [ -97.704159, 33.963336 ], [ -97.709684, 33.954997 ], [ -97.716772, 33.947666 ], [ -97.720958721268303, 33.944411299810099 ], [ -97.725289, 33.941045 ], [ -97.726067970522706, 33.940558952757797 ], [ -97.732267, 33.936691 ], [ -97.733723, 33.936392 ], [ -97.736554, 33.936575 ], [ -97.738478, 33.937421 ], [ -97.752957, 33.937049 ], [ -97.762768, 33.934396 ], [ -97.762661, 33.930846 ], [ -97.759834, 33.92521 ], [ -97.759399, 33.91882 ], [ -97.760224, 33.917194 ], [ -97.76377, 33.914241 ], [ -97.772672, 33.914382 ], [ -97.775525, 33.918113 ], [ -97.779702, 33.919721 ], [ -97.782179, 33.919087 ], [ -97.785101, 33.916815 ], [ -97.786075, 33.914867 ], [ -97.786075, 33.913244 ], [ -97.78034, 33.904833 ], [ -97.779683, 33.899243 ], [ -97.780069, 33.89539 ], [ -97.782341, 33.892306 ], [ -97.784702, 33.890636 ], [ -97.788022, 33.89182 ], [ -97.789808, 33.894741 ], [ -97.790781, 33.898312 ], [ -97.793691, 33.899658 ], [ -97.797761, 33.899286 ], [ -97.801135, 33.89659 ], [ -97.80198, 33.894254 ], [ -97.801656, 33.890034 ], [ -97.801439, 33.886306 ], [ -97.80263, 33.879971 ], [ -97.805423, 33.877167 ], [ -97.807499, 33.876401 ], [ -97.809771, 33.877699 ], [ -97.812508, 33.881153 ], [ -97.813991, 33.881757 ], [ -97.816426, 33.882081 ], [ -97.819236, 33.879091 ], [ -97.819205, 33.872193 ], [ -97.819023, 33.869908 ], [ -97.822106, 33.867961 ], [ -97.826176, 33.864536 ], [ -97.830871, 33.861793 ], [ -97.834333, 33.857671 ], [ -97.8388, 33.856933 ], [ -97.841581, 33.856272 ], [ -97.843256, 33.856838 ], [ -97.849502, 33.854316 ], [ -97.853701153764902, 33.852948013101702 ], [ -97.860927, 33.850594 ], [ -97.865765, 33.849393 ], [ -97.871447, 33.849001 ], [ -97.877387, 33.850236 ], [ -97.883204, 33.854362 ], [ -97.88938, 33.856426 ], [ -97.896738, 33.857985 ], [ -97.905467, 33.863531 ], [ -97.936743, 33.879204 ], [ -97.938802, 33.879891 ], [ -97.94273, 33.879845 ], [ -97.946464, 33.878883 ], [ -97.951215, 33.878424 ], [ -97.958438, 33.879179 ], [ -97.967777, 33.88243 ], [ -97.974178, 33.886643 ], [ -97.977807889742706, 33.889883374271797 ], [ -97.977859, 33.889929 ], [ -97.979699996447593, 33.892193955189697 ], [ -97.983769, 33.8972 ], [ -97.984430670318503, 33.898758287563197 ], [ -97.984566, 33.899077 ], [ -97.98454, 33.900703 ], [ -97.983552, 33.904002 ], [ -97.979985, 33.911402 ], [ -97.978804, 33.912548 ], [ -97.976963, 33.912549 ], [ -97.973143, 33.908014 ], [ -97.969873, 33.905999 ], [ -97.964461, 33.907398 ], [ -97.960615, 33.910354 ], [ -97.957155, 33.914454 ], [ -97.953695, 33.924373 ], [ -97.952679, 33.929482 ], [ -97.953395, 33.936445 ], [ -97.954467, 33.937774 ], [ -97.955511, 33.938186 ], [ -97.963425, 33.936237 ], [ -97.965953, 33.936191 ], [ -97.971175, 33.937129 ], [ -97.972494, 33.937907 ], [ -97.974062, 33.940289 ], [ -97.974173, 33.942832 ], [ -97.973335976494397, 33.943770950921198 ], [ -97.972662, 33.944527 ], [ -97.965737, 33.947392 ], [ -97.960351, 33.951928 ], [ -97.956917, 33.958502 ], [ -97.94595, 33.988396 ], [ -97.94573, 33.989839 ], [ -97.946473, 33.990732 ], [ -97.947572, 33.991053 ], [ -97.952688, 33.990114 ], [ -97.95585, 33.990136 ], [ -97.958325, 33.990846 ], [ -97.963028, 33.994235 ], [ -97.96834, 34.00053 ], [ -97.97167, 34.005434 ], [ -97.974173, 34.006716 ], [ -97.978243, 34.005387 ], [ -97.982806, 34.001949 ], [ -97.987388, 33.999823 ], [ -97.999704388338699, 33.997222806192902 ], [ -98.005667, 33.995964 ], [ -98.019485, 33.993804 ], [ -98.027672, 33.993357 ], [ -98.041117, 33.993456 ], [ -98.055197, 33.995841 ], [ -98.082839, 34.002412 ], [ -98.08526, 34.003259 ], [ -98.088203, 34.005481 ], [ -98.082676, 34.010796 ], [ -98.089555, 34.01927 ], [ -98.098442, 34.023918 ], [ -98.106261, 34.034154 ], [ -98.103538, 34.03853 ], [ -98.098001, 34.03824 ], [ -98.092366, 34.033929 ], [ -98.08381, 34.036656 ], [ -98.083835850125595, 34.041169075369098 ], [ -98.083839, 34.041719 ], [ -98.099096, 34.048639 ], [ -98.114587, 34.06228 ], [ -98.11803, 34.067065 ], [ -98.120208, 34.072127 ], [ -98.120903175153003, 34.079772253577801 ], [ -98.121039, 34.081266 ], [ -98.119417, 34.084474 ], [ -98.104309, 34.0982 ], [ -98.099328, 34.104295 ], [ -98.095118, 34.11119 ], [ -98.093243580955701, 34.1151702735879 ], [ -98.092421, 34.116917 ], [ -98.09066, 34.12198 ], [ -98.089755, 34.128211 ], [ -98.092015, 34.131944 ], [ -98.093599928022698, 34.131836569419697 ], [ -98.097657266191305, 34.131561552391901 ], [ -98.100498, 34.131369 ], [ -98.103172, 34.135194 ], [ -98.100558, 34.142135 ], [ -98.101937, 34.14683 ], [ -98.109462, 34.154111 ], [ -98.114506, 34.154727 ], [ -98.123377, 34.15454 ], [ -98.130816, 34.150532 ], [ -98.13677, 34.144992 ], [ -98.138978804364598, 34.141805401056203 ], [ -98.142754, 34.136359 ], [ -98.154354, 34.122734 ], [ -98.157412, 34.120467 ], [ -98.16912, 34.114171 ] ] ] } }
]
}
