{
"type": "FeatureCollection",
"name": "state-13-outline",
"crs": { "type": "name", "properties": { "name": "urn:ogc:def:crs:OGC:1.3:CRS84" } },
"features": [
{ "type": "Feature", "properties": { "state_fips": "13", "state_abbr": "GA", "state_name": "Georgia" }, "geometry": { "type": "MultiPolygon", "coordinates": [ [ [ [ -85.083776, 31.31821 ], [ -85.084152, 31.328313 ], [ -85.088983, 31.334292 ], [ -85.089411, 31.336033 ], [ -85.08781, 31.337981 ], [ -85.087063, 31.340317 ], [ -85.085945820843406, 31.349516257558999 ], [ -85.085864, 31.35019 ], [ -85.085918, 31.353146 ], [ -85.087413, 31.354428 ], [ -85.09099, 31.354428 ], [ -85.091791, 31.355207 ], [ -85.092619, 31.357474 ], [ -85.092487, 31.362881 ], [ -85.092167, 31.364576 ], [ -85.087144412461498, 31.3740326428487 ], [ -85.08691, 31.374474 ], [ -85.082431, 31.38454 ], [ -85.080403, 31.393932 ], [ -85.078641, 31.39636 ], [ -85.077626, 31.39888 ], [ -85.077387, 31.402844 ], [ -85.079978, 31.410472 ], [ -85.079818, 31.411732 ], [ -85.076746, 31.415971 ], [ -85.075827, 31.421506 ], [ -85.075523, 31.424761 ], [ -85.073978, 31.427179 ], [ -85.072689, 31.428278 ], [ -85.069083, 31.427619 ], [ -85.06697, 31.428594 ], [ -85.065875, 31.430586 ], [ -85.065554, 31.439543 ], [ -85.065955, 31.442979 ], [ -85.066703, 31.447286 ], [ -85.069268, 31.453472 ], [ -85.071621, 31.468384 ], [ -85.065687, 31.484122 ], [ -85.062105, 31.488017 ], [ -85.058923, 31.495989 ], [ -85.052951, 31.506518 ], [ -85.048445, 31.513684 ], [ -85.047925713295399, 31.5142636818047 ], [ -85.045642, 31.516813 ], [ -85.045495582903996, 31.5171292698553 ], [ -85.044986, 31.51823 ], [ -85.044556, 31.520908 ], [ -85.047649, 31.523751 ], [ -85.048263, 31.526012 ], [ -85.047196, 31.528671 ], [ -85.042983, 31.5352 ], [ -85.041813, 31.537754 ], [ -85.041305, 31.540987 ], [ -85.041881, 31.544684 ], [ -85.042547, 31.545953 ], [ -85.045698, 31.548707 ], [ -85.050838, 31.555551 ], [ -85.051873, 31.557871 ], [ -85.052931, 31.56289 ], [ -85.05796, 31.57084 ], [ -85.057719, 31.573062 ], [ -85.055284, 31.577092 ], [ -85.055417, 31.578696 ], [ -85.05844, 31.58369 ], [ -85.058338739786805, 31.5866430659763 ], [ -85.058109, 31.593343 ], [ -85.056405, 31.600963 ], [ -85.056066147067696, 31.604292289299998 ], [ -85.056065296544404, 31.6043006458404 ], [ -85.055976, 31.605178 ], [ -85.057314, 31.606713 ], [ -85.059696, 31.607262 ], [ -85.060552, 31.608224 ], [ -85.060418, 31.611271 ], [ -85.05833, 31.614546 ], [ -85.057527, 31.616883 ], [ -85.057505908653795, 31.617563000625001 ], [ -85.057473, 31.618624 ], [ -85.058169, 31.620227 ], [ -85.059534, 31.621717 ], [ -85.065236, 31.624351 ], [ -85.067628, 31.625267 ], [ -85.073829, 31.629567 ], [ -85.080029, 31.636867 ], [ -85.082829, 31.637967 ], [ -85.084503, 31.639026 ], [ -85.085173, 31.640749 ], [ -85.085365, 31.642186 ], [ -85.085173, 31.644101 ], [ -85.083053708455694, 31.648669947530902 ], [ -85.082267, 31.650366 ], [ -85.080301, 31.650772 ], [ -85.078513, 31.651685 ], [ -85.078632, 31.653309 ], [ -85.079925, 31.655287 ], [ -85.083161, 31.656403 ], [ -85.08546, 31.657028 ], [ -85.087829, 31.657866 ], [ -85.092429, 31.659966 ], [ -85.10943, 31.677465 ], [ -85.11263, 31.685165 ], [ -85.11393, 31.686865 ], [ -85.12233, 31.691265 ], [ -85.12553, 31.694965 ], [ -85.126136063426301, 31.7014918368987 ], [ -85.12683, 31.708965 ], [ -85.12653, 31.716764 ], [ -85.12573, 31.718864 ], [ -85.12223, 31.722764 ], [ -85.11913, 31.730964 ], [ -85.11893, 31.732664 ], [ -85.12393, 31.747564 ], [ -85.12663, 31.752463 ], [ -85.129231, 31.758663 ], [ -85.126954136467603, 31.762330261451702 ], [ -85.12563, 31.764463 ], [ -85.12523, 31.767063 ], [ -85.12633, 31.768863 ], [ -85.130731, 31.772263 ], [ -85.140431, 31.779663 ], [ -85.140950960203796, 31.780460272312499 ], [ -85.141931, 31.781963 ], [ -85.14180656, 31.78212892 ], [ -85.137131, 31.788363 ], [ -85.132931, 31.792363 ], [ -85.132231, 31.795162 ], [ -85.132831, 31.798862 ], [ -85.132847391661599, 31.800370032866201 ], [ -85.132931, 31.808062 ], [ -85.131531, 31.813062 ], [ -85.131331, 31.817562 ], [ -85.131761981986003, 31.8184448059333 ], [ -85.133647, 31.822306 ], [ -85.134315, 31.824608 ], [ -85.13262, 31.826833 ], [ -85.133083, 31.828666 ], [ -85.135931, 31.830462 ], [ -85.139231, 31.834161 ], [ -85.141831, 31.839261 ], [ -85.141331, 31.841061 ], [ -85.138331, 31.844161 ], [ -85.137731, 31.845861 ], [ -85.138031, 31.851262 ], [ -85.140231, 31.855261 ], [ -85.140731, 31.857461 ], [ -85.140131, 31.858761 ], [ -85.137431, 31.860661 ], [ -85.135831, 31.862461 ], [ -85.133731, 31.870061 ], [ -85.128831, 31.87636 ], [ -85.1284798, 31.8774136 ], [ -85.128431, 31.87756 ], [ -85.128431, 31.87966 ], [ -85.129331, 31.88246 ], [ -85.1297857547641, 31.8833101936895 ], [ -85.131631, 31.88676 ], [ -85.133731, 31.88956 ], [ -85.134316068010094, 31.891412715365199 ], [ -85.134331, 31.89146 ], [ -85.134131, 31.89216 ], [ -85.132931, 31.89306 ], [ -85.121131, 31.89326 ], [ -85.117031, 31.89286 ], [ -85.114031, 31.89336 ], [ -85.11203, 31.89476 ], [ -85.11063, 31.89686 ], [ -85.111558, 31.901254 ], [ -85.109775, 31.904143 ], [ -85.10983, 31.90806 ], [ -85.112731, 31.909859 ], [ -85.113131, 31.911859 ], [ -85.10913, 31.914359 ], [ -85.10243, 31.917359 ], [ -85.10133, 31.918659 ], [ -85.10023, 31.924059 ], [ -85.09953, 31.925259 ], [ -85.09823, 31.926259 ], [ -85.09183, 31.928859 ], [ -85.08643, 31.935959 ], [ -85.08473, 31.937359 ], [ -85.07893, 31.940159 ], [ -85.07893, 31.941459 ], [ -85.08243, 31.945358 ], [ -85.08683, 31.957758 ], [ -85.08673, 31.959158 ], [ -85.08573, 31.960758 ], [ -85.08323, 31.962458 ], [ -85.07393, 31.964158 ], [ -85.07023, 31.965658 ], [ -85.067829, 31.967358 ], [ -85.065929, 31.971158 ], [ -85.065929, 31.972458 ], [ -85.066829, 31.974758 ], [ -85.06993, 31.978358 ], [ -85.07093, 31.981658 ], [ -85.06833, 31.986757 ], [ -85.0680981818182, 31.991857 ], [ -85.06803, 31.993357 ], [ -85.064544, 32.002489 ], [ -85.063441, 32.00414 ], [ -85.055075, 32.010714 ], [ -85.053815, 32.013502 ], [ -85.054768, 32.017407 ], [ -85.053669, 32.020662 ], [ -85.05014, 32.021092 ], [ -85.04931, 32.022694 ], [ -85.050601, 32.023906 ], [ -85.052814, 32.02547 ], [ -85.0544436067118, 32.026652024344003 ], [ -85.055217, 32.027213 ], [ -85.056253, 32.028336 ], [ -85.056464, 32.031819 ], [ -85.055474, 32.034221 ], [ -85.054627, 32.036694 ], [ -85.054839, 32.038814 ], [ -85.055333, 32.04058 ], [ -85.05803, 32.043756 ], [ -85.05883, 32.046656 ], [ -85.05663, 32.054155 ], [ -85.05643, 32.058055 ], [ -85.05683, 32.059755 ], [ -85.056029, 32.063055 ], [ -85.054179, 32.067985 ], [ -85.054084, 32.07021 ], [ -85.055491, 32.072657 ], [ -85.055813, 32.074439 ], [ -85.053232, 32.080604 ], [ -85.051161, 32.082527 ], [ -85.047077, 32.084347 ], [ -85.045511, 32.086867 ], [ -85.047063, 32.090433 ], [ -85.04955, 32.095362 ], [ -85.053777, 32.107684 ], [ -85.055045, 32.113671 ], [ -85.05918, 32.125153 ], [ -85.06154, 32.129673 ], [ -85.06206, 32.132486 ], [ -85.061144, 32.134065 ], [ -85.058749, 32.136018 ], [ -85.047865, 32.142033 ], [ -85.045593, 32.143758 ], [ -85.033989, 32.156348 ], [ -85.030336, 32.161727 ], [ -85.026583, 32.166104 ], [ -85.014648, 32.176882 ], [ -85.013065, 32.179112 ], [ -85.011267, 32.180493 ], [ -85.008531, 32.181903 ], [ -84.995929, 32.184852 ], [ -84.973728, 32.191552 ], [ -84.966828, 32.193952 ], [ -84.964628, 32.195152 ], [ -84.961728, 32.19865 ], [ -84.962228, 32.200051 ], [ -84.963228, 32.20225 ], [ -84.966928, 32.204451 ], [ -84.969428, 32.204451 ], [ -84.972328, 32.20355 ], [ -84.974628, 32.203651 ], [ -84.977128, 32.205751 ], [ -84.980229, 32.207751 ], [ -84.980229, 32.210051 ], [ -84.978729, 32.21255 ], [ -84.972128, 32.218251 ], [ -84.967428, 32.219351 ], [ -84.961428, 32.218051 ], [ -84.9582235136984, 32.217925333870497 ], [ -84.956328, 32.217851 ], [ -84.949451, 32.218511 ], [ -84.939328, 32.217951 ], [ -84.930127, 32.219051 ], [ -84.928227, 32.219851 ], [ -84.925427, 32.221551 ], [ -84.924855411158305, 32.222282633717398 ], [ -84.922927, 32.224751 ], [ -84.923527, 32.229751 ], [ -84.923031158004207, 32.230852871101902 ], [ -84.922627, 32.231751 ], [ -84.920627, 32.233951 ], [ -84.916327, 32.236551 ], [ -84.912727, 32.24335 ], [ -84.913927, 32.24515 ], [ -84.917227, 32.24595 ], [ -84.920327, 32.24405 ], [ -84.923027, 32.244549 ], [ -84.924127, 32.245649 ], [ -84.924427, 32.249797 ], [ -84.923015, 32.250822 ], [ -84.917327, 32.249049 ], [ -84.910098, 32.248333 ], [ -84.907227, 32.24905 ], [ -84.904087, 32.250838 ], [ -84.90251, 32.255233 ], [ -84.901454, 32.257424 ], [ -84.898139, 32.258608 ], [ -84.892296, 32.258272 ], [ -84.889174, 32.259232 ], [ -84.8891466552477, 32.259720423819701 ], [ -84.88908, 32.260911 ], [ -84.891841, 32.263398 ], [ -84.893959, 32.265846 ], [ -84.904023, 32.273749 ], [ -84.911127, 32.276949 ], [ -84.922872, 32.285333 ], [ -84.9338, 32.29826 ], [ -84.93868, 32.300708 ], [ -84.955721292973493, 32.306946037133599 ], [ -84.989514, 32.319316 ], [ -85.001874, 32.322015 ], [ -85.007103, 32.328362 ], [ -85.008096, 32.336677 ], [ -85.004582, 32.345196 ], [ -85.002713152277295, 32.3466510644312 ], [ -84.986778, 32.359058 ], [ -84.983466, 32.363186 ], [ -84.983242, 32.365122 ], [ -84.985171, 32.367062 ], [ -84.986298, 32.369666 ], [ -84.98409, 32.373522 ], [ -84.980282, 32.374386 ], [ -84.977274, 32.373842 ], [ -84.97433, 32.374578 ], [ -84.971962, 32.377698 ], [ -84.973818, 32.379873 ], [ -84.979354, 32.380705 ], [ -84.986282, 32.380336 ], [ -84.988554, 32.384081 ], [ -84.986969900028399, 32.387514856460101 ], [ -84.985978, 32.389665 ], [ -84.983386, 32.391761 ], [ -84.978362, 32.390497 ], [ -84.976394, 32.391025 ], [ -84.971773, 32.390599 ], [ -84.96873, 32.391457 ], [ -84.968762, 32.393009 ], [ -84.973882, 32.395217 ], [ -84.979898, 32.400097 ], [ -84.981098, 32.402833 ], [ -84.980304714284202, 32.4073114714284 ], [ -84.979431, 32.412244 ], [ -84.97183, 32.416244 ], [ -84.96343, 32.422544 ], [ -84.963311390163895, 32.423048091803302 ], [ -84.963222, 32.423428 ], [ -84.96303, 32.424244 ], [ -84.967031, 32.435343 ], [ -84.971831, 32.442843 ], [ -84.983831, 32.445643 ], [ -84.993531, 32.450743 ], [ -84.995195703880199, 32.4530550887225 ], [ -84.995244262381405, 32.453122531085299 ], [ -84.995331, 32.453243 ], [ -84.998031, 32.461743 ], [ -84.9980355773463, 32.461928359639501 ], [ -84.998112685654604, 32.465050860583901 ], [ -84.998231, 32.469842 ], [ -84.996693374796095, 32.4726097253671 ], [ -84.995231, 32.475242 ], [ -84.995151550684895, 32.477387131506802 ], [ -84.994831, 32.486042 ], [ -84.995716535669402, 32.4889767052696 ], [ -84.996732, 32.492342 ], [ -84.998332, 32.494142 ], [ -84.997690918248097, 32.4992473983285 ], [ -84.997505, 32.500728 ], [ -84.999832, 32.504341 ], [ -85.000284108149501, 32.507106838090898 ], [ -85.000788868077393, 32.510194781179599 ], [ -85.001224365060807, 32.512858998018899 ], [ -85.001532, 32.514741 ], [ -85.002885567676699, 32.516959752188498 ], [ -85.0071, 32.523868 ], [ -85.008396, 32.524876 ], [ -85.013788, 32.526108 ], [ -85.015704659239404, 32.530111209622298 ], [ -85.016191, 32.531127 ], [ -85.016273434346999, 32.531200775276901 ], [ -85.020237, 32.534748 ], [ -85.022045, 32.540044 ], [ -85.022503753225493, 32.542890445121003 ], [ -85.022509, 32.542923 ], [ -85.032071, 32.545429 ], [ -85.034841, 32.551996 ], [ -85.035013573915705, 32.552106176696597 ], [ -85.040555, 32.555644 ], [ -85.044364, 32.559584 ], [ -85.056926, 32.571242 ], [ -85.059672, 32.576742 ], [ -85.067535, 32.579546 ], [ -85.076399, 32.594665 ], [ -85.080288, 32.603577 ], [ -85.080617851265401, 32.608095275145999 ], [ -85.080768, 32.610152 ], [ -85.08224, 32.616264 ], [ -85.083616, 32.6178 ], [ -85.08536, 32.618536 ], [ -85.087294, 32.62047 ], [ -85.088319, 32.623032 ], [ -85.089254151132593, 32.625029822874097 ], [ -85.089441, 32.625429 ], [ -85.088534, 32.627874 ], [ -85.084928045145105, 32.630332863704197 ], [ -85.084724, 32.630472 ], [ -85.082365, 32.633834 ], [ -85.083635, 32.635973 ], [ -85.086175, 32.635362 ], [ -85.091336, 32.634036 ], [ -85.096597, 32.634667 ], [ -85.100388, 32.637118 ], [ -85.102989, 32.641033 ], [ -85.105337, 32.644835 ], [ -85.100337, 32.650135 ], [ -85.096336, 32.652835 ], [ -85.089736, 32.655635 ], [ -85.088483, 32.657758 ], [ -85.093536, 32.669734 ], [ -85.104037, 32.679634 ], [ -85.112637, 32.683434 ], [ -85.114737, 32.685634 ], [ -85.115345067400398, 32.687325749258797 ], [ -85.117037, 32.692033 ], [ -85.119279, 32.703966 ], [ -85.119279, 32.707715 ], [ -85.119, 32.710057 ], [ -85.122738, 32.715727 ], [ -85.121505063206001, 32.7204024261057 ], [ -85.120838, 32.722932 ], [ -85.118838, 32.724832 ], [ -85.117338, 32.726632 ], [ -85.115038, 32.728831 ], [ -85.113167, 32.732813 ], [ -85.113329, 32.735751 ], [ -85.114795, 32.738104 ], [ -85.11855, 32.740817 ], [ -85.124092, 32.741694 ], [ -85.127604, 32.743047 ], [ -85.132196, 32.744411 ], [ -85.134794631893001, 32.746795250683903 ], [ -85.136584, 32.748437 ], [ -85.139576, 32.754308 ], [ -85.142567, 32.760682 ], [ -85.140573, 32.764036 ], [ -85.137382, 32.769068 ], [ -85.13439, 32.770577 ], [ -85.130884, 32.769562 ], [ -85.122189, 32.773353 ], [ -85.123601, 32.775711 ], [ -85.126219, 32.779189 ], [ -85.129934, 32.779649 ], [ -85.134673, 32.783905 ], [ -85.139285, 32.784921 ], [ -85.140191516028395, 32.788324885794097 ], [ -85.140558, 32.789701 ], [ -85.141903, 32.791821 ], [ -85.145771, 32.791115 ], [ -85.150583668987494, 32.793457081993402 ], [ -85.151913, 32.794104 ], [ -85.152900345963303, 32.795082557966197 ], [ -85.162137, 32.804237 ], [ -85.163845922832706, 32.806409234727901 ], [ -85.167939, 32.811612 ], [ -85.167914490182298, 32.811691271677901 ], [ -85.167250781992095, 32.813837891558002 ], [ -85.166078, 32.817631 ], [ -85.164670578404795, 32.820232662310502 ], [ -85.164104, 32.82128 ], [ -85.168016, 32.829203 ], [ -85.165473357677001, 32.833425373046403 ], [ -85.164651, 32.834791 ], [ -85.16058, 32.838249 ], [ -85.157432, 32.839439 ], [ -85.154584, 32.839805 ], [ -85.153905, 32.841018 ], [ -85.153497, 32.842781 ], [ -85.153462209283006, 32.8434461729737 ], [ -85.153388, 32.844865 ], [ -85.154255, 32.847476 ], [ -85.155884, 32.849918 ], [ -85.157136300979801, 32.851508931772997 ], [ -85.159841, 32.854945 ], [ -85.161089, 32.856045 ], [ -85.16231, 32.856479 ], [ -85.164318, 32.856183 ], [ -85.166761, 32.85474 ], [ -85.168064, 32.852863 ], [ -85.170099, 32.852497 ], [ -85.177127, 32.853895 ], [ -85.1783639525338, 32.854658509784997 ], [ -85.178380727906898, 32.8546688643954 ], [ -85.178470713197399, 32.854724407876603 ], [ -85.179353, 32.855269 ], [ -85.1844, 32.861317 ], [ -85.184888, 32.863355 ], [ -85.184888423824901, 32.863446106048002 ], [ -85.184914, 32.868944 ], [ -85.184651204670203, 32.869474625052803 ], [ -85.184131, 32.870525 ], [ -85.18474, 32.870527 ], [ -85.185047577987206, 32.872003005337099 ], [ -85.185323742422199, 32.873328263310903 ], [ -85.185737144418894, 32.875312096936398 ], [ -85.187058653864895, 32.881653756862498 ], [ -85.188741, 32.889727 ], [ -85.189077579459294, 32.891411685504899 ], [ -85.190783846234098, 32.8999520845814 ], [ -85.191263960120907, 32.9023552048059 ], [ -85.202551162087502, 32.958851182264901 ], [ -85.204116575020194, 32.966686563790198 ], [ -85.210891601815007, 33.0005976927144 ], [ -85.221868, 33.055538 ], [ -85.223261, 33.06258 ], [ -85.223516898458001, 33.063857022281901 ], [ -85.227799876367698, 33.085230571251699 ], [ -85.228431762899802, 33.088383904755098 ], [ -85.232378, 33.108077 ], [ -85.236508654114502, 33.129561548877902 ], [ -85.252143787886993, 33.210883728473704 ], [ -85.252153701337605, 33.210935290770699 ], [ -85.2626626417577, 33.265594876844098 ], [ -85.281404617724604, 33.363076507493602 ], [ -85.293902163433302, 33.428079319201203 ], [ -85.296309781219506, 33.440601931981597 ], [ -85.297527400904301, 33.4469350716994 ], [ -85.303388622035499, 33.477420725638801 ], [ -85.304439, 33.482884 ], [ -85.313999, 33.529807 ], [ -85.314091, 33.530218 ], [ -85.314843487719898, 33.534951256089599 ], [ -85.314994, 33.535898 ], [ -85.315340089511096, 33.537646124170202 ], [ -85.315340215272997, 33.537646759403103 ], [ -85.323792298793293, 33.580338869442301 ], [ -85.338200608392796, 33.653116325725897 ], [ -85.342721740490802, 33.6759529042533 ], [ -85.355252215744201, 33.739245277912502 ], [ -85.3569782031297, 33.747963370109503 ], [ -85.357402, 33.750104 ], [ -85.360491, 33.767958 ], [ -85.361844, 33.773951 ], [ -85.376402728158496, 33.850655745661598 ], [ -85.377426, 33.856047 ], [ -85.380884997931105, 33.873507903945999 ], [ -85.386473472168404, 33.901718331881099 ], [ -85.388717131256499, 33.913044246670701 ], [ -85.391495243791098, 33.927068064286303 ], [ -85.398837, 33.964129 ], [ -85.399383409370202, 33.966904722561203 ], [ -85.405918, 34.0001 ], [ -85.406748, 34.002314 ], [ -85.420232, 34.072278 ], [ -85.421852774154402, 34.080821853142403 ], [ -85.427888633343201, 34.112639669559996 ], [ -85.428222, 34.114397 ], [ -85.42947, 34.125096 ], [ -85.444708236529195, 34.199892413820201 ], [ -85.444715014064002, 34.199925681140499 ], [ -85.455057, 34.250689 ], [ -85.455371, 34.252854 ], [ -85.458071, 34.265736 ], [ -85.458693, 34.269437 ], [ -85.462081718903704, 34.286385494426597 ], [ -85.467676385249007, 34.314366915744799 ], [ -85.470434330642306, 34.328160630554301 ], [ -85.47045, 34.328239 ], [ -85.474016908109306, 34.344549550905398 ], [ -85.484588350541401, 34.3928900308523 ], [ -85.502316, 34.473954 ], [ -85.502454, 34.474527 ], [ -85.504944705882394, 34.485735176470598 ], [ -85.508384, 34.501212 ], [ -85.512108, 34.518252 ], [ -85.513709, 34.52417 ], [ -85.51393, 34.525192 ], [ -85.514697991258203, 34.529443798931702 ], [ -85.517074, 34.542598 ], [ -85.527261, 34.588683 ], [ -85.534089375370399, 34.6238579271308 ], [ -85.534327, 34.625082 ], [ -85.541264, 34.656701 ], [ -85.541267, 34.656783 ], [ -85.542501013985003, 34.6624478599444 ], [ -85.552089227200696, 34.706463475363698 ], [ -85.552454, 34.708138 ], [ -85.552482, 34.708321 ], [ -85.553724361128104, 34.714127863217698 ], [ -85.558067053850294, 34.734425844267001 ], [ -85.561416, 34.750079 ], [ -85.574353408072696, 34.815746661242997 ], [ -85.575927078755299, 34.8237342946789 ], [ -85.583145, 34.860371 ], [ -85.584726476799403, 34.868766591596 ], [ -85.595163, 34.924171 ], [ -85.595191, 34.924331 ], [ -85.596523078919404, 34.931968747208003 ], [ -85.596855527654796, 34.933874910096499 ], [ -85.598781, 34.944915 ], [ -85.599385, 34.951766 ], [ -85.605165, 34.984678 ], [ -85.552592573439, 34.984030204664997 ], [ -85.518551207272296, 34.983610748314199 ], [ -85.514201271173604, 34.983557148575798 ], [ -85.474105315865103, 34.983063087820099 ], [ -85.466713, 34.982972 ], [ -85.458016991852006, 34.982973595675901 ], [ -85.432297739234897, 34.982978315035801 ], [ -85.431695003931495, 34.982978425634798 ], [ -85.410454328096193, 34.982982323197199 ], [ -85.409182003955607, 34.982982556662598 ], [ -85.409162164521206, 34.982982560303 ], [ -85.407620865289502, 34.982982843123999 ], [ -85.394921714644298, 34.982985173357498 ], [ -85.384967, 34.982987 ], [ -85.379512968523798, 34.983087539918898 ], [ -85.365239099871701, 34.983350665205698 ], [ -85.364757714992507, 34.983359539081299 ], [ -85.363919, 34.983375 ], [ -85.345365699058107, 34.983708320774298 ], [ -85.344392092525894, 34.983725812178399 ], [ -85.342473873379205, 34.983760274094003 ], [ -85.3332660962799, 34.983925697131298 ], [ -85.327428980279095, 34.984030564293803 ], [ -85.327424964642404, 34.984030636436998 ], [ -85.322818252608201, 34.984113398681203 ], [ -85.308257, 34.984375 ], [ -85.305461993630601, 34.984474821656001 ], [ -85.305457, 34.984475 ], [ -85.301488, 34.984475 ], [ -85.3010011577055, 34.984487261626199 ], [ -85.2946458897122, 34.984647325616898 ], [ -85.2945, 34.984651 ], [ -85.286906607920997, 34.984796199423599 ], [ -85.285778836855599, 34.984817764451101 ], [ -85.281148011012206, 34.984906314237001 ], [ -85.280200856867395, 34.9849244255415 ], [ -85.277556, 34.984975 ], [ -85.275856, 34.984975 ], [ -85.273020243075393, 34.985001254577597 ], [ -85.265055, 34.985075 ], [ -85.254955, 34.985175 ], [ -85.254814152997497, 34.985177178046399 ], [ -85.242287709624307, 34.985370885933598 ], [ -85.2421827037588, 34.985372509735598 ], [ -85.235555, 34.985475 ], [ -85.230410419475604, 34.985475 ], [ -85.230354, 34.985475 ], [ -85.227925, 34.985475 ], [ -85.221854, 34.985475 ], [ -85.220554, 34.985575 ], [ -85.217854, 34.985675 ], [ -85.216554, 34.985675 ], [ -85.216540001525999, 34.985675146155202 ], [ -85.201361557531698, 34.985833621213999 ], [ -85.195695198421106, 34.985892782521603 ], [ -85.192313890906703, 34.985928086068398 ], [ -85.185905, 34.985995 ], [ -85.180553, 34.986075 ], [ -85.180483008462403, 34.986075417767303 ], [ -85.175249426048893, 34.986106656110998 ], [ -85.154374738884698, 34.986231253490303 ], [ -85.143885533606294, 34.986293861733401 ], [ -85.140601638663597, 34.986313462731502 ], [ -85.138824254324206, 34.986324071629703 ], [ -85.126874393556903, 34.986395398271497 ], [ -85.126697117772693, 34.986396456399802 ], [ -85.096092245507094, 34.9865791315626 ], [ -85.096088321342094, 34.9865791549853 ], [ -85.083608317429494, 34.986653645959301 ], [ -85.064837226098305, 34.9867656873407 ], [ -85.046505137929898, 34.986875108388503 ], [ -85.045183, 34.986883 ], [ -85.045052, 34.986859 ], [ -84.980433928233793, 34.987640062715499 ], [ -84.97986, 34.987647 ], [ -84.976973374441201, 34.987668795291398 ], [ -84.955623, 34.98783 ], [ -84.94442, 34.987864 ], [ -84.943897982794994, 34.987869307957503 ], [ -84.939306, 34.987916 ], [ -84.930860181622407, 34.9879024636463 ], [ -84.930780171506598, 34.987902335411803 ], [ -84.930699999668406, 34.9879022069181 ], [ -84.891525931474206, 34.987839421523198 ], [ -84.886527063452505, 34.987831409694998 ], [ -84.861314, 34.987791 ], [ -84.858190093679397, 34.987748167646401 ], [ -84.858032, 34.987746 ], [ -84.831799, 34.988004 ], [ -84.82401, 34.987707 ], [ -84.820478, 34.987913 ], [ -84.817279, 34.987753 ], [ -84.810742, 34.987615 ], [ -84.810476935813398, 34.987607173971398 ], [ -84.809184, 34.987569 ], [ -84.808127, 34.987592 ], [ -84.776097956725806, 34.987798035995901 ], [ -84.775852457170899, 34.987799615242103 ], [ -84.738485299359695, 34.988039990188902 ], [ -84.731022, 34.988088 ], [ -84.727434, 34.98802 ], [ -84.682280073551297, 34.988001498083797 ], [ -84.624933, 34.987978 ], [ -84.621483, 34.988329 ], [ -84.568240346433399, 34.988176805886503 ], [ -84.509886, 34.98801 ], [ -84.509052, 34.988033 ], [ -84.455374502152907, 34.988031589278101 ], [ -84.394903, 34.98803 ], [ -84.393935, 34.988068 ], [ -84.387916675410594, 34.988096393838497 ], [ -84.382889561954599, 34.988120111244399 ], [ -84.371890554975906, 34.9881720034317 ], [ -84.355709015787397, 34.988248346274702 ], [ -84.340488925235903, 34.988320153101597 ], [ -84.321869, 34.988408 ], [ -84.261405591696004, 34.988123782932597 ], [ -84.215969851384202, 34.9879102056099 ], [ -84.181195005916294, 34.987746741377897 ], [ -84.129555, 34.987504 ], [ -84.129452075642405, 34.987503810893898 ], [ -84.096734619306403, 34.987443698098801 ], [ -84.091154955083894, 34.987433446409 ], [ -84.073637889279198, 34.987401261761804 ], [ -84.029954, 34.987321 ], [ -84.021357, 34.98743 ], [ -84.005259348445094, 34.987440451663097 ], [ -83.963270085517394, 34.987467713877699 ], [ -83.936646, 34.987485 ], [ -83.936427258766003, 34.987484593806798 ], [ -83.9224214646691, 34.987458585643402 ], [ -83.892400593042296, 34.987402838162701 ], [ -83.892041563296601, 34.987402171459699 ], [ -83.858319093246294, 34.987339550268302 ], [ -83.831097, 34.987289 ], [ -83.800139648312097, 34.987442254216297 ], [ -83.790893490233998, 34.9874880272761 ], [ -83.790863196468806, 34.987488177245197 ], [ -83.749893, 34.987691 ], [ -83.718538788891195, 34.987425748606597 ], [ -83.619985, 34.986592 ], [ -83.619987750572903, 34.986667627002198 ], [ -83.620185, 34.992091 ], [ -83.557577263808398, 34.992445580281 ], [ -83.549381, 34.992492 ], [ -83.482952428347602, 34.993483388090397 ], [ -83.482951722139305, 34.993483398629898 ], [ -83.382317914314598, 34.994985269829101 ], [ -83.381832843264704, 34.994992509088497 ], [ -83.381791757237806, 34.994993122261398 ], [ -83.381401909398093, 34.994998940397998 ], [ -83.367756765394404, 34.995202582188298 ], [ -83.355562336400695, 34.995384573331201 ], [ -83.355001515484901, 34.995392943090799 ], [ -83.353888114721599, 34.995409559619297 ], [ -83.351318676542505, 34.995447906227497 ], [ -83.3371106576176, 34.995659948431602 ], [ -83.322910408959501, 34.995871874671302 ], [ -83.322768, 34.995874 ], [ -83.296858124250207, 34.996575198075902 ], [ -83.288921060353502, 34.996789998563102 ], [ -83.19041, 34.999456 ], [ -83.173856194590499, 34.999839098680702 ], [ -83.11315, 35.001244 ], [ -83.109557, 35.001197 ], [ -83.108613, 35.000659 ], [ -83.102867, 34.997257 ], [ -83.102524, 34.995304 ], [ -83.103592, 34.993839 ], [ -83.098831, 34.991955 ], [ -83.098381, 34.991123 ], [ -83.098968, 34.990101 ], [ -83.101341, 34.989944 ], [ -83.102859, 34.988708 ], [ -83.101677, 34.98658 ], [ -83.103378, 34.986093 ], [ -83.107124, 34.983227 ], [ -83.105766, 34.981503 ], [ -83.108429, 34.979679 ], [ -83.110025, 34.980635 ], [ -83.111275, 34.981003 ], [ -83.112097, 34.979401 ], [ -83.110855, 34.976315 ], [ -83.111796, 34.975534 ], [ -83.115631, 34.975811 ], [ -83.116623, 34.975315 ], [ -83.115402, 34.973637 ], [ -83.120387, 34.968406 ], [ -83.12211, 34.964329 ], [ -83.12162, 34.962766 ], [ -83.115929, 34.960308 ], [ -83.115921, 34.959141 ], [ -83.120109, 34.959169 ], [ -83.120028, 34.957478 ], [ -83.114693, 34.952656 ], [ -83.114021, 34.950912 ], [ -83.114922, 34.950428 ], [ -83.11805, 34.952957 ], [ -83.120346, 34.953186 ], [ -83.124528, 34.955044 ], [ -83.126587, 34.954861 ], [ -83.127035, 34.953778 ], [ -83.124855, 34.951431 ], [ -83.127556, 34.949482 ], [ -83.123877, 34.946047 ], [ -83.121574, 34.942524 ], [ -83.116928, 34.942734 ], [ -83.111725, 34.935863 ], [ -83.112801, 34.934723 ], [ -83.118065, 34.935951 ], [ -83.119087, 34.933178 ], [ -83.120819, 34.933048 ], [ -83.126617, 34.938263 ], [ -83.12759, 34.938491 ], [ -83.131645, 34.935883 ], [ -83.13179, 34.935337 ], [ -83.129885, 34.932351 ], [ -83.130554, 34.930932 ], [ -83.140621, 34.924915 ], [ -83.143261, 34.924756 ], [ -83.156235, 34.930984 ], [ -83.159187, 34.928833 ], [ -83.157705, 34.923509 ], [ -83.158019, 34.920117 ], [ -83.156447, 34.917058 ], [ -83.157208, 34.914934 ], [ -83.160683, 34.915136 ], [ -83.165558, 34.919426 ], [ -83.169087, 34.918777 ], [ -83.171851, 34.913649 ], [ -83.175087, 34.910076 ], [ -83.180786, 34.909607 ], [ -83.180871, 34.904708 ], [ -83.189278, 34.897255 ], [ -83.19165, 34.896885 ], [ -83.194374, 34.899567 ], [ -83.197571, 34.895016 ], [ -83.197287, 34.892654 ], [ -83.196775, 34.890733 ], [ -83.198601, 34.890385 ], [ -83.199358, 34.892571 ], [ -83.203069, 34.893855 ], [ -83.204788, 34.890755 ], [ -83.201019, 34.884789 ], [ -83.206253, 34.879677 ], [ -83.209976, 34.880043 ], [ -83.21199, 34.882366 ], [ -83.214722, 34.883842 ], [ -83.212746, 34.887859 ], [ -83.214485, 34.88847 ], [ -83.217506, 34.885674 ], [ -83.217422, 34.882381 ], [ -83.218293, 34.881698 ], [ -83.219887, 34.881111 ], [ -83.219398, 34.878769 ], [ -83.21994, 34.878113 ], [ -83.228103381460699, 34.879584522759899 ], [ -83.228744, 34.8797 ], [ -83.232017, 34.877944 ], [ -83.235794, 34.877895 ], [ -83.239929, 34.878876 ], [ -83.243126, 34.877392 ], [ -83.240463, 34.872723 ], [ -83.234703, 34.870743 ], [ -83.237877, 34.868877 ], [ -83.238609, 34.865452 ], [ -83.243251, 34.866033 ], [ -83.246719, 34.867002 ], [ -83.248054, 34.863117 ], [ -83.246343, 34.860025 ], [ -83.248283, 34.858456 ], [ -83.246361, 34.856533 ], [ -83.246933, 34.855007 ], [ -83.253319, 34.855923 ], [ -83.252576, 34.85168 ], [ -83.253762, 34.848057 ], [ -83.248592, 34.846073 ], [ -83.250163, 34.844597 ], [ -83.254152691519195, 34.844276496465604 ], [ -83.25569, 34.844153 ], [ -83.260554, 34.845224 ], [ -83.26089, 34.84822 ], [ -83.266306, 34.849044 ], [ -83.268767, 34.844539 ], [ -83.272426, 34.834718 ], [ -83.26734, 34.832372 ], [ -83.267805, 34.826136 ], [ -83.269638, 34.82336 ], [ -83.268318, 34.821125 ], [ -83.271797, 34.818043 ], [ -83.27669, 34.816894 ], [ -83.282272, 34.820244 ], [ -83.284812, 34.823043 ], [ -83.28865, 34.824673 ], [ -83.291077, 34.823193 ], [ -83.289955, 34.818459 ], [ -83.294716, 34.815731 ], [ -83.294647, 34.813602 ], [ -83.296051, 34.813114 ], [ -83.300011, 34.815247 ], [ -83.298988, 34.817551 ], [ -83.300568, 34.818661 ], [ -83.303131, 34.818745 ], [ -83.306663, 34.81485 ], [ -83.304245, 34.811024 ], [ -83.299797, 34.810062 ], [ -83.299761, 34.807881 ], [ -83.301182, 34.804008 ], [ -83.303223, 34.802208 ], [ -83.313782, 34.799911 ], [ -83.313835, 34.796833 ], [ -83.320518, 34.793045 ], [ -83.320335, 34.79068 ], [ -83.323866, 34.789712 ], [ -83.323892871052294, 34.789500721620598 ], [ -83.32415, 34.787479 ], [ -83.321213, 34.779041 ], [ -83.322662, 34.777622 ], [ -83.318977, 34.771309 ], [ -83.322983, 34.766094 ], [ -83.319321, 34.76487 ], [ -83.323213, 34.760579 ], [ -83.318939, 34.758331 ], [ -83.31974, 34.757008 ], [ -83.325897, 34.756474 ], [ -83.327194, 34.754597 ], [ -83.326309, 34.750839 ], [ -83.33242, 34.748989 ], [ -83.332718, 34.746099 ], [ -83.338692, 34.742069 ], [ -83.338965, 34.738436 ], [ -83.345444, 34.738453 ], [ -83.349075, 34.736633 ], [ -83.350426, 34.732689 ], [ -83.351041460714001, 34.731811093663801 ], [ -83.353416, 34.728424 ], [ -83.352798, 34.717445 ], [ -83.352323003113, 34.716171626648901 ], [ -83.351006, 34.712641 ], [ -83.349788, 34.708274 ], [ -83.348001693747506, 34.705966996002601 ], [ -83.346649, 34.70422 ], [ -83.3479, 34.70293 ], [ -83.351852, 34.701698 ], [ -83.35391, 34.699219 ], [ -83.352943, 34.697056 ], [ -83.343147, 34.693947 ], [ -83.340134, 34.691483 ], [ -83.338631, 34.688949 ], [ -83.338234, 34.687187 ], [ -83.342617, 34.682991 ], [ -83.341373, 34.681358 ], [ -83.3389, 34.680039 ], [ -83.330284, 34.681342 ], [ -83.325336, 34.679517 ], [ -83.321463, 34.677543 ], [ -83.318524, 34.674773 ], [ -83.316863, 34.669872 ], [ -83.314394, 34.668944 ], [ -83.308917, 34.670273 ], [ -83.304641, 34.669561 ], [ -83.301477, 34.666582 ], [ -83.301214, 34.66326 ], [ -83.293183, 34.654296 ], [ -83.284682, 34.650196 ], [ -83.282082, 34.649696 ], [ -83.279429, 34.647871 ], [ -83.279407252646095, 34.647811499813798 ], [ -83.27852, 34.645384 ], [ -83.270882, 34.641596 ], [ -83.262282, 34.640296 ], [ -83.254481, 34.637096 ], [ -83.251781, 34.633796 ], [ -83.247681, 34.630896 ], [ -83.246481, 34.626897 ], [ -83.240669, 34.624507 ], [ -83.243481, 34.618197 ], [ -83.238297032232197, 34.615783977067103 ], [ -83.238209, 34.615743 ], [ -83.231339, 34.611187 ], [ -83.227244, 34.611136 ], [ -83.2270490523359, 34.611057103298897 ], [ -83.223335, 34.609554 ], [ -83.216403, 34.611011 ], [ -83.208831, 34.610705 ], [ -83.199079, 34.607998 ], [ -83.196979, 34.605998 ], [ -83.197379, 34.603198 ], [ -83.195179, 34.603398 ], [ -83.188766941012602, 34.605756187422102 ], [ -83.186478, 34.606598 ], [ -83.180778, 34.607498 ], [ -83.169678, 34.607398 ], [ -83.164278, 34.604398 ], [ -83.159954, 34.603464 ], [ -83.159077, 34.602198 ], [ -83.160689, 34.599474 ], [ -83.164277, 34.600898 ], [ -83.170078, 34.599598 ], [ -83.170278, 34.592398 ], [ -83.168278, 34.590998 ], [ -83.158877, 34.589598 ], [ -83.154577, 34.588198 ], [ -83.154545, 34.58694 ], [ -83.157777, 34.583799 ], [ -83.159177, 34.580999 ], [ -83.158677, 34.578999 ], [ -83.153677, 34.578699 ], [ -83.143176, 34.573399 ], [ -83.139876, 34.567999 ], [ -83.140070843272895, 34.566287489373103 ], [ -83.140515, 34.562386 ], [ -83.138023097428203, 34.561378278649002 ], [ -83.133376, 34.559499 ], [ -83.129676, 34.561699 ], [ -83.127176, 34.561999 ], [ -83.122901, 34.560129 ], [ -83.122052, 34.558028 ], [ -83.124256, 34.554997 ], [ -83.121894, 34.552338 ], [ -83.117212, 34.552539 ], [ -83.110248, 34.547056 ], [ -83.110507, 34.545109 ], [ -83.108618, 34.541545 ], [ -83.104969, 34.540942 ], [ -83.103451, 34.538623 ], [ -83.103256441311402, 34.536658249570898 ], [ -83.102852, 34.532574 ], [ -83.096858, 34.531524 ], [ -83.092858338373802, 34.532846664068302 ], [ -83.092564, 34.532944 ], [ -83.084855, 34.530967 ], [ -83.077934, 34.524765 ], [ -83.077782, 34.524063 ], [ -83.081779, 34.521736 ], [ -83.086861, 34.517798 ], [ -83.087158481571393, 34.516111968776499 ], [ -83.087189, 34.515939 ], [ -83.079842, 34.514454 ], [ -83.079472550424995, 34.514099307696 ], [ -83.078415, 34.513084 ], [ -83.07737, 34.509224 ], [ -83.074005, 34.505466 ], [ -83.069451, 34.502131 ], [ -83.065796, 34.501041 ], [ -83.057843, 34.503711 ], [ -83.054463, 34.50289 ], [ -83.053101, 34.501324 ], [ -83.053476, 34.497261 ], [ -83.05286, 34.495326 ], [ -83.051425385475696, 34.493918748695499 ], [ -83.051025, 34.493526 ], [ -83.048767, 34.493599 ], [ -83.045244, 34.491183 ], [ -83.04358, 34.489086 ], [ -83.03336, 34.48309 ], [ -83.029315, 34.484147 ], [ -83.028576694006802, 34.4838124378605 ], [ -83.01526, 34.477778 ], [ -82.999195, 34.472447 ], [ -82.998700366818198, 34.472451337830599 ], [ -82.99509, 34.472483 ], [ -82.995279, 34.475648 ], [ -82.992671, 34.479072 ], [ -82.992216984841306, 34.479207800588298 ], [ -82.979746, 34.482938 ], [ -82.977402, 34.481754 ], [ -82.974917, 34.47935 ], [ -82.966448, 34.482351 ], [ -82.964241, 34.484571 ], [ -82.963242, 34.484363 ], [ -82.958548, 34.479554 ], [ -82.955706, 34.478901 ], [ -82.948228, 34.480492 ], [ -82.947806, 34.482074 ], [ -82.943987, 34.485515 ], [ -82.937155, 34.486382 ], [ -82.930823, 34.485649 ], [ -82.926156, 34.481651 ], [ -82.920736, 34.482339 ], [ -82.917736, 34.484168 ], [ -82.907496329970598, 34.485810396255602 ], [ -82.901551, 34.486764 ], [ -82.892593, 34.48119 ], [ -82.887398, 34.480959 ], [ -82.880793, 34.471886 ], [ -82.880953389009505, 34.4708727287505 ], [ -82.881174, 34.469479 ], [ -82.873869, 34.464467 ], [ -82.871846, 34.461189 ], [ -82.865345, 34.460319 ], [ -82.858837, 34.45522 ], [ -82.860124, 34.45284 ], [ -82.856827, 34.443422 ], [ -82.855546801053805, 34.441744596470002 ], [ -82.855483, 34.441661 ], [ -82.854011, 34.428818 ], [ -82.849626, 34.425678 ], [ -82.848566656172807, 34.423224762217799 ], [ -82.846906, 34.419379 ], [ -82.848028, 34.418329 ], [ -82.847446, 34.412049 ], [ -82.846573967469595, 34.410147137191402 ], [ -82.841526347784296, 34.399138511003201 ], [ -82.84145, 34.398972 ], [ -82.841997, 34.392503 ], [ -82.841357, 34.390135 ], [ -82.836673, 34.383142 ], [ -82.835975, 34.380909 ], [ -82.835206, 34.371718 ], [ -82.834882567012897, 34.367338717354997 ], [ -82.834806, 34.366302 ], [ -82.833317, 34.363952 ], [ -82.826728, 34.360525 ], [ -82.824905, 34.360413 ], [ -82.815641, 34.353908 ], [ -82.81377, 34.353935 ], [ -82.81285, 34.351831 ], [ -82.79875, 34.341904 ], [ -82.794701, 34.34058 ], [ -82.793539, 34.338295 ], [ -82.791235, 34.331048 ], [ -82.792064, 34.326759 ], [ -82.791276493594097, 34.324830709406797 ], [ -82.790167, 34.322114 ], [ -82.787239, 34.310778 ], [ -82.781768, 34.302413 ], [ -82.781812, 34.297917 ], [ -82.773771725269, 34.288715634627302 ], [ -82.771688, 34.286331 ], [ -82.766075, 34.282066 ], [ -82.762329, 34.281952 ], [ -82.761108, 34.280399 ], [ -82.753914, 34.275452 ], [ -82.750641, 34.27113 ], [ -82.746656, 34.266407 ], [ -82.748535, 34.2641 ], [ -82.747712, 34.260701 ], [ -82.745825, 34.258356 ], [ -82.745627885516598, 34.255078398705599 ], [ -82.745627413661595, 34.255070552744797 ], [ -82.745567, 34.254066 ], [ -82.743004, 34.251381 ], [ -82.743088, 34.247982 ], [ -82.74472, 34.246311 ], [ -82.74443, 34.242004 ], [ -82.743492, 34.239895 ], [ -82.742081, 34.228962 ], [ -82.744354, 34.225925 ], [ -82.744003, 34.224407 ], [ -82.740505, 34.220012 ], [ -82.740356, 34.218632 ], [ -82.74238, 34.213766 ], [ -82.742018502194199, 34.211748673179798 ], [ -82.741653, 34.209709 ], [ -82.732544, 34.194519 ], [ -82.731698, 34.190735 ], [ -82.732193, 34.181347 ], [ -82.731773, 34.17804 ], [ -82.730415, 34.175327 ], [ -82.725409, 34.169774 ], [ -82.723312, 34.165895 ], [ -82.721132725849301, 34.160180036914703 ], [ -82.717459, 34.150546 ], [ -82.715333, 34.148203 ], [ -82.70414, 34.141007 ], [ -82.699758, 34.139318 ], [ -82.69553, 34.138815 ], [ -82.692152, 34.138986 ], [ -82.690386, 34.138293 ], [ -82.68629, 34.134454 ], [ -82.67873, 34.132393 ], [ -82.67522, 34.129779 ], [ -82.668277, 34.119784 ], [ -82.666879, 34.113591 ], [ -82.661851, 34.107754 ], [ -82.660322, 34.106897 ], [ -82.658849, 34.103962 ], [ -82.656033, 34.102531 ], [ -82.654233, 34.100634 ], [ -82.648831, 34.099129 ], [ -82.641641, 34.09209 ], [ -82.640259, 34.086541 ], [ -82.643179, 34.080951 ], [ -82.644235708338698, 34.079964704367903 ], [ -82.64522, 34.079046 ], [ -82.645543729979394, 34.076843755241903 ], [ -82.645661, 34.076046 ], [ -82.643759, 34.072306 ], [ -82.640518, 34.067883 ], [ -82.635437, 34.06509 ], [ -82.633995, 34.064964 ], [ -82.630972, 34.065528 ], [ -82.626963, 34.063457 ], [ -82.624641, 34.060261 ], [ -82.621406, 34.058018 ], [ -82.620384, 34.053917 ], [ -82.619155, 34.051316 ], [ -82.612932, 34.046785 ], [ -82.610611, 34.041458 ], [ -82.607414, 34.038071 ], [ -82.600184, 34.032985 ], [ -82.596008, 34.03093 ], [ -82.594192, 34.028866 ], [ -82.593789, 34.026736 ], [ -82.595534, 34.020479 ], [ -82.595497, 34.015865 ], [ -82.594500553916802, 34.0139247009851 ], [ -82.592674, 34.010368 ], [ -82.588552, 33.999768 ], [ -82.586234, 33.997151 ], [ -82.583394, 33.995286 ], [ -82.576248, 33.993009 ], [ -82.575249, 33.991433 ], [ -82.575882, 33.989953 ], [ -82.579613, 33.98726 ], [ -82.580571, 33.98514 ], [ -82.580459, 33.982133 ], [ -82.578851, 33.978631 ], [ -82.576669, 33.9759 ], [ -82.574159, 33.97355 ], [ -82.569077, 33.969887 ], [ -82.566201, 33.964771 ], [ -82.5657, 33.958682 ], [ -82.564582, 33.95581 ], [ -82.564530737812603, 33.955740805641803 ], [ -82.556835, 33.945353 ], [ -82.554497, 33.943819 ], [ -82.543128, 33.940949 ], [ -82.53977, 33.941551 ], [ -82.534111, 33.943651 ], [ -82.526741, 33.943765 ], [ -82.524515, 33.94336 ], [ -82.51295, 33.936969 ], [ -82.50764, 33.931456 ], [ -82.503584, 33.926048 ], [ -82.496109, 33.913459 ], [ -82.492929, 33.909754 ], [ -82.480111, 33.901897 ], [ -82.469913, 33.892838 ], [ -82.459391, 33.886386 ], [ -82.459205725266401, 33.8861812727163 ], [ -82.455105, 33.88165 ], [ -82.448109, 33.877543 ], [ -82.440503, 33.875123 ], [ -82.438644, 33.873919 ], [ -82.433503, 33.869007 ], [ -82.429164, 33.865844 ], [ -82.424888, 33.864133 ], [ -82.420618, 33.86375 ], [ -82.408353, 33.86632 ], [ -82.405585, 33.866024 ], [ -82.402197, 33.864656 ], [ -82.395735, 33.859088 ], [ -82.390596349598596, 33.8571876465681 ], [ -82.390527, 33.857162 ], [ -82.384973, 33.854428 ], [ -82.379771, 33.851096 ], [ -82.373301, 33.84475 ], [ -82.36878, 33.84231 ], [ -82.358195559033206, 33.838598978896101 ], [ -82.356327205724099, 33.837943913731898 ], [ -82.351185, 33.836141 ], [ -82.346199, 33.833829 ], [ -82.337829, 33.827156 ], [ -82.32448, 33.820033 ], [ -82.321887, 33.816777 ], [ -82.316462076786095, 33.812698770607703 ], [ -82.31435, 33.811111 ], [ -82.312436, 33.807155 ], [ -82.303454, 33.803263 ], [ -82.300213, 33.800627 ], [ -82.29928, 33.798939 ], [ -82.298864, 33.793166 ], [ -82.299601, 33.786483 ], [ -82.299009, 33.784475 ], [ -82.297479, 33.782974 ], [ -82.294984, 33.781868 ], [ -82.292468, 33.782406 ], [ -82.288652, 33.781635 ], [ -82.284087, 33.778781 ], [ -82.278206278416405, 33.772585403689099 ], [ -82.277681, 33.772032 ], [ -82.270445, 33.767913 ], [ -82.267719, 33.767651 ], [ -82.265019, 33.765742 ], [ -82.264044, 33.762843 ], [ -82.260041, 33.760431 ], [ -82.255595, 33.759876 ], [ -82.247472, 33.752591 ], [ -82.245408, 33.742926 ], [ -82.243244, 33.740116 ], [ -82.241265659939799, 33.735705055591701 ], [ -82.239098, 33.730872 ], [ -82.239497, 33.72933 ], [ -82.238758, 33.725206 ], [ -82.237311, 33.721893 ], [ -82.235753, 33.71439 ], [ -82.237192, 33.70788 ], [ -82.2354, 33.70438 ], [ -82.234576, 33.700216 ], [ -82.225684, 33.691434 ], [ -82.2249766254359, 33.690917671871098 ], [ -82.218649, 33.686299 ], [ -82.217124, 33.684344 ], [ -82.213165, 33.677211 ], [ -82.210826, 33.670604 ], [ -82.209803, 33.669276 ], [ -82.199847, 33.661758 ], [ -82.199836448962301, 33.661320448468203 ], [ -82.199747, 33.657611 ], [ -82.201186, 33.646898 ], [ -82.196583, 33.630582 ], [ -82.189141, 33.623722 ], [ -82.179854, 33.615945 ], [ -82.176172, 33.613775 ], [ -82.164177555754307, 33.6110421141831 ], [ -82.158331, 33.60971 ], [ -82.156288, 33.60863 ], [ -82.153357, 33.606319 ], [ -82.15106, 33.600956 ], [ -82.148816, 33.598092 ], [ -82.145050782892895, 33.595676027919502 ], [ -82.142872, 33.594278 ], [ -82.134934532663095, 33.591100126404697 ], [ -82.133523, 33.590535 ], [ -82.12908, 33.589925 ], [ -82.125864, 33.590741 ], [ -82.123221007378206, 33.592740007378197 ], [ -82.120385, 33.594885 ], [ -82.115809, 33.596597 ], [ -82.115329042763804, 33.596595806262101 ], [ -82.109376, 33.596581 ], [ -82.10624, 33.595637 ], [ -82.098816, 33.586358 ], [ -82.096352, 33.58407 ], [ -82.094128, 33.582742 ], [ -82.093072266694406, 33.582403656555101 ], [ -82.087488, 33.580614 ], [ -82.076068588214596, 33.578149744286598 ], [ -82.073104, 33.57751 ], [ -82.069039, 33.575382 ], [ -82.057727, 33.566774 ], [ -82.054943, 33.565382 ], [ -82.048959, 33.56487 ], [ -82.048356903518695, 33.564631364199499 ], [ -82.046335, 33.56383 ], [ -82.037375, 33.554662 ], [ -82.036494916957693, 33.552708783441702 ], [ -82.034895, 33.549158 ], [ -82.033023, 33.546454 ], [ -82.028238, 33.544934 ], [ -82.023438, 33.540734 ], [ -82.023438, 33.537935 ], [ -82.019838, 33.535035 ], [ -82.012473586237107, 33.532106980070203 ], [ -82.011538, 33.531735 ], [ -82.010038, 33.530435 ], [ -82.007638, 33.523335 ], [ -82.007138, 33.522835 ], [ -82.004338, 33.521935 ], [ -82.003734217283906, 33.521572730370401 ], [ -82.001338, 33.520135 ], [ -81.9952654624459, 33.509992570255299 ], [ -81.991938, 33.504435 ], [ -81.990382, 33.500759 ], [ -81.990609084896604, 33.498094428298899 ], [ -81.990938, 33.494235 ], [ -81.989338, 33.490036 ], [ -81.985938, 33.486536 ], [ -81.981726335997095, 33.484549740802301 ], [ -81.980637, 33.484036 ], [ -81.973640903761705, 33.4826564880657 ], [ -81.973537, 33.482636 ], [ -81.967037, 33.480636 ], [ -81.955409520531703, 33.475613041757804 ], [ -81.955403456268499, 33.475610422054999 ], [ -81.946437, 33.471737 ], [ -81.941737, 33.470037 ], [ -81.934136, 33.468337 ], [ -81.929436, 33.465837 ], [ -81.926336, 33.462937 ], [ -81.925949091709597, 33.462160996546302 ], [ -81.924807921249993, 33.459872205533202 ], [ -81.919436, 33.449098 ], [ -81.914812, 33.443498 ], [ -81.913532, 33.441274 ], [ -81.913306854841494, 33.4396430839627 ], [ -81.913126, 33.438333 ], [ -81.9142071194007, 33.435492723511999 ], [ -81.914282, 33.435296 ], [ -81.916972, 33.432592 ], [ -81.920716, 33.430986 ], [ -81.928326, 33.42991 ], [ -81.930798, 33.429034 ], [ -81.932308, 33.426587 ], [ -81.931742, 33.424506 ], [ -81.924893, 33.419307 ], [ -81.921068, 33.417419 ], [ -81.910765, 33.415035 ], [ -81.909629, 33.412603 ], [ -81.910496, 33.410312 ], [ -81.912367, 33.40809 ], [ -81.91775, 33.4072 ], [ -81.921276, 33.408597 ], [ -81.923859, 33.41046 ], [ -81.924766, 33.412418 ], [ -81.929454, 33.407756 ], [ -81.93139, 33.406956 ], [ -81.934766, 33.406796 ], [ -81.940782, 33.408742 ], [ -81.943149, 33.409034 ], [ -81.944893, 33.407962 ], [ -81.945629, 33.405835 ], [ -81.944476, 33.403674 ], [ -81.938108, 33.39993 ], [ -81.935085, 33.397243 ], [ -81.930861, 33.380076 ], [ -81.926249796480406, 33.375532158019197 ], [ -81.924837, 33.37414 ], [ -81.925737, 33.37114 ], [ -81.930634, 33.368165 ], [ -81.934637, 33.36894 ], [ -81.939637, 33.37254 ], [ -81.943737, 33.37234 ], [ -81.946337, 33.37064 ], [ -81.946737, 33.36734 ], [ -81.944737, 33.364041 ], [ -81.935313, 33.356789 ], [ -81.934812, 33.35376 ], [ -81.938165522377801, 33.349743114190602 ], [ -81.939837, 33.347741 ], [ -81.939737, 33.344941 ], [ -81.937237, 33.343641 ], [ -81.932737, 33.343541 ], [ -81.926817, 33.345284 ], [ -81.92346, 33.344898 ], [ -81.919278, 33.340338 ], [ -81.914937, 33.343742 ], [ -81.913025, 33.346886 ], [ -81.910174, 33.347011 ], [ -81.90893, 33.346268 ], [ -81.908437, 33.343842 ], [ -81.910137, 33.342342 ], [ -81.914243, 33.341839 ], [ -81.915512, 33.340778 ], [ -81.916337, 33.338642 ], [ -81.918929, 33.33496 ], [ -81.918898482159193, 33.3344564556267 ], [ -81.918837, 33.333442 ], [ -81.912737, 33.329842 ], [ -81.908137, 33.327142 ], [ -81.909137, 33.323942 ], [ -81.912937, 33.321742 ], [ -81.913737, 33.320042 ], [ -81.912137, 33.319142 ], [ -81.909092, 33.319983 ], [ -81.90613, 33.32162 ], [ -81.906037, 33.326042 ], [ -81.904132, 33.327286 ], [ -81.902613, 33.330258 ], [ -81.903637, 33.334842 ], [ -81.901954, 33.335876 ], [ -81.900635, 33.33503 ], [ -81.899568, 33.332817 ], [ -81.896937, 33.330542 ], [ -81.896937, 33.327642 ], [ -81.899271, 33.325417 ], [ -81.898588, 33.322905 ], [ -81.895537, 33.321642 ], [ -81.891023, 33.322491 ], [ -81.889161, 33.321092 ], [ -81.890037, 33.318943 ], [ -81.892737, 33.316743 ], [ -81.892537, 33.315343 ], [ -81.890537, 33.314843 ], [ -81.885237, 33.317443 ], [ -81.882536, 33.317043 ], [ -81.881536, 33.314043 ], [ -81.884637, 33.309243 ], [ -81.881937, 33.305443 ], [ -81.881237, 33.302543 ], [ -81.879437, 33.302343 ], [ -81.875836, 33.307443 ], [ -81.869247, 33.313768 ], [ -81.866536, 33.313743 ], [ -81.866304972447296, 33.313468654781197 ], [ -81.864936, 33.311843 ], [ -81.864036, 33.307843 ], [ -81.864636, 33.303343 ], [ -81.863929, 33.302036 ], [ -81.86206, 33.302482 ], [ -81.860536, 33.304943 ], [ -81.8576, 33.307114 ], [ -81.856064, 33.309852 ], [ -81.853652, 33.310326 ], [ -81.851733, 33.308745 ], [ -81.847636, 33.307143 ], [ -81.846036, 33.304343 ], [ -81.849636, 33.299544 ], [ -81.848736, 33.296744 ], [ -81.850336, 33.296444 ], [ -81.852536, 33.299344 ], [ -81.860036, 33.299144 ], [ -81.862036, 33.296944 ], [ -81.861636, 33.293744 ], [ -81.863336, 33.289244 ], [ -81.860736, 33.285844 ], [ -81.851583, 33.283544 ], [ -81.848236, 33.283844 ], [ -81.846191, 33.284325 ], [ -81.844536, 33.282944 ], [ -81.844136, 33.278844 ], [ -81.839145, 33.273899 ], [ -81.836336, 33.274445 ], [ -81.833501, 33.276072 ], [ -81.83252, 33.275556 ], [ -81.832665, 33.27429 ], [ -81.835536, 33.271445 ], [ -81.835236, 33.266545 ], [ -81.836036, 33.263545 ], [ -81.835336, 33.262345 ], [ -81.833352, 33.262286 ], [ -81.83054, 33.264381 ], [ -81.828887, 33.264079 ], [ -81.828336, 33.263045 ], [ -81.828836, 33.262045 ], [ -81.831077, 33.260803 ], [ -81.834408, 33.258378 ], [ -81.836436, 33.259445 ], [ -81.837436, 33.261845 ], [ -81.838454, 33.262852 ], [ -81.840799, 33.263277 ], [ -81.842669, 33.264522 ], [ -81.843862, 33.266621 ], [ -81.84691, 33.266599 ], [ -81.848136, 33.264545 ], [ -81.846336, 33.258445 ], [ -81.844736, 33.257445 ], [ -81.841536, 33.257245 ], [ -81.839836, 33.256145 ], [ -81.840036, 33.254645 ], [ -81.845136, 33.252545 ], [ -81.849826, 33.252921 ], [ -81.852565, 33.25141 ], [ -81.852937, 33.248744 ], [ -81.8517222609795, 33.247699324442401 ], [ -81.848637, 33.245046 ], [ -81.846536, 33.241746 ], [ -81.837936, 33.238346 ], [ -81.831736, 33.233546 ], [ -81.831565101387397, 33.233330128068303 ], [ -81.827936, 33.228746 ], [ -81.819636, 33.226646 ], [ -81.811736, 33.223847 ], [ -81.809236, 33.222147 ], [ -81.808136, 33.219447 ], [ -81.807936, 33.213746 ], [ -81.80649, 33.212126 ], [ -81.803936, 33.211347 ], [ -81.798236, 33.211647 ], [ -81.790236, 33.208447 ], [ -81.784535, 33.208147 ], [ -81.778935, 33.209847 ], [ -81.777535, 33.211347 ], [ -81.777635, 33.215347 ], [ -81.781035, 33.219847 ], [ -81.780135, 33.221147 ], [ -81.777735, 33.221846 ], [ -81.774035, 33.221147 ], [ -81.767935, 33.216347 ], [ -81.767235, 33.212747 ], [ -81.765302, 33.209502 ], [ -81.763535, 33.203648 ], [ -81.761635, 33.201748 ], [ -81.758235, 33.200248 ], [ -81.757083322147693, 33.198121825503399 ], [ -81.756935, 33.197848 ], [ -81.759535, 33.194747 ], [ -81.760635, 33.189248 ], [ -81.762835, 33.188248 ], [ -81.765935, 33.187848 ], [ -81.767735, 33.184648 ], [ -81.766935, 33.182049 ], [ -81.764935, 33.179549 ], [ -81.766135, 33.177849 ], [ -81.768635, 33.178449 ], [ -81.771735, 33.181548 ], [ -81.772435, 33.180949 ], [ -81.766735, 33.171449 ], [ -81.768135, 33.168249 ], [ -81.767635, 33.167249 ], [ -81.764435, 33.165549 ], [ -81.763135, 33.159449 ], [ -81.754135, 33.15055 ], [ -81.750035, 33.14735 ], [ -81.746335, 33.14605 ], [ -81.744535, 33.14215 ], [ -81.736635, 33.13765 ], [ -81.729534, 33.13375 ], [ -81.724334, 33.129451 ], [ -81.721734, 33.126451 ], [ -81.721108427473297, 33.126143701215 ], [ -81.716034, 33.123651 ], [ -81.711134, 33.121651 ], [ -81.704634, 33.11645 ], [ -81.696934, 33.116551 ], [ -81.677033, 33.11065 ], [ -81.671833, 33.107751 ], [ -81.658433, 33.103152 ], [ -81.646433, 33.094552 ], [ -81.642333, 33.093152 ], [ -81.637232, 33.092952 ], [ -81.632232, 33.093952 ], [ -81.614994, 33.095551 ], [ -81.614057267517097, 33.095188321436098 ], [ -81.611657, 33.094259 ], [ -81.609965, 33.09301 ], [ -81.608286, 33.089022 ], [ -81.609533, 33.086877 ], [ -81.612943, 33.083981 ], [ -81.612903, 33.081024 ], [ -81.610696, 33.079946 ], [ -81.606836, 33.081717 ], [ -81.603587, 33.084578 ], [ -81.602534, 33.086807 ], [ -81.60132, 33.087049 ], [ -81.596501, 33.079893 ], [ -81.596835, 33.078559 ], [ -81.598991, 33.076682 ], [ -81.603298, 33.07509 ], [ -81.603243, 33.074419 ], [ -81.600948, 33.072815 ], [ -81.596025, 33.072693 ], [ -81.593586, 33.069496 ], [ -81.592645, 33.06991 ], [ -81.592517, 33.073062 ], [ -81.590856, 33.072736 ], [ -81.58741, 33.069943 ], [ -81.584361, 33.069902 ], [ -81.582975, 33.068575 ], [ -81.583804, 33.067021 ], [ -81.583103, 33.06496 ], [ -81.57875, 33.066195 ], [ -81.577187, 33.065939 ], [ -81.57716, 33.064335 ], [ -81.580994, 33.062697 ], [ -81.580252, 33.061762 ], [ -81.574911, 33.061799 ], [ -81.574505, 33.060049 ], [ -81.578332, 33.058936 ], [ -81.577044, 33.05725 ], [ -81.572829, 33.058636 ], [ -81.571309, 33.056873 ], [ -81.573243, 33.054903 ], [ -81.571905, 33.053987 ], [ -81.56989, 33.054501 ], [ -81.566311, 33.05343 ], [ -81.563016, 33.05581 ], [ -81.564566, 33.058039 ], [ -81.566949, 33.059597 ], [ -81.56699, 33.060401 ], [ -81.565687, 33.061049 ], [ -81.563992, 33.060844 ], [ -81.559399, 33.054904 ], [ -81.558938, 33.052921 ], [ -81.559173, 33.051765 ], [ -81.560344, 33.050036 ], [ -81.565043, 33.049694 ], [ -81.566108, 33.048792 ], [ -81.561948, 33.045844 ], [ -81.553146, 33.043196 ], [ -81.551786, 33.04339 ], [ -81.546522, 33.048838 ], [ -81.543758, 33.048559 ], [ -81.542135, 33.046919 ], [ -81.541733325036404, 33.045685814839104 ], [ -81.540081, 33.040613 ], [ -81.538789, 33.039185 ], [ -81.535498, 33.038489 ], [ -81.53072, 33.040864 ], [ -81.529142, 33.040812 ], [ -81.528438, 33.039882 ], [ -81.528786, 33.036872 ], [ -81.528451, 33.035646 ], [ -81.522653, 33.030789 ], [ -81.519632, 33.029181 ], [ -81.513231, 33.028546 ], [ -81.511245, 33.027786 ], [ -81.510586, 33.025805 ], [ -81.51169, 33.024506 ], [ -81.514024, 33.023663 ], [ -81.517594, 33.023991 ], [ -81.519075, 33.023196 ], [ -81.518385, 33.021586 ], [ -81.516073, 33.020833 ], [ -81.513715, 33.020574 ], [ -81.511334, 33.021465 ], [ -81.510282, 33.021233 ], [ -81.50822, 33.01751 ], [ -81.508919, 33.015665 ], [ -81.511569, 33.012283 ], [ -81.51069, 33.010315 ], [ -81.508218, 33.010527 ], [ -81.507405, 33.011538 ], [ -81.50568, 33.015974 ], [ -81.504053, 33.016253 ], [ -81.50203, 33.015113 ], [ -81.499768, 33.012254 ], [ -81.496637, 33.010224 ], [ -81.492253, 33.009342 ], [ -81.491419, 33.008078 ], [ -81.491899, 33.006694 ], [ -81.496125, 33.005482 ], [ -81.498753, 33.005065 ], [ -81.50023, 33.003455 ], [ -81.50063, 33.001955 ], [ -81.49983, 33.000655 ], [ -81.495707, 32.999465 ], [ -81.492737, 32.999108 ], [ -81.491197, 32.997824 ], [ -81.4912127515191, 32.997679388938003 ], [ -81.491457, 32.995437 ], [ -81.492252, 32.99351 ], [ -81.495034, 32.991723 ], [ -81.496138, 32.990913 ], [ -81.49642, 32.989615 ], [ -81.495996, 32.988295 ], [ -81.494329, 32.98626 ], [ -81.494345, 32.985084 ], [ -81.495504, 32.983534 ], [ -81.494736, 32.978997 ], [ -81.497837, 32.973011 ], [ -81.499471, 32.96478 ], [ -81.49983, 32.963816 ], [ -81.501369, 32.962914 ], [ -81.505026, 32.963561 ], [ -81.507568, 32.965591 ], [ -81.507847, 32.968854 ], [ -81.508839, 32.969368 ], [ -81.510802, 32.968525 ], [ -81.511347, 32.966721 ], [ -81.510046, 32.96097 ], [ -81.510009, 32.957326 ], [ -81.508609, 32.952551 ], [ -81.504016, 32.948091 ], [ -81.499446, 32.944988 ], [ -81.499566, 32.943722 ], [ -81.502716, 32.938688 ], [ -81.502427, 32.935353 ], [ -81.499829, 32.932614 ], [ -81.495092, 32.931596 ], [ -81.492067, 32.927824 ], [ -81.489604, 32.927039 ], [ -81.483198, 32.921802 ], [ -81.484439, 32.918825 ], [ -81.487258, 32.917851 ], [ -81.487049, 32.914772 ], [ -81.481298, 32.914585 ], [ -81.480008, 32.913444 ], [ -81.481444, 32.908895 ], [ -81.479184, 32.905638 ], [ -81.479374, 32.902333 ], [ -81.480865, 32.900218 ], [ -81.480812, 32.898614 ], [ -81.475535, 32.896724 ], [ -81.472142, 32.893814 ], [ -81.470649, 32.895043 ], [ -81.471616, 32.900005 ], [ -81.468978, 32.901083 ], [ -81.465924, 32.899889 ], [ -81.464069, 32.897814 ], [ -81.464655, 32.895999 ], [ -81.468277, 32.892276 ], [ -81.465933, 32.889452 ], [ -81.467104, 32.888999 ], [ -81.471703, 32.890439 ], [ -81.4771, 32.887469 ], [ -81.479445, 32.881082 ], [ -81.475918, 32.877641 ], [ -81.470376, 32.876267 ], [ -81.468042, 32.876675 ], [ -81.467138, 32.880602 ], [ -81.465051, 32.880896 ], [ -81.461878, 32.87755 ], [ -81.460556, 32.875161 ], [ -81.457213, 32.873796 ], [ -81.45339, 32.87388 ], [ -81.452722776021503, 32.871665264945399 ], [ -81.451367, 32.867165 ], [ -81.453361, 32.863847 ], [ -81.453017, 32.859636 ], [ -81.456917, 32.852604 ], [ -81.457061, 32.850389 ], [ -81.455559, 32.846508 ], [ -81.460211, 32.847402 ], [ -81.460722, 32.846038 ], [ -81.454029, 32.8442 ], [ -81.451742, 32.844765 ], [ -81.451199, 32.847924 ], [ -81.444866, 32.850967 ], [ -81.442671, 32.850107 ], [ -81.442279, 32.848587 ], [ -81.442882, 32.845847 ], [ -81.43995, 32.840362 ], [ -81.437506, 32.840163 ], [ -81.434807, 32.843538 ], [ -81.426475, 32.840773 ], [ -81.421614, 32.835178 ], [ -81.42062, 32.831223 ], [ -81.421828, 32.829265 ], [ -81.423674, 32.828307 ], [ -81.428101, 32.828684 ], [ -81.429943, 32.828246 ], [ -81.429525, 32.827146 ], [ -81.426684, 32.825729 ], [ -81.422488, 32.822892 ], [ -81.421952, 32.821466 ], [ -81.422409, 32.820245 ], [ -81.423041, 32.819747 ], [ -81.426937, 32.819705 ], [ -81.427953, 32.81938 ], [ -81.428235, 32.818584 ], [ -81.427094, 32.81687 ], [ -81.424354, 32.816179 ], [ -81.420585, 32.818651 ], [ -81.418584, 32.818679 ], [ -81.417984, 32.818196 ], [ -81.418497, 32.815664 ], [ -81.419752, 32.813731 ], [ -81.423772, 32.810514 ], [ -81.425981, 32.811076 ], [ -81.426326, 32.809928 ], [ -81.422242, 32.803127 ], [ -81.422739, 32.80199 ], [ -81.424874, 32.801882 ], [ -81.426895, 32.802239 ], [ -81.428292, 32.800832 ], [ -81.426347, 32.798879 ], [ -81.425234, 32.79419 ], [ -81.42298, 32.793998 ], [ -81.419879, 32.794857 ], [ -81.4197, 32.793227 ], [ -81.424999, 32.790334 ], [ -81.427425, 32.78832 ], [ -81.427584, 32.786944 ], [ -81.425132, 32.786185 ], [ -81.422363, 32.785747 ], [ -81.42224, 32.783986 ], [ -81.423929, 32.782727 ], [ -81.42629, 32.782661 ], [ -81.429977, 32.785235 ], [ -81.431235, 32.784141 ], [ -81.430869120269904, 32.783391531581302 ], [ -81.430078, 32.781771 ], [ -81.426855, 32.779456 ], [ -81.423331, 32.778512 ], [ -81.416168, 32.779792 ], [ -81.414722, 32.779204 ], [ -81.414456, 32.778149 ], [ -81.416323, 32.775515 ], [ -81.417353, 32.773336 ], [ -81.418601, 32.772734 ], [ -81.422585, 32.772998 ], [ -81.429854, 32.772129 ], [ -81.432082, 32.770549 ], [ -81.43194, 32.768911 ], [ -81.429113, 32.767905 ], [ -81.422019, 32.768367 ], [ -81.417096, 32.766088 ], [ -81.417356, 32.763334 ], [ -81.418901, 32.761132 ], [ -81.417766, 32.760222 ], [ -81.416627, 32.760537 ], [ -81.414013, 32.764522 ], [ -81.411821, 32.763122 ], [ -81.414038, 32.755423 ], [ -81.412262, 32.754691 ], [ -81.409563, 32.756031 ], [ -81.408, 32.756154 ], [ -81.408364, 32.754686 ], [ -81.411568, 32.753117 ], [ -81.413714, 32.752833 ], [ -81.416733, 32.753276 ], [ -81.418485, 32.752189 ], [ -81.419837, 32.749797 ], [ -81.418603, 32.747991 ], [ -81.410662, 32.749316 ], [ -81.405866, 32.749144 ], [ -81.405016, 32.748284 ], [ -81.404932, 32.745559 ], [ -81.4050923155378, 32.744967382684699 ], [ -81.405749, 32.742544 ], [ -81.407602, 32.740334 ], [ -81.409859, 32.739517 ], [ -81.41267, 32.739083 ], [ -81.413872, 32.737477 ], [ -81.411595, 32.733852 ], [ -81.412517, 32.732432 ], [ -81.414672, 32.73208 ], [ -81.417035, 32.733085 ], [ -81.418542, 32.732586 ], [ -81.418278, 32.730922 ], [ -81.41706, 32.729675 ], [ -81.416752, 32.728762 ], [ -81.417815, 32.726582 ], [ -81.417769, 32.725074 ], [ -81.415591, 32.723531 ], [ -81.410074, 32.723096 ], [ -81.409988, 32.721863 ], [ -81.410916, 32.721207 ], [ -81.418769, 32.721851 ], [ -81.420338, 32.721051 ], [ -81.420452, 32.719847 ], [ -81.41576, 32.715882 ], [ -81.41512, 32.713669 ], [ -81.416671, 32.712283 ], [ -81.420039, 32.712423 ], [ -81.421194, 32.711978 ], [ -81.422152, 32.709742 ], [ -81.425927, 32.710037 ], [ -81.426458, 32.709017 ], [ -81.424099, 32.70756 ], [ -81.424562, 32.705329 ], [ -81.427505, 32.702242 ], [ -81.426735, 32.700867 ], [ -81.422624, 32.700861 ], [ -81.420596, 32.699834 ], [ -81.418881, 32.696212 ], [ -81.41665, 32.695506 ], [ -81.413577, 32.695472 ], [ -81.412403, 32.692095 ], [ -81.410545, 32.692512 ], [ -81.410875, 32.69686 ], [ -81.409618, 32.697046 ], [ -81.407492, 32.692332 ], [ -81.405832, 32.690461 ], [ -81.406634, 32.684863 ], [ -81.404321, 32.683762 ], [ -81.401791, 32.681175 ], [ -81.401510502897096, 32.679820000215301 ], [ -81.401029, 32.677494 ], [ -81.403914, 32.670642 ], [ -81.403913, 32.666877 ], [ -81.397544, 32.662591 ], [ -81.397514, 32.660213 ], [ -81.400342, 32.658488 ], [ -81.403254, 32.659464 ], [ -81.404505, 32.66264 ], [ -81.406484630859694, 32.662524421364999 ], [ -81.406646, 32.662515 ], [ -81.4073, 32.66156 ], [ -81.407193, 32.660519 ], [ -81.405273, 32.656517 ], [ -81.398314, 32.656307 ], [ -81.393818, 32.653491 ], [ -81.393033, 32.651543 ], [ -81.394589, 32.64957 ], [ -81.400027, 32.645764 ], [ -81.405109, 32.64269 ], [ -81.409858, 32.642016 ], [ -81.411816, 32.642156 ], [ -81.412553, 32.641523 ], [ -81.411827, 32.639383 ], [ -81.403634, 32.637925 ], [ -81.402735, 32.637031 ], [ -81.404213, 32.635243 ], [ -81.408197, 32.631307 ], [ -81.41026, 32.631392 ], [ -81.411523, 32.632907 ], [ -81.413411, 32.637368 ], [ -81.414761, 32.63744 ], [ -81.417014, 32.636147 ], [ -81.418431, 32.634704 ], [ -81.418116, 32.628349 ], [ -81.413087, 32.624803 ], [ -81.412515, 32.621567 ], [ -81.412966, 32.620401 ], [ -81.411364096096605, 32.617947625386499 ], [ -81.411222, 32.61773 ], [ -81.408441, 32.617187 ], [ -81.407517, 32.616583 ], [ -81.406464, 32.613042 ], [ -81.400427, 32.608263 ], [ -81.393865, 32.60234 ], [ -81.389338, 32.595436 ], [ -81.389261240981597, 32.595382759304201 ], [ -81.380999, 32.589652 ], [ -81.378173, 32.588818 ], [ -81.375694, 32.589474 ], [ -81.373962, 32.591808 ], [ -81.37157, 32.592018 ], [ -81.369757, 32.591231 ], [ -81.36888, 32.589751 ], [ -81.370284, 32.5867 ], [ -81.369819, 32.585048 ], [ -81.368386, 32.584221 ], [ -81.364501, 32.584034 ], [ -81.363593, 32.581791 ], [ -81.36711, 32.578609 ], [ -81.36695, 32.577019 ], [ -81.365203, 32.576572 ], [ -81.362937, 32.577305 ], [ -81.360168, 32.581778 ], [ -81.357749, 32.582119 ], [ -81.354118, 32.57991 ], [ -81.353698, 32.577911 ], [ -81.357803, 32.57519 ], [ -81.358321, 32.573631 ], [ -81.354797, 32.571072 ], [ -81.350761, 32.570168 ], [ -81.336242, 32.564239 ], [ -81.33319, 32.563499 ], [ -81.328605, 32.561092 ], [ -81.321807, 32.55954 ], [ -81.305236, 32.561515 ], [ -81.300593, 32.562843 ], [ -81.297955, 32.563026 ], [ -81.295588, 32.561817 ], [ -81.295481, 32.559074 ], [ -81.297958, 32.555828 ], [ -81.297866, 32.554091 ], [ -81.296691, 32.553393 ], [ -81.294829, 32.553581 ], [ -81.291762, 32.555328 ], [ -81.29116, 32.55722 ], [ -81.293113, 32.562393 ], [ -81.291289, 32.562739 ], [ -81.289573, 32.56174 ], [ -81.288467, 32.558456 ], [ -81.288344, 32.555912 ], [ -81.289962, 32.55218 ], [ -81.288879, 32.551163 ], [ -81.286468, 32.551475 ], [ -81.284721, 32.552943 ], [ -81.284243, 32.556027 ], [ -81.283271, 32.556782 ], [ -81.281324, 32.556464 ], [ -81.281297597347802, 32.556440280647003 ], [ -81.279238, 32.55459 ], [ -81.27876, 32.55234 ], [ -81.281034, 32.549678 ], [ -81.280731, 32.547638 ], [ -81.27906, 32.546318 ], [ -81.275739, 32.545662 ], [ -81.274955, 32.544821 ], [ -81.274802, 32.541143 ], [ -81.276242, 32.538558 ], [ -81.279223493109001, 32.537725937208002 ], [ -81.280051, 32.537495 ], [ -81.279905, 32.536592 ], [ -81.274174, 32.533774 ], [ -81.272428, 32.530422 ], [ -81.268381505182404, 32.528455041750099 ], [ -81.26603, 32.527312 ], [ -81.2626112, 32.5251364 ], [ -81.258682, 32.522636 ], [ -81.252882, 32.51833 ], [ -81.249559, 32.517857 ], [ -81.246861, 32.518558 ], [ -81.244799, 32.520536 ], [ -81.243119, 32.520232 ], [ -81.241912, 32.517175 ], [ -81.240197, 32.516365 ], [ -81.237371, 32.517131 ], [ -81.235457, 32.518546 ], [ -81.23342, 32.517963 ], [ -81.232148, 32.513337 ], [ -81.232954, 32.511691 ], [ -81.236707, 32.511402 ], [ -81.238411, 32.510192 ], [ -81.238684, 32.506984 ], [ -81.237658, 32.505118 ], [ -81.234254, 32.502747 ], [ -81.233585, 32.498488 ], [ -81.224995, 32.491886 ], [ -81.216815, 32.482804 ], [ -81.211914, 32.478994 ], [ -81.200029, 32.467985 ], [ -81.194829, 32.465086 ], [ -81.191537, 32.464816 ], [ -81.188649, 32.465311 ], [ -81.186952, 32.463566 ], [ -81.188602, 32.461226 ], [ -81.193727, 32.459677 ], [ -81.194558, 32.457774 ], [ -81.191615, 32.455188 ], [ -81.192243, 32.453639 ], [ -81.194298, 32.453522 ], [ -81.196363, 32.455129 ], [ -81.197968, 32.453878 ], [ -81.197485, 32.44914 ], [ -81.198783, 32.44852 ], [ -81.203286, 32.452993 ], [ -81.204496, 32.452779 ], [ -81.206666, 32.448093 ], [ -81.205561, 32.4465 ], [ -81.201055, 32.446223 ], [ -81.199435, 32.444193 ], [ -81.199644, 32.441592 ], [ -81.208443, 32.437002 ], [ -81.205048, 32.425479 ], [ -81.205507, 32.423612 ], [ -81.194931, 32.411489 ], [ -81.18991, 32.407066 ], [ -81.185358, 32.400063 ], [ -81.178713, 32.393645 ], [ -81.177316, 32.389783 ], [ -81.178494, 32.384469 ], [ -81.181495036077294, 32.3798828150547 ], [ -81.181845, 32.379348 ], [ -81.180983548175206, 32.378985070865497 ], [ -81.178859, 32.37809 ], [ -81.175758, 32.375812 ], [ -81.17379, 32.373098 ], [ -81.169217, 32.370136 ], [ -81.167906, 32.368304 ], [ -81.168996, 32.365119 ], [ -81.173933, 32.363546 ], [ -81.173852861551495, 32.362931360156601 ], [ -81.173824, 32.36271 ], [ -81.167124, 32.361041 ], [ -81.167124, 32.358718 ], [ -81.163863, 32.35665 ], [ -81.160998, 32.355905 ], [ -81.160498, 32.353644 ], [ -81.161608, 32.35042 ], [ -81.160096, 32.348952 ], [ -81.155371, 32.350033 ], [ -81.15484, 32.349557 ], [ -81.155053, 32.344165 ], [ -81.156738, 32.342777 ], [ -81.159832, 32.342975 ], [ -81.160622, 32.341749 ], [ -81.159832, 32.339964 ], [ -81.157357, 32.34 ], [ -81.154839, 32.341551 ], [ -81.152194, 32.341443 ], [ -81.151835, 32.343023 ], [ -81.148673, 32.345322 ], [ -81.145982, 32.345018 ], [ -81.145232, 32.345844 ], [ -81.147248, 32.347493 ], [ -81.147318, 32.350127 ], [ -81.143843582333901, 32.351509273997699 ], [ -81.143794, 32.351529 ], [ -81.141512, 32.350324 ], [ -81.139353, 32.34508 ], [ -81.135297, 32.342989 ], [ -81.134013, 32.341209 ], [ -81.129435, 32.341552 ], [ -81.128616, 32.338623 ], [ -81.128956, 32.336452 ], [ -81.131382, 32.335875 ], [ -81.133916, 32.333314 ], [ -81.135751, 32.330281 ], [ -81.137926, 32.328662 ], [ -81.136294, 32.324999 ], [ -81.133752, 32.324291 ], [ -81.131758, 32.326369 ], [ -81.130648, 32.325408 ], [ -81.131652, 32.319505 ], [ -81.129752, 32.313969 ], [ -81.130848, 32.310982 ], [ -81.133052, 32.309011 ], [ -81.131523, 32.307277 ], [ -81.12778, 32.307216 ], [ -81.124978, 32.309159 ], [ -81.122933, 32.307295 ], [ -81.122333, 32.305395 ], [ -81.122656, 32.299509 ], [ -81.123917, 32.296411 ], [ -81.123362, 32.293844 ], [ -81.120019, 32.28994 ], [ -81.119926284439202, 32.287660539139701 ], [ -81.119869537746297, 32.286265391828401 ], [ -81.119867, 32.286203 ], [ -81.122239, 32.284242 ], [ -81.12572, 32.283656 ], [ -81.126965, 32.282698 ], [ -81.127161, 32.280786 ], [ -81.125918, 32.278756 ], [ -81.123276, 32.276975 ], [ -81.123425, 32.275051 ], [ -81.125248, 32.275035 ], [ -81.127954, 32.276466 ], [ -81.13, 32.275796 ], [ -81.132126, 32.272747 ], [ -81.132531, 32.270246 ], [ -81.13349, 32.269796 ], [ -81.135577, 32.272472 ], [ -81.141925, 32.271742 ], [ -81.141747, 32.270214 ], [ -81.139575, 32.269756 ], [ -81.137639, 32.268493 ], [ -81.13693, 32.266115 ], [ -81.13839, 32.264234 ], [ -81.140206, 32.263578 ], [ -81.145336, 32.263993 ], [ -81.146602, 32.262766 ], [ -81.146639, 32.261023 ], [ -81.144732, 32.258773 ], [ -81.145062, 32.25775 ], [ -81.147518, 32.256512 ], [ -81.148334, 32.255098 ], [ -81.14573, 32.251523 ], [ -81.147107, 32.249564 ], [ -81.152894, 32.247807 ], [ -81.155595, 32.246022 ], [ -81.156587, 32.24391 ], [ -81.155883, 32.240969 ], [ -81.152379, 32.2363 ], [ -81.151433582204703, 32.2357338652821 ], [ -81.145771, 32.232343 ], [ -81.145481437331, 32.231926067696499 ], [ -81.143634, 32.229266 ], [ -81.1446886034838, 32.226339229347701 ], [ -81.144813, 32.225994 ], [ -81.14806, 32.223782 ], [ -81.152153, 32.222322 ], [ -81.150836, 32.221196 ], [ -81.143139, 32.221731 ], [ -81.138435, 32.219256 ], [ -81.136717, 32.216267 ], [ -81.136727, 32.213669 ], [ -81.134084, 32.21146 ], [ -81.128283, 32.208634 ], [ -81.12315, 32.201329 ], [ -81.122061, 32.195501 ], [ -81.119802, 32.195156 ], [ -81.11589, 32.196442 ], [ -81.114016, 32.195448 ], [ -81.114117, 32.193922 ], [ -81.11623, 32.192999 ], [ -81.121584, 32.192203 ], [ -81.121554, 32.190415 ], [ -81.118234, 32.189201 ], [ -81.117934, 32.185301 ], [ -81.119834, 32.181202 ], [ -81.120452, 32.178293 ], [ -81.116381, 32.176169 ], [ -81.11393, 32.177604 ], [ -81.111933, 32.178002 ], [ -81.110234, 32.1768 ], [ -81.111132, 32.172703 ], [ -81.11384, 32.171259 ], [ -81.117748, 32.171159 ], [ -81.11901, 32.174669 ], [ -81.121189, 32.174923 ], [ -81.128134, 32.169102 ], [ -81.129746, 32.165933 ], [ -81.129703788719894, 32.1658837427821 ], [ -81.129533546819701, 32.165685083979398 ], [ -81.128434, 32.164402 ], [ -81.123134, 32.162902 ], [ -81.122034, 32.161803 ], [ -81.122137, 32.157304 ], [ -81.121116, 32.154504 ], [ -81.117969, 32.152332 ], [ -81.114298, 32.152019 ], [ -81.112236, 32.150804 ], [ -81.112234, 32.149306 ], [ -81.116236, 32.147201 ], [ -81.118334, 32.144403 ], [ -81.119134, 32.142104 ], [ -81.119943, 32.133998 ], [ -81.118328824855396, 32.131747463278103 ], [ -81.116128, 32.128679 ], [ -81.115242, 32.125504 ], [ -81.117225, 32.119805 ], [ -81.117234, 32.117605 ], [ -81.115367, 32.114705 ], [ -81.111134, 32.112005 ], [ -81.10894, 32.111626 ], [ -81.106703, 32.109698 ], [ -81.103325, 32.111137 ], [ -81.094976, 32.111821 ], [ -81.091245, 32.110888 ], [ -81.089484, 32.106227 ], [ -81.087062618066597, 32.104047756259902 ], [ -81.086974, 32.103968 ], [ -81.08827, 32.099931 ], [ -81.074306, 32.097385 ], [ -81.059551, 32.088623 ], [ -81.043543, 32.086104 ], [ -81.039848042031693, 32.0844877116307 ], [ -81.038125, 32.083734 ], [ -81.026262, 32.088129 ], [ -81.021623, 32.091683 ], [ -81.020031397004203, 32.094331445285 ], [ -81.017355, 32.098785 ], [ -81.011015, 32.10205 ], [ -81.004305, 32.102367 ], [ -80.999556, 32.100434 ], [ -80.992138, 32.094915 ], [ -80.986845, 32.084116 ], [ -80.983509, 32.079549 ], [ -80.980541, 32.077836 ], [ -80.971915, 32.074633 ], [ -80.959569, 32.072854 ], [ -80.95388, 32.070142 ], [ -80.925085, 32.041939 ], [ -80.921027, 32.03999 ], [ -80.907657, 32.038151 ], [ -80.906677, 32.034793 ], [ -80.890743, 32.030729 ], [ -80.886598, 32.02694 ], [ -80.879274409751403, 32.0199342882458 ], [ -80.876950492492995, 32.017711240000402 ], [ -80.875954, 32.016758 ], [ -80.866209, 32.019377 ], [ -80.859111, 32.023693 ], [ -80.855056, 32.025463 ], [ -80.852869194975, 32.028579502056203 ], [ -80.852725, 32.028785 ], [ -80.843456, 32.023647 ], [ -80.841068059267599, 32.012339315310797 ], [ -80.840917, 32.011624 ], [ -80.840378, 32.003044 ], [ -80.841854045509606, 32.002658401140501 ], [ -80.841913, 32.002643 ], [ -80.842783141214198, 32.000204019222402 ], [ -80.844504154437004, 31.995380068695901 ], [ -80.846882362457507, 31.988714020067899 ], [ -80.847298, 31.987549 ], [ -80.848113343871006, 31.987308227804899 ], [ -80.852261832385693, 31.9860831732951 ], [ -80.852920552734403, 31.985888652247102 ], [ -80.858429, 31.984262 ], [ -80.859418, 31.97382 ], [ -80.862814, 31.969346 ], [ -80.881896, 31.956683 ], [ -80.897687, 31.949065 ], [ -80.921351, 31.938733 ], [ -80.928006, 31.938532 ], [ -80.929101, 31.944964 ], [ -80.930279, 31.956705 ], [ -80.932522, 31.961926 ], [ -80.935913648473502, 31.962528332874701 ], [ -80.942742, 31.963741 ], [ -80.9479866014468, 31.961833872201201 ], [ -80.949397, 31.961321 ], [ -80.948491, 31.95723 ], [ -80.972392, 31.94127 ], [ -80.979049732840807, 31.940642911131398 ], [ -80.984336, 31.940145 ], [ -80.983623, 31.931674 ], [ -80.981277352929098, 31.929280010474599 ], [ -80.975714, 31.923602 ], [ -80.968494, 31.915822 ], [ -80.954469, 31.911768 ], [ -80.941359, 31.912984 ], [ -80.930145, 31.90807 ], [ -80.947294, 31.89621 ], [ -80.971434, 31.877941 ], [ -80.99269, 31.857641 ], [ -81.000317, 31.856744 ], [ -81.006674849394699, 31.861561436904601 ], [ -81.014478, 31.867474 ], [ -81.028405, 31.86814 ], [ -81.031408, 31.87293 ], [ -81.041548, 31.876198 ], [ -81.056277624326498, 31.876755323702699 ], [ -81.065255, 31.877095 ], [ -81.061194220730599, 31.865335266191401 ], [ -81.058596, 31.857811 ], [ -81.05907, 31.850106 ], [ -81.06279, 31.84474 ], [ -81.076178, 31.836132 ], [ -81.075812, 31.829031 ], [ -81.067282, 31.826126 ], [ -81.062116, 31.821071 ], [ -81.052313, 31.819049 ], [ -81.050946, 31.822383 ], [ -81.04794, 31.824881 ], [ -81.039808, 31.823 ], [ -81.036958, 31.819558 ], [ -81.034724, 31.816423 ], [ -81.035913, 31.810364 ], [ -81.046371, 31.80087 ], [ -81.070376, 31.771374 ], [ -81.07917, 31.762684 ], [ -81.095095, 31.749144 ], [ -81.11197, 31.737218 ], [ -81.130634, 31.722692 ], [ -81.138448, 31.720934 ], [ -81.154686330339004, 31.726202578964301 ], [ -81.16067, 31.728144 ], [ -81.17404, 31.727487 ], [ -81.192784, 31.733245 ], [ -81.198394185031006, 31.726070016418898 ], [ -81.203572, 31.719448 ], [ -81.195289, 31.71384 ], [ -81.186303, 31.701509 ], [ -81.161084, 31.691401 ], [ -81.154624, 31.693874 ], [ -81.151888, 31.698411 ], [ -81.149369, 31.699304 ], [ -81.139394, 31.699917 ], [ -81.131137, 31.695774 ], [ -81.135608, 31.683491 ], [ -81.136408, 31.674832 ], [ -81.13455, 31.661992 ], [ -81.133974, 31.640957 ], [ -81.128845, 31.631439 ], [ -81.133493, 31.623348 ], [ -81.14997, 31.593476 ], [ -81.160364, 31.570436 ], [ -81.171865, 31.558962 ], [ -81.178758, 31.558152 ], [ -81.182561, 31.561798 ], [ -81.187902, 31.572766 ], [ -81.187244, 31.580056 ], [ -81.188830977025702, 31.580127192204301 ], [ -81.192226736411897, 31.580279526858298 ], [ -81.195581, 31.58043 ], [ -81.203202, 31.569713 ], [ -81.216065, 31.558415 ], [ -81.240699, 31.552313 ], [ -81.254218, 31.55594 ], [ -81.259206, 31.550333 ], [ -81.276539, 31.548463 ], [ -81.289702, 31.537245 ], [ -81.298259, 31.533505 ], [ -81.297763605765695, 31.531574865367698 ], [ -81.295187, 31.521536 ], [ -81.276319, 31.525276 ], [ -81.271054, 31.531074 ], [ -81.263437, 31.530932 ], [ -81.258809, 31.52906 ], [ -81.26388, 31.515845 ], [ -81.277659, 31.509514 ], [ -81.282311, 31.504403 ], [ -81.278733, 31.497538 ], [ -81.267728, 31.497004 ], [ -81.262896, 31.495783 ], [ -81.251444, 31.5057 ], [ -81.24375, 31.518896 ], [ -81.236681, 31.529192 ], [ -81.228547, 31.526983 ], [ -81.217948, 31.527284 ], [ -81.213519, 31.528152 ], [ -81.20419, 31.536074 ], [ -81.198251, 31.537033 ], [ -81.186568, 31.529185 ], [ -81.180762, 31.522451 ], [ -81.178725, 31.518202 ], [ -81.179342, 31.516292 ], [ -81.189643, 31.503588 ], [ -81.204883, 31.473124 ], [ -81.246911, 31.422784 ], [ -81.258616, 31.404425 ], [ -81.261803, 31.393568 ], [ -81.268613, 31.383009 ], [ -81.278108, 31.377727 ], [ -81.282696231764206, 31.375134799514999 ], [ -81.29427, 31.368596 ], [ -81.290468, 31.361493 ], [ -81.285952, 31.34972 ], [ -81.282923, 31.326491 ], [ -81.287615, 31.310537 ], [ -81.283521525456493, 31.2933965980721 ], [ -81.282862, 31.290635 ], [ -81.279534, 31.271744 ], [ -81.271233, 31.265894 ], [ -81.269552, 31.258741 ], [ -81.276862, 31.254734 ], [ -81.282842, 31.24433 ], [ -81.289136, 31.225487 ], [ -81.290468, 31.217691 ], [ -81.295697, 31.215048 ], [ -81.303065, 31.216878 ], [ -81.306345369920507, 31.214903490288599 ], [ -81.315899, 31.209153 ], [ -81.331111, 31.196955 ], [ -81.35488, 31.167204 ], [ -81.360791, 31.155903 ], [ -81.364585440458796, 31.149889027251302 ], [ -81.365812, 31.147945 ], [ -81.367045985523006, 31.147013357461599 ], [ -81.371723793274398, 31.143481675277201 ], [ -81.375889, 31.140337 ], [ -81.378031489605704, 31.139269912212601 ], [ -81.387743, 31.134433 ], [ -81.397090988891406, 31.134182341675402 ], [ -81.399004552702493, 31.134131031098999 ], [ -81.399298991179606, 31.134123135983099 ], [ -81.399677, 31.134113 ], [ -81.403112530426696, 31.129401794249201 ], [ -81.404007558090697, 31.128174426432899 ], [ -81.409523, 31.120611 ], [ -81.403732, 31.107115 ], [ -81.401209, 31.086143 ], [ -81.401267, 31.072781 ], [ -81.415123, 31.026718 ], [ -81.420474, 31.016703 ], [ -81.424732, 31.013678 ], [ -81.432475, 31.012991 ], [ -81.43471, 31.014641 ], [ -81.434923, 31.017804 ], [ -81.440119357989104, 31.0170840397411 ], [ -81.443149786142797, 31.016664171086401 ], [ -81.451444, 31.015515 ], [ -81.457795, 31.010259 ], [ -81.45924, 31.005692 ], [ -81.460966, 30.999142 ], [ -81.469298, 30.996028 ], [ -81.490586, 30.984952 ], [ -81.493651, 30.977528 ], [ -81.490182899031396, 30.9734160825315 ], [ -81.486966, 30.969602 ], [ -81.475789, 30.965976 ], [ -81.472321, 30.969899 ], [ -81.466814, 30.97091 ], [ -81.453568, 30.965573 ], [ -81.448049, 30.965511 ], [ -81.447388, 30.956732 ], [ -81.436547122136503, 30.956670003679999 ], [ -81.426929, 30.956615 ], [ -81.420108, 30.974076 ], [ -81.415825, 30.977192 ], [ -81.408484, 30.977718 ], [ -81.403409, 30.957914 ], [ -81.404079, 30.903738 ], [ -81.412473, 30.885751 ], [ -81.428577, 30.836336 ], [ -81.430835, 30.831156 ], [ -81.44013, 30.821369 ], [ -81.446927, 30.81039 ], [ -81.455287, 30.79093 ], [ -81.460061, 30.769912 ], [ -81.461065, 30.753684 ], [ -81.45947, 30.741979 ], [ -81.449707, 30.719685 ], [ -81.444124, 30.709714 ], [ -81.448718, 30.709353 ], [ -81.459978, 30.710434 ], [ -81.464465, 30.711045 ], [ -81.465385817239394, 30.7113017010184 ], [ -81.472597, 30.713312 ], [ -81.475754, 30.714754 ], [ -81.483786, 30.723891 ], [ -81.487332, 30.726081 ], [ -81.489537, 30.7261 ], [ -81.507216, 30.722936 ], [ -81.516116, 30.722236 ], [ -81.521417, 30.722536 ], [ -81.526245, 30.723392 ], [ -81.531156, 30.724219 ], [ -81.533366, 30.723433 ], [ -81.534248, 30.72097 ], [ -81.534517, 30.717936 ], [ -81.533963, 30.714727 ], [ -81.533813, 30.712055 ], [ -81.535148, 30.709702 ], [ -81.538391, 30.708656 ], [ -81.541595, 30.710062 ], [ -81.544679, 30.713969 ], [ -81.546096, 30.71703 ], [ -81.548961906672602, 30.718158478696001 ], [ -81.549301, 30.718292 ], [ -81.552566, 30.716974 ], [ -81.556149, 30.71375 ], [ -81.560709, 30.711689 ], [ -81.563461, 30.713423 ], [ -81.563796, 30.717749 ], [ -81.566664585349102, 30.7185133760787 ], [ -81.568412, 30.718979 ], [ -81.571419, 30.721636 ], [ -81.572439534816894, 30.721946597553 ], [ -81.573719, 30.722336 ], [ -81.576155771602501, 30.722596212462602 ], [ -81.58682, 30.723735 ], [ -81.589292, 30.722839 ], [ -81.593841, 30.718481 ], [ -81.597106, 30.719326 ], [ -81.596092, 30.724615 ], [ -81.596452, 30.72725 ], [ -81.600877, 30.729444 ], [ -81.604293, 30.728939 ], [ -81.606018, 30.726219 ], [ -81.605827, 30.71969 ], [ -81.60762, 30.716373 ], [ -81.610656, 30.716217 ], [ -81.613044, 30.720451 ], [ -81.615066, 30.722691 ], [ -81.621139, 30.72254 ], [ -81.623542, 30.72468 ], [ -81.621127, 30.728832 ], [ -81.620823, 30.73162 ], [ -81.624366, 30.73634 ], [ -81.624920466755498, 30.736207711084301 ], [ -81.628331, 30.735394 ], [ -81.629142, 30.728725 ], [ -81.630692, 30.728095 ], [ -81.632843, 30.728762 ], [ -81.635047, 30.733276 ], [ -81.638058, 30.733368 ], [ -81.641915, 30.728922 ], [ -81.646137, 30.727591 ], [ -81.649024, 30.727499 ], [ -81.653133, 30.729799 ], [ -81.65409, 30.733093 ], [ -81.651504, 30.740677 ], [ -81.652328, 30.743101 ], [ -81.6543373089185, 30.744220771116002 ], [ -81.654339801378498, 30.744222160143199 ], [ -81.654632, 30.744385 ], [ -81.659886, 30.74218 ], [ -81.662689, 30.74304 ], [ -81.663544, 30.745728 ], [ -81.659774, 30.749441 ], [ -81.660835, 30.753193 ], [ -81.663345, 30.754402 ], [ -81.669844, 30.751669 ], [ -81.678435, 30.75107 ], [ -81.683096, 30.748492 ], [ -81.682357, 30.745485 ], [ -81.679306, 30.744745 ], [ -81.672468, 30.748435 ], [ -81.669075, 30.744986 ], [ -81.668838, 30.742514 ], [ -81.670124, 30.740235 ], [ -81.672824, 30.738935 ], [ -81.680091, 30.7416 ], [ -81.688426, 30.741482 ], [ -81.691047, 30.74328 ], [ -81.692413, 30.747637 ], [ -81.694778, 30.748414 ], [ -81.702468, 30.74544 ], [ -81.709114, 30.747976 ], [ -81.711385754267894, 30.747273863427001 ], [ -81.719927, 30.744634 ], [ -81.724457, 30.746546 ], [ -81.729301, 30.748255 ], [ -81.732841, 30.750486 ], [ -81.732955, 30.752016 ], [ -81.731353, 30.754007 ], [ -81.73234, 30.755296 ], [ -81.741996, 30.759071 ], [ -81.742744, 30.760588 ], [ -81.742141, 30.761953 ], [ -81.740387, 30.763599 ], [ -81.740753, 30.765007 ], [ -81.744038, 30.766396 ], [ -81.750038, 30.767111 ], [ -81.754879, 30.768701 ], [ -81.758208792987105, 30.7708740320261 ], [ -81.758529, 30.771083 ], [ -81.760467, 30.774654 ], [ -81.76172, 30.775698 ], [ -81.769637, 30.777116 ], [ -81.771302, 30.776324 ], [ -81.770356, 30.773482 ], [ -81.772468, 30.77124 ], [ -81.773483, 30.766996 ], [ -81.771569, 30.765158 ], [ -81.771949, 30.763811 ], [ -81.78215, 30.761341 ], [ -81.783523, 30.762465 ], [ -81.782585, 30.766073 ], [ -81.786697, 30.769802 ], [ -81.783676, 30.772879 ], [ -81.788189205795504, 30.779262447469598 ], [ -81.791817156642097, 30.7843937963823 ], [ -81.792583, 30.785477 ], [ -81.794417, 30.787004 ], [ -81.796608, 30.78562 ], [ -81.79675, 30.783055 ], [ -81.798453, 30.782251 ], [ -81.802398, 30.787197 ], [ -81.807449, 30.790119 ], [ -81.819213, 30.789911 ], [ -81.823702, 30.786831 ], [ -81.828491, 30.789356 ], [ -81.839243, 30.7866 ], [ -81.840729424509703, 30.787335871161901 ], [ -81.841774, 30.787853 ], [ -81.839691, 30.791197 ], [ -81.840622023550097, 30.791865043671802 ], [ -81.841185, 30.792269 ], [ -81.845638, 30.790721 ], [ -81.853508, 30.794628 ], [ -81.863739, 30.794275 ], [ -81.868263, 30.79285 ], [ -81.870407, 30.794819 ], [ -81.870353, 30.797483 ], [ -81.87619, 30.799805 ], [ -81.881492, 30.799917 ], [ -81.884819, 30.811529 ], [ -81.889099, 30.81356 ], [ -81.891495, 30.816752 ], [ -81.891021, 30.82247 ], [ -81.892906, 30.825513 ], [ -81.894851, 30.825167 ], [ -81.901443, 30.829922 ], [ -81.904823, 30.828276 ], [ -81.90727, 30.825555 ], [ -81.906718, 30.82339 ], [ -81.904091, 30.82041 ], [ -81.904533, 30.817743 ], [ -81.910916, 30.816125 ], [ -81.918728, 30.817493 ], [ -81.92705, 30.817569 ], [ -81.932808, 30.82041 ], [ -81.93621, 30.825417 ], [ -81.936976, 30.828511 ], [ -81.938788, 30.828836 ], [ -81.943695, 30.825981 ], [ -81.949501, 30.827867 ], [ -81.955705, 30.822751 ], [ -81.962863379582402, 30.818702158526399 ], [ -81.963928, 30.8181 ], [ -81.962739, 30.813636 ], [ -81.962441, 30.808441 ], [ -81.964501, 30.807452 ], [ -81.961723, 30.800993 ], [ -81.962898, 30.795847 ], [ -81.966621, 30.793915 ], [ -81.969955, 30.789076 ], [ -81.970827, 30.783856 ], [ -81.973442, 30.778828 ], [ -81.977722, 30.776636 ], [ -81.978797628874901, 30.776916746494599 ], [ -81.978869324960002, 30.776935459663299 ], [ -81.983423, 30.778124 ], [ -81.992099, 30.782996 ], [ -81.994972, 30.786073 ], [ -82.004754, 30.791389 ], [ -82.008053, 30.792053 ], [ -82.012505, 30.789333 ], [ -82.015868, 30.791591 ], [ -82.016200178441395, 30.7911777631105 ], [ -82.018753, 30.788002 ], [ -82.021972, 30.788233 ], [ -82.023759, 30.785263 ], [ -82.023269, 30.782693 ], [ -82.01796, 30.774943 ], [ -82.018449, 30.772759 ], [ -82.01516, 30.771971 ], [ -82.011375, 30.7626 ], [ -82.013923, 30.760902 ], [ -82.018864, 30.756574 ], [ -82.018839, 30.754595 ], [ -82.023731, 30.753507 ], [ -82.027141, 30.751128 ], [ -82.031884, 30.750476 ], [ -82.0348, 30.754449 ], [ -82.036773, 30.754434 ], [ -82.038665, 30.751087 ], [ -82.039634, 30.747727 ], [ -82.039421, 30.737194 ], [ -82.044792, 30.728481 ], [ -82.044456, 30.726152 ], [ -82.040039, 30.724585 ], [ -82.039154, 30.723178 ], [ -82.037563, 30.71864 ], [ -82.038536, 30.715918 ], [ -82.036804, 30.713033 ], [ -82.036633342495193, 30.7101218899716 ], [ -82.036426, 30.706585 ], [ -82.043014, 30.698257 ], [ -82.04142, 30.693592 ], [ -82.043541, 30.684734 ], [ -82.050432, 30.676266 ], [ -82.048473, 30.668947 ], [ -82.046994, 30.665926 ], [ -82.047179, 30.662904 ], [ -82.048843, 30.660678 ], [ -82.049507, 30.655548 ], [ -82.046114, 30.651767 ], [ -82.042271, 30.649452 ], [ -82.039595, 30.643309 ], [ -82.039092, 30.641132 ], [ -82.039941, 30.637144 ], [ -82.037609, 30.633271 ], [ -82.033927, 30.629603 ], [ -82.028499, 30.621829 ], [ -82.026541, 30.613303 ], [ -82.027338, 30.606726 ], [ -82.026941, 30.606153 ], [ -82.0204447747481, 30.603869550062399 ], [ -82.016503, 30.602484 ], [ -82.015708, 30.601704 ], [ -82.012109, 30.593773 ], [ -82.008091, 30.577018 ], [ -82.005477, 30.563495 ], [ -82.013216, 30.550091 ], [ -82.018361, 30.531184 ], [ -82.018810640180703, 30.524660226490901 ], [ -82.018868, 30.523828 ], [ -82.017678619748395, 30.520997047005 ], [ -82.01699, 30.519358 ], [ -82.015826, 30.518166 ], [ -82.01477, 30.513009 ], [ -82.015892, 30.495499 ], [ -82.018222, 30.492085 ], [ -82.017297, 30.487638 ], [ -82.016982, 30.478779 ], [ -82.017779, 30.475081 ], [ -82.023734, 30.467289 ], [ -82.025457, 30.457755 ], [ -82.028212, 30.447396 ], [ -82.030064, 30.444853 ], [ -82.036203, 30.43846 ], [ -82.037209, 30.434518 ], [ -82.036001677469301, 30.431672325401301 ], [ -82.034464, 30.428048 ], [ -82.034005, 30.422357 ], [ -82.039971, 30.41428 ], [ -82.041164, 30.409966 ], [ -82.041689901816198, 30.405700210449901 ], [ -82.04199, 30.403266 ], [ -82.041164, 30.396841 ], [ -82.035871, 30.385287 ], [ -82.036825, 30.377884 ], [ -82.040746, 30.370158 ], [ -82.047917, 30.363265 ], [ -82.049966002925501, 30.362382367234201 ], [ -82.050069, 30.362338 ], [ -82.060034, 30.360328 ], [ -82.068533, 30.359184 ], [ -82.081106, 30.358806 ], [ -82.094687, 30.360781 ], [ -82.1001294221264, 30.364267180957 ], [ -82.101798, 30.365336 ], [ -82.101416, 30.366556 ], [ -82.1025, 30.367823 ], [ -82.104834, 30.368319 ], [ -82.116385, 30.367335 ], [ -82.143282, 30.363393 ], [ -82.158109, 30.359913 ], [ -82.161757, 30.357851 ], [ -82.165192, 30.358035 ], [ -82.170054, 30.358929 ], [ -82.171508, 30.359869 ], [ -82.171976272044404, 30.360350808463 ], [ -82.180018, 30.368625 ], [ -82.183797, 30.373712 ], [ -82.184633, 30.377165 ], [ -82.186394, 30.377355 ], [ -82.188814, 30.376596 ], [ -82.19294, 30.378779 ], [ -82.192336, 30.38457 ], [ -82.196517, 30.389316 ], [ -82.204151, 30.40133 ], [ -82.210291, 30.42459 ], [ -82.20987, 30.432818 ], [ -82.206486, 30.437081 ], [ -82.204623035281102, 30.442590508563299 ], [ -82.203975, 30.444507 ], [ -82.204823, 30.45184 ], [ -82.20604, 30.455507 ], [ -82.207522, 30.456928 ], [ -82.207708, 30.460503 ], [ -82.204614, 30.468868 ], [ -82.200938, 30.474438 ], [ -82.201416, 30.485164 ], [ -82.206445, 30.491877 ], [ -82.212852, 30.498751 ], [ -82.218514, 30.504187 ], [ -82.225026, 30.50783 ], [ -82.226933, 30.510281 ], [ -82.230377, 30.517339 ], [ -82.230337782835505, 30.517478706135901 ], [ -82.230335919001902, 30.517485345804801 ], [ -82.229399, 30.520823 ], [ -82.230752, 30.526758 ], [ -82.236123, 30.531155 ], [ -82.240403, 30.53777 ], [ -82.238912, 30.545426 ], [ -82.234438, 30.549003 ], [ -82.234427, 30.556593 ], [ -82.232623, 30.557958 ], [ -82.228265, 30.56258 ], [ -82.222826, 30.565595 ], [ -82.217315, 30.56519 ], [ -82.214385, 30.566958 ], [ -82.214818344521504, 30.568516703972598 ], [ -82.214839, 30.568591 ], [ -82.249841, 30.570863 ], [ -82.2581, 30.571559 ], [ -82.287343, 30.573458 ], [ -82.374844, 30.579004 ], [ -82.418915364458101, 30.581745061959399 ], [ -82.459544, 30.584272 ], [ -82.4597918101678, 30.5842868523055 ], [ -82.524899, 30.588189 ], [ -82.536233, 30.588885 ], [ -82.545055, 30.589361 ], [ -82.553159, 30.589934 ], [ -82.565476, 30.590622 ], [ -82.569237, 30.590965 ], [ -82.584001926837999, 30.591795783910101 ], [ -82.689271, 30.597719 ], [ -82.689538947229707, 30.597733705994301 ], [ -82.698618, 30.598232 ], [ -82.698902, 30.598271 ], [ -82.877259, 30.609024 ], [ -82.878779, 30.609082 ], [ -82.939918, 30.612591929645099 ], [ -83.023529404516395, 30.617391977853099 ], [ -83.0557133403709, 30.6192396258446 ], [ -83.055950701369099, 30.619253252505199 ], [ -83.1185670928609, 30.6228479977378 ], [ -83.121409375734004, 30.6230111703921 ], [ -83.13137, 30.623583 ], [ -83.136614104996099, 30.623989206681401 ], [ -83.15617, 30.625504 ], [ -83.163309, 30.625895 ], [ -83.172353992102501, 30.626342279829199 ], [ -83.172415456738406, 30.6263453192892 ], [ -83.174411, 30.626444 ], [ -83.187391, 30.627223 ], [ -83.256218465796195, 30.631279435877399 ], [ -83.309249067006306, 30.634404863072099 ], [ -83.309249647018206, 30.634404897255902 ], [ -83.309455, 30.634417 ], [ -83.311647, 30.634577 ], [ -83.311874522532506, 30.6345907068301 ], [ -83.340851706509696, 30.636336403549102 ], [ -83.341011, 30.636346 ], [ -83.357703044293004, 30.637359270341999 ], [ -83.37946, 30.63868 ], [ -83.390062, 30.639333 ], [ -83.429477, 30.641519 ], [ -83.429584, 30.641496 ], [ -83.440021, 30.642023 ], [ -83.448895, 30.64241 ], [ -83.448943991445404, 30.642413133738099 ], [ -83.499876, 30.645671 ], [ -83.5368725669464, 30.6475189916078 ], [ -83.611667, 30.651255 ], [ -83.611720001169104, 30.6512579664548 ], [ -83.642226278666598, 30.6529653909394 ], [ -83.674058, 30.654747 ], [ -83.676773, 30.654905 ], [ -83.743729, 30.6583963847626 ], [ -83.808755800938897, 30.6617871724733 ], [ -83.810536, 30.66188 ], [ -83.820886, 30.662612 ], [ -83.855216, 30.664412 ], [ -83.879893510085097, 30.6658134583395 ], [ -83.88022, 30.665832 ], [ -83.880317, 30.665807 ], [ -84.007391, 30.672097 ], [ -84.007454, 30.6721003570368 ], [ -84.019093314064506, 30.672720572992301 ], [ -84.019140235193305, 30.6727230732455 ], [ -84.039707, 30.673819 ], [ -84.04181, 30.673878 ], [ -84.046605, 30.6742 ], [ -84.057228, 30.674705 ], [ -84.072743205243995, 30.675354553777002 ], [ -84.072770293113393, 30.675355687827601 ], [ -84.083756672127905, 30.675815639460399 ], [ -84.107699, 30.676818 ], [ -84.124895, 30.678046 ], [ -84.155209679999601, 30.679525054704399 ], [ -84.2499, 30.684145 ], [ -84.254117805468695, 30.684294664065 ], [ -84.28121, 30.685256 ], [ -84.282559611875101, 30.685321366761201 ], [ -84.282561215687096, 30.685321444439801 ], [ -84.374905, 30.689794 ], [ -84.3807057284411, 30.6899688310078 ], [ -84.3807379124476, 30.689969801017401 ], [ -84.452316866998999, 30.692127154336799 ], [ -84.474409, 30.692793 ], [ -84.525889381677501, 30.695959952380001 ], [ -84.535042, 30.696523 ], [ -84.53937, 30.696775 ], [ -84.550802878781099, 30.6973044281551 ], [ -84.606249, 30.699872 ], [ -84.606386, 30.699865 ], [ -84.625208354591095, 30.700906795212301 ], [ -84.625219988938099, 30.7009074391597 ], [ -84.644815, 30.701992 ], [ -84.664746755898705, 30.702899242563898 ], [ -84.665850977064295, 30.702949503887901 ], [ -84.725154452477298, 30.705648846452299 ], [ -84.801135478348598, 30.7091073084699 ], [ -84.836324, 30.710709 ], [ -84.863460473114202, 30.711505809267301 ], [ -84.864693, 30.711542 ], [ -84.869752, 30.721897 ], [ -84.875421, 30.727491 ], [ -84.883821, 30.732591 ], [ -84.885221, 30.734991 ], [ -84.887522, 30.741791 ], [ -84.896122, 30.750591 ], [ -84.897622, 30.751391 ], [ -84.900222, 30.751891 ], [ -84.903122, 30.751791 ], [ -84.906322, 30.750591 ], [ -84.911122, 30.751191 ], [ -84.913522, 30.752291 ], [ -84.914322, 30.753591 ], [ -84.915022, 30.761191 ], [ -84.917238519945798, 30.7632762929269 ], [ -84.920123, 30.76599 ], [ -84.918023, 30.77209 ], [ -84.917423, 30.77589 ], [ -84.918023, 30.77809 ], [ -84.926723, 30.79019 ], [ -84.928323, 30.79309 ], [ -84.928786135135098, 30.795868810810799 ], [ -84.929023, 30.79729 ], [ -84.927923, 30.80279 ], [ -84.928323, 30.80509 ], [ -84.930923, 30.810489 ], [ -84.936824, 30.818489 ], [ -84.937424, 30.820889 ], [ -84.935745, 30.833961 ], [ -84.932324, 30.838089 ], [ -84.926956, 30.839192 ], [ -84.925665, 30.842685 ], [ -84.927824, 30.847889 ], [ -84.933224, 30.851488 ], [ -84.936624, 30.858988 ], [ -84.935325, 30.861287 ], [ -84.932524, 30.863188 ], [ -84.933124, 30.865888 ], [ -84.939324, 30.871488 ], [ -84.939224, 30.874888 ], [ -84.934324, 30.881888 ], [ -84.9349, 30.884528 ], [ -84.937984122823494, 30.886345922129401 ], [ -84.939372, 30.887164 ], [ -84.942525, 30.888488 ], [ -84.949625, 30.897387 ], [ -84.952325, 30.902287 ], [ -84.956125, 30.907587 ], [ -84.966726, 30.917287 ], [ -84.969426, 30.921987 ], [ -84.971026, 30.928187 ], [ -84.975226, 30.930787 ], [ -84.980627, 30.932687 ], [ -84.983127, 30.934786 ], [ -84.983627, 30.936986 ], [ -84.983027, 30.942586 ], [ -84.982227, 30.946886 ], [ -84.979627, 30.954686 ], [ -84.979627, 30.958986 ], [ -84.980127, 30.961286 ], [ -84.982527, 30.965586 ], [ -84.984827, 30.967486 ], [ -84.988027, 30.968786 ], [ -84.997628, 30.971186 ], [ -84.999828, 30.971486 ], [ -84.999928, 30.971186 ], [ -85.004026, 30.973468 ], [ -85.005105, 30.974704 ], [ -85.005931, 30.97704 ], [ -85.005931339749395, 30.9773530224243 ], [ -85.005931365002397, 30.9773762888425 ], [ -85.005934, 30.979804 ], [ -85.00254, 30.986899 ], [ -85.001819, 30.997889 ], [ -85.0019, 31.000681 ], [ -85.002499, 31.000682 ], [ -85.001366, 31.005044 ], [ -84.999626, 31.009079 ], [ -84.999428, 31.013843 ], [ -85.00006, 31.014983 ], [ -85.004549, 31.01918 ], [ -85.005051, 31.024701 ], [ -85.009409, 31.032378 ], [ -85.008552, 31.042824 ], [ -85.008816, 31.045573 ], [ -85.010579613952203, 31.0510315768793 ], [ -85.011392, 31.053546 ], [ -85.012642, 31.055402 ], [ -85.018148, 31.059253 ], [ -85.028573, 31.074583 ], [ -85.028473194945306, 31.075526157766902 ], [ -85.028333, 31.076851 ], [ -85.026068, 31.08418 ], [ -85.029736, 31.096163 ], [ -85.032832, 31.10057 ], [ -85.035615, 31.108192 ], [ -85.037079, 31.109751 ], [ -85.040513, 31.111583 ], [ -85.047061466866694, 31.116551433267801 ], [ -85.050178, 31.118916 ], [ -85.052867, 31.119489 ], [ -85.054677, 31.120818 ], [ -85.055901290393294, 31.123384702314802 ], [ -85.055931029819902, 31.123447050476301 ], [ -85.061072, 31.134225 ], [ -85.06243, 31.139518 ], [ -85.064028, 31.142495 ], [ -85.070181, 31.14868 ], [ -85.075729376537197, 31.155777481201 ], [ -85.076628, 31.156927 ], [ -85.077801, 31.157889 ], [ -85.082617452320804, 31.1593395178154 ], [ -85.083582, 31.15963 ], [ -85.092106, 31.160293 ], [ -85.100207, 31.16549 ], [ -85.100447, 31.166727 ], [ -85.098426, 31.17777 ], [ -85.098507, 31.180153 ], [ -85.102052, 31.184734 ], [ -85.104424, 31.18565 ], [ -85.106503, 31.185305 ], [ -85.107516, 31.186451 ], [ -85.107744625536995, 31.189854815531 ], [ -85.108133, 31.195637 ], [ -85.106963, 31.202693 ], [ -85.105631, 31.204595 ], [ -85.09977, 31.209751 ], [ -85.098704, 31.211286 ], [ -85.098707, 31.219511 ], [ -85.096763, 31.225651 ], [ -85.098844, 31.232524 ], [ -85.100765, 31.234813 ], [ -85.102472, 31.23786 ], [ -85.10426, 31.241869 ], [ -85.106182, 31.248077 ], [ -85.109149, 31.254609 ], [ -85.111711, 31.258022 ], [ -85.112352, 31.25958 ], [ -85.113261, 31.264343 ], [ -85.111983, 31.267987 ], [ -85.111905, 31.272477 ], [ -85.112546, 31.274378 ], [ -85.114548, 31.276302 ], [ -85.114601, 31.277333 ], [ -85.112762, 31.280037 ], [ -85.110309, 31.281733 ], [ -85.099815189507297, 31.2840112491625 ], [ -85.099107, 31.284165 ], [ -85.09316, 31.289688 ], [ -85.089774, 31.295026 ], [ -85.087695, 31.304053 ], [ -85.087651, 31.308677 ], [ -85.087404, 31.311223 ], [ -85.084469, 31.316194 ], [ -85.083776, 31.31821 ] ] ], [ [ [ -81.271882, 31.304105 ], [ -81.27655, 31.305666 ], [ -81.279391, 31.305839 ], [ -81.279391, 31.30792 ], [ -81.277159, 31.311215 ], [ -81.273709, 31.311735 ], [ -81.270664, 31.310521 ], [ -81.271882, 31.304105 ] ] ] ] } }
]
}
