{
"type": "FeatureCollection",
"name": "state-45-outline",
"crs": { "type": "name", "properties": { "name": "urn:ogc:def:crs:OGC:1.3:CRS84" } },
"features": [
{ "type": "Feature", "properties": { "state_fips": "45", "state_abbr": "SC", "state_name": "South Carolina" }, "geometry": { "type": "MultiPolygon", "coordinates": [ [ [ [ -82.594192, 34.028866 ], [ -82.596008, 34.03093 ], [ -82.600184, 34.032985 ], [ -82.607414, 34.038071 ], [ -82.610611, 34.041458 ], [ -82.612932, 34.046785 ], [ -82.619155, 34.051316 ], [ -82.620384, 34.053917 ], [ -82.621406, 34.058018 ], [ -82.624641, 34.060261 ], [ -82.626963, 34.063457 ], [ -82.630972, 34.065528 ], [ -82.633995, 34.064964 ], [ -82.635437, 34.06509 ], [ -82.640518, 34.067883 ], [ -82.643759, 34.072306 ], [ -82.645661, 34.076046 ], [ -82.645543729979394, 34.076843755241903 ], [ -82.64522, 34.079046 ], [ -82.644235708338698, 34.079964704367903 ], [ -82.643179, 34.080951 ], [ -82.640259, 34.086541 ], [ -82.641641, 34.09209 ], [ -82.648831, 34.099129 ], [ -82.654233, 34.100634 ], [ -82.656033, 34.102531 ], [ -82.658849, 34.103962 ], [ -82.660322, 34.106897 ], [ -82.661851, 34.107754 ], [ -82.666879, 34.113591 ], [ -82.668277, 34.119784 ], [ -82.67522, 34.129779 ], [ -82.67873, 34.132393 ], [ -82.68629, 34.134454 ], [ -82.690386, 34.138293 ], [ -82.692152, 34.138986 ], [ -82.69553, 34.138815 ], [ -82.699758, 34.139318 ], [ -82.70414, 34.141007 ], [ -82.715333, 34.148203 ], [ -82.717459, 34.150546 ], [ -82.721132725849301, 34.160180036914703 ], [ -82.723312, 34.165895 ], [ -82.725409, 34.169774 ], [ -82.730415, 34.175327 ], [ -82.731773, 34.17804 ], [ -82.732193, 34.181347 ], [ -82.731698, 34.190735 ], [ -82.732544, 34.194519 ], [ -82.741653, 34.209709 ], [ -82.742018502194199, 34.211748673179798 ], [ -82.74238, 34.213766 ], [ -82.740356, 34.218632 ], [ -82.740505, 34.220012 ], [ -82.744003, 34.224407 ], [ -82.744354, 34.225925 ], [ -82.742081, 34.228962 ], [ -82.743492, 34.239895 ], [ -82.74443, 34.242004 ], [ -82.74472, 34.246311 ], [ -82.743088, 34.247982 ], [ -82.743004, 34.251381 ], [ -82.745567, 34.254066 ], [ -82.745627413661595, 34.255070552744797 ], [ -82.745627885516598, 34.255078398705599 ], [ -82.745825, 34.258356 ], [ -82.747712, 34.260701 ], [ -82.748535, 34.2641 ], [ -82.746656, 34.266407 ], [ -82.750641, 34.27113 ], [ -82.753914, 34.275452 ], [ -82.761108, 34.280399 ], [ -82.762329, 34.281952 ], [ -82.766075, 34.282066 ], [ -82.771688, 34.286331 ], [ -82.773771725269, 34.288715634627302 ], [ -82.781812, 34.297917 ], [ -82.781768, 34.302413 ], [ -82.787239, 34.310778 ], [ -82.790167, 34.322114 ], [ -82.791276493594097, 34.324830709406797 ], [ -82.792064, 34.326759 ], [ -82.791235, 34.331048 ], [ -82.793539, 34.338295 ], [ -82.794701, 34.34058 ], [ -82.79875, 34.341904 ], [ -82.81285, 34.351831 ], [ -82.81377, 34.353935 ], [ -82.815641, 34.353908 ], [ -82.824905, 34.360413 ], [ -82.826728, 34.360525 ], [ -82.833317, 34.363952 ], [ -82.834806, 34.366302 ], [ -82.834882567012897, 34.367338717354997 ], [ -82.835206, 34.371718 ], [ -82.835975, 34.380909 ], [ -82.836673, 34.383142 ], [ -82.841357, 34.390135 ], [ -82.841997, 34.392503 ], [ -82.84145, 34.398972 ], [ -82.841526347784296, 34.399138511003201 ], [ -82.846573967469595, 34.410147137191402 ], [ -82.847446, 34.412049 ], [ -82.848028, 34.418329 ], [ -82.846906, 34.419379 ], [ -82.848566656172807, 34.423224762217799 ], [ -82.849626, 34.425678 ], [ -82.854011, 34.428818 ], [ -82.855483, 34.441661 ], [ -82.855546801053805, 34.441744596470002 ], [ -82.856827, 34.443422 ], [ -82.860124, 34.45284 ], [ -82.858837, 34.45522 ], [ -82.865345, 34.460319 ], [ -82.871846, 34.461189 ], [ -82.873869, 34.464467 ], [ -82.881174, 34.469479 ], [ -82.880953389009505, 34.4708727287505 ], [ -82.880793, 34.471886 ], [ -82.887398, 34.480959 ], [ -82.892593, 34.48119 ], [ -82.901551, 34.486764 ], [ -82.907496329970598, 34.485810396255602 ], [ -82.917736, 34.484168 ], [ -82.920736, 34.482339 ], [ -82.926156, 34.481651 ], [ -82.930823, 34.485649 ], [ -82.937155, 34.486382 ], [ -82.943987, 34.485515 ], [ -82.947806, 34.482074 ], [ -82.948228, 34.480492 ], [ -82.955706, 34.478901 ], [ -82.958548, 34.479554 ], [ -82.963242, 34.484363 ], [ -82.964241, 34.484571 ], [ -82.966448, 34.482351 ], [ -82.974917, 34.47935 ], [ -82.977402, 34.481754 ], [ -82.979746, 34.482938 ], [ -82.992216984841306, 34.479207800588298 ], [ -82.992671, 34.479072 ], [ -82.995279, 34.475648 ], [ -82.99509, 34.472483 ], [ -82.998700366818198, 34.472451337830599 ], [ -82.999195, 34.472447 ], [ -83.01526, 34.477778 ], [ -83.028576694006802, 34.4838124378605 ], [ -83.029315, 34.484147 ], [ -83.03336, 34.48309 ], [ -83.04358, 34.489086 ], [ -83.045244, 34.491183 ], [ -83.048767, 34.493599 ], [ -83.051025, 34.493526 ], [ -83.051425385475696, 34.493918748695499 ], [ -83.05286, 34.495326 ], [ -83.053476, 34.497261 ], [ -83.053101, 34.501324 ], [ -83.054463, 34.50289 ], [ -83.057843, 34.503711 ], [ -83.065796, 34.501041 ], [ -83.069451, 34.502131 ], [ -83.074005, 34.505466 ], [ -83.07737, 34.509224 ], [ -83.078415, 34.513084 ], [ -83.079472550424995, 34.514099307696 ], [ -83.079842, 34.514454 ], [ -83.087189, 34.515939 ], [ -83.087158481571393, 34.516111968776499 ], [ -83.086861, 34.517798 ], [ -83.081779, 34.521736 ], [ -83.077782, 34.524063 ], [ -83.077934, 34.524765 ], [ -83.084855, 34.530967 ], [ -83.092564, 34.532944 ], [ -83.092858338373802, 34.532846664068302 ], [ -83.096858, 34.531524 ], [ -83.102852, 34.532574 ], [ -83.103256441311402, 34.536658249570898 ], [ -83.103451, 34.538623 ], [ -83.104969, 34.540942 ], [ -83.108618, 34.541545 ], [ -83.110507, 34.545109 ], [ -83.110248, 34.547056 ], [ -83.117212, 34.552539 ], [ -83.121894, 34.552338 ], [ -83.124256, 34.554997 ], [ -83.122052, 34.558028 ], [ -83.122901, 34.560129 ], [ -83.127176, 34.561999 ], [ -83.129676, 34.561699 ], [ -83.133376, 34.559499 ], [ -83.138023097428203, 34.561378278649002 ], [ -83.140515, 34.562386 ], [ -83.140070843272895, 34.566287489373103 ], [ -83.139876, 34.567999 ], [ -83.143176, 34.573399 ], [ -83.153677, 34.578699 ], [ -83.158677, 34.578999 ], [ -83.159177, 34.580999 ], [ -83.157777, 34.583799 ], [ -83.154545, 34.58694 ], [ -83.154577, 34.588198 ], [ -83.158877, 34.589598 ], [ -83.168278, 34.590998 ], [ -83.170278, 34.592398 ], [ -83.170078, 34.599598 ], [ -83.164277, 34.600898 ], [ -83.160689, 34.599474 ], [ -83.159077, 34.602198 ], [ -83.159954, 34.603464 ], [ -83.164278, 34.604398 ], [ -83.169678, 34.607398 ], [ -83.180778, 34.607498 ], [ -83.186478, 34.606598 ], [ -83.188766941012602, 34.605756187422102 ], [ -83.195179, 34.603398 ], [ -83.197379, 34.603198 ], [ -83.196979, 34.605998 ], [ -83.199079, 34.607998 ], [ -83.208831, 34.610705 ], [ -83.216403, 34.611011 ], [ -83.223335, 34.609554 ], [ -83.2270490523359, 34.611057103298897 ], [ -83.227244, 34.611136 ], [ -83.231339, 34.611187 ], [ -83.238209, 34.615743 ], [ -83.238297032232197, 34.615783977067103 ], [ -83.243481, 34.618197 ], [ -83.240669, 34.624507 ], [ -83.246481, 34.626897 ], [ -83.247681, 34.630896 ], [ -83.251781, 34.633796 ], [ -83.254481, 34.637096 ], [ -83.262282, 34.640296 ], [ -83.270882, 34.641596 ], [ -83.27852, 34.645384 ], [ -83.279407252646095, 34.647811499813798 ], [ -83.279429, 34.647871 ], [ -83.282082, 34.649696 ], [ -83.284682, 34.650196 ], [ -83.293183, 34.654296 ], [ -83.301214, 34.66326 ], [ -83.301477, 34.666582 ], [ -83.304641, 34.669561 ], [ -83.308917, 34.670273 ], [ -83.314394, 34.668944 ], [ -83.316863, 34.669872 ], [ -83.318524, 34.674773 ], [ -83.321463, 34.677543 ], [ -83.325336, 34.679517 ], [ -83.330284, 34.681342 ], [ -83.3389, 34.680039 ], [ -83.341373, 34.681358 ], [ -83.342617, 34.682991 ], [ -83.338234, 34.687187 ], [ -83.338631, 34.688949 ], [ -83.340134, 34.691483 ], [ -83.343147, 34.693947 ], [ -83.352943, 34.697056 ], [ -83.35391, 34.699219 ], [ -83.351852, 34.701698 ], [ -83.3479, 34.70293 ], [ -83.346649, 34.70422 ], [ -83.348001693747506, 34.705966996002601 ], [ -83.349788, 34.708274 ], [ -83.351006, 34.712641 ], [ -83.352323003113, 34.716171626648901 ], [ -83.352798, 34.717445 ], [ -83.353416, 34.728424 ], [ -83.351041460714001, 34.731811093663801 ], [ -83.350426, 34.732689 ], [ -83.349075, 34.736633 ], [ -83.345444, 34.738453 ], [ -83.338965, 34.738436 ], [ -83.338692, 34.742069 ], [ -83.332718, 34.746099 ], [ -83.33242, 34.748989 ], [ -83.326309, 34.750839 ], [ -83.327194, 34.754597 ], [ -83.325897, 34.756474 ], [ -83.31974, 34.757008 ], [ -83.318939, 34.758331 ], [ -83.323213, 34.760579 ], [ -83.319321, 34.76487 ], [ -83.322983, 34.766094 ], [ -83.318977, 34.771309 ], [ -83.322662, 34.777622 ], [ -83.321213, 34.779041 ], [ -83.32415, 34.787479 ], [ -83.323892871052294, 34.789500721620598 ], [ -83.323866, 34.789712 ], [ -83.320335, 34.79068 ], [ -83.320518, 34.793045 ], [ -83.313835, 34.796833 ], [ -83.313782, 34.799911 ], [ -83.303223, 34.802208 ], [ -83.301182, 34.804008 ], [ -83.299761, 34.807881 ], [ -83.299797, 34.810062 ], [ -83.304245, 34.811024 ], [ -83.306663, 34.81485 ], [ -83.303131, 34.818745 ], [ -83.300568, 34.818661 ], [ -83.298988, 34.817551 ], [ -83.300011, 34.815247 ], [ -83.296051, 34.813114 ], [ -83.294647, 34.813602 ], [ -83.294716, 34.815731 ], [ -83.289955, 34.818459 ], [ -83.291077, 34.823193 ], [ -83.28865, 34.824673 ], [ -83.284812, 34.823043 ], [ -83.282272, 34.820244 ], [ -83.27669, 34.816894 ], [ -83.271797, 34.818043 ], [ -83.268318, 34.821125 ], [ -83.269638, 34.82336 ], [ -83.267805, 34.826136 ], [ -83.26734, 34.832372 ], [ -83.272426, 34.834718 ], [ -83.268767, 34.844539 ], [ -83.266306, 34.849044 ], [ -83.26089, 34.84822 ], [ -83.260554, 34.845224 ], [ -83.25569, 34.844153 ], [ -83.254152691519195, 34.844276496465604 ], [ -83.250163, 34.844597 ], [ -83.248592, 34.846073 ], [ -83.253762, 34.848057 ], [ -83.252576, 34.85168 ], [ -83.253319, 34.855923 ], [ -83.246933, 34.855007 ], [ -83.246361, 34.856533 ], [ -83.248283, 34.858456 ], [ -83.246343, 34.860025 ], [ -83.248054, 34.863117 ], [ -83.246719, 34.867002 ], [ -83.243251, 34.866033 ], [ -83.238609, 34.865452 ], [ -83.237877, 34.868877 ], [ -83.234703, 34.870743 ], [ -83.240463, 34.872723 ], [ -83.243126, 34.877392 ], [ -83.239929, 34.878876 ], [ -83.235794, 34.877895 ], [ -83.232017, 34.877944 ], [ -83.228744, 34.8797 ], [ -83.228103381460699, 34.879584522759899 ], [ -83.21994, 34.878113 ], [ -83.219398, 34.878769 ], [ -83.219887, 34.881111 ], [ -83.218293, 34.881698 ], [ -83.217422, 34.882381 ], [ -83.217506, 34.885674 ], [ -83.214485, 34.88847 ], [ -83.212746, 34.887859 ], [ -83.214722, 34.883842 ], [ -83.21199, 34.882366 ], [ -83.209976, 34.880043 ], [ -83.206253, 34.879677 ], [ -83.201019, 34.884789 ], [ -83.204788, 34.890755 ], [ -83.203069, 34.893855 ], [ -83.199358, 34.892571 ], [ -83.198601, 34.890385 ], [ -83.196775, 34.890733 ], [ -83.197287, 34.892654 ], [ -83.197571, 34.895016 ], [ -83.194374, 34.899567 ], [ -83.19165, 34.896885 ], [ -83.189278, 34.897255 ], [ -83.180871, 34.904708 ], [ -83.180786, 34.909607 ], [ -83.175087, 34.910076 ], [ -83.171851, 34.913649 ], [ -83.169087, 34.918777 ], [ -83.165558, 34.919426 ], [ -83.160683, 34.915136 ], [ -83.157208, 34.914934 ], [ -83.156447, 34.917058 ], [ -83.158019, 34.920117 ], [ -83.157705, 34.923509 ], [ -83.159187, 34.928833 ], [ -83.156235, 34.930984 ], [ -83.143261, 34.924756 ], [ -83.140621, 34.924915 ], [ -83.130554, 34.930932 ], [ -83.129885, 34.932351 ], [ -83.13179, 34.935337 ], [ -83.131645, 34.935883 ], [ -83.12759, 34.938491 ], [ -83.126617, 34.938263 ], [ -83.120819, 34.933048 ], [ -83.119087, 34.933178 ], [ -83.118065, 34.935951 ], [ -83.112801, 34.934723 ], [ -83.111725, 34.935863 ], [ -83.116928, 34.942734 ], [ -83.121574, 34.942524 ], [ -83.123877, 34.946047 ], [ -83.127556, 34.949482 ], [ -83.124855, 34.951431 ], [ -83.127035, 34.953778 ], [ -83.126587, 34.954861 ], [ -83.124528, 34.955044 ], [ -83.120346, 34.953186 ], [ -83.11805, 34.952957 ], [ -83.114922, 34.950428 ], [ -83.114021, 34.950912 ], [ -83.114693, 34.952656 ], [ -83.120028, 34.957478 ], [ -83.120109, 34.959169 ], [ -83.115921, 34.959141 ], [ -83.115929, 34.960308 ], [ -83.12162, 34.962766 ], [ -83.12211, 34.964329 ], [ -83.120387, 34.968406 ], [ -83.115402, 34.973637 ], [ -83.116623, 34.975315 ], [ -83.115631, 34.975811 ], [ -83.111796, 34.975534 ], [ -83.110855, 34.976315 ], [ -83.112097, 34.979401 ], [ -83.111275, 34.981003 ], [ -83.110025, 34.980635 ], [ -83.108429, 34.979679 ], [ -83.105766, 34.981503 ], [ -83.107124, 34.983227 ], [ -83.103378, 34.986093 ], [ -83.101677, 34.98658 ], [ -83.102859, 34.988708 ], [ -83.101341, 34.989944 ], [ -83.098968, 34.990101 ], [ -83.098381, 34.991123 ], [ -83.098831, 34.991955 ], [ -83.103592, 34.993839 ], [ -83.102524, 34.995304 ], [ -83.102867, 34.997257 ], [ -83.108613, 35.000659 ], [ -83.109557, 35.001197 ], [ -83.108568, 35.001354 ], [ -83.056418608559497, 35.015072953805699 ], [ -83.023304802181997, 35.0237842113578 ], [ -83.019192465659302, 35.024866044783501 ], [ -83.008700274354396, 35.0276262282459 ], [ -82.999867, 35.02995 ], [ -82.897559088148796, 35.056005696798501 ], [ -82.897499, 35.056021 ], [ -82.897456167664998, 35.056032095602298 ], [ -82.811478800569105, 35.0783043035741 ], [ -82.809766, 35.078748 ], [ -82.806198562047598, 35.079770386437197 ], [ -82.787867, 35.085024 ], [ -82.783283, 35.0856 ], [ -82.78113, 35.084585 ], [ -82.781062, 35.084492 ], [ -82.778651, 35.083575 ], [ -82.776357, 35.081349 ], [ -82.777407, 35.076885 ], [ -82.777647440009602, 35.076433242907598 ], [ -82.779116, 35.073674 ], [ -82.779928, 35.072206 ], [ -82.779928, 35.070435 ], [ -82.780546, 35.069043 ], [ -82.781973, 35.066817 ], [ -82.777376, 35.064143 ], [ -82.774884398437607, 35.0645961111709 ], [ -82.770046, 35.065476 ], [ -82.764464, 35.068177 ], [ -82.764100017257803, 35.068168492711102 ], [ -82.757704, 35.068019 ], [ -82.754162, 35.069629 ], [ -82.751265, 35.073463 ], [ -82.752303, 35.076891 ], [ -82.751813, 35.079892 ], [ -82.748879, 35.081093 ], [ -82.743255, 35.078692 ], [ -82.738379, 35.079453 ], [ -82.735904, 35.082701 ], [ -82.734005, 35.085468 ], [ -82.732172, 35.086781 ], [ -82.730109, 35.088281 ], [ -82.729517, 35.09059 ], [ -82.728961, 35.091978 ], [ -82.72701, 35.094142 ], [ -82.723462, 35.094341 ], [ -82.720442, 35.093265 ], [ -82.715297, 35.092943 ], [ -82.707152, 35.096542 ], [ -82.705444, 35.098023 ], [ -82.702153, 35.099108 ], [ -82.700496, 35.100759 ], [ -82.699196, 35.096998 ], [ -82.69878, 35.09572 ], [ -82.697677, 35.095726 ], [ -82.694898, 35.098456 ], [ -82.689634, 35.104117 ], [ -82.689121994122502, 35.105086247119502 ], [ -82.688456, 35.106347 ], [ -82.686484, 35.108164 ], [ -82.687164, 35.109309 ], [ -82.687282, 35.110667 ], [ -82.690711, 35.111501 ], [ -82.693257, 35.113048 ], [ -82.694626, 35.114735 ], [ -82.693552, 35.116879 ], [ -82.692445, 35.118669 ], [ -82.687641, 35.119287 ], [ -82.686738, 35.11979 ], [ -82.686496, 35.121822 ], [ -82.687084, 35.125116 ], [ -82.683625, 35.125833 ], [ -82.681443, 35.127918 ], [ -82.678938135408302, 35.1273425165842 ], [ -82.676555, 35.126795 ], [ -82.674615, 35.126435 ], [ -82.673282, 35.123389 ], [ -82.673318, 35.121002 ], [ -82.674457, 35.118474 ], [ -82.673272, 35.11748 ], [ -82.669967, 35.119854 ], [ -82.66905, 35.120616 ], [ -82.667972, 35.118788 ], [ -82.662381, 35.118123 ], [ -82.657858, 35.119392 ], [ -82.65351, 35.121968 ], [ -82.651753, 35.123363 ], [ -82.652191, 35.126047 ], [ -82.648694, 35.12677 ], [ -82.645295, 35.126807 ], [ -82.643306, 35.130435 ], [ -82.641042, 35.132319 ], [ -82.640159, 35.130042 ], [ -82.639067524564794, 35.130135377176003 ], [ -82.636477, 35.130357 ], [ -82.636749, 35.129319 ], [ -82.635834, 35.12761 ], [ -82.636236, 35.125495 ], [ -82.632574, 35.125833 ], [ -82.629031, 35.126155 ], [ -82.626436, 35.127903 ], [ -82.624847, 35.130432 ], [ -82.621185, 35.134635 ], [ -82.617993, 35.13527 ], [ -82.614402, 35.136701 ], [ -82.613866, 35.137529 ], [ -82.612444, 35.138234 ], [ -82.609706, 35.139039 ], [ -82.602358, 35.139036 ], [ -82.59814, 35.137729 ], [ -82.59243, 35.139002 ], [ -82.588158, 35.142928 ], [ -82.586035, 35.143142 ], [ -82.581836, 35.142352 ], [ -82.580687, 35.141742 ], [ -82.578316, 35.142104 ], [ -82.577266805281596, 35.1424990085779 ], [ -82.574167648456793, 35.1436658020327 ], [ -82.569912, 35.145268 ], [ -82.567486, 35.147694 ], [ -82.566193, 35.150119 ], [ -82.563767, 35.151575 ], [ -82.560807, 35.151644 ], [ -82.558593, 35.150928 ], [ -82.556168, 35.151736 ], [ -82.55333, 35.153493 ], [ -82.554871, 35.154639 ], [ -82.556165, 35.15784 ], [ -82.555758, 35.159346 ], [ -82.55327, 35.161653 ], [ -82.549907, 35.161584 ], [ -82.547444, 35.162439 ], [ -82.546374, 35.163731 ], [ -82.545051, 35.162312 ], [ -82.541642, 35.162073 ], [ -82.540576, 35.161276 ], [ -82.536747, 35.160091 ], [ -82.536218, 35.159259 ], [ -82.535967, 35.158664 ], [ -82.537338, 35.1562 ], [ -82.536474, 35.154783 ], [ -82.535096, 35.154766 ], [ -82.532091, 35.156005 ], [ -82.529973, 35.155617 ], [ -82.52593, 35.156749 ], [ -82.521403, 35.158851 ], [ -82.519926, 35.159105 ], [ -82.51921, 35.161044 ], [ -82.518874, 35.162219 ], [ -82.517284, 35.162643 ], [ -82.51691, 35.163029 ], [ -82.516044, 35.163442 ], [ -82.513087, 35.163093 ], [ -82.511541, 35.163271 ], [ -82.507914, 35.162406 ], [ -82.506137, 35.163894 ], [ -82.504943, 35.165725 ], [ -82.50368, 35.165926 ], [ -82.498464, 35.162954 ], [ -82.495016, 35.164512 ], [ -82.490766, 35.169715 ], [ -82.487357, 35.172494 ], [ -82.483937, 35.173798 ], [ -82.476136, 35.175486 ], [ -82.472313, 35.174619 ], [ -82.467991, 35.174633 ], [ -82.460092, 35.178143 ], [ -82.455609, 35.177425 ], [ -82.454309, 35.177414 ], [ -82.452987, 35.17469 ], [ -82.452367622320295, 35.173795093642703 ], [ -82.452343871874902, 35.173760777868601 ], [ -82.451870806990797, 35.173077271203702 ], [ -82.451609, 35.172699 ], [ -82.454827, 35.170082 ], [ -82.457636, 35.166837 ], [ -82.457128, 35.16395 ], [ -82.450465, 35.166118 ], [ -82.448073, 35.165217 ], [ -82.443623, 35.166101 ], [ -82.439827398184207, 35.165876731570997 ], [ -82.439595, 35.165863 ], [ -82.437675, 35.167793 ], [ -82.435689, 35.167715 ], [ -82.434751933647703, 35.168236723023398 ], [ -82.434676, 35.168279 ], [ -82.435156, 35.169932 ], [ -82.433735, 35.171805 ], [ -82.431853, 35.172718 ], [ -82.431373, 35.173864 ], [ -82.431686, 35.176413 ], [ -82.430666, 35.178298 ], [ -82.428344, 35.178739 ], [ -82.426805, 35.178918 ], [ -82.425962, 35.18104 ], [ -82.425815, 35.18208 ], [ -82.428, 35.183224 ], [ -82.427755177826299, 35.183906651938301 ], [ -82.424461, 35.193092 ], [ -82.419744, 35.198613 ], [ -82.417597, 35.200131 ], [ -82.411301, 35.202483 ], [ -82.403348, 35.204473 ], [ -82.395697, 35.213214 ], [ -82.39293, 35.215402 ], [ -82.390439, 35.215395 ], [ -82.390180020554396, 35.215198927106201 ], [ -82.384029, 35.210542 ], [ -82.383776, 35.207646 ], [ -82.380524, 35.202276 ], [ -82.378744, 35.198053 ], [ -82.379191, 35.195894 ], [ -82.381386, 35.193974 ], [ -82.382594, 35.192493 ], [ -82.382217, 35.189593 ], [ -82.379712, 35.186884 ], [ -82.376808, 35.184427 ], [ -82.373218, 35.182201 ], [ -82.371298, 35.181449 ], [ -82.36899, 35.181747 ], [ -82.364299, 35.184725 ], [ -82.363479, 35.186214 ], [ -82.363554, 35.188001 ], [ -82.363256, 35.189639 ], [ -82.361469, 35.190831 ], [ -82.353654314733802, 35.192222581044902 ], [ -82.350086, 35.192858 ], [ -82.344554, 35.193115 ], [ -82.341194, 35.19151 ], [ -82.340133, 35.189188 ], [ -82.339508, 35.18893 ], [ -82.338013, 35.18901 ], [ -82.333934, 35.190661 ], [ -82.332975, 35.190645 ], [ -82.330779, 35.189032 ], [ -82.330549, 35.186767 ], [ -82.326917, 35.185056 ], [ -82.32335, 35.184789 ], [ -82.317871, 35.187858 ], [ -82.315871, 35.190678 ], [ -82.314863, 35.191089 ], [ -82.313525844457203, 35.191423071730398 ], [ -82.307166, 35.193012 ], [ -82.295354, 35.194965 ], [ -82.292682384086504, 35.1963741699645 ], [ -82.289804101649594, 35.197892348209798 ], [ -82.288453, 35.198605 ], [ -82.282516, 35.199858 ], [ -82.278561718263802, 35.1999688823078 ], [ -82.27492, 35.200071 ], [ -82.257515, 35.198636 ], [ -82.242952923791407, 35.197622129130202 ], [ -82.2384543665314, 35.197308921308903 ], [ -82.230915, 35.196784 ], [ -82.230517, 35.196764 ], [ -82.2261373977788, 35.196543488559499 ], [ -82.224076407185294, 35.196439718403703 ], [ -82.221232144911099, 35.196296510792699 ], [ -82.216217, 35.196044 ], [ -82.215940014457402, 35.196029398611103 ], [ -82.199666661441199, 35.195171543163703 ], [ -82.195483, 35.194951 ], [ -82.185513, 35.194355 ], [ -82.176874, 35.19379 ], [ -82.167872238021999, 35.193700941472102 ], [ -82.167847467630907, 35.193700696407298 ], [ -82.167676, 35.193699 ], [ -82.138947, 35.193122 ], [ -82.106084726064594, 35.191508212758698 ], [ -82.089586, 35.190698 ], [ -82.048414470324204, 35.189668196444103 ], [ -82.039651, 35.189449 ], [ -82.017567905219096, 35.188896763775901 ], [ -82.0076715217821, 35.188649283000402 ], [ -82.001422, 35.188493 ], [ -81.969345823206893, 35.1872287391339 ], [ -81.925612, 35.185505 ], [ -81.918743161674698, 35.185318176831302 ], [ -81.874686718011304, 35.184119900788801 ], [ -81.874433, 35.184113 ], [ -81.857838690751194, 35.1834896124981 ], [ -81.8440450348279, 35.182971435297702 ], [ -81.844042391623503, 35.182971336002197 ], [ -81.802081, 35.181395 ], [ -81.775153439986596, 35.180597045732497 ], [ -81.772351, 35.180514 ], [ -81.768108596181193, 35.180388327917797 ], [ -81.763413164043001, 35.180249235846702 ], [ -81.738492, 35.179511 ], [ -81.716259, 35.178852 ], [ -81.680801, 35.177331 ], [ -81.675509923204899, 35.177104110979201 ], [ -81.646707, 35.175869 ], [ -81.624783582978594, 35.1749288346141 ], [ -81.614877, 35.174504 ], [ -81.609549097521494, 35.1742754503817 ], [ -81.609005198779499, 35.174252118901698 ], [ -81.581681, 35.17308 ], [ -81.572804773189603, 35.172755381483697 ], [ -81.563885396378694, 35.1724291848994 ], [ -81.54515, 35.171744 ], [ -81.516870505989601, 35.170709187818701 ], [ -81.494265, 35.169882 ], [ -81.493401, 35.169951 ], [ -81.470014763943894, 35.169005112166502 ], [ -81.466866935019198, 35.168877793983498 ], [ -81.461408, 35.168657 ], [ -81.452398, 35.168293 ], [ -81.450330542103899, 35.168210863509998 ], [ -81.445627, 35.168024 ], [ -81.442742730023198, 35.167909595301303 ], [ -81.438940973611693, 35.167758798461797 ], [ -81.438476719455196, 35.167740383799703 ], [ -81.366691, 35.164893 ], [ -81.366599750283498, 35.164889487764 ], [ -81.328039375457294, 35.163405284383998 ], [ -81.290672, 35.161967 ], [ -81.269446089341201, 35.161149785540701 ], [ -81.269199108935894, 35.161140276598502 ], [ -81.269028416786796, 35.161133704814901 ], [ -81.267519173572893, 35.161075597749502 ], [ -81.266531305627197, 35.161037564047099 ], [ -81.241686, 35.160081 ], [ -81.239358, 35.159974 ], [ -81.214945903757496, 35.158874199478298 ], [ -81.209815295007999, 35.1586430580751 ], [ -81.199031874435804, 35.158157249259098 ], [ -81.180722586584693, 35.157332389151598 ], [ -81.180558604049097, 35.157325001499302 ], [ -81.163922328868907, 35.156575513051401 ], [ -81.138207, 35.155417 ], [ -81.129808180834999, 35.1550389042931 ], [ -81.114515999901499, 35.154350485141897 ], [ -81.11084, 35.154185 ], [ -81.109295, 35.154115 ], [ -81.093027850863194, 35.1530651134631 ], [ -81.092784381535395, 35.153049399881901 ], [ -81.077253, 35.152047 ], [ -81.058693875469601, 35.1508493878842 ], [ -81.056761720449302, 35.150724706773403 ], [ -81.056207991632405, 35.1506889748972 ], [ -81.046345615509594, 35.150052560118198 ], [ -81.043625, 35.149877 ], [ -81.04287, 35.149248 ], [ -81.043407, 35.14839 ], [ -81.044391, 35.147918 ], [ -81.047091, 35.145157 ], [ -81.047826, 35.143743 ], [ -81.051204, 35.133237 ], [ -81.051037, 35.131654 ], [ -81.05042, 35.131048 ], [ -81.038968, 35.126299 ], [ -81.036759, 35.122552 ], [ -81.033005, 35.113747 ], [ -81.032471, 35.110033 ], [ -81.032806, 35.108049 ], [ -81.034958, 35.104105 ], [ -81.037369, 35.102541 ], [ -81.040170245980505, 35.101952294673197 ], [ -81.040184404379403, 35.101949319166998 ], [ -81.046524, 35.100617 ], [ -81.050079, 35.098817 ], [ -81.052078, 35.096276 ], [ -81.056712681901004, 35.087158489870298 ], [ -81.057236, 35.086129 ], [ -81.057681738575496, 35.078856097819802 ], [ -81.058029, 35.07319 ], [ -81.057811732149602, 35.067055747332098 ], [ -81.057648, 35.062433 ], [ -81.057420222818195, 35.0621633528703 ], [ -81.055695, 35.060121 ], [ -81.050018, 35.055246 ], [ -81.041496788973006, 35.0447126282263 ], [ -81.041489, 35.044703 ], [ -81.018960084042703, 35.057618153289603 ], [ -81.016242825699507, 35.059175876177598 ], [ -81.013072749191593, 35.060993186167899 ], [ -80.989172083118703, 35.074694722746003 ], [ -80.989035753456406, 35.074772876461402 ], [ -80.98416, 35.077568 ], [ -80.978361039768103, 35.080892310751402 ], [ -80.972181502834502, 35.084434790824702 ], [ -80.95787, 35.092639 ], [ -80.957631073233401, 35.092792968077802 ], [ -80.947099925080593, 35.099579401682298 ], [ -80.93495, 35.107409 ], [ -80.931064327286407, 35.103215587809302 ], [ -80.920123328603793, 35.091408078367103 ], [ -80.918420498803201, 35.089570386988903 ], [ -80.906553, 35.076763 ], [ -80.906445165836899, 35.076647267156098 ], [ -80.906232533966502, 35.076419060339802 ], [ -80.898065104051994, 35.067653379189601 ], [ -80.892502347658606, 35.061683159748299 ], [ -80.884887, 35.05351 ], [ -80.884862931375906, 35.0534819452132 ], [ -80.881419215077003, 35.0494678924615 ], [ -80.870549306054997, 35.036797746481703 ], [ -80.8705476598941, 35.036795827689303 ], [ -80.864377803826102, 35.029604141273502 ], [ -80.8530249405039, 35.016371055763003 ], [ -80.851506742328596, 35.014601418825897 ], [ -80.851439547178501, 35.014523095046101 ], [ -80.851412780259693, 35.014491895082202 ], [ -80.8403664538681, 35.001616114094602 ], [ -80.831541835926103, 34.991329993271101 ], [ -80.82156, 34.979695 ], [ -80.8214239517349, 34.9795435754083 ], [ -80.819001641525801, 34.976847492997699 ], [ -80.816779859430795, 34.974374602612301 ], [ -80.813553993892697, 34.9707841461532 ], [ -80.806784, 34.963249 ], [ -80.806461, 34.962894 ], [ -80.798107542976695, 34.9536192988732 ], [ -80.795327581070595, 34.950532754493899 ], [ -80.788284633521101, 34.942713089726197 ], [ -80.788281515738305, 34.942709628105099 ], [ -80.782042, 34.935782 ], [ -80.782239819665506, 34.934301675491298 ], [ -80.784063158017204, 34.920657266366199 ], [ -80.784095804074198, 34.920412969328403 ], [ -80.786517350476004, 34.902292048549903 ], [ -80.790597521436297, 34.871759305226497 ], [ -80.790906379784403, 34.869448055830603 ], [ -80.791240693313696, 34.866946320173497 ], [ -80.793029150963704, 34.853562930382999 ], [ -80.793202124440896, 34.852268534919901 ], [ -80.7934189408561, 34.850646053896597 ], [ -80.795109, 34.837999 ], [ -80.795446463486897, 34.835474279792102 ], [ -80.795519950603406, 34.834924488732199 ], [ -80.7956144941177, 34.834217165035902 ], [ -80.796331751203596, 34.828851033500897 ], [ -80.796997, 34.823874 ], [ -80.797543, 34.819786 ], [ -80.797486368217903, 34.819785745840903 ], [ -80.777712, 34.819697 ], [ -80.771792, 34.819646 ], [ -80.726949, 34.819268210070902 ], [ -80.693719705764906, 34.818988262415502 ], [ -80.692654972263, 34.818979292328898 ], [ -80.684074, 34.818907 ], [ -80.664566858947694, 34.818743021951001 ], [ -80.646601, 34.818592 ], [ -80.644656, 34.818568 ], [ -80.626289999545605, 34.8182210240508 ], [ -80.626077, 34.818217 ], [ -80.625993, 34.818239 ], [ -80.621222, 34.818174 ], [ -80.590580645615802, 34.817817507788298 ], [ -80.561709387922704, 34.817481609499403 ], [ -80.561657, 34.817481 ], [ -80.526635596596705, 34.817356467378701 ], [ -80.499788, 34.817261 ], [ -80.491814, 34.816798 ], [ -80.485234, 34.816732 ], [ -80.45166, 34.816396 ], [ -80.448766, 34.816332 ], [ -80.445748612717296, 34.816253114058 ], [ -80.434843, 34.815968 ], [ -80.425902, 34.81581 ], [ -80.419586, 34.815581 ], [ -80.418433, 34.815622 ], [ -80.417153305960298, 34.8155191915993 ], [ -80.417150258636696, 34.815518946782603 ], [ -80.417014, 34.815508 ], [ -80.399871, 34.815128 ], [ -80.350068, 34.814469 ], [ -80.320807360455802, 34.814081463211998 ], [ -80.30469, 34.813868 ], [ -80.2935936751594, 34.8137210183435 ], [ -80.283627, 34.813589 ], [ -80.23396, 34.812931 ], [ -80.229705, 34.812843 ], [ -80.189192657050199, 34.812007486475999 ], [ -80.159252, 34.81139 ], [ -80.148677495325302, 34.811171980621502 ], [ -80.131169, 34.810811 ], [ -80.098994, 34.810147 ], [ -80.098203528735596, 34.810147 ], [ -80.098022, 34.810147 ], [ -80.077223, 34.809716 ], [ -80.072912, 34.809736 ], [ -80.043171054096703, 34.809105627689 ], [ -80.043138491756594, 34.809104937515997 ], [ -80.042764, 34.809097 ], [ -80.027464, 34.808726 ], [ -80.013273681376404, 34.808417663767202 ], [ -80.000541, 34.808141 ], [ -79.994025617683505, 34.807999297157899 ], [ -79.985092847804495, 34.807805018630901 ], [ -79.968916344165194, 34.807453196369401 ], [ -79.930731692109902, 34.806622719590301 ], [ -79.928009506005793, 34.806563514851597 ], [ -79.927618, 34.806555 ], [ -79.927415787685803, 34.806550818802698 ], [ -79.891443, 34.805807 ], [ -79.889362348951906, 34.805763983166301 ], [ -79.870693, 34.805378 ], [ -79.773745484918607, 34.805930211192504 ], [ -79.773607, 34.805931 ], [ -79.772829, 34.805954 ], [ -79.763108583143605, 34.805860641638603 ], [ -79.744925, 34.805686 ], [ -79.744116, 34.805651 ], [ -79.712320237072106, 34.805229926556102 ], [ -79.692946405502695, 34.804973357591201 ], [ -79.690201, 34.804937 ], [ -79.688088, 34.804897 ], [ -79.675299, 34.804744 ], [ -79.644119016689103, 34.779143065378797 ], [ -79.634216, 34.771012 ], [ -79.631577, 34.768835 ], [ -79.621307894721099, 34.760483031437701 ], [ -79.609810917048605, 34.7511324216742 ], [ -79.573441190928904, 34.721552550699798 ], [ -79.561691, 34.711996 ], [ -79.554730432182794, 34.7065781640854 ], [ -79.554454, 34.706363 ], [ -79.532492025449102, 34.688351418355801 ], [ -79.520269, 34.678327 ], [ -79.519043, 34.677321 ], [ -79.504919486113195, 34.6658124075526 ], [ -79.504527890279505, 34.665493314380001 ], [ -79.490201, 34.653819 ], [ -79.479305, 34.64464 ], [ -79.479278063341397, 34.6446139931559 ], [ -79.471599, 34.6372 ], [ -79.468717, 34.635323 ], [ -79.461562888371205, 34.630298007685496 ], [ -79.461318, 34.630126 ], [ -79.459766, 34.629027 ], [ -79.450034, 34.621036 ], [ -79.419583399578698, 34.595910444882797 ], [ -79.414148912167903, 34.591426312843197 ], [ -79.365784157264102, 34.551519338982203 ], [ -79.365623911823306, 34.551387116444701 ], [ -79.358317, 34.545358 ], [ -79.336636945810199, 34.526489468640399 ], [ -79.331328, 34.521869 ], [ -79.324854, 34.516282 ], [ -79.323249, 34.514634 ], [ -79.316611344254497, 34.508951437163702 ], [ -79.308130056492502, 34.501690522694901 ], [ -79.307504147164593, 34.501154675518997 ], [ -79.306653, 34.500426 ], [ -79.297402815955493, 34.492190322356002 ], [ -79.286703, 34.482664 ], [ -79.275073935671401, 34.4723099142997 ], [ -79.249763, 34.449774 ], [ -79.244886, 34.445637 ], [ -79.235604125921299, 34.437763806841801 ], [ -79.215993, 34.421129 ], [ -79.201439230062903, 34.408783405961302 ], [ -79.198982, 34.406699 ], [ -79.1921544853396, 34.401132524641497 ], [ -79.192041, 34.40104 ], [ -79.190739, 34.399751 ], [ -79.151485, 34.366753 ], [ -79.143242, 34.359817 ], [ -79.142964467023106, 34.359583734905698 ], [ -79.108809816138503, 34.330876919778902 ], [ -79.071255137936603, 34.299312398509599 ], [ -79.071243852382196, 34.299302913056998 ], [ -79.071169, 34.29924 ], [ -79.042590023056704, 34.275255473818397 ], [ -78.99576, 34.235954 ], [ -78.981361434309505, 34.223870034725302 ], [ -78.973817531127807, 34.217538830212099 ], [ -78.963692, 34.209041 ], [ -78.921701713307399, 34.173801339948398 ], [ -78.915075296585499, 34.168240228295303 ], [ -78.909881, 34.163881 ], [ -78.892125222264895, 34.148979569411502 ], [ -78.8761781485738, 34.135596082906801 ], [ -78.874747, 34.134395 ], [ -78.874490650120407, 34.134177879781198 ], [ -78.872916763290206, 34.132844847546501 ], [ -78.855385, 34.117996 ], [ -78.827374001521306, 34.0942724319696 ], [ -78.827361662822796, 34.094261981861798 ], [ -78.81171, 34.081006 ], [ -78.797865449076795, 34.069280409282698 ], [ -78.777611661685896, 34.052126539667398 ], [ -78.769483, 34.045242 ], [ -78.739919611748903, 34.020203678089601 ], [ -78.712206, 33.996732 ], [ -78.711518125716296, 33.996051121047998 ], [ -78.710141, 33.994688 ], [ -78.702771, 33.989268 ], [ -78.66253, 33.95452 ], [ -78.651629, 33.945397 ], [ -78.6503641799208, 33.944338496904003 ], [ -78.650334484717803, 33.944313645571498 ], [ -78.629613665097807, 33.9269727983786 ], [ -78.629557413802203, 33.926925722773603 ], [ -78.621369, 33.920073 ], [ -78.615932, 33.915523 ], [ -78.595219153319405, 33.897697391552803 ], [ -78.592388691268994, 33.8952614777929 ], [ -78.586955683459607, 33.890585796492601 ], [ -78.586883707241995, 33.890523853299001 ], [ -78.580378, 33.884925 ], [ -78.574093606472104, 33.879517463220203 ], [ -78.5732837280312, 33.878820586514898 ], [ -78.558858337231001, 33.8664079597484 ], [ -78.547324, 33.856483 ], [ -78.553768, 33.852733 ], [ -78.55343, 33.850876 ], [ -78.55464, 33.849168 ], [ -78.561977, 33.848833 ], [ -78.572337, 33.847035 ], [ -78.586515, 33.844004 ], [ -78.600601595785093, 33.839664089791199 ], [ -78.614066873720702, 33.835515600115698 ], [ -78.627044337629002, 33.831517400056597 ], [ -78.642526503242493, 33.826747531621002 ], [ -78.649675632336596, 33.824544971200197 ], [ -78.662286876467803, 33.820659599035999 ], [ -78.662300169121195, 33.820655503729903 ], [ -78.671800638757304, 33.817728523656697 ], [ -78.67226, 33.817587 ], [ -78.676597760161499, 33.815778667214801 ], [ -78.679323180747701, 33.814642489275897 ], [ -78.710159578100502, 33.801787359846202 ], [ -78.711325601861603, 33.801301265890601 ], [ -78.713119772159004, 33.800553309145599 ], [ -78.714116, 33.800138 ], [ -78.717066742610996, 33.798546025510397 ], [ -78.717278738862206, 33.798431650023097 ], [ -78.728978795456001, 33.792119275790498 ], [ -78.735541335216098, 33.7885786769438 ], [ -78.735656401645201, 33.788516596700298 ], [ -78.737193773626103, 33.787687159064603 ], [ -78.741372643893598, 33.785432589372 ], [ -78.745089072045403, 33.783427514856797 ], [ -78.760324395312097, 33.775207805725998 ], [ -78.771437792375593, 33.769211944022402 ], [ -78.772737, 33.768511 ], [ -78.783760069224499, 33.761644138520303 ], [ -78.793962854826106, 33.755288275737897 ], [ -78.795384503995706, 33.754402654163599 ], [ -78.803631351961101, 33.749265249919098 ], [ -78.812931, 33.743472 ], [ -78.822819090169901, 33.735993044119098 ], [ -78.825588792904298, 33.7338981517589 ], [ -78.839848922279799, 33.723112360304398 ], [ -78.8442331594362, 33.719796298688799 ], [ -78.862931, 33.705654 ], [ -78.8678300077746, 33.701380644640999 ], [ -78.874739, 33.695354 ], [ -78.879584, 33.690671 ], [ -78.879896171598702, 33.6903383606681 ], [ -78.885639, 33.684219 ], [ -78.885783810162195, 33.684111918732498 ], [ -78.891181523248903, 33.680120527864702 ], [ -78.892375, 33.679238 ], [ -78.895600921336694, 33.676456003725903 ], [ -78.914037952073201, 33.660556127237797 ], [ -78.914472903107196, 33.660181030628202 ], [ -78.918025343566299, 33.657117448138301 ], [ -78.918090221504499, 33.657061498174301 ], [ -78.934893561844802, 33.6425704968945 ], [ -78.938076, 33.639826 ], [ -78.939260231085996, 33.638573720069402 ], [ -78.959980063683702, 33.616663274689202 ], [ -78.971043437018494, 33.6049641725835 ], [ -78.982775590223795, 33.592557860863302 ], [ -78.988120041388299, 33.586906304328103 ], [ -78.994826171869406, 33.579814823017799 ], [ -78.997536404296994, 33.576948853937601 ], [ -78.997835342258995, 33.576632738261601 ], [ -79.001578155457395, 33.5726748537679 ], [ -79.007356, 33.566565 ], [ -79.022488970419204, 33.542982941857296 ], [ -79.028634, 33.533407 ], [ -79.030503, 33.53198 ], [ -79.032378, 33.531903 ], [ -79.032488222948899, 33.532013490480303 ], [ -79.033614, 33.533142 ], [ -79.036452, 33.533288 ], [ -79.0388, 33.531499 ], [ -79.038554, 33.528869 ], [ -79.04396, 33.51922 ], [ -79.048890572160502, 33.5150318338193 ], [ -79.062133196269897, 33.503783177753803 ], [ -79.06494, 33.501399 ], [ -79.071019061824401, 33.495913364507999 ], [ -79.082727072992896, 33.485348266889098 ], [ -79.084588, 33.483669 ], [ -79.0850548544975, 33.4830384458065 ], [ -79.094092473638696, 33.470831840368596 ], [ -79.10136, 33.461016 ], [ -79.107191379527507, 33.450490471370699 ], [ -79.108751481767499, 33.447674516635701 ], [ -79.108949, 33.447318 ], [ -79.115361, 33.43914 ], [ -79.119344, 33.432038 ], [ -79.135441, 33.403867 ], [ -79.137307746488702, 33.39989959319 ], [ -79.137738799603994, 33.398983473580003 ], [ -79.138022182276202, 33.398381198793203 ], [ -79.140349, 33.393436 ], [ -79.141797419382002, 33.391177662637197 ], [ -79.143205, 33.388983 ], [ -79.147396028732004, 33.378493219393697 ], [ -79.147496, 33.378243 ], [ -79.152371296618497, 33.355091745465401 ], [ -79.153015, 33.352035 ], [ -79.158516, 33.336743 ], [ -79.162672, 33.331177 ], [ -79.168092, 33.331306 ], [ -79.172108, 33.329123 ], [ -79.172129, 33.325169 ], [ -79.169358, 33.32119 ], [ -79.165546, 33.318548 ], [ -79.163761, 33.312049 ], [ -79.166332, 33.308524 ], [ -79.171637, 33.295217 ], [ -79.176414, 33.277259 ], [ -79.180318, 33.254141 ], [ -79.180898, 33.246748 ], [ -79.180563, 33.237955 ], [ -79.175713, 33.21106 ], [ -79.182501366161702, 33.198257578442202 ], [ -79.1832, 33.19694 ], [ -79.1832, 33.190774 ], [ -79.188191, 33.181723 ], [ -79.191519, 33.173269 ], [ -79.19449, 33.169787 ], [ -79.215453, 33.155569 ], [ -79.223725, 33.14979 ], [ -79.235666121260394, 33.1384912925501 ], [ -79.236625, 33.137584 ], [ -79.246423, 33.126007 ], [ -79.248004227481999, 33.125558695640002 ], [ -79.26924, 33.119538 ], [ -79.2764510593354, 33.116387537183499 ], [ -79.286034613237902, 33.112200547614499 ], [ -79.290565158247006, 33.110221183290101 ], [ -79.291591, 33.109773 ], [ -79.305941, 33.10316 ], [ -79.316063, 33.099231 ], [ -79.323385, 33.092583 ], [ -79.328159, 33.090406 ], [ -79.330205, 33.086586 ], [ -79.331869, 33.08101 ], [ -79.335909, 33.070255 ], [ -79.341495, 33.053822 ], [ -79.35124, 33.035193 ], [ -79.359796, 33.01965 ], [ -79.362292, 33.009087 ], [ -79.373582, 33.008688 ], [ -79.379999, 33.009386 ], [ -79.396755, 33.00819 ], [ -79.416515, 33.006815 ], [ -79.423138, 33.010183 ], [ -79.421477, 33.011175 ], [ -79.411626, 33.010338 ], [ -79.401081, 33.011175 ], [ -79.400647, 33.017506 ], [ -79.404422, 33.019617 ], [ -79.405203, 33.018016 ], [ -79.407286, 33.01445 ], [ -79.416356, 33.016124 ], [ -79.452848, 33.012675 ], [ -79.470555, 33.010084 ], [ -79.474681, 33.011389 ], [ -79.483271, 33.009785 ], [ -79.489332, 33.01397 ], [ -79.488727, 33.015832 ], [ -79.504068, 33.027422 ], [ -79.506923, 33.032813 ], [ -79.522449, 33.03535 ], [ -79.525221, 33.037286 ], [ -79.532114, 33.035193 ], [ -79.532126608169307, 33.033848248681302 ], [ -79.532149, 33.03146 ], [ -79.534966, 33.02847 ], [ -79.541323, 33.025987 ], [ -79.545317, 33.026537 ], [ -79.55142, 33.023959 ], [ -79.55482, 33.021596 ], [ -79.55756, 33.021269 ], [ -79.563176, 33.017676 ], [ -79.566188, 33.015285 ], [ -79.571108, 33.013811 ], [ -79.575969, 33.009231 ], [ -79.580725, 33.006447 ], [ -79.581314, 33.002709 ], [ -79.583344, 33.000351 ], [ -79.583717, 32.996155 ], [ -79.58659, 32.991334 ], [ -79.592761, 32.985218 ], [ -79.598415, 32.981066 ], [ -79.598662, 32.979648 ], [ -79.60102, 32.979282 ], [ -79.606615, 32.972248 ], [ -79.605506, 32.968364 ], [ -79.606223, 32.965588 ], [ -79.607996, 32.96335 ], [ -79.617611, 32.952726 ], [ -79.617715, 32.94487 ], [ -79.612928, 32.934815 ], [ -79.607532, 32.92623 ], [ -79.589811, 32.924534 ], [ -79.585897, 32.926461 ], [ -79.585715, 32.929561 ], [ -79.583154, 32.930883 ], [ -79.580088, 32.930882 ], [ -79.578161, 32.932873 ], [ -79.575772, 32.933802 ], [ -79.574086, 32.932509 ], [ -79.573408, 32.92788 ], [ -79.574613, 32.921117 ], [ -79.578087, 32.910408 ], [ -79.581058, 32.906417 ], [ -79.631149, 32.888606 ], [ -79.6418, 32.881205 ], [ -79.646656, 32.876055 ], [ -79.649724, 32.87644 ], [ -79.655927, 32.875881 ], [ -79.667217, 32.869793 ], [ -79.68124, 32.861708 ], [ -79.693375, 32.852821 ], [ -79.698115, 32.851325 ], [ -79.698723096760304, 32.849225645390199 ], [ -79.699185, 32.847631 ], [ -79.699296, 32.843903 ], [ -79.703789, 32.836024 ], [ -79.710118, 32.833353 ], [ -79.719879, 32.825796 ], [ -79.718877856856096, 32.820920195180001 ], [ -79.718213888078296, 32.817686509580803 ], [ -79.718191817067094, 32.817579018515602 ], [ -79.718068, 32.816976 ], [ -79.720707, 32.811153 ], [ -79.726389, 32.805996 ], [ -79.736595, 32.801593 ], [ -79.75647, 32.796602 ], [ -79.787565, 32.784466 ], [ -79.789658554232304, 32.783343015209198 ], [ -79.791487989025896, 32.782361704375496 ], [ -79.791615207664705, 32.782293464157803 ], [ -79.805037, 32.775094 ], [ -79.811317, 32.774787 ], [ -79.8125100660219, 32.774801315002897 ], [ -79.813984, 32.774819 ], [ -79.814513, 32.770448 ], [ -79.818237, 32.766352 ], [ -79.822752852996601, 32.763495112196701 ], [ -79.823967, 32.762727 ], [ -79.833989512325999, 32.759110869232799 ], [ -79.84035, 32.756816 ], [ -79.848797, 32.75363 ], [ -79.854703, 32.754878 ], [ -79.862709, 32.761528 ], [ -79.866393, 32.766025 ], [ -79.865295308118704, 32.767871235722303 ], [ -79.865148207033599, 32.768118648755603 ], [ -79.863422, 32.771022 ], [ -79.865442, 32.774919 ], [ -79.870628, 32.778263 ], [ -79.878039, 32.785709 ], [ -79.886001, 32.787907 ], [ -79.887233720316701, 32.787647914203902 ], [ -79.89123, 32.786808 ], [ -79.900024, 32.78531 ], [ -79.906085, 32.78481 ], [ -79.917159849677603, 32.782870461375303 ], [ -79.923198, 32.781813 ], [ -79.923640237689597, 32.779286033757003 ], [ -79.923694023576999, 32.7789786987531 ], [ -79.924387, 32.775019 ], [ -79.927357, 32.772521 ], [ -79.927369218073807, 32.772491906086501 ], [ -79.928784, 32.769123 ], [ -79.928686681244002, 32.763034444213901 ], [ -79.928546, 32.754233 ], [ -79.926821841783806, 32.753846128298498 ], [ -79.923198, 32.753033 ], [ -79.918402616874701, 32.754316904451201 ], [ -79.917969, 32.754433 ], [ -79.916869609691005, 32.7540804900813 ], [ -79.915474, 32.753633 ], [ -79.908937, 32.751634 ], [ -79.908560507653903, 32.751605197831502 ], [ -79.907632285792801, 32.7515341876164 ], [ -79.905069504165695, 32.751338131391002 ], [ -79.901094, 32.751034 ], [ -79.899074, 32.753333 ], [ -79.898610027364299, 32.752994973946301 ], [ -79.897575631004202, 32.752241367175799 ], [ -79.897291, 32.752034 ], [ -79.8963869738852, 32.749658436108497 ], [ -79.89634, 32.749535 ], [ -79.890874, 32.751034 ], [ -79.890436936607699, 32.751026570108102 ], [ -79.879109, 32.750834 ], [ -79.872965397535907, 32.744524394828503 ], [ -79.87093, 32.742434 ], [ -79.869364, 32.733642 ], [ -79.870148, 32.730003 ], [ -79.870956280294195, 32.7288647527932 ], [ -79.875829, 32.722002826758199 ], [ -79.880059, 32.716046 ], [ -79.883592, 32.709316 ], [ -79.887094, 32.701947 ], [ -79.888028, 32.695177 ], [ -79.888027796903401, 32.694922046099101 ], [ -79.888027263337307, 32.694252242709702 ], [ -79.888024042474697, 32.690208986617499 ], [ -79.888022, 32.687645 ], [ -79.885582, 32.684868 ], [ -79.887085, 32.683049 ], [ -79.893510344561307, 32.678974544697901 ], [ -79.915682, 32.664915 ], [ -79.918131278210893, 32.663817165022103 ], [ -79.937552866228899, 32.6551118662289 ], [ -79.940004776378004, 32.654012851542603 ], [ -79.943757, 32.652331 ], [ -79.958025, 32.646163 ], [ -79.970021, 32.640524 ], [ -79.974299, 32.641024 ], [ -79.980004, 32.632417 ], [ -79.986917, 32.626388 ], [ -79.988334995747607, 32.621813317985001 ], [ -79.988441891297995, 32.621468455771499 ], [ -79.990105, 32.616103 ], [ -79.992244, 32.610998 ], [ -80.000801, 32.605892 ], [ -80.006029, 32.605992 ], [ -80.010505, 32.608852 ], [ -80.013307874230605, 32.609522554457499 ], [ -80.016963, 32.610397 ], [ -80.037276, 32.610236 ], [ -80.066439527114696, 32.6051628385923 ], [ -80.077039, 32.603319 ], [ -80.098075, 32.598277 ], [ -80.121368, 32.590523 ], [ -80.139941, 32.580275 ], [ -80.14541, 32.578132 ], [ -80.147588132326604, 32.5768265209229 ], [ -80.155676, 32.571979 ], [ -80.1586583794994, 32.568231168955599 ], [ -80.163749, 32.561834 ], [ -80.166552, 32.560224 ], [ -80.17596, 32.559206 ], [ -80.179298, 32.56023 ], [ -80.180116417516999, 32.560219565659203 ], [ -80.190648009344599, 32.560085294073502 ], [ -80.194985, 32.56003 ], [ -80.202168, 32.557403 ], [ -80.218025, 32.551087 ], [ -80.236778, 32.542324 ], [ -80.254978581977895, 32.531770331094997 ], [ -80.261467, 32.528008 ], [ -80.277361, 32.518016 ], [ -80.295503, 32.503703 ], [ -80.296119428702696, 32.503275764089302 ], [ -80.299229314934195, 32.5011203565453 ], [ -80.300197303835901, 32.500449460433302 ], [ -80.332438, 32.478104 ], [ -80.338354, 32.47873 ], [ -80.341871, 32.483775 ], [ -80.344695, 32.490972 ], [ -80.345167914113205, 32.491786668452797 ], [ -80.346743, 32.4945 ], [ -80.346939574068998, 32.494576417504099 ], [ -80.354474594911395, 32.497505631357598 ], [ -80.36041, 32.499813 ], [ -80.362523, 32.495627 ], [ -80.369049, 32.491777 ], [ -80.37063, 32.487584 ], [ -80.373591, 32.487224 ], [ -80.375978, 32.487985 ], [ -80.380716, 32.486359 ], [ -80.387743, 32.482973 ], [ -80.389407, 32.479263 ], [ -80.389635, 32.477107 ], [ -80.392561, 32.475332 ], [ -80.413487, 32.470672 ], [ -80.415943, 32.472074 ], [ -80.417896, 32.476076 ], [ -80.419117, 32.478963 ], [ -80.418371, 32.482419 ], [ -80.418599, 32.4895 ], [ -80.420504453240596, 32.492929687260101 ], [ -80.421563, 32.494835 ], [ -80.425891, 32.496705 ], [ -80.430918, 32.500906 ], [ -80.439407, 32.503472 ], [ -80.444073, 32.504924 ], [ -80.447876, 32.503521 ], [ -80.45465, 32.503521 ], [ -80.457621, 32.499512 ], [ -80.463088, 32.497808 ], [ -80.472068, 32.496964 ], [ -80.4770408344244, 32.485446033952002 ], [ -80.481297, 32.475588 ], [ -80.477837, 32.472004 ], [ -80.476882, 32.467913 ], [ -80.479884, 32.463991 ], [ -80.48234, 32.461818 ], [ -80.484617, 32.460976 ], [ -80.481927193324594, 32.453114203300103 ], [ -80.480103791774994, 32.447784745084199 ], [ -80.479409, 32.445754 ], [ -80.475439, 32.442227 ], [ -80.469638, 32.43376 ], [ -80.467588, 32.425259 ], [ -80.461534, 32.412893 ], [ -80.457502, 32.410264 ], [ -80.444910124021604, 32.411135130611598 ], [ -80.443004, 32.411267 ], [ -80.440746, 32.413374 ], [ -80.435565, 32.412459 ], [ -80.43296, 32.410659 ], [ -80.429218, 32.405548 ], [ -80.428363531885694, 32.399739295908503 ], [ -80.428302, 32.399321 ], [ -80.429123597045603, 32.391301083035003 ], [ -80.429291, 32.389667 ], [ -80.430278768256002, 32.3875111858314 ], [ -80.435992, 32.375042 ], [ -80.440141, 32.367855 ], [ -80.444214, 32.354935 ], [ -80.454005, 32.339267 ], [ -80.455719, 32.33924 ], [ -80.458933, 32.341157 ], [ -80.463642, 32.340108 ], [ -80.463700520158, 32.339798791079502 ], [ -80.464389, 32.336161 ], [ -80.462718, 32.333416 ], [ -80.455059, 32.326789 ], [ -80.452856, 32.323006 ], [ -80.453212098863006, 32.322121418051502 ], [ -80.453296, 32.321913 ], [ -80.456691046205705, 32.321291469087697 ], [ -80.459687, 32.320743 ], [ -80.478569, 32.314633 ], [ -80.499378, 32.306143 ], [ -80.503839446253494, 32.307477375316097 ], [ -80.503885, 32.307491 ], [ -80.521371, 32.299608 ], [ -80.538773, 32.290281 ], [ -80.544471, 32.290321 ], [ -80.548636, 32.285601 ], [ -80.563258, 32.280723 ], [ -80.566429, 32.278374 ], [ -80.576243, 32.275285 ], [ -80.581472, 32.276492 ], [ -80.58171, 32.2782 ], [ -80.588464, 32.282656 ], [ -80.595, 32.279743 ], [ -80.598684, 32.276929 ], [ -80.606408, 32.272508 ], [ -80.609023, 32.267886 ], [ -80.613658, 32.265273 ], [ -80.619837, 32.262259 ], [ -80.62369, 32.258059 ], [ -80.63297, 32.256925 ], [ -80.639921, 32.258641 ], [ -80.645388, 32.260852 ], [ -80.646458, 32.265072 ], [ -80.644035, 32.268674 ], [ -80.643011, 32.27281 ], [ -80.643900198422102, 32.278845483689899 ], [ -80.645261, 32.288082 ], [ -80.644794, 32.291497 ], [ -80.654303985310094, 32.294066970451503 ], [ -80.668251, 32.297836 ], [ -80.673791, 32.29642 ], [ -80.679376, 32.299232 ], [ -80.682182012119497, 32.300341096911403 ], [ -80.688527, 32.302849 ], [ -80.698471, 32.310658 ], [ -80.699653, 32.315233 ], [ -80.708145, 32.323734 ], [ -80.708682610061999, 32.323894050579199 ], [ -80.714601, 32.325656 ], [ -80.722216, 32.324704 ], [ -80.7283247927041, 32.321903936099602 ], [ -80.733637, 32.319469 ], [ -80.738812, 32.313766 ], [ -80.737994, 32.310396 ], [ -80.737118, 32.306029 ], [ -80.739695, 32.305176 ], [ -80.741002, 32.303784 ], [ -80.742661, 32.303416 ], [ -80.746826, 32.305509 ], [ -80.75345, 32.306822 ], [ -80.760334837390005, 32.2990478437669 ], [ -80.766038, 32.292608 ], [ -80.765416, 32.285972 ], [ -80.761257, 32.280044 ], [ -80.755438, 32.275945 ], [ -80.750442, 32.270599 ], [ -80.745926, 32.266881 ], [ -80.743787, 32.266077 ], [ -80.742361, 32.263766 ], [ -80.740738102312307, 32.263918502307199 ], [ -80.738083, 32.264168 ], [ -80.736005, 32.266882 ], [ -80.731805740436499, 32.268774398488802 ], [ -80.731547, 32.268891 ], [ -80.730121, 32.270499 ], [ -80.727079, 32.270552 ], [ -80.722634, 32.267484 ], [ -80.720864, 32.268007 ], [ -80.717796, 32.266974 ], [ -80.705898, 32.256159 ], [ -80.698398296570005, 32.250673771072798 ], [ -80.697756, 32.250204 ], [ -80.693264, 32.246982 ], [ -80.686512, 32.24419 ], [ -80.682297, 32.24052 ], [ -80.678542938384993, 32.237050950250698 ], [ -80.677845, 32.236406 ], [ -80.672224, 32.229505 ], [ -80.669792, 32.223427 ], [ -80.667877, 32.22068 ], [ -80.669166, 32.216783 ], [ -80.670297555322904, 32.215245887238403 ], [ -80.671652, 32.213406 ], [ -80.677812727222403, 32.209111942794202 ], [ -80.6789580205226, 32.2083136677252 ], [ -80.686276, 32.203213 ], [ -80.688414387863801, 32.200770028252201 ], [ -80.693155136215196, 32.195354025626003 ], [ -80.700191, 32.187316 ], [ -80.707789, 32.175918 ], [ -80.713729, 32.167882 ], [ -80.7169321861561, 32.164339852345798 ], [ -80.721478, 32.159313 ], [ -80.728870737053199, 32.153112070680599 ], [ -80.730065044963098, 32.152110301121901 ], [ -80.731533, 32.150879 ], [ -80.738818125607096, 32.146556425308098 ], [ -80.746794, 32.141824 ], [ -80.747910803512795, 32.141360661662603 ], [ -80.770102, 32.132154 ], [ -80.770339812597499, 32.132038524495201 ], [ -80.770874699138105, 32.131778797744303 ], [ -80.789996, 32.122494 ], [ -80.805692356660998, 32.1136035590388 ], [ -80.812503, 32.109746 ], [ -80.82153, 32.108589 ], [ -80.828394, 32.113222 ], [ -80.831522461630996, 32.114251069880801 ], [ -80.842424, 32.117837 ], [ -80.844207, 32.115522 ], [ -80.848007, 32.108893 ], [ -80.858735, 32.099581 ], [ -80.859869529191698, 32.098255143743998 ], [ -80.864647, 32.092672 ], [ -80.872128, 32.082878 ], [ -80.873798, 32.0823 ], [ -80.876141, 32.081807 ], [ -80.879313083755804, 32.081031311621999 ], [ -80.883187, 32.080084 ], [ -80.885682, 32.076056 ], [ -80.886633, 32.071928 ], [ -80.891881, 32.067532 ], [ -80.895719, 32.063099 ], [ -80.896626, 32.059962 ], [ -80.899824, 32.056015 ], [ -80.907519, 32.050935 ], [ -80.908037, 32.048299 ], [ -80.90169, 32.042699 ], [ -80.894456, 32.045089 ], [ -80.88867, 32.039899 ], [ -80.889512, 32.037593 ], [ -80.894953, 32.038307 ], [ -80.904021, 32.039954 ], [ -80.907657, 32.038151 ], [ -80.921027, 32.03999 ], [ -80.925085, 32.041939 ], [ -80.95388, 32.070142 ], [ -80.959569, 32.072854 ], [ -80.971915, 32.074633 ], [ -80.980541, 32.077836 ], [ -80.983509, 32.079549 ], [ -80.986845, 32.084116 ], [ -80.992138, 32.094915 ], [ -80.999556, 32.100434 ], [ -81.004305, 32.102367 ], [ -81.011015, 32.10205 ], [ -81.017355, 32.098785 ], [ -81.020031397004203, 32.094331445285 ], [ -81.021623, 32.091683 ], [ -81.026262, 32.088129 ], [ -81.038125, 32.083734 ], [ -81.039848042031693, 32.0844877116307 ], [ -81.043543, 32.086104 ], [ -81.059551, 32.088623 ], [ -81.074306, 32.097385 ], [ -81.08827, 32.099931 ], [ -81.086974, 32.103968 ], [ -81.087062618066597, 32.104047756259902 ], [ -81.089484, 32.106227 ], [ -81.091245, 32.110888 ], [ -81.094976, 32.111821 ], [ -81.103325, 32.111137 ], [ -81.106703, 32.109698 ], [ -81.10894, 32.111626 ], [ -81.111134, 32.112005 ], [ -81.115367, 32.114705 ], [ -81.117234, 32.117605 ], [ -81.117225, 32.119805 ], [ -81.115242, 32.125504 ], [ -81.116128, 32.128679 ], [ -81.118328824855396, 32.131747463278103 ], [ -81.119943, 32.133998 ], [ -81.119134, 32.142104 ], [ -81.118334, 32.144403 ], [ -81.116236, 32.147201 ], [ -81.112234, 32.149306 ], [ -81.112236, 32.150804 ], [ -81.114298, 32.152019 ], [ -81.117969, 32.152332 ], [ -81.121116, 32.154504 ], [ -81.122137, 32.157304 ], [ -81.122034, 32.161803 ], [ -81.123134, 32.162902 ], [ -81.128434, 32.164402 ], [ -81.129533546819701, 32.165685083979398 ], [ -81.129703788719894, 32.1658837427821 ], [ -81.129746, 32.165933 ], [ -81.128134, 32.169102 ], [ -81.121189, 32.174923 ], [ -81.11901, 32.174669 ], [ -81.117748, 32.171159 ], [ -81.11384, 32.171259 ], [ -81.111132, 32.172703 ], [ -81.110234, 32.1768 ], [ -81.111933, 32.178002 ], [ -81.11393, 32.177604 ], [ -81.116381, 32.176169 ], [ -81.120452, 32.178293 ], [ -81.119834, 32.181202 ], [ -81.117934, 32.185301 ], [ -81.118234, 32.189201 ], [ -81.121554, 32.190415 ], [ -81.121584, 32.192203 ], [ -81.11623, 32.192999 ], [ -81.114117, 32.193922 ], [ -81.114016, 32.195448 ], [ -81.11589, 32.196442 ], [ -81.119802, 32.195156 ], [ -81.122061, 32.195501 ], [ -81.12315, 32.201329 ], [ -81.128283, 32.208634 ], [ -81.134084, 32.21146 ], [ -81.136727, 32.213669 ], [ -81.136717, 32.216267 ], [ -81.138435, 32.219256 ], [ -81.143139, 32.221731 ], [ -81.150836, 32.221196 ], [ -81.152153, 32.222322 ], [ -81.14806, 32.223782 ], [ -81.144813, 32.225994 ], [ -81.1446886034838, 32.226339229347701 ], [ -81.143634, 32.229266 ], [ -81.145481437331, 32.231926067696499 ], [ -81.145771, 32.232343 ], [ -81.151433582204703, 32.2357338652821 ], [ -81.152379, 32.2363 ], [ -81.155883, 32.240969 ], [ -81.156587, 32.24391 ], [ -81.155595, 32.246022 ], [ -81.152894, 32.247807 ], [ -81.147107, 32.249564 ], [ -81.14573, 32.251523 ], [ -81.148334, 32.255098 ], [ -81.147518, 32.256512 ], [ -81.145062, 32.25775 ], [ -81.144732, 32.258773 ], [ -81.146639, 32.261023 ], [ -81.146602, 32.262766 ], [ -81.145336, 32.263993 ], [ -81.140206, 32.263578 ], [ -81.13839, 32.264234 ], [ -81.13693, 32.266115 ], [ -81.137639, 32.268493 ], [ -81.139575, 32.269756 ], [ -81.141747, 32.270214 ], [ -81.141925, 32.271742 ], [ -81.135577, 32.272472 ], [ -81.13349, 32.269796 ], [ -81.132531, 32.270246 ], [ -81.132126, 32.272747 ], [ -81.13, 32.275796 ], [ -81.127954, 32.276466 ], [ -81.125248, 32.275035 ], [ -81.123425, 32.275051 ], [ -81.123276, 32.276975 ], [ -81.125918, 32.278756 ], [ -81.127161, 32.280786 ], [ -81.126965, 32.282698 ], [ -81.12572, 32.283656 ], [ -81.122239, 32.284242 ], [ -81.119867, 32.286203 ], [ -81.119869537746297, 32.286265391828401 ], [ -81.119926284439202, 32.287660539139701 ], [ -81.120019, 32.28994 ], [ -81.123362, 32.293844 ], [ -81.123917, 32.296411 ], [ -81.122656, 32.299509 ], [ -81.122333, 32.305395 ], [ -81.122933, 32.307295 ], [ -81.124978, 32.309159 ], [ -81.12778, 32.307216 ], [ -81.131523, 32.307277 ], [ -81.133052, 32.309011 ], [ -81.130848, 32.310982 ], [ -81.129752, 32.313969 ], [ -81.131652, 32.319505 ], [ -81.130648, 32.325408 ], [ -81.131758, 32.326369 ], [ -81.133752, 32.324291 ], [ -81.136294, 32.324999 ], [ -81.137926, 32.328662 ], [ -81.135751, 32.330281 ], [ -81.133916, 32.333314 ], [ -81.131382, 32.335875 ], [ -81.128956, 32.336452 ], [ -81.128616, 32.338623 ], [ -81.129435, 32.341552 ], [ -81.134013, 32.341209 ], [ -81.135297, 32.342989 ], [ -81.139353, 32.34508 ], [ -81.141512, 32.350324 ], [ -81.143794, 32.351529 ], [ -81.143843582333901, 32.351509273997699 ], [ -81.147318, 32.350127 ], [ -81.147248, 32.347493 ], [ -81.145232, 32.345844 ], [ -81.145982, 32.345018 ], [ -81.148673, 32.345322 ], [ -81.151835, 32.343023 ], [ -81.152194, 32.341443 ], [ -81.154839, 32.341551 ], [ -81.157357, 32.34 ], [ -81.159832, 32.339964 ], [ -81.160622, 32.341749 ], [ -81.159832, 32.342975 ], [ -81.156738, 32.342777 ], [ -81.155053, 32.344165 ], [ -81.15484, 32.349557 ], [ -81.155371, 32.350033 ], [ -81.160096, 32.348952 ], [ -81.161608, 32.35042 ], [ -81.160498, 32.353644 ], [ -81.160998, 32.355905 ], [ -81.163863, 32.35665 ], [ -81.167124, 32.358718 ], [ -81.167124, 32.361041 ], [ -81.173824, 32.36271 ], [ -81.173852861551495, 32.362931360156601 ], [ -81.173933, 32.363546 ], [ -81.168996, 32.365119 ], [ -81.167906, 32.368304 ], [ -81.169217, 32.370136 ], [ -81.17379, 32.373098 ], [ -81.175758, 32.375812 ], [ -81.178859, 32.37809 ], [ -81.180983548175206, 32.378985070865497 ], [ -81.181845, 32.379348 ], [ -81.181495036077294, 32.3798828150547 ], [ -81.178494, 32.384469 ], [ -81.177316, 32.389783 ], [ -81.178713, 32.393645 ], [ -81.185358, 32.400063 ], [ -81.18991, 32.407066 ], [ -81.194931, 32.411489 ], [ -81.205507, 32.423612 ], [ -81.205048, 32.425479 ], [ -81.208443, 32.437002 ], [ -81.199644, 32.441592 ], [ -81.199435, 32.444193 ], [ -81.201055, 32.446223 ], [ -81.205561, 32.4465 ], [ -81.206666, 32.448093 ], [ -81.204496, 32.452779 ], [ -81.203286, 32.452993 ], [ -81.198783, 32.44852 ], [ -81.197485, 32.44914 ], [ -81.197968, 32.453878 ], [ -81.196363, 32.455129 ], [ -81.194298, 32.453522 ], [ -81.192243, 32.453639 ], [ -81.191615, 32.455188 ], [ -81.194558, 32.457774 ], [ -81.193727, 32.459677 ], [ -81.188602, 32.461226 ], [ -81.186952, 32.463566 ], [ -81.188649, 32.465311 ], [ -81.191537, 32.464816 ], [ -81.194829, 32.465086 ], [ -81.200029, 32.467985 ], [ -81.211914, 32.478994 ], [ -81.216815, 32.482804 ], [ -81.224995, 32.491886 ], [ -81.233585, 32.498488 ], [ -81.234254, 32.502747 ], [ -81.237658, 32.505118 ], [ -81.238684, 32.506984 ], [ -81.238411, 32.510192 ], [ -81.236707, 32.511402 ], [ -81.232954, 32.511691 ], [ -81.232148, 32.513337 ], [ -81.23342, 32.517963 ], [ -81.235457, 32.518546 ], [ -81.237371, 32.517131 ], [ -81.240197, 32.516365 ], [ -81.241912, 32.517175 ], [ -81.243119, 32.520232 ], [ -81.244799, 32.520536 ], [ -81.246861, 32.518558 ], [ -81.249559, 32.517857 ], [ -81.252882, 32.51833 ], [ -81.258682, 32.522636 ], [ -81.2626112, 32.5251364 ], [ -81.26603, 32.527312 ], [ -81.268381505182404, 32.528455041750099 ], [ -81.272428, 32.530422 ], [ -81.274174, 32.533774 ], [ -81.279905, 32.536592 ], [ -81.280051, 32.537495 ], [ -81.279223493109001, 32.537725937208002 ], [ -81.276242, 32.538558 ], [ -81.274802, 32.541143 ], [ -81.274955, 32.544821 ], [ -81.275739, 32.545662 ], [ -81.27906, 32.546318 ], [ -81.280731, 32.547638 ], [ -81.281034, 32.549678 ], [ -81.27876, 32.55234 ], [ -81.279238, 32.55459 ], [ -81.281297597347802, 32.556440280647003 ], [ -81.281324, 32.556464 ], [ -81.283271, 32.556782 ], [ -81.284243, 32.556027 ], [ -81.284721, 32.552943 ], [ -81.286468, 32.551475 ], [ -81.288879, 32.551163 ], [ -81.289962, 32.55218 ], [ -81.288344, 32.555912 ], [ -81.288467, 32.558456 ], [ -81.289573, 32.56174 ], [ -81.291289, 32.562739 ], [ -81.293113, 32.562393 ], [ -81.29116, 32.55722 ], [ -81.291762, 32.555328 ], [ -81.294829, 32.553581 ], [ -81.296691, 32.553393 ], [ -81.297866, 32.554091 ], [ -81.297958, 32.555828 ], [ -81.295481, 32.559074 ], [ -81.295588, 32.561817 ], [ -81.297955, 32.563026 ], [ -81.300593, 32.562843 ], [ -81.305236, 32.561515 ], [ -81.321807, 32.55954 ], [ -81.328605, 32.561092 ], [ -81.33319, 32.563499 ], [ -81.336242, 32.564239 ], [ -81.350761, 32.570168 ], [ -81.354797, 32.571072 ], [ -81.358321, 32.573631 ], [ -81.357803, 32.57519 ], [ -81.353698, 32.577911 ], [ -81.354118, 32.57991 ], [ -81.357749, 32.582119 ], [ -81.360168, 32.581778 ], [ -81.362937, 32.577305 ], [ -81.365203, 32.576572 ], [ -81.36695, 32.577019 ], [ -81.36711, 32.578609 ], [ -81.363593, 32.581791 ], [ -81.364501, 32.584034 ], [ -81.368386, 32.584221 ], [ -81.369819, 32.585048 ], [ -81.370284, 32.5867 ], [ -81.36888, 32.589751 ], [ -81.369757, 32.591231 ], [ -81.37157, 32.592018 ], [ -81.373962, 32.591808 ], [ -81.375694, 32.589474 ], [ -81.378173, 32.588818 ], [ -81.380999, 32.589652 ], [ -81.389261240981597, 32.595382759304201 ], [ -81.389338, 32.595436 ], [ -81.393865, 32.60234 ], [ -81.400427, 32.608263 ], [ -81.406464, 32.613042 ], [ -81.407517, 32.616583 ], [ -81.408441, 32.617187 ], [ -81.411222, 32.61773 ], [ -81.411364096096605, 32.617947625386499 ], [ -81.412966, 32.620401 ], [ -81.412515, 32.621567 ], [ -81.413087, 32.624803 ], [ -81.418116, 32.628349 ], [ -81.418431, 32.634704 ], [ -81.417014, 32.636147 ], [ -81.414761, 32.63744 ], [ -81.413411, 32.637368 ], [ -81.411523, 32.632907 ], [ -81.41026, 32.631392 ], [ -81.408197, 32.631307 ], [ -81.404213, 32.635243 ], [ -81.402735, 32.637031 ], [ -81.403634, 32.637925 ], [ -81.411827, 32.639383 ], [ -81.412553, 32.641523 ], [ -81.411816, 32.642156 ], [ -81.409858, 32.642016 ], [ -81.405109, 32.64269 ], [ -81.400027, 32.645764 ], [ -81.394589, 32.64957 ], [ -81.393033, 32.651543 ], [ -81.393818, 32.653491 ], [ -81.398314, 32.656307 ], [ -81.405273, 32.656517 ], [ -81.407193, 32.660519 ], [ -81.4073, 32.66156 ], [ -81.406646, 32.662515 ], [ -81.406484630859694, 32.662524421364999 ], [ -81.404505, 32.66264 ], [ -81.403254, 32.659464 ], [ -81.400342, 32.658488 ], [ -81.397514, 32.660213 ], [ -81.397544, 32.662591 ], [ -81.403913, 32.666877 ], [ -81.403914, 32.670642 ], [ -81.401029, 32.677494 ], [ -81.401510502897096, 32.679820000215301 ], [ -81.401791, 32.681175 ], [ -81.404321, 32.683762 ], [ -81.406634, 32.684863 ], [ -81.405832, 32.690461 ], [ -81.407492, 32.692332 ], [ -81.409618, 32.697046 ], [ -81.410875, 32.69686 ], [ -81.410545, 32.692512 ], [ -81.412403, 32.692095 ], [ -81.413577, 32.695472 ], [ -81.41665, 32.695506 ], [ -81.418881, 32.696212 ], [ -81.420596, 32.699834 ], [ -81.422624, 32.700861 ], [ -81.426735, 32.700867 ], [ -81.427505, 32.702242 ], [ -81.424562, 32.705329 ], [ -81.424099, 32.70756 ], [ -81.426458, 32.709017 ], [ -81.425927, 32.710037 ], [ -81.422152, 32.709742 ], [ -81.421194, 32.711978 ], [ -81.420039, 32.712423 ], [ -81.416671, 32.712283 ], [ -81.41512, 32.713669 ], [ -81.41576, 32.715882 ], [ -81.420452, 32.719847 ], [ -81.420338, 32.721051 ], [ -81.418769, 32.721851 ], [ -81.410916, 32.721207 ], [ -81.409988, 32.721863 ], [ -81.410074, 32.723096 ], [ -81.415591, 32.723531 ], [ -81.417769, 32.725074 ], [ -81.417815, 32.726582 ], [ -81.416752, 32.728762 ], [ -81.41706, 32.729675 ], [ -81.418278, 32.730922 ], [ -81.418542, 32.732586 ], [ -81.417035, 32.733085 ], [ -81.414672, 32.73208 ], [ -81.412517, 32.732432 ], [ -81.411595, 32.733852 ], [ -81.413872, 32.737477 ], [ -81.41267, 32.739083 ], [ -81.409859, 32.739517 ], [ -81.407602, 32.740334 ], [ -81.405749, 32.742544 ], [ -81.4050923155378, 32.744967382684699 ], [ -81.404932, 32.745559 ], [ -81.405016, 32.748284 ], [ -81.405866, 32.749144 ], [ -81.410662, 32.749316 ], [ -81.418603, 32.747991 ], [ -81.419837, 32.749797 ], [ -81.418485, 32.752189 ], [ -81.416733, 32.753276 ], [ -81.413714, 32.752833 ], [ -81.411568, 32.753117 ], [ -81.408364, 32.754686 ], [ -81.408, 32.756154 ], [ -81.409563, 32.756031 ], [ -81.412262, 32.754691 ], [ -81.414038, 32.755423 ], [ -81.411821, 32.763122 ], [ -81.414013, 32.764522 ], [ -81.416627, 32.760537 ], [ -81.417766, 32.760222 ], [ -81.418901, 32.761132 ], [ -81.417356, 32.763334 ], [ -81.417096, 32.766088 ], [ -81.422019, 32.768367 ], [ -81.429113, 32.767905 ], [ -81.43194, 32.768911 ], [ -81.432082, 32.770549 ], [ -81.429854, 32.772129 ], [ -81.422585, 32.772998 ], [ -81.418601, 32.772734 ], [ -81.417353, 32.773336 ], [ -81.416323, 32.775515 ], [ -81.414456, 32.778149 ], [ -81.414722, 32.779204 ], [ -81.416168, 32.779792 ], [ -81.423331, 32.778512 ], [ -81.426855, 32.779456 ], [ -81.430078, 32.781771 ], [ -81.430869120269904, 32.783391531581302 ], [ -81.431235, 32.784141 ], [ -81.429977, 32.785235 ], [ -81.42629, 32.782661 ], [ -81.423929, 32.782727 ], [ -81.42224, 32.783986 ], [ -81.422363, 32.785747 ], [ -81.425132, 32.786185 ], [ -81.427584, 32.786944 ], [ -81.427425, 32.78832 ], [ -81.424999, 32.790334 ], [ -81.4197, 32.793227 ], [ -81.419879, 32.794857 ], [ -81.42298, 32.793998 ], [ -81.425234, 32.79419 ], [ -81.426347, 32.798879 ], [ -81.428292, 32.800832 ], [ -81.426895, 32.802239 ], [ -81.424874, 32.801882 ], [ -81.422739, 32.80199 ], [ -81.422242, 32.803127 ], [ -81.426326, 32.809928 ], [ -81.425981, 32.811076 ], [ -81.423772, 32.810514 ], [ -81.419752, 32.813731 ], [ -81.418497, 32.815664 ], [ -81.417984, 32.818196 ], [ -81.418584, 32.818679 ], [ -81.420585, 32.818651 ], [ -81.424354, 32.816179 ], [ -81.427094, 32.81687 ], [ -81.428235, 32.818584 ], [ -81.427953, 32.81938 ], [ -81.426937, 32.819705 ], [ -81.423041, 32.819747 ], [ -81.422409, 32.820245 ], [ -81.421952, 32.821466 ], [ -81.422488, 32.822892 ], [ -81.426684, 32.825729 ], [ -81.429525, 32.827146 ], [ -81.429943, 32.828246 ], [ -81.428101, 32.828684 ], [ -81.423674, 32.828307 ], [ -81.421828, 32.829265 ], [ -81.42062, 32.831223 ], [ -81.421614, 32.835178 ], [ -81.426475, 32.840773 ], [ -81.434807, 32.843538 ], [ -81.437506, 32.840163 ], [ -81.43995, 32.840362 ], [ -81.442882, 32.845847 ], [ -81.442279, 32.848587 ], [ -81.442671, 32.850107 ], [ -81.444866, 32.850967 ], [ -81.451199, 32.847924 ], [ -81.451742, 32.844765 ], [ -81.454029, 32.8442 ], [ -81.460722, 32.846038 ], [ -81.460211, 32.847402 ], [ -81.455559, 32.846508 ], [ -81.457061, 32.850389 ], [ -81.456917, 32.852604 ], [ -81.453017, 32.859636 ], [ -81.453361, 32.863847 ], [ -81.451367, 32.867165 ], [ -81.452722776021503, 32.871665264945399 ], [ -81.45339, 32.87388 ], [ -81.457213, 32.873796 ], [ -81.460556, 32.875161 ], [ -81.461878, 32.87755 ], [ -81.465051, 32.880896 ], [ -81.467138, 32.880602 ], [ -81.468042, 32.876675 ], [ -81.470376, 32.876267 ], [ -81.475918, 32.877641 ], [ -81.479445, 32.881082 ], [ -81.4771, 32.887469 ], [ -81.471703, 32.890439 ], [ -81.467104, 32.888999 ], [ -81.465933, 32.889452 ], [ -81.468277, 32.892276 ], [ -81.464655, 32.895999 ], [ -81.464069, 32.897814 ], [ -81.465924, 32.899889 ], [ -81.468978, 32.901083 ], [ -81.471616, 32.900005 ], [ -81.470649, 32.895043 ], [ -81.472142, 32.893814 ], [ -81.475535, 32.896724 ], [ -81.480812, 32.898614 ], [ -81.480865, 32.900218 ], [ -81.479374, 32.902333 ], [ -81.479184, 32.905638 ], [ -81.481444, 32.908895 ], [ -81.480008, 32.913444 ], [ -81.481298, 32.914585 ], [ -81.487049, 32.914772 ], [ -81.487258, 32.917851 ], [ -81.484439, 32.918825 ], [ -81.483198, 32.921802 ], [ -81.489604, 32.927039 ], [ -81.492067, 32.927824 ], [ -81.495092, 32.931596 ], [ -81.499829, 32.932614 ], [ -81.502427, 32.935353 ], [ -81.502716, 32.938688 ], [ -81.499566, 32.943722 ], [ -81.499446, 32.944988 ], [ -81.504016, 32.948091 ], [ -81.508609, 32.952551 ], [ -81.510009, 32.957326 ], [ -81.510046, 32.96097 ], [ -81.511347, 32.966721 ], [ -81.510802, 32.968525 ], [ -81.508839, 32.969368 ], [ -81.507847, 32.968854 ], [ -81.507568, 32.965591 ], [ -81.505026, 32.963561 ], [ -81.501369, 32.962914 ], [ -81.49983, 32.963816 ], [ -81.499471, 32.96478 ], [ -81.497837, 32.973011 ], [ -81.494736, 32.978997 ], [ -81.495504, 32.983534 ], [ -81.494345, 32.985084 ], [ -81.494329, 32.98626 ], [ -81.495996, 32.988295 ], [ -81.49642, 32.989615 ], [ -81.496138, 32.990913 ], [ -81.495034, 32.991723 ], [ -81.492252, 32.99351 ], [ -81.491457, 32.995437 ], [ -81.4912127515191, 32.997679388938003 ], [ -81.491197, 32.997824 ], [ -81.492737, 32.999108 ], [ -81.495707, 32.999465 ], [ -81.49983, 33.000655 ], [ -81.50063, 33.001955 ], [ -81.50023, 33.003455 ], [ -81.498753, 33.005065 ], [ -81.496125, 33.005482 ], [ -81.491899, 33.006694 ], [ -81.491419, 33.008078 ], [ -81.492253, 33.009342 ], [ -81.496637, 33.010224 ], [ -81.499768, 33.012254 ], [ -81.50203, 33.015113 ], [ -81.504053, 33.016253 ], [ -81.50568, 33.015974 ], [ -81.507405, 33.011538 ], [ -81.508218, 33.010527 ], [ -81.51069, 33.010315 ], [ -81.511569, 33.012283 ], [ -81.508919, 33.015665 ], [ -81.50822, 33.01751 ], [ -81.510282, 33.021233 ], [ -81.511334, 33.021465 ], [ -81.513715, 33.020574 ], [ -81.516073, 33.020833 ], [ -81.518385, 33.021586 ], [ -81.519075, 33.023196 ], [ -81.517594, 33.023991 ], [ -81.514024, 33.023663 ], [ -81.51169, 33.024506 ], [ -81.510586, 33.025805 ], [ -81.511245, 33.027786 ], [ -81.513231, 33.028546 ], [ -81.519632, 33.029181 ], [ -81.522653, 33.030789 ], [ -81.528451, 33.035646 ], [ -81.528786, 33.036872 ], [ -81.528438, 33.039882 ], [ -81.529142, 33.040812 ], [ -81.53072, 33.040864 ], [ -81.535498, 33.038489 ], [ -81.538789, 33.039185 ], [ -81.540081, 33.040613 ], [ -81.541733325036404, 33.045685814839104 ], [ -81.542135, 33.046919 ], [ -81.543758, 33.048559 ], [ -81.546522, 33.048838 ], [ -81.551786, 33.04339 ], [ -81.553146, 33.043196 ], [ -81.561948, 33.045844 ], [ -81.566108, 33.048792 ], [ -81.565043, 33.049694 ], [ -81.560344, 33.050036 ], [ -81.559173, 33.051765 ], [ -81.558938, 33.052921 ], [ -81.559399, 33.054904 ], [ -81.563992, 33.060844 ], [ -81.565687, 33.061049 ], [ -81.56699, 33.060401 ], [ -81.566949, 33.059597 ], [ -81.564566, 33.058039 ], [ -81.563016, 33.05581 ], [ -81.566311, 33.05343 ], [ -81.56989, 33.054501 ], [ -81.571905, 33.053987 ], [ -81.573243, 33.054903 ], [ -81.571309, 33.056873 ], [ -81.572829, 33.058636 ], [ -81.577044, 33.05725 ], [ -81.578332, 33.058936 ], [ -81.574505, 33.060049 ], [ -81.574911, 33.061799 ], [ -81.580252, 33.061762 ], [ -81.580994, 33.062697 ], [ -81.57716, 33.064335 ], [ -81.577187, 33.065939 ], [ -81.57875, 33.066195 ], [ -81.583103, 33.06496 ], [ -81.583804, 33.067021 ], [ -81.582975, 33.068575 ], [ -81.584361, 33.069902 ], [ -81.58741, 33.069943 ], [ -81.590856, 33.072736 ], [ -81.592517, 33.073062 ], [ -81.592645, 33.06991 ], [ -81.593586, 33.069496 ], [ -81.596025, 33.072693 ], [ -81.600948, 33.072815 ], [ -81.603243, 33.074419 ], [ -81.603298, 33.07509 ], [ -81.598991, 33.076682 ], [ -81.596835, 33.078559 ], [ -81.596501, 33.079893 ], [ -81.60132, 33.087049 ], [ -81.602534, 33.086807 ], [ -81.603587, 33.084578 ], [ -81.606836, 33.081717 ], [ -81.610696, 33.079946 ], [ -81.612903, 33.081024 ], [ -81.612943, 33.083981 ], [ -81.609533, 33.086877 ], [ -81.608286, 33.089022 ], [ -81.609965, 33.09301 ], [ -81.611657, 33.094259 ], [ -81.614057267517097, 33.095188321436098 ], [ -81.614994, 33.095551 ], [ -81.632232, 33.093952 ], [ -81.637232, 33.092952 ], [ -81.642333, 33.093152 ], [ -81.646433, 33.094552 ], [ -81.658433, 33.103152 ], [ -81.671833, 33.107751 ], [ -81.677033, 33.11065 ], [ -81.696934, 33.116551 ], [ -81.704634, 33.11645 ], [ -81.711134, 33.121651 ], [ -81.716034, 33.123651 ], [ -81.721108427473297, 33.126143701215 ], [ -81.721734, 33.126451 ], [ -81.724334, 33.129451 ], [ -81.729534, 33.13375 ], [ -81.736635, 33.13765 ], [ -81.744535, 33.14215 ], [ -81.746335, 33.14605 ], [ -81.750035, 33.14735 ], [ -81.754135, 33.15055 ], [ -81.763135, 33.159449 ], [ -81.764435, 33.165549 ], [ -81.767635, 33.167249 ], [ -81.768135, 33.168249 ], [ -81.766735, 33.171449 ], [ -81.772435, 33.180949 ], [ -81.771735, 33.181548 ], [ -81.768635, 33.178449 ], [ -81.766135, 33.177849 ], [ -81.764935, 33.179549 ], [ -81.766935, 33.182049 ], [ -81.767735, 33.184648 ], [ -81.765935, 33.187848 ], [ -81.762835, 33.188248 ], [ -81.760635, 33.189248 ], [ -81.759535, 33.194747 ], [ -81.756935, 33.197848 ], [ -81.757083322147693, 33.198121825503399 ], [ -81.758235, 33.200248 ], [ -81.761635, 33.201748 ], [ -81.763535, 33.203648 ], [ -81.765302, 33.209502 ], [ -81.767235, 33.212747 ], [ -81.767935, 33.216347 ], [ -81.774035, 33.221147 ], [ -81.777735, 33.221846 ], [ -81.780135, 33.221147 ], [ -81.781035, 33.219847 ], [ -81.777635, 33.215347 ], [ -81.777535, 33.211347 ], [ -81.778935, 33.209847 ], [ -81.784535, 33.208147 ], [ -81.790236, 33.208447 ], [ -81.798236, 33.211647 ], [ -81.803936, 33.211347 ], [ -81.80649, 33.212126 ], [ -81.807936, 33.213746 ], [ -81.808136, 33.219447 ], [ -81.809236, 33.222147 ], [ -81.811736, 33.223847 ], [ -81.819636, 33.226646 ], [ -81.827936, 33.228746 ], [ -81.831565101387397, 33.233330128068303 ], [ -81.831736, 33.233546 ], [ -81.837936, 33.238346 ], [ -81.846536, 33.241746 ], [ -81.848637, 33.245046 ], [ -81.8517222609795, 33.247699324442401 ], [ -81.852937, 33.248744 ], [ -81.852565, 33.25141 ], [ -81.849826, 33.252921 ], [ -81.845136, 33.252545 ], [ -81.840036, 33.254645 ], [ -81.839836, 33.256145 ], [ -81.841536, 33.257245 ], [ -81.844736, 33.257445 ], [ -81.846336, 33.258445 ], [ -81.848136, 33.264545 ], [ -81.84691, 33.266599 ], [ -81.843862, 33.266621 ], [ -81.842669, 33.264522 ], [ -81.840799, 33.263277 ], [ -81.838454, 33.262852 ], [ -81.837436, 33.261845 ], [ -81.836436, 33.259445 ], [ -81.834408, 33.258378 ], [ -81.831077, 33.260803 ], [ -81.828836, 33.262045 ], [ -81.828336, 33.263045 ], [ -81.828887, 33.264079 ], [ -81.83054, 33.264381 ], [ -81.833352, 33.262286 ], [ -81.835336, 33.262345 ], [ -81.836036, 33.263545 ], [ -81.835236, 33.266545 ], [ -81.835536, 33.271445 ], [ -81.832665, 33.27429 ], [ -81.83252, 33.275556 ], [ -81.833501, 33.276072 ], [ -81.836336, 33.274445 ], [ -81.839145, 33.273899 ], [ -81.844136, 33.278844 ], [ -81.844536, 33.282944 ], [ -81.846191, 33.284325 ], [ -81.848236, 33.283844 ], [ -81.851583, 33.283544 ], [ -81.860736, 33.285844 ], [ -81.863336, 33.289244 ], [ -81.861636, 33.293744 ], [ -81.862036, 33.296944 ], [ -81.860036, 33.299144 ], [ -81.852536, 33.299344 ], [ -81.850336, 33.296444 ], [ -81.848736, 33.296744 ], [ -81.849636, 33.299544 ], [ -81.846036, 33.304343 ], [ -81.847636, 33.307143 ], [ -81.851733, 33.308745 ], [ -81.853652, 33.310326 ], [ -81.856064, 33.309852 ], [ -81.8576, 33.307114 ], [ -81.860536, 33.304943 ], [ -81.86206, 33.302482 ], [ -81.863929, 33.302036 ], [ -81.864636, 33.303343 ], [ -81.864036, 33.307843 ], [ -81.864936, 33.311843 ], [ -81.866304972447296, 33.313468654781197 ], [ -81.866536, 33.313743 ], [ -81.869247, 33.313768 ], [ -81.875836, 33.307443 ], [ -81.879437, 33.302343 ], [ -81.881237, 33.302543 ], [ -81.881937, 33.305443 ], [ -81.884637, 33.309243 ], [ -81.881536, 33.314043 ], [ -81.882536, 33.317043 ], [ -81.885237, 33.317443 ], [ -81.890537, 33.314843 ], [ -81.892537, 33.315343 ], [ -81.892737, 33.316743 ], [ -81.890037, 33.318943 ], [ -81.889161, 33.321092 ], [ -81.891023, 33.322491 ], [ -81.895537, 33.321642 ], [ -81.898588, 33.322905 ], [ -81.899271, 33.325417 ], [ -81.896937, 33.327642 ], [ -81.896937, 33.330542 ], [ -81.899568, 33.332817 ], [ -81.900635, 33.33503 ], [ -81.901954, 33.335876 ], [ -81.903637, 33.334842 ], [ -81.902613, 33.330258 ], [ -81.904132, 33.327286 ], [ -81.906037, 33.326042 ], [ -81.90613, 33.32162 ], [ -81.909092, 33.319983 ], [ -81.912137, 33.319142 ], [ -81.913737, 33.320042 ], [ -81.912937, 33.321742 ], [ -81.909137, 33.323942 ], [ -81.908137, 33.327142 ], [ -81.912737, 33.329842 ], [ -81.918837, 33.333442 ], [ -81.918898482159193, 33.3344564556267 ], [ -81.918929, 33.33496 ], [ -81.916337, 33.338642 ], [ -81.915512, 33.340778 ], [ -81.914243, 33.341839 ], [ -81.910137, 33.342342 ], [ -81.908437, 33.343842 ], [ -81.90893, 33.346268 ], [ -81.910174, 33.347011 ], [ -81.913025, 33.346886 ], [ -81.914937, 33.343742 ], [ -81.919278, 33.340338 ], [ -81.92346, 33.344898 ], [ -81.926817, 33.345284 ], [ -81.932737, 33.343541 ], [ -81.937237, 33.343641 ], [ -81.939737, 33.344941 ], [ -81.939837, 33.347741 ], [ -81.938165522377801, 33.349743114190602 ], [ -81.934812, 33.35376 ], [ -81.935313, 33.356789 ], [ -81.944737, 33.364041 ], [ -81.946737, 33.36734 ], [ -81.946337, 33.37064 ], [ -81.943737, 33.37234 ], [ -81.939637, 33.37254 ], [ -81.934637, 33.36894 ], [ -81.930634, 33.368165 ], [ -81.925737, 33.37114 ], [ -81.924837, 33.37414 ], [ -81.926249796480406, 33.375532158019197 ], [ -81.930861, 33.380076 ], [ -81.935085, 33.397243 ], [ -81.938108, 33.39993 ], [ -81.944476, 33.403674 ], [ -81.945629, 33.405835 ], [ -81.944893, 33.407962 ], [ -81.943149, 33.409034 ], [ -81.940782, 33.408742 ], [ -81.934766, 33.406796 ], [ -81.93139, 33.406956 ], [ -81.929454, 33.407756 ], [ -81.924766, 33.412418 ], [ -81.923859, 33.41046 ], [ -81.921276, 33.408597 ], [ -81.91775, 33.4072 ], [ -81.912367, 33.40809 ], [ -81.910496, 33.410312 ], [ -81.909629, 33.412603 ], [ -81.910765, 33.415035 ], [ -81.921068, 33.417419 ], [ -81.924893, 33.419307 ], [ -81.931742, 33.424506 ], [ -81.932308, 33.426587 ], [ -81.930798, 33.429034 ], [ -81.928326, 33.42991 ], [ -81.920716, 33.430986 ], [ -81.916972, 33.432592 ], [ -81.914282, 33.435296 ], [ -81.9142071194007, 33.435492723511999 ], [ -81.913126, 33.438333 ], [ -81.913306854841494, 33.4396430839627 ], [ -81.913532, 33.441274 ], [ -81.914812, 33.443498 ], [ -81.919436, 33.449098 ], [ -81.924807921249993, 33.459872205533202 ], [ -81.925949091709597, 33.462160996546302 ], [ -81.926336, 33.462937 ], [ -81.929436, 33.465837 ], [ -81.934136, 33.468337 ], [ -81.941737, 33.470037 ], [ -81.946437, 33.471737 ], [ -81.955403456268499, 33.475610422054999 ], [ -81.955409520531703, 33.475613041757804 ], [ -81.967037, 33.480636 ], [ -81.973537, 33.482636 ], [ -81.973640903761705, 33.4826564880657 ], [ -81.980637, 33.484036 ], [ -81.981726335997095, 33.484549740802301 ], [ -81.985938, 33.486536 ], [ -81.989338, 33.490036 ], [ -81.990938, 33.494235 ], [ -81.990609084896604, 33.498094428298899 ], [ -81.990382, 33.500759 ], [ -81.991938, 33.504435 ], [ -81.9952654624459, 33.509992570255299 ], [ -82.001338, 33.520135 ], [ -82.003734217283906, 33.521572730370401 ], [ -82.004338, 33.521935 ], [ -82.007138, 33.522835 ], [ -82.007638, 33.523335 ], [ -82.010038, 33.530435 ], [ -82.011538, 33.531735 ], [ -82.012473586237107, 33.532106980070203 ], [ -82.019838, 33.535035 ], [ -82.023438, 33.537935 ], [ -82.023438, 33.540734 ], [ -82.028238, 33.544934 ], [ -82.033023, 33.546454 ], [ -82.034895, 33.549158 ], [ -82.036494916957693, 33.552708783441702 ], [ -82.037375, 33.554662 ], [ -82.046335, 33.56383 ], [ -82.048356903518695, 33.564631364199499 ], [ -82.048959, 33.56487 ], [ -82.054943, 33.565382 ], [ -82.057727, 33.566774 ], [ -82.069039, 33.575382 ], [ -82.073104, 33.57751 ], [ -82.076068588214596, 33.578149744286598 ], [ -82.087488, 33.580614 ], [ -82.093072266694406, 33.582403656555101 ], [ -82.094128, 33.582742 ], [ -82.096352, 33.58407 ], [ -82.098816, 33.586358 ], [ -82.10624, 33.595637 ], [ -82.109376, 33.596581 ], [ -82.115329042763804, 33.596595806262101 ], [ -82.115809, 33.596597 ], [ -82.120385, 33.594885 ], [ -82.123221007378206, 33.592740007378197 ], [ -82.125864, 33.590741 ], [ -82.12908, 33.589925 ], [ -82.133523, 33.590535 ], [ -82.134934532663095, 33.591100126404697 ], [ -82.142872, 33.594278 ], [ -82.145050782892895, 33.595676027919502 ], [ -82.148816, 33.598092 ], [ -82.15106, 33.600956 ], [ -82.153357, 33.606319 ], [ -82.156288, 33.60863 ], [ -82.158331, 33.60971 ], [ -82.164177555754307, 33.6110421141831 ], [ -82.176172, 33.613775 ], [ -82.179854, 33.615945 ], [ -82.189141, 33.623722 ], [ -82.196583, 33.630582 ], [ -82.201186, 33.646898 ], [ -82.199747, 33.657611 ], [ -82.199836448962301, 33.661320448468203 ], [ -82.199847, 33.661758 ], [ -82.209803, 33.669276 ], [ -82.210826, 33.670604 ], [ -82.213165, 33.677211 ], [ -82.217124, 33.684344 ], [ -82.218649, 33.686299 ], [ -82.2249766254359, 33.690917671871098 ], [ -82.225684, 33.691434 ], [ -82.234576, 33.700216 ], [ -82.2354, 33.70438 ], [ -82.237192, 33.70788 ], [ -82.235753, 33.71439 ], [ -82.237311, 33.721893 ], [ -82.238758, 33.725206 ], [ -82.239497, 33.72933 ], [ -82.239098, 33.730872 ], [ -82.241265659939799, 33.735705055591701 ], [ -82.243244, 33.740116 ], [ -82.245408, 33.742926 ], [ -82.247472, 33.752591 ], [ -82.255595, 33.759876 ], [ -82.260041, 33.760431 ], [ -82.264044, 33.762843 ], [ -82.265019, 33.765742 ], [ -82.267719, 33.767651 ], [ -82.270445, 33.767913 ], [ -82.277681, 33.772032 ], [ -82.278206278416405, 33.772585403689099 ], [ -82.284087, 33.778781 ], [ -82.288652, 33.781635 ], [ -82.292468, 33.782406 ], [ -82.294984, 33.781868 ], [ -82.297479, 33.782974 ], [ -82.299009, 33.784475 ], [ -82.299601, 33.786483 ], [ -82.298864, 33.793166 ], [ -82.29928, 33.798939 ], [ -82.300213, 33.800627 ], [ -82.303454, 33.803263 ], [ -82.312436, 33.807155 ], [ -82.31435, 33.811111 ], [ -82.316462076786095, 33.812698770607703 ], [ -82.321887, 33.816777 ], [ -82.32448, 33.820033 ], [ -82.337829, 33.827156 ], [ -82.346199, 33.833829 ], [ -82.351185, 33.836141 ], [ -82.356327205724099, 33.837943913731898 ], [ -82.358195559033206, 33.838598978896101 ], [ -82.36878, 33.84231 ], [ -82.373301, 33.84475 ], [ -82.379771, 33.851096 ], [ -82.384973, 33.854428 ], [ -82.390527, 33.857162 ], [ -82.390596349598596, 33.8571876465681 ], [ -82.395735, 33.859088 ], [ -82.402197, 33.864656 ], [ -82.405585, 33.866024 ], [ -82.408353, 33.86632 ], [ -82.420618, 33.86375 ], [ -82.424888, 33.864133 ], [ -82.429164, 33.865844 ], [ -82.433503, 33.869007 ], [ -82.438644, 33.873919 ], [ -82.440503, 33.875123 ], [ -82.448109, 33.877543 ], [ -82.455105, 33.88165 ], [ -82.459205725266401, 33.8861812727163 ], [ -82.459391, 33.886386 ], [ -82.469913, 33.892838 ], [ -82.480111, 33.901897 ], [ -82.492929, 33.909754 ], [ -82.496109, 33.913459 ], [ -82.503584, 33.926048 ], [ -82.50764, 33.931456 ], [ -82.51295, 33.936969 ], [ -82.524515, 33.94336 ], [ -82.526741, 33.943765 ], [ -82.534111, 33.943651 ], [ -82.53977, 33.941551 ], [ -82.543128, 33.940949 ], [ -82.554497, 33.943819 ], [ -82.556835, 33.945353 ], [ -82.564530737812603, 33.955740805641803 ], [ -82.564582, 33.95581 ], [ -82.5657, 33.958682 ], [ -82.566201, 33.964771 ], [ -82.569077, 33.969887 ], [ -82.574159, 33.97355 ], [ -82.576669, 33.9759 ], [ -82.578851, 33.978631 ], [ -82.580459, 33.982133 ], [ -82.580571, 33.98514 ], [ -82.579613, 33.98726 ], [ -82.575882, 33.989953 ], [ -82.575249, 33.991433 ], [ -82.576248, 33.993009 ], [ -82.583394, 33.995286 ], [ -82.586234, 33.997151 ], [ -82.588552, 33.999768 ], [ -82.592674, 34.010368 ], [ -82.594500553916802, 34.0139247009851 ], [ -82.595497, 34.015865 ], [ -82.595534, 34.020479 ], [ -82.593789, 34.026736 ], [ -82.594192, 34.028866 ] ] ], [ [ [ -80.177151, 32.548264 ], [ -80.178731, 32.547183 ], [ -80.182049, 32.547222 ], [ -80.185915, 32.550867 ], [ -80.186317, 32.55302 ], [ -80.184492, 32.55358 ], [ -80.177956, 32.549683 ], [ -80.177151, 32.548264 ] ] ], [ [ [ -79.551348, 32.991881 ], [ -79.548734, 32.992978 ], [ -79.546476, 32.99238 ], [ -79.545219, 32.990715 ], [ -79.54707, 32.98939 ], [ -79.549566, 32.98939 ], [ -79.550873, 32.989489 ], [ -79.55218, 32.988791 ], [ -79.553606, 32.990386 ], [ -79.551348, 32.991881 ] ] ], [ [ [ -79.501361, 33.017554 ], [ -79.501976, 33.017272 ], [ -79.503106, 33.017563 ], [ -79.503475, 33.018097 ], [ -79.504135, 33.018735 ], [ -79.50513, 33.019195 ], [ -79.506416, 33.01942 ], [ -79.5074, 33.019373 ], [ -79.508071, 33.019588 ], [ -79.507948, 33.020076 ], [ -79.507132, 33.019739 ], [ -79.506327, 33.020104 ], [ -79.505488, 33.020536 ], [ -79.504627, 33.02017 ], [ -79.503296, 33.020254 ], [ -79.502368, 33.020582 ], [ -79.501507, 33.01971 ], [ -79.50097, 33.018866 ], [ -79.50097, 33.018191 ], [ -79.501361, 33.017554 ] ] ] ] } }
]
}
