{
"type": "FeatureCollection",
"name": "state-41-outline",
"crs": { "type": "name", "properties": { "name": "urn:ogc:def:crs:OGC:1.3:CRS84" } },
"features": [
{ "type": "Feature", "properties": { "state_fips": "41", "state_abbr": "OR", "state_name": "Oregon" }, "geometry": { "type": "MultiPolygon", "coordinates": [ [ [ [ -124.270464, 42.045553 ], [ -124.270791201674996, 42.0455717127357 ], [ -124.277703, 42.045967 ], [ -124.279883, 42.044316 ], [ -124.281677, 42.04427 ], [ -124.282347205885003, 42.045054342712397 ], [ -124.28264, 42.045397 ], [ -124.286679, 42.045346 ], [ -124.288729760161004, 42.044735239838701 ], [ -124.291269, 42.043979 ], [ -124.290870418471997, 42.044650646595002 ], [ -124.289783836142007, 42.046481637925403 ], [ -124.289478, 42.046997 ], [ -124.291670598907999, 42.048018383899198 ], [ -124.292595, 42.048449 ], [ -124.295473, 42.04764 ], [ -124.294998, 42.048876 ], [ -124.296801, 42.051343 ], [ -124.299649, 42.051736 ], [ -124.30084, 42.055806 ], [ -124.303991, 42.060886 ], [ -124.308571, 42.064801 ], [ -124.313319, 42.065277 ], [ -124.313628940035997, 42.065583900380403 ], [ -124.316250114132998, 42.068179368001701 ], [ -124.316276, 42.068205 ], [ -124.316823741191001, 42.068852416797498 ], [ -124.319738, 42.072297 ], [ -124.319924107201004, 42.073071283500298 ], [ -124.320203, 42.07423159375 ], [ -124.320698, 42.076291 ], [ -124.323806521608006, 42.080378397876501 ], [ -124.324785, 42.081665 ], [ -124.325767444958004, 42.0825671223039 ], [ -124.328858, 42.085405 ], [ -124.329066329506006, 42.085440242036299 ], [ -124.332127, 42.085958 ], [ -124.335162, 42.087445 ], [ -124.34101, 42.092929 ], [ -124.342669, 42.094295 ], [ -124.342058, 42.097922 ], [ -124.344673, 42.100039 ], [ -124.348476, 42.100215 ], [ -124.351083, 42.100213 ], [ -124.354027, 42.103539 ], [ -124.352136, 42.104692 ], [ -124.350766, 42.108014 ], [ -124.351193, 42.110662 ], [ -124.352704, 42.113293 ], [ -124.355319, 42.113635 ], [ -124.356229, 42.114952 ], [ -124.357122, 42.118016 ], [ -124.356177, 42.119711 ], [ -124.353486, 42.121595 ], [ -124.354239, 42.124095 ], [ -124.351535, 42.129796 ], [ -124.351784, 42.134965 ], [ -124.356493, 42.139691 ], [ -124.356243, 42.142132 ], [ -124.358499, 42.143848 ], [ -124.361563, 42.143767 ], [ -124.366028, 42.152343 ], [ -124.366832, 42.15845 ], [ -124.363389, 42.158588 ], [ -124.360318, 42.162272 ], [ -124.361972, 42.166086 ], [ -124.364606, 42.169219 ], [ -124.361748, 42.171991 ], [ -124.362442, 42.176704 ], [ -124.361009, 42.180752 ], [ -124.363555, 42.182839 ], [ -124.366106, 42.183612 ], [ -124.368606, 42.18862 ], [ -124.370319, 42.191349 ], [ -124.373264, 42.195752 ], [ -124.376215, 42.196381 ], [ -124.375337, 42.201109 ], [ -124.375697, 42.206111 ], [ -124.377867, 42.208971 ], [ -124.378158, 42.21119 ], [ -124.37662, 42.213643 ], [ -124.377762, 42.218809 ], [ -124.382256, 42.223888 ], [ -124.383633, 42.22716 ], [ -124.386301, 42.228076 ], [ -124.388426, 42.229427 ], [ -124.389162, 42.232105 ], [ -124.392505, 42.233345 ], [ -124.392458, 42.23515 ], [ -124.397747, 42.239938 ], [ -124.400795, 42.240081 ], [ -124.401549, 42.242802 ], [ -124.404214, 42.245129 ], [ -124.410982, 42.250547 ], [ -124.414149, 42.252164 ], [ -124.411534, 42.254115 ], [ -124.411461, 42.257678 ], [ -124.408514, 42.260588 ], [ -124.408226331137001, 42.279604932234101 ], [ -124.408215, 42.280354 ], [ -124.41051, 42.298652 ], [ -124.412919, 42.301818 ], [ -124.41131, 42.305175 ], [ -124.411815, 42.307393 ], [ -124.41978, 42.315527 ], [ -124.418591, 42.316757 ], [ -124.420557, 42.320412 ], [ -124.425264, 42.322026 ], [ -124.426435, 42.319569 ], [ -124.427782, 42.318857 ], [ -124.431686, 42.321101 ], [ -124.433063, 42.323976 ], [ -124.431438, 42.329094 ], [ -124.431495, 42.33072 ], [ -124.429288, 42.331746 ], [ -124.427222, 42.33488 ], [ -124.428752, 42.338918 ], [ -124.426885, 42.341532 ], [ -124.426354, 42.352029 ], [ -124.424759, 42.376993 ], [ -124.424765038491003, 42.377073351719702 ], [ -124.426155, 42.395569 ], [ -124.426131310331996, 42.396067494172399 ], [ -124.426017646233007, 42.398459291768802 ], [ -124.425647484430996, 42.406248489205097 ], [ -124.425499, 42.409373 ], [ -124.428734, 42.417776 ], [ -124.429839572450007, 42.420642196577496 ], [ -124.431134, 42.423998 ], [ -124.431273499675996, 42.424384482709499 ], [ -124.435892, 42.43718 ], [ -124.43512, 42.441926 ], [ -124.433983499305995, 42.443810056608001 ], [ -124.431748, 42.447516 ], [ -124.423836, 42.45735 ], [ -124.422038, 42.461226 ], [ -124.42492, 42.462132 ], [ -124.425631, 42.46346 ], [ -124.422012, 42.465439 ], [ -124.421981, 42.470417 ], [ -124.422394, 42.475608 ], [ -124.425816, 42.476345 ], [ -124.425039, 42.478611 ], [ -124.423084, 42.478952 ], [ -124.421356, 42.485061 ], [ -124.419964, 42.48998 ], [ -124.421381, 42.491737 ], [ -124.422195, 42.496427 ], [ -124.420076, 42.499678 ], [ -124.411362, 42.513378 ], [ -124.410982713025007, 42.514196954674802 ], [ -124.406126984568999, 42.524681420989303 ], [ -124.405834027083998, 42.525313973430102 ], [ -124.399829, 42.53828 ], [ -124.399133, 42.543366 ], [ -124.397684, 42.546728 ], [ -124.392657, 42.561716 ], [ -124.391571, 42.568218 ], [ -124.389977, 42.574758 ], [ -124.392305, 42.576755 ], [ -124.394426, 42.577054 ], [ -124.394815, 42.578512 ], [ -124.393663, 42.582061 ], [ -124.395052, 42.584732 ], [ -124.398319, 42.589587 ], [ -124.400031, 42.591926 ], [ -124.401954, 42.592077 ], [ -124.404933, 42.591139 ], [ -124.408289, 42.594815 ], [ -124.403855, 42.594702 ], [ -124.401716, 42.597676 ], [ -124.40433, 42.601175 ], [ -124.40112, 42.601872 ], [ -124.401498, 42.610005 ], [ -124.399421, 42.618079 ], [ -124.401385, 42.620088 ], [ -124.401177, 42.627192 ], [ -124.405547, 42.628966 ], [ -124.404841, 42.631415 ], [ -124.406282, 42.636517 ], [ -124.407266509123005, 42.6370463026186 ], [ -124.409431, 42.63821 ], [ -124.411308, 42.640715 ], [ -124.413764, 42.645795 ], [ -124.409836, 42.649485 ], [ -124.413119, 42.657934 ], [ -124.416774, 42.661594 ], [ -124.422747, 42.663285 ], [ -124.429195, 42.666605 ], [ -124.434688, 42.669958 ], [ -124.438875, 42.670837 ], [ -124.45074, 42.675798 ], [ -124.451484, 42.677787 ], [ -124.447873851780997, 42.684067050179301 ], [ -124.447487, 42.68474 ], [ -124.449417, 42.689819 ], [ -124.452248, 42.691953 ], [ -124.455263, 42.694369 ], [ -124.454984, 42.697079 ], [ -124.459643, 42.702166 ], [ -124.459797, 42.707486 ], [ -124.461619, 42.711488 ], [ -124.462569, 42.714106 ], [ -124.46445, 42.717283 ], [ -124.467766, 42.719533 ], [ -124.467559, 42.723821 ], [ -124.473864, 42.732671 ], [ -124.478516461252994, 42.735123442801701 ], [ -124.482158, 42.737043 ], [ -124.491225646383995, 42.741563013626497 ], [ -124.491679, 42.741789 ], [ -124.498473, 42.741077 ], [ -124.499122, 42.738606 ], [ -124.503681, 42.739758 ], [ -124.503784994073996, 42.739536770163099 ], [ -124.505236, 42.73645 ], [ -124.508394, 42.735337 ], [ -124.511286, 42.733124 ], [ -124.513663, 42.732949 ], [ -124.514669, 42.736806 ], [ -124.514311, 42.744038 ], [ -124.513602, 42.745827 ], [ -124.516177, 42.755653 ], [ -124.52046, 42.770865 ], [ -124.524439, 42.789793 ], [ -124.532333828513998, 42.806338617055701 ], [ -124.536073, 42.814175 ], [ -124.544179, 42.822958 ], [ -124.552845, 42.830144 ], [ -124.559298, 42.834298 ], [ -124.564487, 42.834164 ], [ -124.566244, 42.836392 ], [ -124.564595, 42.840876 ], [ -124.560403, 42.838038 ], [ -124.556645, 42.838429 ], [ -124.552441, 42.840568 ], [ -124.549492, 42.843616 ], [ -124.548023, 42.847981 ], [ -124.544561, 42.851377 ], [ -124.545058, 42.854086 ], [ -124.54051, 42.856855 ], [ -124.53648, 42.862354 ], [ -124.534433, 42.869664 ], [ -124.536195, 42.87227 ], [ -124.534589, 42.875403 ], [ -124.530438, 42.876082 ], [ -124.528298, 42.879534 ], [ -124.525653, 42.879986 ], [ -124.500141, 42.917502 ], [ -124.480938, 42.951495 ], [ -124.479636362958004, 42.954332538908901 ], [ -124.462619, 42.99143 ], [ -124.455669, 43.008349 ], [ -124.448625230641994, 43.027139059740698 ], [ -124.446875, 43.031808 ], [ -124.436198, 43.071312 ], [ -124.434655, 43.081469 ], [ -124.436655, 43.085816 ], [ -124.434312105987999, 43.089574992112901 ], [ -124.434213, 43.089734 ], [ -124.433542433297006, 43.092328418164598 ], [ -124.432236, 43.097383 ], [ -124.435157, 43.104678 ], [ -124.433357, 43.108563 ], [ -124.433641, 43.111397 ], [ -124.434527236125007, 43.111948449848001 ], [ -124.43785, 43.114016 ], [ -124.437373631067999, 43.114292094968 ], [ -124.434451, 43.115986 ], [ -124.434419666916, 43.116018954596498 ], [ -124.429253343926007, 43.121452639049402 ], [ -124.427595577080993, 43.123196196692 ], [ -124.425024028606003, 43.125900824914503 ], [ -124.424113, 43.126859 ], [ -124.401726, 43.184896 ], [ -124.395302, 43.211101 ], [ -124.395338287504003, 43.211249726428299 ], [ -124.397382, 43.219626 ], [ -124.395607, 43.223908 ], [ -124.38246, 43.270167 ], [ -124.384117648065995, 43.272794479823503 ], [ -124.38708, 43.27749 ], [ -124.388891, 43.290523 ], [ -124.393988, 43.29926 ], [ -124.395536, 43.30224 ], [ -124.400404, 43.302121 ], [ -124.402814, 43.305872 ], [ -124.394143, 43.315651 ], [ -124.38972, 43.323216 ], [ -124.387642, 43.325968 ], [ -124.385296, 43.32773 ], [ -124.384603, 43.332848 ], [ -124.376997, 43.334231 ], [ -124.373037, 43.338953 ], [ -124.353332, 43.342667 ], [ -124.343247, 43.351517 ], [ -124.330671, 43.366559 ], [ -124.315012, 43.388389 ], [ -124.286896, 43.436296 ], [ -124.279473391427999, 43.451924592139598 ], [ -124.278222927300007, 43.454557493182001 ], [ -124.255609, 43.502172 ], [ -124.232025, 43.562393 ], [ -124.231975100173997, 43.562578477893901 ], [ -124.218966377222998, 43.610931963373602 ], [ -124.214477, 43.627619 ], [ -124.210531, 43.653347 ], [ -124.210203396978997, 43.654716351470803 ], [ -124.208958, 43.659922 ], [ -124.206343, 43.666628 ], [ -124.206343, 43.669110360332297 ], [ -124.206343, 43.674021 ], [ -124.200217, 43.689555 ], [ -124.193623, 43.706137 ], [ -124.193984, 43.706674 ], [ -124.177685, 43.767228 ], [ -124.16856, 43.808955 ], [ -124.164503939476006, 43.831547920085399 ], [ -124.158728145934006, 43.863720034169297 ], [ -124.150267, 43.91085 ], [ -124.144075, 43.958437 ], [ -124.138326, 43.995325 ], [ -124.137178, 44.013606 ], [ -124.137081915707, 44.017417343639799 ], [ -124.136941, 44.023007 ], [ -124.134251, 44.042125 ], [ -124.133271736675994, 44.048533892715596 ], [ -124.130608, 44.065967 ], [ -124.125752, 44.092848 ], [ -124.125748897346995, 44.092870673635097 ], [ -124.123975, 44.105834 ], [ -124.125438, 44.11123 ], [ -124.124083, 44.114417 ], [ -124.123643, 44.117217 ], [ -124.127073, 44.119776 ], [ -124.127758, 44.122027 ], [ -124.125824, 44.12613 ], [ -124.123876, 44.1341 ], [ -124.125868, 44.136034 ], [ -124.128882, 44.137549 ], [ -124.12741, 44.139211 ], [ -124.125272, 44.141892 ], [ -124.122668, 44.142519 ], [ -124.117006, 44.171913 ], [ -124.116717, 44.185962 ], [ -124.115864601151003, 44.190497966312101 ], [ -124.114424, 44.198164 ], [ -124.115671, 44.206554 ], [ -124.114719, 44.2167 ], [ -124.113212, 44.221742 ], [ -124.111054, 44.235071 ], [ -124.112945, 44.24275 ], [ -124.115309, 44.245977 ], [ -124.114293, 44.249408 ], [ -124.111681, 44.255421 ], [ -124.111766, 44.260489 ], [ -124.108945, 44.265475 ], [ -124.109744, 44.270597 ], [ -124.114869, 44.272721 ], [ -124.115953, 44.274641 ], [ -124.114690718598993, 44.276194 ], [ -124.114043752425999, 44.276989970269099 ], [ -124.113261, 44.277953 ], [ -124.113139093471005, 44.2783783845383 ], [ -124.111747, 44.283236 ], [ -124.1152, 44.286486 ], [ -124.110793224147997, 44.298865948930398 ], [ -124.10907, 44.303707 ], [ -124.109042455264003, 44.303881440645299 ], [ -124.108102657968999, 44.309833171172201 ], [ -124.108088, 44.309926 ], [ -124.109556, 44.314545 ], [ -124.109059, 44.318391 ], [ -124.106518, 44.321848 ], [ -124.104537939303995, 44.325212534090497 ], [ -124.100587, 44.331926 ], [ -124.098696003702997, 44.341118039328599 ], [ -124.092633, 44.37059 ], [ -124.09257772478, 44.370921929568901 ], [ -124.092463110465999, 44.371610192405001 ], [ -124.086872, 44.405185 ], [ -124.084686, 44.420221 ], [ -124.084403674724996, 44.423136738616002 ], [ -124.0837, 44.430404 ], [ -124.083714, 44.440011 ], [ -124.083554722423003, 44.454969293433898 ], [ -124.083475419185007, 44.462416927521602 ], [ -124.08331, 44.477952 ], [ -124.084429, 44.486927 ], [ -124.083601, 44.501123 ], [ -124.077996, 44.521985 ], [ -124.077599366607998, 44.524260033920498 ], [ -124.076387, 44.531214 ], [ -124.075399, 44.531606 ], [ -124.071469543556006, 44.559638930730401 ], [ -124.070986189154993, 44.563087204214597 ], [ -124.070659499243007, 44.565417825711798 ], [ -124.069662181446006, 44.5725327387105 ], [ -124.067223499261004, 44.589930414374997 ], [ -124.06635, 44.596162 ], [ -124.066510728241994, 44.598280901290003 ], [ -124.066565382567006, 44.599001416354 ], [ -124.067251, 44.60804 ], [ -124.06914, 44.612979 ], [ -124.068732391745996, 44.615277011887002 ], [ -124.068382456744004, 44.617249873789497 ], [ -124.068251, 44.617991 ], [ -124.066393894948007, 44.622122350481703 ], [ -124.06635, 44.62222 ], [ -124.067045, 44.627851 ], [ -124.065008, 44.632504 ], [ -124.063293560589003, 44.639222604393098 ], [ -124.062121498473005, 44.643815721904502 ], [ -124.058312330842995, 44.658743219609001 ], [ -124.058281, 44.658866 ], [ -124.060043, 44.669361 ], [ -124.063498, 44.672442 ], [ -124.066467, 44.673061 ], [ -124.07409, 44.673183 ], [ -124.078026, 44.67565 ], [ -124.079249, 44.6772 ], [ -124.072012, 44.677917 ], [ -124.068445, 44.683094 ], [ -124.065315427968002, 44.695566950013102 ], [ -124.063406, 44.703177 ], [ -124.059857, 44.716027 ], [ -124.057901, 44.735163 ], [ -124.058181453277996, 44.737748181392298 ], [ -124.058539, 44.741044 ], [ -124.06017, 44.745076 ], [ -124.064816, 44.746081 ], [ -124.064279, 44.748465 ], [ -124.06429, 44.753678 ], [ -124.068112, 44.760618 ], [ -124.066325, 44.762671 ], [ -124.069158, 44.767806 ], [ -124.075473, 44.771403 ], [ -124.074586244664005, 44.778483350405999 ], [ -124.073235024702001, 44.789272246079399 ], [ -124.073012, 44.791053 ], [ -124.073077, 44.794318 ], [ -124.074049344184999, 44.798043189199703 ], [ -124.074066, 44.798107 ], [ -124.067760724007996, 44.8043190617745 ], [ -124.067437, 44.804638 ], [ -124.063735, 44.80531 ], [ -124.063592299853994, 44.809472990754301 ], [ -124.063589011660994, 44.809568917201403 ], [ -124.063498, 44.812224 ], [ -124.063770144252999, 44.812338505392702 ], [ -124.067883, 44.814069 ], [ -124.067772, 44.817815 ], [ -124.067730713109, 44.819150786732898 ], [ -124.067712670147003, 44.819734544630499 ], [ -124.06756, 44.824674 ], [ -124.067345158107003, 44.8260228314602 ], [ -124.066622, 44.830563 ], [ -124.061048, 44.834438 ], [ -124.059095250869007, 44.835512479186697 ], [ -124.054151, 44.838233 ], [ -124.053756784081003, 44.839102683012001 ], [ -124.048814, 44.850007 ], [ -124.045903377285995, 44.858958777158499 ], [ -124.037694989724997, 44.884204115873402 ], [ -124.032296, 44.900809 ], [ -124.025447618374002, 44.926983973684102 ], [ -124.025427720547995, 44.927060024510197 ], [ -124.025136, 44.928175 ], [ -124.025416882060995, 44.932511052033099 ], [ -124.025678, 44.936542 ], [ -124.024993086351003, 44.941475681125198 ], [ -124.024981927707003, 44.941556060881602 ], [ -124.024189142756001, 44.947266778080298 ], [ -124.023943285941002, 44.9490377737797 ], [ -124.023834, 44.949825 ], [ -124.020503699520006, 44.962648071771703 ], [ -124.017168554747997, 44.975489796122403 ], [ -124.017091597529003, 44.975786114113198 ], [ -124.016595443995001, 44.977696516016003 ], [ -124.016305243106004, 44.9788139127335 ], [ -124.015243, 44.982904 ], [ -124.014452951512993, 44.987309849223699 ], [ -124.013141309957007, 44.994624457154103 ], [ -124.012547595483994, 44.997935414005298 ], [ -124.012053555072995, 45.000690520301603 ], [ -124.011979123524, 45.001105601385603 ], [ -124.010590019399999, 45.008852193429803 ], [ -124.009462791521003, 45.0151383849173 ], [ -124.009179, 45.016721 ], [ -124.010183, 45.023823 ], [ -124.012184, 45.026111 ], [ -124.011662, 45.033485 ], [ -124.00627, 45.038214 ], [ -124.005504, 45.042931 ], [ -124.008880714496996, 45.044998704837703 ], [ -124.009069, 45.045114 ], [ -124.00977, 45.047266 ], [ -124.015011, 45.047969 ], [ -124.017991, 45.049808 ], [ -124.015851, 45.064759 ], [ -124.012163, 45.076921 ], [ -124.006057, 45.084736 ], [ -124.004863, 45.084232 ], [ -123.996836, 45.090167 ], [ -123.989529, 45.094045 ], [ -123.987671142877005, 45.100819776635603 ], [ -123.977349435630003, 45.138458441228799 ], [ -123.976188590438994, 45.142691526100499 ], [ -123.975425, 45.145476 ], [ -123.972855462376003, 45.159582575209001 ], [ -123.970461, 45.172728 ], [ -123.968660474860997, 45.195285238647699 ], [ -123.968232789040997, 45.200643348288203 ], [ -123.968187, 45.201217 ], [ -123.968560618401995, 45.202501517621201 ], [ -123.972529, 45.216145 ], [ -123.976507, 45.21933 ], [ -123.971328, 45.226849 ], [ -123.970173135164003, 45.234152062586901 ], [ -123.964276, 45.271444 ], [ -123.958061, 45.278013 ], [ -123.962607, 45.281073 ], [ -123.963217724762998, 45.2951302262423 ], [ -123.964127353105994, 45.316067401539499 ], [ -123.964169, 45.317026 ], [ -123.964380552094994, 45.317507359773202 ], [ -123.968982320543006, 45.327978096136597 ], [ -123.972899, 45.33689 ], [ -123.978671, 45.338854 ], [ -124.007756, 45.336813 ], [ -124.007494, 45.33974 ], [ -123.979715, 45.347724 ], [ -123.978955013993001, 45.348574217050498 ], [ -123.973398, 45.354791 ], [ -123.965728, 45.386242 ], [ -123.960557, 45.430778 ], [ -123.961131916314997, 45.4356126650042 ], [ -123.962035, 45.443207 ], [ -123.962528536153002, 45.444636294254501 ], [ -123.964074, 45.449112 ], [ -123.974665, 45.467333 ], [ -123.974302867085001, 45.467866862010602 ], [ -123.971997014932001, 45.4712661853439 ], [ -123.971892, 45.471421 ], [ -123.970804752809002, 45.472485726535602 ], [ -123.970154, 45.473123 ], [ -123.970139671867003, 45.476818355794997 ], [ -123.970121, 45.481634 ], [ -123.973381, 45.482538 ], [ -123.974094922450007, 45.483122795842597 ], [ -123.976647761463994, 45.485213904816902 ], [ -123.97865, 45.486854 ], [ -123.978534795426995, 45.487011490012101 ], [ -123.976544, 45.489733 ], [ -123.970794, 45.493507 ], [ -123.96634, 45.493417 ], [ -123.962095, 45.497175 ], [ -123.957568, 45.510399 ], [ -123.94944, 45.545389 ], [ -123.949468, 45.564829 ], [ -123.951155, 45.565544 ], [ -123.951567332492004, 45.565971397915902 ], [ -123.953196280279997, 45.567659862694903 ], [ -123.956711, 45.571303 ], [ -123.952264, 45.586296 ], [ -123.949998649289, 45.598623375537599 ], [ -123.949787395219005, 45.599772958360198 ], [ -123.947632127364997, 45.6115012952122 ], [ -123.944234559771004, 45.629989863644902 ], [ -123.942805782961997, 45.637764848861401 ], [ -123.941981614176996, 45.642249734172601 ], [ -123.941433103909006, 45.645234566511199 ], [ -123.939964, 45.653229 ], [ -123.937358469372995, 45.656282658665901 ], [ -123.937272, 45.656384 ], [ -123.940394, 45.662926 ], [ -123.939653, 45.688975 ], [ -123.940874071402007, 45.703595975066101 ], [ -123.941568, 45.711905 ], [ -123.942219645650994, 45.718251936326801 ], [ -123.942937192789003, 45.725240743802402 ], [ -123.943121, 45.727031 ], [ -123.943567208808005, 45.7279857578689 ], [ -123.946027, 45.733249 ], [ -123.952045022158003, 45.737627056935999 ], [ -123.954899774688002, 45.7397038636989 ], [ -123.957689, 45.741733 ], [ -123.962908, 45.74362 ], [ -123.967425, 45.751041 ], [ -123.967841, 45.755753 ], [ -123.964335, 45.758296 ], [ -123.965567651762996, 45.759509550539498 ], [ -123.970272, 45.764141 ], [ -123.978679, 45.762156 ], [ -123.981732, 45.76251 ], [ -123.983029, 45.768044 ], [ -123.979597, 45.768968 ], [ -123.978804, 45.772913 ], [ -123.974456, 45.774836 ], [ -123.973555, 45.777508 ], [ -123.969302, 45.779837 ], [ -123.969078621365995, 45.783078947698797 ], [ -123.968018, 45.798472 ], [ -123.968984, 45.802941 ], [ -123.965982, 45.80642 ], [ -123.961544, 45.837101 ], [ -123.962232, 45.847203 ], [ -123.964606, 45.856809 ], [ -123.963968585884999, 45.858967855459603 ], [ -123.962515, 45.863891 ], [ -123.962736, 45.869974 ], [ -123.964284, 45.881946 ], [ -123.965946886424007, 45.8835462531041 ], [ -123.967231, 45.884782 ], [ -123.966477037814997, 45.8883409650687 ], [ -123.965629, 45.892344 ], [ -123.965756551585997, 45.8933296722535 ], [ -123.967625694785994, 45.907773730872201 ], [ -123.96763, 45.907807 ], [ -123.969864540347999, 45.909189355891897 ], [ -123.971516, 45.910211 ], [ -123.971831, 45.915345 ], [ -123.97413, 45.917156 ], [ -123.978446, 45.918179 ], [ -123.978286, 45.923825 ], [ -123.977933, 45.928564 ], [ -123.980423, 45.930863 ], [ -123.983825, 45.931092 ], [ -123.983734, 45.933217 ], [ -123.985063, 45.935011 ], [ -123.988716, 45.93575 ], [ -123.99304, 45.938842 ], [ -123.991272, 45.942494 ], [ -123.993703, 45.946431 ], [ -123.988391, 45.94906 ], [ -123.98571, 45.951157 ], [ -123.980835, 45.952828 ], [ -123.974998, 45.956129 ], [ -123.973854, 45.959261 ], [ -123.975067, 45.961683 ], [ -123.974074, 45.962858 ], [ -123.972927, 45.966328 ], [ -123.969991, 45.969139 ], [ -123.957438, 45.974469 ], [ -123.956212174103001, 45.9747292171811 ], [ -123.952063, 45.97561 ], [ -123.941831, 45.97566 ], [ -123.937578073856002, 45.9772655771636 ], [ -123.937471, 45.977306 ], [ -123.936976303463993, 45.978971753743998 ], [ -123.936393232754, 45.980935083073298 ], [ -123.933810595382994, 45.989631400015099 ], [ -123.927891, 46.009564 ], [ -123.927931398902004, 46.010474 ], [ -123.927973474601004, 46.011421770471102 ], [ -123.928928749063004, 46.032939676254003 ], [ -123.92933, 46.041978 ], [ -123.929984556435997, 46.046793757880899 ], [ -123.933366, 46.071672 ], [ -123.941611463287003, 46.097551636588399 ], [ -123.941929939177996, 46.098551221454201 ], [ -123.947531, 46.116131 ], [ -123.95919, 46.141675 ], [ -123.961625301618, 46.146097973468798 ], [ -123.963419924031001, 46.149357350976103 ], [ -123.963775699769997, 46.150003507757702 ], [ -123.974124, 46.168798 ], [ -123.977403593383997, 46.173895405281002 ], [ -123.986469758431994, 46.187986761184099 ], [ -123.996766, 46.20399 ], [ -124.010344, 46.223514 ], [ -124.021428, 46.230109 ], [ -124.012634, 46.23685 ], [ -124.005028, 46.23833 ], [ -124.000212, 46.236416 ], [ -123.999324, 46.233726 ], [ -123.996234, 46.22978 ], [ -123.988866, 46.22715 ], [ -123.988429, 46.224132 ], [ -123.991718, 46.220408 ], [ -123.995997, 46.219092 ], [ -123.995521, 46.216461 ], [ -123.989817, 46.209224 ], [ -123.986252, 46.208237 ], [ -123.98031, 46.206921 ], [ -123.972942, 46.212678 ], [ -123.961739, 46.207916 ], [ -123.953971, 46.207159 ], [ -123.950506, 46.20577 ], [ -123.950413615328998, 46.205663798003897 ], [ -123.947417, 46.202219 ], [ -123.927038, 46.191617 ], [ -123.924050837444, 46.190728457434297 ], [ -123.923582, 46.190589 ], [ -123.905277, 46.18069 ], [ -123.903064, 46.176812 ], [ -123.900449, 46.174343 ], [ -123.902501, 46.168704 ], [ -123.891762, 46.164978 ], [ -123.883336, 46.168747 ], [ -123.878821, 46.168089 ], [ -123.87478, 46.162821 ], [ -123.860943, 46.158597 ], [ -123.859272926152997, 46.158255752413197 ], [ -123.859049388323001, 46.158210076741298 ], [ -123.857591219398998, 46.157912127864897 ], [ -123.855746737169994, 46.157535243267503 ], [ -123.854801, 46.157342 ], [ -123.847572098271002, 46.158639812573298 ], [ -123.847209, 46.158705 ], [ -123.845341184315998, 46.159486398120897 ], [ -123.842849, 46.160529 ], [ -123.839603, 46.162163 ], [ -123.838415, 46.166607 ], [ -123.838415, 46.168457353915997 ], [ -123.838415, 46.168498 ], [ -123.838415, 46.170013 ], [ -123.838415, 46.170032023195901 ], [ -123.838415, 46.171051 ], [ -123.843644, 46.171545 ], [ -123.851904098174998, 46.176030750739699 ], [ -123.859911, 46.180379 ], [ -123.861859819694999, 46.182348058693897 ], [ -123.862896, 46.183395 ], [ -123.866643, 46.187674 ], [ -123.864209, 46.189527 ], [ -123.85776, 46.190757 ], [ -123.854941, 46.188465 ], [ -123.849652258608003, 46.191017913990699 ], [ -123.846209, 46.19268 ], [ -123.838801, 46.192211 ], [ -123.824412679776998, 46.190584501609699 ], [ -123.821834, 46.190293 ], [ -123.798702737970999, 46.195259530201298 ], [ -123.793936, 46.196283 ], [ -123.787774156994004, 46.1975788702633 ], [ -123.783204, 46.19854 ], [ -123.771027240351003, 46.2040782109177 ], [ -123.770201, 46.204454 ], [ -123.766873, 46.206263 ], [ -123.763308, 46.211033 ], [ -123.757589, 46.213001 ], [ -123.750569859725999, 46.207897111865599 ], [ -123.748097, 46.206099 ], [ -123.744294, 46.203961 ], [ -123.735733, 46.201257 ], [ -123.725279, 46.195077 ], [ -123.718149, 46.188989 ], [ -123.69343, 46.189812 ], [ -123.693131268615005, 46.189942202319301 ], [ -123.678656398160001, 46.196251086486598 ], [ -123.674178, 46.198203 ], [ -123.67538, 46.212401 ], [ -123.672039, 46.215474 ], [ -123.666751, 46.218228 ], [ -123.660868, 46.216296 ], [ -123.6535, 46.214652 ], [ -123.644231, 46.213172 ], [ -123.632347, 46.213172 ], [ -123.626436257278996, 46.214156586516403 ], [ -123.619512, 46.21531 ], [ -123.614521, 46.217612 ], [ -123.60196, 46.224749 ], [ -123.595982, 46.226328 ], [ -123.582434, 46.230525 ], [ -123.559617, 46.243426 ], [ -123.548156, 46.249018 ], [ -123.547659, 46.259109 ], [ -123.538092, 46.26061 ], [ -123.526391, 46.263404 ], [ -123.516188, 46.266153 ], [ -123.501245, 46.271004 ], [ -123.479644, 46.269131 ], [ -123.474844, 46.267831 ], [ -123.468743, 46.264531 ], [ -123.464551815959993, 46.2616183143491 ], [ -123.447592, 46.249832 ], [ -123.436254852847, 46.238198972785597 ], [ -123.427629, 46.229348 ], [ -123.428054143685003, 46.223299134656699 ], [ -123.430987, 46.181571 ], [ -123.422645419530994, 46.175991927022103 ], [ -123.390404, 46.154428 ], [ -123.379541, 46.150998 ], [ -123.371433, 46.146372 ], [ -123.363743140809007, 46.146324610323198 ], [ -123.360561, 46.146305 ], [ -123.346252, 46.145065 ], [ -123.340655, 46.146183 ], [ -123.332335, 46.146132 ], [ -123.302588994244005, 46.144706518110198 ], [ -123.301034, 46.144632 ], [ -123.280166, 46.144843 ], [ -123.251233, 46.156452 ], [ -123.242026, 46.160968 ], [ -123.230813, 46.164287 ], [ -123.22243, 46.167682 ], [ -123.213054, 46.172541 ], [ -123.166414, 46.188973 ], [ -123.119730298411994, 46.185548665919903 ], [ -123.115904, 46.185268 ], [ -123.105021, 46.177676 ], [ -123.072955001104006, 46.163367327252701 ], [ -123.051064, 46.153599 ], [ -123.041297, 46.146351 ], [ -123.03382, 46.144336 ], [ -123.022885224801996, 46.139440503111103 ], [ -123.022147, 46.13911 ], [ -123.009436, 46.136043 ], [ -123.004233, 46.133823 ], [ -122.966694913214994, 46.107618972629702 ], [ -122.962681, 46.104817 ], [ -122.939676274918, 46.096535031848099 ], [ -122.937415175284997, 46.095721009725096 ], [ -122.930461538263998, 46.093217619654602 ], [ -122.904119, 46.083734 ], [ -122.902954826569001, 46.082343820088397 ], [ -122.885933339971999, 46.062017871987798 ], [ -122.884478, 46.06028 ], [ -122.883075012860004, 46.0539089971682 ], [ -122.881327583220994, 46.045973871566297 ], [ -122.878092, 46.031281 ], [ -122.877661546569996, 46.0309510655119 ], [ -122.864284541461998, 46.020697841755101 ], [ -122.856158, 46.014469 ], [ -122.850300357308001, 46.003826245197601 ], [ -122.845875047125006, 45.995785896259399 ], [ -122.838578021635996, 45.982527925920103 ], [ -122.837638, 45.98082 ], [ -122.833420843631004, 45.977281441889197 ], [ -122.813998, 45.960984 ], [ -122.812215297031997, 45.954458918848601 ], [ -122.811841461838, 45.953090600614402 ], [ -122.806193, 45.932416 ], [ -122.811204257205006, 45.913857289145099 ], [ -122.81151, 45.912725 ], [ -122.810062729609996, 45.909662856701502 ], [ -122.808350897772996, 45.906040952721497 ], [ -122.799082951662001, 45.886431777224601 ], [ -122.798091, 45.884333 ], [ -122.796820712691002, 45.882715705005403 ], [ -122.794675088814003, 45.879983955479503 ], [ -122.785026, 45.867699 ], [ -122.785121333263007, 45.8643529779321 ], [ -122.785299579417, 45.858096865995599 ], [ -122.785515, 45.850536 ], [ -122.785696, 45.844216 ], [ -122.795963, 45.825024 ], [ -122.795729289670007, 45.815216 ], [ -122.795605, 45.81 ], [ -122.778983853061007, 45.791247103152301 ], [ -122.770646061359997, 45.781839945615197 ], [ -122.769532, 45.780583 ], [ -122.761451, 45.759163 ], [ -122.760974137952999, 45.7503749615244 ], [ -122.760108, 45.734413 ], [ -122.762189526428003, 45.728576737557297 ], [ -122.772511, 45.699637 ], [ -122.772681206097005, 45.698003021468402 ], [ -122.774511, 45.680437 ], [ -122.76381, 45.657138 ], [ -122.762414110308995, 45.656431935411803 ], [ -122.743540245465994, 45.646885215713702 ], [ -122.738109, 45.644138 ], [ -122.713309, 45.637438 ], [ -122.691381583242006, 45.624951731877303 ], [ -122.691185090199994, 45.624839841596902 ], [ -122.691008, 45.624739 ], [ -122.675327484196998, 45.618172784007399 ], [ -122.675093773773, 45.618074917767501 ], [ -122.675008, 45.618039 ], [ -122.643907, 45.609739 ], [ -122.634962906195994, 45.609284226580698 ], [ -122.607718206328002, 45.607898936400801 ], [ -122.602606, 45.607639 ], [ -122.588917822907007, 45.605250671364701 ], [ -122.586005557514994, 45.604742536002298 ], [ -122.582325993186004, 45.604100521452601 ], [ -122.581406, 45.60394 ], [ -122.551278998219999, 45.5974429961583 ], [ -122.550211685522996, 45.597212826068699 ], [ -122.549955276926994, 45.597157530568502 ], [ -122.549438939157, 45.597046180341998 ], [ -122.548149, 45.596768 ], [ -122.545981397443995, 45.596136162581601 ], [ -122.523668, 45.589632 ], [ -122.505353096256002, 45.585928668035301 ], [ -122.496019008329995, 45.584041285679398 ], [ -122.492259, 45.583281 ], [ -122.479315, 45.579761 ], [ -122.475778139509003, 45.578654971461603 ], [ -122.474659, 45.578305 ], [ -122.471883289024007, 45.576835883327902 ], [ -122.455261778701995, 45.568038520006397 ], [ -122.453891, 45.567313 ], [ -122.438674, 45.563585 ], [ -122.416934004748001, 45.566731578260097 ], [ -122.410706, 45.567633 ], [ -122.401222955156996, 45.571098344571098 ], [ -122.397100512625002, 45.572604789398298 ], [ -122.391802, 45.574541 ], [ -122.383435896741005, 45.575559482135901 ], [ -122.380302, 45.575941 ], [ -122.372189242990999, 45.5740234392524 ], [ -122.352802, 45.569441 ], [ -122.341811701880999, 45.558502299525003 ], [ -122.339070265255003, 45.555773733493503 ], [ -122.331502, 45.548241 ], [ -122.294901, 45.543541 ], [ -122.294819998052006, 45.543541861722801 ], [ -122.266701, 45.543841 ], [ -122.262625, 45.544321 ], [ -122.259530999909003, 45.545098131478298 ], [ -122.248993, 45.547745 ], [ -122.248911947663998, 45.547773100016897 ], [ -122.2017, 45.564141 ], [ -122.197527546047993, 45.567282217068502 ], [ -122.183695, 45.577696 ], [ -122.166829998748995, 45.580371151671201 ], [ -122.14075, 45.584508 ], [ -122.129548, 45.582945 ], [ -122.12949, 45.582967 ], [ -122.126197, 45.582573 ], [ -122.126197, 45.582617 ], [ -122.112356, 45.581409 ], [ -122.101675, 45.583516 ], [ -122.100176014642997, 45.584196156005703 ], [ -122.044374, 45.609516 ], [ -122.022571, 45.615151 ], [ -122.00369, 45.61593 ], [ -121.983038, 45.622812 ], [ -121.979797, 45.624839 ], [ -121.963547, 45.632784 ], [ -121.961258017758993, 45.635940762273698 ], [ -121.955734, 45.643559 ], [ -121.951838, 45.644951 ], [ -121.935149, 45.644169 ], [ -121.922028852172005, 45.649161899050803 ], [ -121.908267, 45.654399 ], [ -121.904448014441002, 45.658321591457302 ], [ -121.900858, 45.662009 ], [ -121.900897392331004, 45.662353021085998 ], [ -121.901855, 45.670716 ], [ -121.877908566383994, 45.686290708510803 ], [ -121.875695401271003, 45.687730146302201 ], [ -121.867167, 45.693277 ], [ -121.858205244407003, 45.695440154725198 ], [ -121.838112759325, 45.700290002904602 ], [ -121.811304, 45.706761 ], [ -121.735104, 45.694039 ], [ -121.711711588726999, 45.694688180302798 ], [ -121.707358, 45.694809 ], [ -121.675958711964995, 45.703080742896297 ], [ -121.668362, 45.705082 ], [ -121.638119011461995, 45.704736435538898 ], [ -121.631167, 45.704657 ], [ -121.609320387848001, 45.709532447530897 ], [ -121.562727136098999, 45.719930533633097 ], [ -121.534252432854998, 45.726285153775599 ], [ -121.533106, 45.726541 ], [ -121.531983021127999, 45.726345626412403 ], [ -121.523685853632003, 45.724902102031898 ], [ -121.522392, 45.724677 ], [ -121.511087960406002, 45.722813504338198 ], [ -121.499153, 45.720846 ], [ -121.494687797672, 45.718450184769097 ], [ -121.494686798242995, 45.718449648522999 ], [ -121.483672986716002, 45.712540161008199 ], [ -121.481489451388001, 45.711368579787099 ], [ -121.467065281238007, 45.703629256011297 ], [ -121.462849, 45.701367 ], [ -121.441224595532006, 45.697303438552098 ], [ -121.423592, 45.69399 ], [ -121.401739, 45.692887 ], [ -121.383451776794999, 45.6992977172998 ], [ -121.372574, 45.703111 ], [ -121.365470443381, 45.703486138980097 ], [ -121.351267011353997, 45.704236222535599 ], [ -121.33777, 45.704949 ], [ -121.312198, 45.699925 ], [ -121.294453886634997, 45.690718747654699 ], [ -121.287323, 45.687019 ], [ -121.251183, 45.67839 ], [ -121.215779, 45.671238 ], [ -121.204808148558996, 45.655998254444697 ], [ -121.200367, 45.649829 ], [ -121.196631142900998, 45.635045658976502 ], [ -121.195233, 45.629513 ], [ -121.196149220097993, 45.620631967092599 ], [ -121.196556, 45.616689 ], [ -121.183841, 45.606441 ], [ -121.170474994227007, 45.606154269123799 ], [ -121.167852, 45.606098 ], [ -121.145534, 45.607886 ], [ -121.140560367302996, 45.611236277123197 ], [ -121.139483, 45.611962 ], [ -121.131953, 45.609762 ], [ -121.129228277698004, 45.611523445105398 ], [ -121.123793795051, 45.615036662893701 ], [ -121.123239617734001, 45.615394920659099 ], [ -121.1222, 45.616067 ], [ -121.120085996729003, 45.6169088233693 ], [ -121.117052, 45.618117 ], [ -121.120064, 45.623134 ], [ -121.084933, 45.647893 ], [ -121.071453407882998, 45.650945131541903 ], [ -121.06437, 45.652549 ], [ -121.033582, 45.650998 ], [ -121.007449, 45.653217 ], [ -120.983478, 45.648344 ], [ -120.977978, 45.649345 ], [ -120.953077, 45.656745 ], [ -120.943977, 45.656445 ], [ -120.915876, 45.641345 ], [ -120.915795173153995, 45.641301218792002 ], [ -120.913476, 45.640045 ], [ -120.895575, 45.642945 ], [ -120.885616086083999, 45.650081578072303 ], [ -120.870042, 45.661242 ], [ -120.855674, 45.671545 ], [ -120.836141479114005, 45.675843487912701 ], [ -120.788872, 45.686246 ], [ -120.724171, 45.706446 ], [ -120.68937, 45.715847 ], [ -120.668869, 45.730147 ], [ -120.653534344099995, 45.737248681296201 ], [ -120.634968, 45.745847 ], [ -120.591166, 45.746547 ], [ -120.559465, 45.738348 ], [ -120.553317424252995, 45.733675967019899 ], [ -120.521964, 45.709848 ], [ -120.505863, 45.700048 ], [ -120.482362, 45.694449 ], [ -120.453096615139998, 45.696240712549802 ], [ -120.40396, 45.699249 ], [ -120.329057, 45.71105 ], [ -120.288656, 45.72015 ], [ -120.282156, 45.72125 ], [ -120.211474211014007, 45.725903582393002 ], [ -120.210754, 45.725951 ], [ -120.191103256744, 45.743504578253798 ], [ -120.170453, 45.761951 ], [ -120.141352, 45.773152 ], [ -120.07015, 45.785152 ], [ -120.055075106299995, 45.790996082874102 ], [ -120.001148, 45.811902 ], [ -119.999501176112005, 45.812481718848503 ], [ -119.965744, 45.824365 ], [ -119.908917240841006, 45.828040803957101 ], [ -119.907461, 45.828135 ], [ -119.876144, 45.834718 ], [ -119.868272037091003, 45.835940714678301 ], [ -119.868135, 45.835962 ], [ -119.802655, 45.84753 ], [ -119.772927, 45.845578 ], [ -119.729909361077006, 45.850290529119903 ], [ -119.672199870903995, 45.856612532366498 ], [ -119.669877, 45.856867 ], [ -119.623393, 45.905639 ], [ -119.600549, 45.919581 ], [ -119.571584, 45.925456 ], [ -119.536946521092005, 45.913024662525999 ], [ -119.524632, 45.908605 ], [ -119.487829, 45.906307 ], [ -119.456238441501, 45.9155950765374 ], [ -119.450256, 45.917354 ], [ -119.432149953782002, 45.918250445405 ], [ -119.364396, 45.921605 ], [ -119.356927874882004, 45.923669267018802 ], [ -119.322509, 45.933183 ], [ -119.312779611951996, 45.934186767860702 ], [ -119.265781460289006, 45.939035503867501 ], [ -119.25715, 45.939926 ], [ -119.225745, 45.932725 ], [ -119.204349373268997, 45.929287112600399 ], [ -119.19553, 45.92787 ], [ -119.169496, 45.927603 ], [ -119.141390171444002, 45.931008667532502 ], [ -119.12612, 45.932859 ], [ -119.093221, 45.942745 ], [ -119.061462, 45.958527 ], [ -119.027056, 45.969134 ], [ -119.008558, 45.97927 ], [ -118.987196090376997, 45.9997905520367 ], [ -118.987129, 45.999855 ], [ -118.977787096597993, 46.000001377591602 ], [ -118.941242, 46.000574 ], [ -118.868127986589997, 46.000674216267598 ], [ -118.788694725992002, 46.000783094231402 ], [ -118.785765634062003, 46.000787109093203 ], [ -118.725242193350994, 46.000870067654098 ], [ -118.67787, 46.000935 ], [ -118.658717, 46.000955 ], [ -118.639332, 46.000994 ], [ -118.637725, 46.00097 ], [ -118.606789334728006, 46.000888673427099 ], [ -118.590497392025, 46.0008458436429 ], [ -118.579906, 46.000818 ], [ -118.57571, 46.000718 ], [ -118.569392, 46.000773 ], [ -118.554902302618999, 46.000803081173899 ], [ -118.537119, 46.00084 ], [ -118.497027, 46.00062 ], [ -118.470756, 46.000632 ], [ -118.424027212824001, 46.000602666807502 ], [ -118.415326658626, 46.000597205184199 ], [ -118.403817114887005, 46.000589980266099 ], [ -118.387301768013003, 46.000579613041097 ], [ -118.387293095033996, 46.000579607596798 ], [ -118.37836, 46.000574 ], [ -118.36779, 46.000622 ], [ -118.367168275189997, 46.000620010311103 ], [ -118.340494051997993, 46.000534645523203 ], [ -118.314982, 46.000453 ], [ -118.283526, 46.000787 ], [ -118.256368, 46.000439 ], [ -118.25253, 46.000459 ], [ -118.236667529109994, 46.000418214768203 ], [ -118.236584, 46.000418 ], [ -118.228941, 46.000421 ], [ -118.146028, 46.000701 ], [ -118.131019, 46.00028 ], [ -118.126197, 46.000282 ], [ -117.996949712710006, 46.000786848785502 ], [ -117.996911, 46.000787 ], [ -117.977663335054999, 46.000723475442797 ], [ -117.717852, 45.999866 ], [ -117.623595600260003, 45.999061415294001 ], [ -117.603424518720004, 45.9988892323573 ], [ -117.603163, 45.998887 ], [ -117.504833, 45.998317 ], [ -117.480103, 45.99787 ], [ -117.479935132755998, 45.997869469110498 ], [ -117.47536, 45.997855 ], [ -117.475148, 45.997893 ], [ -117.439943, 45.998633 ], [ -117.390738, 45.998598 ], [ -117.382131203034007, 45.998072145982697 ], [ -117.353928, 45.996349 ], [ -117.337668, 45.998662 ], [ -117.280513327855999, 45.9985173847898 ], [ -117.216731, 45.998356 ], [ -117.214534, 45.99832 ], [ -117.212616, 45.998321 ], [ -117.090186778505995, 45.997624564599398 ], [ -117.070047, 45.99751 ], [ -117.051304, 45.996849 ], [ -116.985882, 45.996974 ], [ -116.940681, 45.996274 ], [ -116.915989, 45.995413 ], [ -116.911409, 45.988912 ], [ -116.900497, 45.982801 ], [ -116.892861, 45.976373 ], [ -116.894652, 45.969686 ], [ -116.89091, 45.96001 ], [ -116.886843, 45.958617 ], [ -116.880506, 45.958508 ], [ -116.87598, 45.95441 ], [ -116.874869, 45.950253 ], [ -116.875706, 45.945008 ], [ -116.873933, 45.939894 ], [ -116.870484, 45.932408 ], [ -116.869655, 45.923799 ], [ -116.866544, 45.916958 ], [ -116.859795, 45.907264 ], [ -116.857254, 45.904159 ], [ -116.84355, 45.892273 ], [ -116.830003, 45.886405 ], [ -116.819182, 45.880938 ], [ -116.814142, 45.877551 ], [ -116.796555004061005, 45.859004501269801 ], [ -116.796051, 45.858473 ], [ -116.794454975327, 45.856140639876202 ], [ -116.790151, 45.849851 ], [ -116.787792, 45.844267 ], [ -116.78752, 45.840204 ], [ -116.788923, 45.836741 ], [ -116.789066, 45.833471 ], [ -116.788329, 45.831928 ], [ -116.782676, 45.825376 ], [ -116.7634, 45.81658 ], [ -116.759787, 45.816167 ], [ -116.755288, 45.817061 ], [ -116.750978, 45.818537 ], [ -116.745219, 45.821394 ], [ -116.740486, 45.82446 ], [ -116.736268, 45.826179 ], [ -116.715527, 45.826773 ], [ -116.711822, 45.826267 ], [ -116.70845, 45.825117 ], [ -116.698079, 45.820852 ], [ -116.697192, 45.820135 ], [ -116.687007, 45.806319 ], [ -116.680139, 45.79359 ], [ -116.665344, 45.781998 ], [ -116.659629, 45.780016 ], [ -116.646342, 45.779815 ], [ -116.639641, 45.781274 ], [ -116.635814, 45.783642 ], [ -116.632032, 45.784979 ], [ -116.60504, 45.781018 ], [ -116.593004, 45.778541 ], [ -116.577422, 45.76753 ], [ -116.559444, 45.755189 ], [ -116.553548, 45.753388 ], [ -116.549085, 45.752735 ], [ -116.546643, 45.750972 ], [ -116.543862684798, 45.746954488571902 ], [ -116.537173, 45.737288 ], [ -116.535698, 45.734231 ], [ -116.538014, 45.714929 ], [ -116.536395, 45.69665 ], [ -116.535396, 45.691734 ], [ -116.528272, 45.681473 ], [ -116.523961, 45.677639 ], [ -116.512326, 45.670224 ], [ -116.49451, 45.655679 ], [ -116.487894, 45.649769 ], [ -116.487274, 45.647675 ], [ -116.487835, 45.644302 ], [ -116.487447, 45.643682 ], [ -116.484219, 45.642322 ], [ -116.483286, 45.641529 ], [ -116.482495, 45.639916 ], [ -116.482826539170006, 45.636772122376598 ], [ -116.482899, 45.636085 ], [ -116.482806, 45.633595 ], [ -116.481018, 45.632152 ], [ -116.475803, 45.6317 ], [ -116.472346, 45.629409 ], [ -116.471241, 45.627669 ], [ -116.472882, 45.624884 ], [ -116.469813, 45.620604 ], [ -116.46517, 45.617986 ], [ -116.463504, 45.615785 ], [ -116.463635, 45.602785 ], [ -116.471646, 45.593647 ], [ -116.474702, 45.59179 ], [ -116.476521, 45.589673 ], [ -116.480788, 45.587942 ], [ -116.483105, 45.58516 ], [ -116.483412, 45.582615 ], [ -116.481208, 45.580597 ], [ -116.481943, 45.577898 ], [ -116.48297, 45.577008 ], [ -116.490279, 45.574499 ], [ -116.502756, 45.566608 ], [ -116.503728, 45.565102 ], [ -116.503156, 45.562754 ], [ -116.503957, 45.560953 ], [ -116.506967, 45.558427 ], [ -116.510342, 45.556809 ], [ -116.513931, 45.556281 ], [ -116.517468, 45.55679 ], [ -116.522233, 45.555626 ], [ -116.525888, 45.553734 ], [ -116.527723, 45.551818 ], [ -116.528558, 45.551078 ], [ -116.52828, 45.54989 ], [ -116.526201, 45.549482 ], [ -116.523947, 45.548234 ], [ -116.523638, 45.54661 ], [ -116.527492979455005, 45.539602100419003 ], [ -116.535482, 45.525079 ], [ -116.543837, 45.514193 ], [ -116.548676, 45.510385 ], [ -116.5525, 45.508311 ], [ -116.554634, 45.507856 ], [ -116.556587, 45.506232 ], [ -116.557587, 45.503217 ], [ -116.556575, 45.501388 ], [ -116.554549, 45.500154 ], [ -116.553473, 45.499107 ], [ -116.553171, 45.495932 ], [ -116.558804, 45.481188 ], [ -116.558803, 45.480076 ], [ -116.55498, 45.472801 ], [ -116.554829, 45.46293 ], [ -116.561744, 45.461213 ], [ -116.563985, 45.460169 ], [ -116.575949, 45.452522 ], [ -116.581382, 45.448984 ], [ -116.588195, 45.44292 ], [ -116.592416, 45.427356 ], [ -116.597447, 45.41277 ], [ -116.619057, 45.39821 ], [ -116.626633, 45.388037 ], [ -116.653252, 45.351084 ], [ -116.673793, 45.321511 ], [ -116.674648, 45.314342 ], [ -116.672594, 45.298023 ], [ -116.672163, 45.288938 ], [ -116.672733, 45.283183 ], [ -116.674493, 45.276349 ], [ -116.675587, 45.274867 ], [ -116.681013, 45.27072 ], [ -116.687027, 45.267857 ], [ -116.687174152113002, 45.267642848461101 ], [ -116.695619, 45.255353 ], [ -116.698661, 45.245552 ], [ -116.703181, 45.2408 ], [ -116.704217, 45.227972 ], [ -116.708003, 45.222317 ], [ -116.70975, 45.217243 ], [ -116.708546, 45.207356 ], [ -116.709536, 45.203015 ], [ -116.724205, 45.171501 ], [ -116.724192007615997, 45.164945960343999 ], [ -116.724188, 45.162924 ], [ -116.725137, 45.159072 ], [ -116.727452, 45.156023 ], [ -116.728757, 45.144381 ], [ -116.729607, 45.142091 ], [ -116.731216, 45.139934 ], [ -116.734021, 45.138289 ], [ -116.742962, 45.134898 ], [ -116.745535, 45.133038 ], [ -116.746607, 45.124878 ], [ -116.748564, 45.122945 ], [ -116.752839, 45.121768 ], [ -116.754643, 45.113972 ], [ -116.774847, 45.105536 ], [ -116.782492, 45.09579 ], [ -116.783537, 45.093605 ], [ -116.784244, 45.088128 ], [ -116.783771926572001, 45.078265731911998 ], [ -116.78371, 45.076972 ], [ -116.797329, 45.060267 ], [ -116.808576, 45.050652 ], [ -116.814589, 45.048106 ], [ -116.826133, 45.037285 ], [ -116.842731, 45.029446 ], [ -116.847944, 45.022602 ], [ -116.845847, 45.01847 ], [ -116.844796, 45.015312 ], [ -116.844625, 45.001435 ], [ -116.846103, 44.999878 ], [ -116.856754, 44.984298 ], [ -116.858313, 44.978761 ], [ -116.856964, 44.975173 ], [ -116.85226, 44.972527 ], [ -116.848093, 44.971906 ], [ -116.844323, 44.974879 ], [ -116.841971, 44.980758 ], [ -116.839031, 44.983992 ], [ -116.834915, 44.985756 ], [ -116.830505, 44.98458 ], [ -116.826271, 44.982493 ], [ -116.829329, 44.975173 ], [ -116.836449, 44.969239 ], [ -116.847888, 44.964768 ], [ -116.850737, 44.958113 ], [ -116.846461, 44.951521 ], [ -116.835702, 44.940633 ], [ -116.832176, 44.931373 ], [ -116.833632, 44.928976 ], [ -116.838467, 44.923601 ], [ -116.842108, 44.914922 ], [ -116.846061, 44.905249 ], [ -116.850512, 44.893523 ], [ -116.852427, 44.887577 ], [ -116.857038, 44.880769 ], [ -116.865338, 44.870599 ], [ -116.871701, 44.867613 ], [ -116.876001, 44.866684 ], [ -116.878183, 44.864706 ], [ -116.879375, 44.861793 ], [ -116.883598, 44.858268 ], [ -116.887748, 44.855799 ], [ -116.889882, 44.855171 ], [ -116.892361, 44.855218 ], [ -116.895805, 44.855752 ], [ -116.898153, 44.854319 ], [ -116.898609, 44.851985 ], [ -116.896424, 44.849733 ], [ -116.896249, 44.84833 ], [ -116.898388, 44.84228 ], [ -116.899640878328, 44.840607508049501 ], [ -116.900069, 44.840036 ], [ -116.900146, 44.836672 ], [ -116.901051, 44.83568 ], [ -116.905771, 44.834794 ], [ -116.920498, 44.81438 ], [ -116.928099, 44.808381 ], [ -116.931099, 44.804781 ], [ -116.933699, 44.798781 ], [ -116.933799, 44.796781 ], [ -116.933099, 44.794481 ], [ -116.9308, 44.790981 ], [ -116.9307, 44.789881 ], [ -116.9318, 44.787181 ], [ -116.9347, 44.783881 ], [ -116.9368, 44.782881 ], [ -116.949001, 44.777981 ], [ -116.966801, 44.775181 ], [ -116.970902, 44.773881 ], [ -116.972902, 44.772581 ], [ -116.977802, 44.767981 ], [ -116.986502, 44.762381 ], [ -116.992003, 44.759182 ], [ -116.998903, 44.756382 ], [ -117.006045, 44.756024 ], [ -117.013802, 44.756841 ], [ -117.016216, 44.755572 ], [ -117.018418, 44.751942 ], [ -117.021398, 44.750785 ], [ -117.02942, 44.751102 ], [ -117.031738, 44.74986 ], [ -117.03827, 44.748179 ], [ -117.039549, 44.746483 ], [ -117.044217, 44.74514 ], [ -117.046250547548993, 44.7431132252987 ], [ -117.04782, 44.741549 ], [ -117.048178, 44.735916 ], [ -117.050495, 44.732477 ], [ -117.05856, 44.730265 ], [ -117.062273, 44.727143 ], [ -117.060454, 44.721668 ], [ -117.061799, 44.706654 ], [ -117.063824, 44.703623 ], [ -117.072221, 44.700517 ], [ -117.074137, 44.696374 ], [ -117.07912, 44.692175 ], [ -117.07871, 44.690084 ], [ -117.079483004571998, 44.688672062109497 ], [ -117.080555, 44.686714 ], [ -117.080772, 44.684161 ], [ -117.079835603760998, 44.682528057877597 ], [ -117.078574, 44.680328 ], [ -117.079031, 44.677676 ], [ -117.081022, 44.673685 ], [ -117.081286739530995, 44.673585925696898 ], [ -117.086075, 44.671794 ], [ -117.091223, 44.668807 ], [ -117.095868, 44.664737 ], [ -117.096791, 44.657385 ], [ -117.094968, 44.652011 ], [ -117.098221, 44.640689 ], [ -117.108231, 44.62711 ], [ -117.114754, 44.624883 ], [ -117.117809, 44.620139 ], [ -117.120522, 44.614658 ], [ -117.125267, 44.593818 ], [ -117.124754, 44.583834 ], [ -117.126009, 44.581553 ], [ -117.133963, 44.57524 ], [ -117.138066, 44.572996 ], [ -117.14248, 44.57143 ], [ -117.146032, 44.568603 ], [ -117.148255, 44.564371 ], [ -117.147934, 44.562143 ], [ -117.14293, 44.557236 ], [ -117.144161, 44.545647 ], [ -117.149242, 44.536151 ], [ -117.152406, 44.531802 ], [ -117.161033, 44.525166 ], [ -117.167187, 44.523431 ], [ -117.181583, 44.52296 ], [ -117.185386, 44.519261 ], [ -117.189759, 44.513385 ], [ -117.19163, 44.509886 ], [ -117.191329, 44.506784 ], [ -117.192494, 44.503272 ], [ -117.194317, 44.499884 ], [ -117.200237, 44.492027 ], [ -117.208936, 44.485661 ], [ -117.211148, 44.485359 ], [ -117.216372, 44.48616 ], [ -117.221479026379001, 44.484557614330598 ], [ -117.224104, 44.483734 ], [ -117.225076, 44.482346 ], [ -117.225932, 44.479389 ], [ -117.225758, 44.477223 ], [ -117.224445, 44.473884 ], [ -117.221548, 44.470146 ], [ -117.217015, 44.459042 ], [ -117.215573, 44.453746 ], [ -117.214637, 44.44803 ], [ -117.215072, 44.427162 ], [ -117.218285, 44.420664 ], [ -117.225461, 44.407729 ], [ -117.22698, 44.405583 ], [ -117.234835, 44.399669 ], [ -117.242675, 44.396548 ], [ -117.243027, 44.390974 ], [ -117.235117, 44.373853 ], [ -117.227938, 44.367975 ], [ -117.216911, 44.360163 ], [ -117.210587, 44.357703 ], [ -117.206962, 44.355206 ], [ -117.197339, 44.347406 ], [ -117.196149, 44.346362 ], [ -117.189769, 44.336585 ], [ -117.189842, 44.335007 ], [ -117.191546, 44.329621 ], [ -117.192203, 44.32863 ], [ -117.203323, 44.313024 ], [ -117.2055, 44.311789 ], [ -117.21521, 44.309116 ], [ -117.216795, 44.308236 ], [ -117.217843, 44.30718 ], [ -117.220060553639001, 44.301404 ], [ -117.220069, 44.301382 ], [ -117.222451, 44.298963 ], [ -117.222647, 44.297578 ], [ -117.216974, 44.288357 ], [ -117.198559149538994, 44.274146060267299 ], [ -117.198147, 44.273828 ], [ -117.193129, 44.270963 ], [ -117.170342, 44.25889 ], [ -117.15706, 44.25749 ], [ -117.143394, 44.258262 ], [ -117.138523, 44.25937 ], [ -117.133984, 44.262972 ], [ -117.133104, 44.264236 ], [ -117.13253, 44.267045 ], [ -117.130904, 44.269453 ], [ -117.121037, 44.277585 ], [ -117.118018, 44.278945 ], [ -117.111617, 44.280667 ], [ -117.107673, 44.280763 ], [ -117.104208, 44.27994 ], [ -117.102242, 44.278799 ], [ -117.098531, 44.275533 ], [ -117.09457, 44.270978 ], [ -117.093578, 44.269383 ], [ -117.090933, 44.260311 ], [ -117.089503, 44.258234 ], [ -117.07835, 44.249885 ], [ -117.074191882812997, 44.247677432814797 ], [ -117.067284, 44.24401 ], [ -117.059352, 44.237244 ], [ -117.05651, 44.230874 ], [ -117.05303, 44.229076 ], [ -117.050057, 44.22883 ], [ -117.047399154136002, 44.229639334032697 ], [ -117.047062, 44.229742 ], [ -117.045513, 44.232005 ], [ -117.042283, 44.242775 ], [ -117.03585, 44.246805 ], [ -117.031862, 44.248635 ], [ -117.027558, 44.248881 ], [ -117.025277, 44.248505 ], [ -117.020231, 44.246063 ], [ -117.016921, 44.245391 ], [ -117.015868756714994, 44.245390669542303 ], [ -117.008000996386002, 44.2453881986673 ], [ -117.003682330068003, 44.245386842387397 ], [ -117.001, 44.245386 ], [ -116.98687, 44.245477 ], [ -116.983658939346995, 44.244705935458299 ], [ -116.981825336925993, 44.244265636764901 ], [ -116.981589778363002, 44.244209072634 ], [ -116.978570032446001, 44.243483948055697 ], [ -116.975905, 44.242844 ], [ -116.973542, 44.23998 ], [ -116.972828624350996, 44.238042086225498 ], [ -116.971958, 44.235677 ], [ -116.972110100178, 44.234930684619101 ], [ -116.972537, 44.232836 ], [ -116.973991, 44.229821 ], [ -116.973945, 44.225932 ], [ -116.970365, 44.221221 ], [ -116.970219, 44.217493 ], [ -116.9726, 44.2132 ], [ -116.973701, 44.208017 ], [ -116.971675, 44.197256 ], [ -116.967259, 44.194581 ], [ -116.965498, 44.194126 ], [ -116.949516444005994, 44.191571735563997 ], [ -116.947591, 44.191264 ], [ -116.945256, 44.191677 ], [ -116.940534, 44.19371 ], [ -116.939296726739002, 44.193771243932801 ], [ -116.935443, 44.193962 ], [ -116.925392, 44.191544 ], [ -116.924028, 44.18844 ], [ -116.915738, 44.183152 ], [ -116.902752, 44.179467 ], [ -116.900103, 44.176851 ], [ -116.895757, 44.171267 ], [ -116.895028421445005, 44.166446369131499 ], [ -116.894083, 44.160191 ], [ -116.894309, 44.158114 ], [ -116.895931, 44.154295 ], [ -116.897846346997, 44.152655841117401 ], [ -116.900834, 44.150099 ], [ -116.901737, 44.14862 ], [ -116.901922, 44.145931 ], [ -116.903327, 44.144422 ], [ -116.911218, 44.139992 ], [ -116.913239, 44.132929 ], [ -116.91376, 44.128381 ], [ -116.914236, 44.127304 ], [ -116.916410383599001, 44.125462976157998 ], [ -116.918991, 44.123278 ], [ -116.925642, 44.118929 ], [ -116.929069, 44.113972 ], [ -116.929442, 44.112621 ], [ -116.927688, 44.109438 ], [ -116.928306, 44.107326 ], [ -116.933704, 44.100039 ], [ -116.937750474425002, 44.097006348143097 ], [ -116.937835, 44.096943 ], [ -116.940005494000999, 44.095761664488599 ], [ -116.940274509534007, 44.095615247312303 ], [ -116.943132, 44.09406 ], [ -116.957009, 44.091743 ], [ -116.967203, 44.090936 ], [ -116.974253, 44.088295 ], [ -116.977351, 44.085364 ], [ -116.976979427494001, 44.081832 ], [ -116.974572522700001, 44.058953052806402 ], [ -116.974016, 44.053663 ], [ -116.973185, 44.049425 ], [ -116.972504, 44.048771 ], [ -116.972045557890993, 44.048605111518803 ], [ -116.956246, 44.042888 ], [ -116.955741432932001, 44.042604369478298 ], [ -116.955694238564007, 44.042577840273204 ], [ -116.950573662942006, 44.039699429001701 ], [ -116.943361, 44.035645 ], [ -116.937342, 44.029376 ], [ -116.937261403082999, 44.029146734636598 ], [ -116.935696297006004, 44.024694646050698 ], [ -116.935592015007998, 44.024398006290198 ], [ -116.934719940663996, 44.021917310387799 ], [ -116.934485, 44.021249 ], [ -116.935911, 44.012652 ], [ -116.941458, 44.007431 ], [ -116.941734972941006, 44.0069165870337 ], [ -116.943742, 44.003189 ], [ -116.943215051630006, 44.001693455155902 ], [ -116.94242, 43.999437 ], [ -116.935847, 43.990875 ], [ -116.935584, 43.986874 ], [ -116.938195, 43.98459 ], [ -116.942757, 43.984043 ], [ -116.959871, 43.982925 ], [ -116.968743, 43.977477 ], [ -116.973435, 43.977085 ], [ -116.97618, 43.974719 ], [ -116.975525, 43.973091 ], [ -116.973807, 43.972187 ], [ -116.971556, 43.970112 ], [ -116.97088, 43.968302 ], [ -116.968634, 43.968412 ], [ -116.966314, 43.968884 ], [ -116.961683, 43.968168 ], [ -116.959206, 43.96636 ], [ -116.959808, 43.963815 ], [ -116.97049, 43.959764 ], [ -116.972331, 43.958357 ], [ -116.971574, 43.956964 ], [ -116.964915, 43.956301 ], [ -116.961264, 43.956 ], [ -116.960415, 43.954564 ], [ -116.96177, 43.952149 ], [ -116.962251, 43.948097 ], [ -116.964292, 43.944286 ], [ -116.968214, 43.941881 ], [ -116.969028, 43.939921 ], [ -116.968955773782, 43.937751235052602 ], [ -116.968931, 43.937007 ], [ -116.967641, 43.934792 ], [ -116.961806, 43.932797 ], [ -116.959993, 43.93065 ], [ -116.959363, 43.927739 ], [ -116.958752, 43.923246 ], [ -116.962615, 43.91748 ], [ -116.972362, 43.916453 ], [ -116.97958, 43.915253 ], [ -116.981919, 43.912478 ], [ -116.980250760830998, 43.909419277519099 ], [ -116.979961, 43.908888 ], [ -116.978564231042995, 43.9072537431298 ], [ -116.977332, 43.905812 ], [ -116.976429, 43.901293 ], [ -116.976694, 43.900361 ], [ -116.9765, 43.897128 ], [ -116.976114, 43.894759 ], [ -116.976176478240006, 43.8946464890304 ], [ -116.98384, 43.880846 ], [ -116.983714426079999, 43.880103214042798 ], [ -116.983199584668995, 43.877057860607898 ], [ -116.982214, 43.871228 ], [ -116.982347, 43.86884 ], [ -116.98294, 43.86771 ], [ -116.984152, 43.866794 ], [ -116.991415, 43.863864 ], [ -116.999061, 43.864637 ], [ -117.008691316809006, 43.862689387889297 ], [ -117.01077, 43.862269 ], [ -117.020035, 43.858956 ], [ -117.021604961573999, 43.8563729196878 ], [ -117.021721, 43.856182 ], [ -117.019853, 43.853833 ], [ -117.014828, 43.852172 ], [ -117.010701, 43.849754 ], [ -117.010383, 43.844803 ], [ -117.012831, 43.840001 ], [ -117.016826, 43.839962 ], [ -117.021461, 43.841694 ], [ -117.025156, 43.841334 ], [ -117.031887, 43.834156 ], [ -117.032881, 43.830025 ], [ -117.027931, 43.826286 ], [ -117.023577, 43.823811 ], [ -117.02155, 43.819402 ], [ -117.022110809539001, 43.817321879226498 ], [ -117.023049, 43.813842 ], [ -117.024020777413, 43.812288240409401 ], [ -117.026634, 43.80811 ], [ -117.026651, 43.733935 ], [ -117.026841, 43.732905 ], [ -117.026725, 43.714815 ], [ -117.026825, 43.706193 ], [ -117.026696659313998, 43.693739120520597 ], [ -117.026586, 43.683001 ], [ -117.026624495654005, 43.680803515235397 ], [ -117.026717, 43.675523 ], [ -117.026661, 43.664385 ], [ -117.026705, 43.631659 ], [ -117.026905, 43.62488 ], [ -117.027001, 43.621032 ], [ -117.026937, 43.617614 ], [ -117.026789, 43.610669 ], [ -117.02676, 43.601912 ], [ -117.026824, 43.600357 ], [ -117.026889, 43.596033 ], [ -117.026922, 43.593632 ], [ -117.026774, 43.578674 ], [ -117.026746, 43.577526 ], [ -117.026745350468005, 43.573708979009801 ], [ -117.026743821013, 43.564721021131199 ], [ -117.026740590160003, 43.545734671027901 ], [ -117.026719331235995, 43.420805024449002 ], [ -117.026701376309006, 43.3152915591549 ], [ -117.026652, 43.025128 ], [ -117.026683, 43.024876 ], [ -117.026253, 42.807447 ], [ -117.026303, 42.80717 ], [ -117.026331, 42.807015 ], [ -117.026665, 42.624878 ], [ -117.026631374451, 42.552222921611701 ], [ -117.026575021601005, 42.430460726004902 ], [ -117.026551, 42.378557 ], [ -117.026129, 42.357193 ], [ -117.026195, 42.166404 ], [ -117.02659, 42.133258 ], [ -117.026098, 42.117647 ], [ -117.026197, 41.99989 ], [ -117.040906, 41.99989 ], [ -117.04891, 41.998983 ], [ -117.055402, 41.99989 ], [ -117.068613, 42.000035 ], [ -117.197798, 42.00038 ], [ -117.217551, 41.999887 ], [ -117.403613, 41.99929 ], [ -117.443062, 41.999659 ], [ -117.506681810353001, 41.999239255528401 ], [ -117.530197396565995, 41.999084106727203 ], [ -117.613207836252002, 41.998536428685497 ], [ -117.617188034099996, 41.998510168531098 ], [ -117.623731, 41.998467 ], [ -117.625973, 41.998102 ], [ -117.705780984811, 41.998177134186903 ], [ -117.737792142868003, 41.998207270674399 ], [ -117.873467, 41.998335 ], [ -118.123944939373999, 41.9972981831054 ], [ -118.197189, 41.996995 ], [ -118.197369215928006, 41.9969940811635 ], [ -118.501002, 41.995446 ], [ -118.601806, 41.993895 ], [ -118.628692114981007, 41.9932978970796 ], [ -118.644698465629006, 41.992942418472097 ], [ -118.696409, 41.991794 ], [ -118.775869, 41.992692 ], [ -118.777228, 41.992671 ], [ -118.795612, 41.992394 ], [ -118.829630206432995, 41.992625690135803 ], [ -119.001022, 41.993793 ], [ -119.20828, 41.993177 ], [ -119.231876, 41.994212 ], [ -119.251033, 41.993843 ], [ -119.324182599297998, 41.994205584596699 ], [ -119.360121480893, 41.994383724805402 ], [ -119.360177, 41.994384 ], [ -119.444598, 41.995478 ], [ -119.72573, 41.996296 ], [ -119.790087, 41.997544 ], [ -119.848907, 41.997281 ], [ -119.872929, 41.997641 ], [ -119.876054, 41.997199 ], [ -119.986801, 41.995709 ], [ -119.999234, 41.994944 ], [ -120.046745935304997, 41.9948937861312 ], [ -120.088176, 41.99485 ], [ -120.159409852771006, 41.994566063360999 ], [ -120.160711, 41.994560877015502 ], [ -120.188026, 41.994452 ], [ -120.272095999128993, 41.992980190581697 ], [ -120.276920753458995, 41.992895723840398 ], [ -120.284045, 41.992771 ], [ -120.325751, 41.993143 ], [ -120.326387, 41.992586 ], [ -120.328538964699007, 41.992599589879497 ], [ -120.328540043301004, 41.992599596691001 ], [ -120.413985011427002, 41.993139190496798 ], [ -120.489013, 41.993613 ], [ -120.508434445763001, 41.993513652327501 ], [ -120.564863, 41.993225 ], [ -120.61589, 41.993029 ], [ -120.680984, 41.99357 ], [ -120.786166, 41.993809 ], [ -120.819216277205996, 41.993795717425101 ], [ -120.878231, 41.993772 ], [ -120.879925977228993, 41.993764341558403 ], [ -120.940201, 41.993492 ], [ -120.980416, 41.993023 ], [ -121.022114, 41.993308 ], [ -121.080956, 41.995314 ], [ -121.111238326885996, 41.995871512135999 ], [ -121.125007, 41.996125 ], [ -121.174152, 41.997228 ], [ -121.250331958386994, 41.997307178857596 ], [ -121.297304, 41.997356 ], [ -121.316486316189994, 41.997018172312998 ], [ -121.328988, 41.996798 ], [ -121.344911, 41.996214 ], [ -121.356649, 41.996493 ], [ -121.435531, 41.997327 ], [ -121.447537949131004, 41.997469292432797 ], [ -121.518985, 41.998316 ], [ -121.519526386292995, 41.998322365629697 ], [ -121.591106, 41.999164 ], [ -121.600214645464007, 41.999290990210397 ], [ -121.600302875257, 41.999292220285703 ], [ -121.680618944726007, 42.0004119646647 ], [ -121.69468, 42.000608 ], [ -121.800981, 42.002122 ], [ -121.825079635986, 42.002414624310497 ], [ -121.889217528984005, 42.003193436303398 ], [ -121.889255042360006, 42.003193891819897 ], [ -121.939829, 42.003808 ], [ -121.954084502428998, 42.003546393995499 ], [ -121.95743, 42.003485 ], [ -122.034563, 42.004696 ], [ -122.047234, 42.005339 ], [ -122.144058, 42.006552 ], [ -122.163511, 42.007264 ], [ -122.189401401612002, 42.007358315491203 ], [ -122.260687, 42.007618 ], [ -122.284835725790998, 42.008019492924497 ], [ -122.289748006075996, 42.008101163725499 ], [ -122.320293, 42.008609 ], [ -122.368051522241998, 42.009327617360299 ], [ -122.378511, 42.009485 ], [ -122.403459336051, 42.008761945174399 ], [ -122.416638, 42.00838 ], [ -122.493322, 42.008121 ], [ -122.548911, 42.007518 ], [ -122.615412874710003, 42.0055939147516 ], [ -122.634696, 42.005036 ], [ -122.672521, 42.004687 ], [ -122.713058, 42.004211 ], [ -122.753635223580005, 42.004182817737899 ], [ -122.813845, 42.004141 ], [ -122.867298, 42.003945 ], [ -122.870830789468002, 42.003920029981202 ], [ -122.875515469316994, 42.003886918315601 ], [ -122.884017334375002, 42.003826826500898 ], [ -122.889935, 42.003785 ], [ -122.893590970866001, 42.003771240490899 ], [ -122.961670756599005, 42.003515017324098 ], [ -122.963801, 42.003507 ], [ -122.988318483577004, 42.003377680638003 ], [ -123.043997, 42.003084 ], [ -123.062882, 42.00482 ], [ -123.080938, 42.005064 ], [ -123.102698940571997, 42.006587319963103 ], [ -123.125165, 42.00816 ], [ -123.145735, 42.008761 ], [ -123.183923, 42.005789 ], [ -123.231112584480002, 42.003932438424897 ], [ -123.245561, 42.003364 ], [ -123.344311064432006, 41.999382598108397 ], [ -123.346955, 41.999276 ], [ -123.44467, 42.000608 ], [ -123.474991, 42.000661 ], [ -123.517910995163007, 42.000758137359597 ], [ -123.518734, 42.00076 ], [ -123.530013873106995, 42.000730111269398 ], [ -123.569305, 42.000626 ], [ -123.624022, 41.99977 ], [ -123.631514798612002, 41.998714371006002 ], [ -123.657212, 41.995094 ], [ -123.728169, 41.997056 ], [ -123.787501, 41.995834 ], [ -123.811708, 41.995194 ], [ -123.822037891997994, 41.9956172960188 ], [ -123.834208, 41.996116 ], [ -123.967045984175996, 41.996133707438503 ], [ -123.999248, 41.996138 ], [ -124.084956, 41.996662 ], [ -124.102532, 41.99681 ], [ -124.121365, 41.997015 ], [ -124.211605, 41.99846 ], [ -124.21894, 42.007916 ], [ -124.227079, 42.0125 ], [ -124.230459, 42.013206 ], [ -124.231537, 42.015156 ], [ -124.237242, 42.018688 ], [ -124.239121787195998, 42.022582821813799 ], [ -124.239716, 42.023814 ], [ -124.244725, 42.02522 ], [ -124.245485117114995, 42.025376106200603 ], [ -124.248523, 42.026 ], [ -124.254028, 42.029218 ], [ -124.255035, 42.031573 ], [ -124.259821, 42.034578 ], [ -124.263887, 42.040923 ], [ -124.265820787595999, 42.042284325311002 ], [ -124.270094423003002, 42.045292829481802 ], [ -124.270464, 42.045553 ] ] ], [ [ [ -124.322719, 42.064104 ], [ -124.323287, 42.064124 ], [ -124.323765, 42.064438 ], [ -124.323739, 42.065188 ], [ -124.32405, 42.065785 ], [ -124.323889, 42.066648 ], [ -124.323214, 42.067318 ], [ -124.322417, 42.067459 ], [ -124.321769, 42.067305 ], [ -124.321536, 42.066766 ], [ -124.32138, 42.066016 ], [ -124.321173, 42.065612 ], [ -124.321095, 42.065034 ], [ -124.321432, 42.064573 ], [ -124.322087, 42.064226 ], [ -124.322719, 42.064104 ] ] ], [ [ [ -124.42693, 42.312846 ], [ -124.427251, 42.313704 ], [ -124.427244, 42.314462 ], [ -124.426878, 42.315107 ], [ -124.426074, 42.315529 ], [ -124.425349, 42.315299 ], [ -124.424934, 42.314781 ], [ -124.42496, 42.314091 ], [ -124.424856, 42.313325 ], [ -124.425038, 42.312826 ], [ -124.425556, 42.312673 ], [ -124.426126, 42.312596 ], [ -124.42693, 42.312846 ] ] ], [ [ [ -124.475862, 42.665495 ], [ -124.476397, 42.665888 ], [ -124.476971, 42.666151 ], [ -124.477268, 42.666602 ], [ -124.47709, 42.66717 ], [ -124.476357, 42.667622 ], [ -124.476278, 42.667957 ], [ -124.475922, 42.668452 ], [ -124.475545, 42.668554 ], [ -124.474892, 42.668029 ], [ -124.475088, 42.667505 ], [ -124.474951, 42.666748 ], [ -124.474793, 42.666384 ], [ -124.475644, 42.665743 ], [ -124.475862, 42.665495 ] ] ], [ [ [ -123.65773, 46.243367 ], [ -123.659517, 46.243493 ], [ -123.663013, 46.242576 ], [ -123.664993, 46.242691 ], [ -123.664749, 46.24431 ], [ -123.648969, 46.248461 ], [ -123.645909, 46.248494 ], [ -123.64362, 46.248936 ], [ -123.642355, 46.248754 ], [ -123.64134, 46.247981 ], [ -123.641389, 46.247204 ], [ -123.64295, 46.246304 ], [ -123.644987, 46.246071 ], [ -123.650637, 46.244072 ], [ -123.65773, 46.243367 ] ] ], [ [ [ -124.008841, 46.26723 ], [ -124.008929, 46.26557 ], [ -124.011218, 46.265752 ], [ -124.018586, 46.271995 ], [ -124.025003, 46.274131 ], [ -124.028331, 46.273967 ], [ -124.036174, 46.281523 ], [ -124.035223, 46.285137 ], [ -124.032609, 46.284973 ], [ -124.031183, 46.28333 ], [ -124.025439, 46.284567 ], [ -124.025607, 46.290697 ], [ -124.02402, 46.290834 ], [ -124.021516, 46.286917 ], [ -124.020328, 46.282975 ], [ -124.016684, 46.279388 ], [ -124.013832, 46.27331 ], [ -124.008841, 46.26723 ] ] ] ] } }
]
}
