{
"type": "FeatureCollection",
"name": "state-01-outline",
"crs": { "type": "name", "properties": { "name": "urn:ogc:def:crs:OGC:1.3:CRS84" } },
"features": [
{ "type": "Feature", "properties": { "state_fips": "01", "state_abbr": "AL", "state_name": "Alabama" }, "geometry": { "type": "MultiPolygon", "coordinates": [ [ [ [ -88.186372, 30.251198 ], [ -88.17335, 30.252418 ], [ -88.167433, 30.252693 ], [ -88.161904, 30.253396 ], [ -88.153678, 30.253165 ], [ -88.1473, 30.254105 ], [ -88.14526, 30.254969 ], [ -88.141143, 30.255024 ], [ -88.130631, 30.262125 ], [ -88.124722, 30.273541 ], [ -88.121614837443005, 30.276024861477001 ], [ -88.117738, 30.279124 ], [ -88.086812, 30.259864 ], [ -88.0767561635801, 30.250828211211601 ], [ -88.074854, 30.249119 ], [ -88.075856, 30.246139 ], [ -88.082867, 30.24536 ], [ -88.092403, 30.243602 ], [ -88.099654909418703, 30.243485825940201 ], [ -88.109382, 30.24333 ], [ -88.122721, 30.247542 ], [ -88.126304, 30.248045178136799 ], [ -88.13776, 30.249654 ], [ -88.149812, 30.249988 ], [ -88.166789, 30.249748 ], [ -88.191905, 30.248094 ], [ -88.199799, 30.24779 ], [ -88.234854, 30.241307 ], [ -88.260192, 30.236156 ], [ -88.283128, 30.232079 ], [ -88.304773, 30.228031 ], [ -88.318865, 30.22803 ], [ -88.326371, 30.228463 ], [ -88.327302, 30.229882 ], [ -88.320142, 30.232035 ], [ -88.313074, 30.231327 ], [ -88.299705, 30.231812 ], [ -88.279154, 30.235155 ], [ -88.25837, 30.239595 ], [ -88.224615, 30.245559 ], [ -88.201468, 30.251179 ], [ -88.192127, 30.250248 ], [ -88.190179, 30.251334 ], [ -88.186372, 30.251198 ] ] ], [ [ [ -88.225421, 30.319893 ], [ -88.226195, 30.320726 ], [ -88.225723, 30.321556 ], [ -88.220732, 30.322114 ], [ -88.219581, 30.321414 ], [ -88.220241, 30.320527 ], [ -88.225421, 30.319893 ] ] ], [ [ [ -88.259312, 30.355541 ], [ -88.259022, 30.360756 ], [ -88.259138, 30.363113 ], [ -88.26001, 30.365821 ], [ -88.25947, 30.366778 ], [ -88.25855, 30.366608 ], [ -88.256291, 30.363815 ], [ -88.256, 30.360907 ], [ -88.256756, 30.354739 ], [ -88.25717, 30.35255 ], [ -88.256316, 30.346484 ], [ -88.255134, 30.342175 ], [ -88.253557, 30.337299 ], [ -88.253294, 30.334804 ], [ -88.253623, 30.331005 ], [ -88.255395, 30.326232 ], [ -88.256207, 30.325115 ], [ -88.25781, 30.325549 ], [ -88.259764, 30.32763 ], [ -88.261375, 30.332877 ], [ -88.262404, 30.334219 ], [ -88.261902, 30.335077 ], [ -88.260377, 30.335607 ], [ -88.259141, 30.337129 ], [ -88.258765, 30.339312 ], [ -88.257704, 30.340859 ], [ -88.257935, 30.344 ], [ -88.261547, 30.346618 ], [ -88.261541, 30.347672 ], [ -88.260158, 30.349165 ], [ -88.260297, 30.350175 ], [ -88.259312, 30.355541 ] ] ], [ [ [ -88.200065, 30.362378 ], [ -88.204495, 30.362102 ], [ -88.209231, 30.360017 ], [ -88.214072, 30.365558 ], [ -88.216461, 30.367599 ], [ -88.224536, 30.371307 ], [ -88.230886, 30.371625 ], [ -88.234466, 30.371715 ], [ -88.238748, 30.373505 ], [ -88.239957, 30.374899 ], [ -88.241041757722996, 30.3752903664424 ], [ -88.260695, 30.382381 ], [ -88.265637, 30.381093 ], [ -88.267531, 30.381085 ], [ -88.2708, 30.381447 ], [ -88.271785816930603, 30.381566031043 ], [ -88.275449825652004, 30.382008436489802 ], [ -88.282635, 30.382876 ], [ -88.287392, 30.384252 ], [ -88.288105, 30.387328 ], [ -88.292265, 30.387328 ], [ -88.292696589448695, 30.387229083443899 ], [ -88.29987, 30.385585 ], [ -88.303554, 30.379229 ], [ -88.303317, 30.37318 ], [ -88.304743, 30.371334 ], [ -88.311517, 30.370206 ], [ -88.314607, 30.371437 ], [ -88.31223, 30.376563 ], [ -88.314844, 30.384457 ], [ -88.315082, 30.391633 ], [ -88.321143, 30.396348 ], [ -88.326134, 30.397783 ], [ -88.331957, 30.401166 ], [ -88.338018, 30.404753 ], [ -88.343735, 30.401988 ], [ -88.350021, 30.405061 ], [ -88.357362, 30.406623 ], [ -88.360499, 30.403239 ], [ -88.359608, 30.400395 ], [ -88.364022, 30.388006 ], [ -88.374671, 30.385608 ], [ -88.395023, 30.369425 ], [ -88.399581054380306, 30.458217280555999 ], [ -88.400317864836694, 30.4725705715224 ], [ -88.400402355357102, 30.474216472463599 ], [ -88.400403520507794, 30.474239169952799 ], [ -88.401965485247203, 30.504666716398599 ], [ -88.402283, 30.510852 ], [ -88.403547, 30.5331 ], [ -88.403931, 30.543359 ], [ -88.404004538066303, 30.544884466473398 ], [ -88.404009002644003, 30.544977079237601 ], [ -88.404013, 30.54506 ], [ -88.404188410750706, 30.5489854409314 ], [ -88.404676680269006, 30.559912212208602 ], [ -88.4060104917735, 30.589761 ], [ -88.407261410294495, 30.617754761750501 ], [ -88.407484, 30.622736 ], [ -88.407462, 30.631653 ], [ -88.408064334813105, 30.636920457568198 ], [ -88.408066668182002, 30.636940863032802 ], [ -88.40807, 30.63697 ], [ -88.409386077723198, 30.664818064334799 ], [ -88.409571, 30.668731 ], [ -88.411339, 30.706334 ], [ -88.41155, 30.712956 ], [ -88.412209, 30.730395 ], [ -88.41227, 30.731771 ], [ -88.412450601279104, 30.7355976173844 ], [ -88.4148111125415, 30.785612619929299 ], [ -88.418127284711602, 30.855876364131198 ], [ -88.418253770271505, 30.858556366425798 ], [ -88.418458846946393, 30.862901573576298 ], [ -88.418476474479505, 30.863275069407301 ], [ -88.41863, 30.866528 ], [ -88.419562, 30.875186 ], [ -88.4256361537673, 30.998301128660898 ], [ -88.425729, 31.000183 ], [ -88.425807, 31.001123 ], [ -88.430419682621505, 31.085323057369099 ], [ -88.431583625316193, 31.106569704864501 ], [ -88.432007, 31.114298 ], [ -88.433507696207599, 31.1427912908627 ], [ -88.438104, 31.23006 ], [ -88.438211, 31.231252 ], [ -88.43898, 31.246896 ], [ -88.43878, 31.252654 ], [ -88.439151223564195, 31.2586381679242 ], [ -88.439708632759505, 31.267623670323701 ], [ -88.440387509945495, 31.278567251153799 ], [ -88.441096449965002, 31.289995448429 ], [ -88.443808238742903, 31.333709805452202 ], [ -88.444156450475504, 31.339323019919402 ], [ -88.445182, 31.355855 ], [ -88.445209, 31.355969 ], [ -88.448686, 31.420888 ], [ -88.44866, 31.421277 ], [ -88.449569225454994, 31.435828800772601 ], [ -88.449569596399598, 31.435834737597698 ], [ -88.451045, 31.459448 ], [ -88.451575, 31.481533 ], [ -88.453013, 31.500164 ], [ -88.453290679591504, 31.5053820569557 ], [ -88.453574106682794, 31.510708118899299 ], [ -88.453609598113104, 31.511375061340999 ], [ -88.456330653585297, 31.562508176143901 ], [ -88.457771642454105, 31.589586730776201 ], [ -88.459478, 31.621652 ], [ -88.459722, 31.624002 ], [ -88.460629935741494, 31.638264680128401 ], [ -88.4638529086848, 31.6888940694711 ], [ -88.464425, 31.697881 ], [ -88.464426979280901, 31.697951902948802 ], [ -88.465107, 31.722312 ], [ -88.468197225379996, 31.781661331343301 ], [ -88.468669, 31.790722 ], [ -88.469053533078394, 31.800225189871199 ], [ -88.469825401660898, 31.819300827588201 ], [ -88.471106, 31.850949 ], [ -88.471214, 31.851385 ], [ -88.472642, 31.875153 ], [ -88.473227, 31.893856 ], [ -88.468879, 31.930262 ], [ -88.468874384386496, 31.930323351831198 ], [ -88.468874255162106, 31.930325069512499 ], [ -88.46866, 31.933173 ], [ -88.455039, 32.039719 ], [ -88.454959, 32.040576 ], [ -88.453883488878304, 32.049280034926902 ], [ -88.453417689132706, 32.053049719101203 ], [ -88.443049750596998, 32.136956707427601 ], [ -88.442846807468896, 32.138599111712701 ], [ -88.441879140561895, 32.146430371089302 ], [ -88.43871, 32.172078 ], [ -88.43865, 32.172806 ], [ -88.435810758905205, 32.193976303562103 ], [ -88.433837382438497, 32.208690439293598 ], [ -88.431294016383902, 32.227654602479198 ], [ -88.428278, 32.250143 ], [ -88.427941143321206, 32.253032169143701 ], [ -88.424070567707702, 32.286229514885598 ], [ -88.421453, 32.30868 ], [ -88.414918620975698, 32.3645243746791 ], [ -88.414714358595106, 32.366270050109797 ], [ -88.414453282710696, 32.368501267407702 ], [ -88.413819, 32.373922 ], [ -88.4125, 32.380025 ], [ -88.410096145510195, 32.399271565421799 ], [ -88.403916385396599, 32.448750083286903 ], [ -88.403912424562705, 32.448781795875902 ], [ -88.403789, 32.44977 ], [ -88.403789, 32.449885 ], [ -88.403314200772201, 32.4542976645469 ], [ -88.399970311934595, 32.485374925964699 ], [ -88.399966, 32.485415 ], [ -88.388857246518199, 32.578122919410298 ], [ -88.386175348395895, 32.600504656064501 ], [ -88.385582348992898, 32.6054535228254 ], [ -88.385377926318199, 32.607159528893902 ], [ -88.383039, 32.626679 ], [ -88.382985, 32.626954 ], [ -88.373338, 32.711825 ], [ -88.369055210975702, 32.7425839924895 ], [ -88.368349, 32.747656 ], [ -88.368185595130001, 32.7491378149249 ], [ -88.366609110745202, 32.763433949979998 ], [ -88.354292, 32.87513 ], [ -88.347850025608395, 32.929077584824 ], [ -88.340432, 32.991199 ], [ -88.331007649611905, 33.072489727510401 ], [ -88.330934, 33.073125 ], [ -88.321833881393403, 33.146325591716497 ], [ -88.317135, 33.184123 ], [ -88.315235, 33.203323 ], [ -88.312535, 33.220923 ], [ -88.311472583298396, 33.229743079738199 ], [ -88.308090416343703, 33.257821499612703 ], [ -88.304416987082604, 33.288317950720597 ], [ -88.302743730831807, 33.3022091607627 ], [ -88.300500045771301, 33.3208360150958 ], [ -88.300498840973404, 33.320846017210002 ], [ -88.297097022749298, 33.349087580004401 ], [ -88.293016549480001, 33.3829632707304 ], [ -88.285948112966494, 33.441644740610698 ], [ -88.280104313976196, 33.490159389327602 ], [ -88.278348019211705, 33.504739977004697 ], [ -88.277421, 33.512436 ], [ -88.276805, 33.516463 ], [ -88.274619, 33.534008 ], [ -88.274140784276895, 33.537860834095298 ], [ -88.2713779363513, 33.560120233305 ], [ -88.270781740705004, 33.564923594638998 ], [ -88.27005, 33.570819 ], [ -88.269532, 33.572894 ], [ -88.269076, 33.576929 ], [ -88.26816, 33.58504 ], [ -88.267148, 33.591989 ], [ -88.267005, 33.594229 ], [ -88.2623713027984, 33.632397244516703 ], [ -88.262370726857995, 33.632401988597103 ], [ -88.256343, 33.682053 ], [ -88.256339475573199, 33.682066416096497 ], [ -88.256131, 33.68286 ], [ -88.254622, 33.69578 ], [ -88.254445, 33.698779 ], [ -88.252257, 33.719568 ], [ -88.248937346595199, 33.744973677721298 ], [ -88.246021841525902, 33.767286363158902 ], [ -88.244142, 33.781673 ], [ -88.243025, 33.79568 ], [ -88.241609438738294, 33.8029217083864 ], [ -88.241599297068404, 33.802973590998803 ], [ -88.240054, 33.810879 ], [ -88.235492, 33.847203 ], [ -88.230986959748293, 33.879502758229897 ], [ -88.229461358597206, 33.890440851029098 ], [ -88.229252650117004, 33.891937226882 ], [ -88.229249068321707, 33.891962907257202 ], [ -88.228931872530694, 33.894237103887697 ], [ -88.226517, 33.911551 ], [ -88.226517, 33.911665 ], [ -88.226428, 33.912875 ], [ -88.222135875909004, 33.944702439456897 ], [ -88.213270019726494, 34.010445529567797 ], [ -88.211746835546904, 34.021740415556799 ], [ -88.210741, 34.029199 ], [ -88.207229, 34.058333 ], [ -88.206005296278605, 34.068357696418097 ], [ -88.203784063838299, 34.086554242280201 ], [ -88.200196, 34.115948 ], [ -88.192128, 34.175351 ], [ -88.190678, 34.190123 ], [ -88.18762, 34.204778 ], [ -88.186667, 34.220952 ], [ -88.1774959379743, 34.289332593991098 ], [ -88.177106170745404, 34.292238747559203 ], [ -88.176889, 34.293858 ], [ -88.175867, 34.302171 ], [ -88.173632, 34.321054 ], [ -88.16591, 34.380926 ], [ -88.165673373443099, 34.382791577492398 ], [ -88.165634, 34.383102 ], [ -88.161374828665501, 34.419626377429601 ], [ -88.159429778512802, 34.436306088180203 ], [ -88.1586659845225, 34.442855977299402 ], [ -88.156751039727993, 34.459277520585402 ], [ -88.1565520647315, 34.460983823830702 ], [ -88.156292, 34.463214 ], [ -88.156050093644495, 34.464972049690502 ], [ -88.1525090963558, 34.490706177986397 ], [ -88.145726908670099, 34.539995593877599 ], [ -88.139988, 34.581703 ], [ -88.139246, 34.587795 ], [ -88.138719, 34.589215 ], [ -88.134364191950894, 34.621900492639703 ], [ -88.134263, 34.62266 ], [ -88.1308067668013, 34.644813373641099 ], [ -88.122922844412798, 34.695346849939099 ], [ -88.120809790864001, 34.708890862191602 ], [ -88.118407, 34.724292 ], [ -88.116418, 34.746303 ], [ -88.1137746540129, 34.765796856018198 ], [ -88.10756, 34.811628 ], [ -88.104828239252001, 34.834385329457199 ], [ -88.097888, 34.892202 ], [ -88.099999, 34.894095 ], [ -88.125038, 34.902227 ], [ -88.136692, 34.907592 ], [ -88.139721, 34.909631 ], [ -88.146335, 34.914374 ], [ -88.154617, 34.922392 ], [ -88.160135556924402, 34.931143227434703 ], [ -88.161594, 34.933456 ], [ -88.172102, 34.955213 ], [ -88.176106, 34.962519 ], [ -88.179973, 34.967466 ], [ -88.187429, 34.974909 ], [ -88.198811, 34.991192 ], [ -88.200064, 34.995634 ], [ -88.20082, 34.997774 ], [ -88.201987, 35.005421 ], [ -88.202959, 35.008028 ], [ -88.000032, 35.005939 ], [ -87.984916201911403, 35.005880673226898 ], [ -87.926976661954299, 35.005657104059203 ], [ -87.877969, 35.005468 ], [ -87.877742, 35.005512 ], [ -87.872626, 35.005571 ], [ -87.853528, 35.005541 ], [ -87.853411, 35.005576 ], [ -87.851886, 35.005656 ], [ -87.821161386503903, 35.005377398779203 ], [ -87.8211342757523, 35.005377152947403 ], [ -87.773586, 35.004946 ], [ -87.767602, 35.004783 ], [ -87.75889, 35.004711 ], [ -87.722324028492693, 35.0042505851277 ], [ -87.709491, 35.004089 ], [ -87.709459582142401, 35.004088369013701 ], [ -87.702321, 35.003945 ], [ -87.700543, 35.003988 ], [ -87.696834, 35.003852 ], [ -87.688709375107507, 35.003751356764297 ], [ -87.671405, 35.003537 ], [ -87.664123, 35.003523 ], [ -87.625025, 35.003732 ], [ -87.619281561800904, 35.003704600444003 ], [ -87.606178379167005, 35.003642090606903 ], [ -87.577487647461496, 35.003505219053203 ], [ -87.522389992495306, 35.003242371046397 ], [ -87.4958434829136, 35.003115728685103 ], [ -87.492951766558605, 35.003101933508503 ], [ -87.492917948154201, 35.003101772175 ], [ -87.443286522935495, 35.002865001277897 ], [ -87.437073716805898, 35.0028353625626 ], [ -87.437042792076895, 35.002835215033599 ], [ -87.428613, 35.002795 ], [ -87.421543, 35.002679 ], [ -87.4174, 35.002669 ], [ -87.391314, 35.002374 ], [ -87.381071, 35.002118 ], [ -87.359281, 35.001823 ], [ -87.359267430383696, 35.0018227821826 ], [ -87.349324522521499, 35.001663180172102 ], [ -87.349251, 35.001662 ], [ -87.299215677729606, 35.000915457721099 ], [ -87.299185, 35.000915 ], [ -87.270014, 35.00039 ], [ -87.230544, 34.999484 ], [ -87.224053220296994, 34.999326659116903 ], [ -87.219771760367806, 34.999222873637102 ], [ -87.216683, 34.999148 ], [ -87.215236205961006, 34.999117715992398 ], [ -87.210759, 34.999024 ], [ -87.162752437573502, 34.998095065740898 ], [ -87.1396209266955, 34.997647467499498 ], [ -87.125649314275407, 34.997377114681598 ], [ -87.120487314976799, 34.997277229212798 ], [ -87.094593359221605, 34.9967761772443 ], [ -87.089978449400704, 34.996686878039803 ], [ -87.030094069137604, 34.995528106205398 ], [ -87.011174, 34.995162 ], [ -87.000007, 34.995121 ], [ -86.988678247085303, 34.994851889557602 ], [ -86.974412, 34.994513 ], [ -86.972613, 34.99461 ], [ -86.970236, 34.994546 ], [ -86.96712, 34.9944 ], [ -86.937460599054901, 34.9937094645679 ], [ -86.8792364883071, 34.992353880497099 ], [ -86.879203662682002, 34.992353116245098 ], [ -86.877715428089999, 34.992318466903399 ], [ -86.862147, 34.991956 ], [ -86.8573743674567, 34.991943636667898 ], [ -86.849794, 34.991924 ], [ -86.846466, 34.99186 ], [ -86.83637, 34.991764 ], [ -86.836306, 34.991764 ], [ -86.820657, 34.991764 ], [ -86.819396024528302, 34.991769485612998 ], [ -86.783648, 34.991925 ], [ -86.783628017090606, 34.9919250273269 ], [ -86.775339918443507, 34.9919363613987 ], [ -86.721712416041399, 34.992009697635403 ], [ -86.694302028966106, 34.992047181660297 ], [ -86.677672708677704, 34.992069922450199 ], [ -86.677616, 34.99207 ], [ -86.676726, 34.99207 ], [ -86.67436, 34.992001 ], [ -86.670853, 34.992 ], [ -86.65961, 34.991792 ], [ -86.641392848756396, 34.991740511149899 ], [ -86.641212, 34.99174 ], [ -86.600039, 34.99124 ], [ -86.588962, 34.991197 ], [ -86.571308000483697, 34.991011953851199 ], [ -86.571217, 34.991011 ], [ -86.555864, 34.990971 ], [ -86.555767670189397, 34.990969965595397 ], [ -86.528485, 34.990677 ], [ -86.5227079907133, 34.9906784279028 ], [ -86.5224600055586, 34.9906784891973 ], [ -86.473299036492193, 34.990690640309303 ], [ -86.467798, 34.990692 ], [ -86.433927, 34.991085 ], [ -86.428607625902899, 34.9911682872265 ], [ -86.397203, 34.99166 ], [ -86.377752638215199, 34.991532789124498 ], [ -86.318761144095205, 34.991146968043203 ], [ -86.311274, 34.991098 ], [ -86.253946170006301, 34.990749554190501 ], [ -86.152931128541795, 34.990135571978101 ], [ -86.067211388804594, 34.989614556546201 ], [ -86.067136391575204, 34.989614100703498 ], [ -86.067068388009403, 34.9896136873692 ], [ -86.067059652340902, 34.9896136342727 ], [ -85.863935475546398, 34.9883790198068 ], [ -85.860920284646497, 34.988360693094698 ], [ -85.828724, 34.988165 ], [ -85.824411, 34.988142 ], [ -85.8081505497085, 34.987885091322902 ], [ -85.796052982986296, 34.987693954558203 ], [ -85.757949170286096, 34.987091929402901 ], [ -85.748942822757996, 34.9869496326776 ], [ -85.745416849759195, 34.986893923700201 ], [ -85.726500269204294, 34.986595049216497 ], [ -85.726239039383003, 34.986590921888698 ], [ -85.722321600907904, 34.9865290279118 ], [ -85.702251260536599, 34.986211924479797 ], [ -85.7008436226794, 34.986189684358898 ], [ -85.700826268662397, 34.986189410172301 ], [ -85.694766327826699, 34.986093665506203 ], [ -85.615686780013206, 34.984844239958598 ], [ -85.611494932011993, 34.984778010419703 ], [ -85.611432553074593, 34.984777024857202 ], [ -85.605165, 34.984678 ], [ -85.599385, 34.951766 ], [ -85.598781, 34.944915 ], [ -85.596855527654796, 34.933874910096499 ], [ -85.596523078919404, 34.931968747208003 ], [ -85.595191, 34.924331 ], [ -85.595163, 34.924171 ], [ -85.584726476799403, 34.868766591596 ], [ -85.583145, 34.860371 ], [ -85.575927078755299, 34.8237342946789 ], [ -85.574353408072696, 34.815746661242997 ], [ -85.561416, 34.750079 ], [ -85.558067053850294, 34.734425844267001 ], [ -85.553724361128104, 34.714127863217698 ], [ -85.552482, 34.708321 ], [ -85.552454, 34.708138 ], [ -85.552089227200696, 34.706463475363698 ], [ -85.542501013985003, 34.6624478599444 ], [ -85.541267, 34.656783 ], [ -85.541264, 34.656701 ], [ -85.534327, 34.625082 ], [ -85.534089375370399, 34.6238579271308 ], [ -85.527261, 34.588683 ], [ -85.517074, 34.542598 ], [ -85.514697991258203, 34.529443798931702 ], [ -85.51393, 34.525192 ], [ -85.513709, 34.52417 ], [ -85.512108, 34.518252 ], [ -85.508384, 34.501212 ], [ -85.504944705882394, 34.485735176470598 ], [ -85.502454, 34.474527 ], [ -85.502316, 34.473954 ], [ -85.484588350541401, 34.3928900308523 ], [ -85.474016908109306, 34.344549550905398 ], [ -85.47045, 34.328239 ], [ -85.470434330642306, 34.328160630554301 ], [ -85.467676385249007, 34.314366915744799 ], [ -85.462081718903704, 34.286385494426597 ], [ -85.458693, 34.269437 ], [ -85.458071, 34.265736 ], [ -85.455371, 34.252854 ], [ -85.455057, 34.250689 ], [ -85.444715014064002, 34.199925681140499 ], [ -85.444708236529195, 34.199892413820201 ], [ -85.42947, 34.125096 ], [ -85.428222, 34.114397 ], [ -85.427888633343201, 34.112639669559996 ], [ -85.421852774154402, 34.080821853142403 ], [ -85.420232, 34.072278 ], [ -85.406748, 34.002314 ], [ -85.405918, 34.0001 ], [ -85.399383409370202, 33.966904722561203 ], [ -85.398837, 33.964129 ], [ -85.391495243791098, 33.927068064286303 ], [ -85.388717131256499, 33.913044246670701 ], [ -85.386473472168404, 33.901718331881099 ], [ -85.380884997931105, 33.873507903945999 ], [ -85.377426, 33.856047 ], [ -85.376402728158496, 33.850655745661598 ], [ -85.361844, 33.773951 ], [ -85.360491, 33.767958 ], [ -85.357402, 33.750104 ], [ -85.3569782031297, 33.747963370109503 ], [ -85.355252215744201, 33.739245277912502 ], [ -85.342721740490802, 33.6759529042533 ], [ -85.338200608392796, 33.653116325725897 ], [ -85.323792298793293, 33.580338869442301 ], [ -85.315340215272997, 33.537646759403103 ], [ -85.315340089511096, 33.537646124170202 ], [ -85.314994, 33.535898 ], [ -85.314843487719898, 33.534951256089599 ], [ -85.314091, 33.530218 ], [ -85.313999, 33.529807 ], [ -85.304439, 33.482884 ], [ -85.303388622035499, 33.477420725638801 ], [ -85.297527400904301, 33.4469350716994 ], [ -85.296309781219506, 33.440601931981597 ], [ -85.293902163433302, 33.428079319201203 ], [ -85.281404617724604, 33.363076507493602 ], [ -85.2626626417577, 33.265594876844098 ], [ -85.252153701337605, 33.210935290770699 ], [ -85.252143787886993, 33.210883728473704 ], [ -85.236508654114502, 33.129561548877902 ], [ -85.232378, 33.108077 ], [ -85.228431762899802, 33.088383904755098 ], [ -85.227799876367698, 33.085230571251699 ], [ -85.223516898458001, 33.063857022281901 ], [ -85.223261, 33.06258 ], [ -85.221868, 33.055538 ], [ -85.210891601815007, 33.0005976927144 ], [ -85.204116575020194, 32.966686563790198 ], [ -85.202551162087502, 32.958851182264901 ], [ -85.191263960120907, 32.9023552048059 ], [ -85.190783846234098, 32.8999520845814 ], [ -85.189077579459294, 32.891411685504899 ], [ -85.188741, 32.889727 ], [ -85.187058653864895, 32.881653756862498 ], [ -85.185737144418894, 32.875312096936398 ], [ -85.185323742422199, 32.873328263310903 ], [ -85.185047577987206, 32.872003005337099 ], [ -85.18474, 32.870527 ], [ -85.184131, 32.870525 ], [ -85.184651204670203, 32.869474625052803 ], [ -85.184914, 32.868944 ], [ -85.184888423824901, 32.863446106048002 ], [ -85.184888, 32.863355 ], [ -85.1844, 32.861317 ], [ -85.179353, 32.855269 ], [ -85.178470713197399, 32.854724407876603 ], [ -85.178380727906898, 32.8546688643954 ], [ -85.1783639525338, 32.854658509784997 ], [ -85.177127, 32.853895 ], [ -85.170099, 32.852497 ], [ -85.168064, 32.852863 ], [ -85.166761, 32.85474 ], [ -85.164318, 32.856183 ], [ -85.16231, 32.856479 ], [ -85.161089, 32.856045 ], [ -85.159841, 32.854945 ], [ -85.157136300979801, 32.851508931772997 ], [ -85.155884, 32.849918 ], [ -85.154255, 32.847476 ], [ -85.153388, 32.844865 ], [ -85.153462209283006, 32.8434461729737 ], [ -85.153497, 32.842781 ], [ -85.153905, 32.841018 ], [ -85.154584, 32.839805 ], [ -85.157432, 32.839439 ], [ -85.16058, 32.838249 ], [ -85.164651, 32.834791 ], [ -85.165473357677001, 32.833425373046403 ], [ -85.168016, 32.829203 ], [ -85.164104, 32.82128 ], [ -85.164670578404795, 32.820232662310502 ], [ -85.166078, 32.817631 ], [ -85.167250781992095, 32.813837891558002 ], [ -85.167914490182298, 32.811691271677901 ], [ -85.167939, 32.811612 ], [ -85.163845922832706, 32.806409234727901 ], [ -85.162137, 32.804237 ], [ -85.152900345963303, 32.795082557966197 ], [ -85.151913, 32.794104 ], [ -85.150583668987494, 32.793457081993402 ], [ -85.145771, 32.791115 ], [ -85.141903, 32.791821 ], [ -85.140558, 32.789701 ], [ -85.140191516028395, 32.788324885794097 ], [ -85.139285, 32.784921 ], [ -85.134673, 32.783905 ], [ -85.129934, 32.779649 ], [ -85.126219, 32.779189 ], [ -85.123601, 32.775711 ], [ -85.122189, 32.773353 ], [ -85.130884, 32.769562 ], [ -85.13439, 32.770577 ], [ -85.137382, 32.769068 ], [ -85.140573, 32.764036 ], [ -85.142567, 32.760682 ], [ -85.139576, 32.754308 ], [ -85.136584, 32.748437 ], [ -85.134794631893001, 32.746795250683903 ], [ -85.132196, 32.744411 ], [ -85.127604, 32.743047 ], [ -85.124092, 32.741694 ], [ -85.11855, 32.740817 ], [ -85.114795, 32.738104 ], [ -85.113329, 32.735751 ], [ -85.113167, 32.732813 ], [ -85.115038, 32.728831 ], [ -85.117338, 32.726632 ], [ -85.118838, 32.724832 ], [ -85.120838, 32.722932 ], [ -85.121505063206001, 32.7204024261057 ], [ -85.122738, 32.715727 ], [ -85.119, 32.710057 ], [ -85.119279, 32.707715 ], [ -85.119279, 32.703966 ], [ -85.117037, 32.692033 ], [ -85.115345067400398, 32.687325749258797 ], [ -85.114737, 32.685634 ], [ -85.112637, 32.683434 ], [ -85.104037, 32.679634 ], [ -85.093536, 32.669734 ], [ -85.088483, 32.657758 ], [ -85.089736, 32.655635 ], [ -85.096336, 32.652835 ], [ -85.100337, 32.650135 ], [ -85.105337, 32.644835 ], [ -85.102989, 32.641033 ], [ -85.100388, 32.637118 ], [ -85.096597, 32.634667 ], [ -85.091336, 32.634036 ], [ -85.086175, 32.635362 ], [ -85.083635, 32.635973 ], [ -85.082365, 32.633834 ], [ -85.084724, 32.630472 ], [ -85.084928045145105, 32.630332863704197 ], [ -85.088534, 32.627874 ], [ -85.089441, 32.625429 ], [ -85.089254151132593, 32.625029822874097 ], [ -85.088319, 32.623032 ], [ -85.087294, 32.62047 ], [ -85.08536, 32.618536 ], [ -85.083616, 32.6178 ], [ -85.08224, 32.616264 ], [ -85.080768, 32.610152 ], [ -85.080617851265401, 32.608095275145999 ], [ -85.080288, 32.603577 ], [ -85.076399, 32.594665 ], [ -85.067535, 32.579546 ], [ -85.059672, 32.576742 ], [ -85.056926, 32.571242 ], [ -85.044364, 32.559584 ], [ -85.040555, 32.555644 ], [ -85.035013573915705, 32.552106176696597 ], [ -85.034841, 32.551996 ], [ -85.032071, 32.545429 ], [ -85.022509, 32.542923 ], [ -85.022503753225493, 32.542890445121003 ], [ -85.022045, 32.540044 ], [ -85.020237, 32.534748 ], [ -85.016273434346999, 32.531200775276901 ], [ -85.016191, 32.531127 ], [ -85.015704659239404, 32.530111209622298 ], [ -85.013788, 32.526108 ], [ -85.008396, 32.524876 ], [ -85.0071, 32.523868 ], [ -85.002885567676699, 32.516959752188498 ], [ -85.001532, 32.514741 ], [ -85.001224365060807, 32.512858998018899 ], [ -85.000788868077393, 32.510194781179599 ], [ -85.000284108149501, 32.507106838090898 ], [ -84.999832, 32.504341 ], [ -84.997505, 32.500728 ], [ -84.997690918248097, 32.4992473983285 ], [ -84.998332, 32.494142 ], [ -84.996732, 32.492342 ], [ -84.995716535669402, 32.4889767052696 ], [ -84.994831, 32.486042 ], [ -84.995151550684895, 32.477387131506802 ], [ -84.995231, 32.475242 ], [ -84.996693374796095, 32.4726097253671 ], [ -84.998231, 32.469842 ], [ -84.998112685654604, 32.465050860583901 ], [ -84.9980355773463, 32.461928359639501 ], [ -84.998031, 32.461743 ], [ -84.995331, 32.453243 ], [ -84.995244262381405, 32.453122531085299 ], [ -84.995195703880199, 32.4530550887225 ], [ -84.993531, 32.450743 ], [ -84.983831, 32.445643 ], [ -84.971831, 32.442843 ], [ -84.967031, 32.435343 ], [ -84.96303, 32.424244 ], [ -84.963222, 32.423428 ], [ -84.963311390163895, 32.423048091803302 ], [ -84.96343, 32.422544 ], [ -84.97183, 32.416244 ], [ -84.979431, 32.412244 ], [ -84.980304714284202, 32.4073114714284 ], [ -84.981098, 32.402833 ], [ -84.979898, 32.400097 ], [ -84.973882, 32.395217 ], [ -84.968762, 32.393009 ], [ -84.96873, 32.391457 ], [ -84.971773, 32.390599 ], [ -84.976394, 32.391025 ], [ -84.978362, 32.390497 ], [ -84.983386, 32.391761 ], [ -84.985978, 32.389665 ], [ -84.986969900028399, 32.387514856460101 ], [ -84.988554, 32.384081 ], [ -84.986282, 32.380336 ], [ -84.979354, 32.380705 ], [ -84.973818, 32.379873 ], [ -84.971962, 32.377698 ], [ -84.97433, 32.374578 ], [ -84.977274, 32.373842 ], [ -84.980282, 32.374386 ], [ -84.98409, 32.373522 ], [ -84.986298, 32.369666 ], [ -84.985171, 32.367062 ], [ -84.983242, 32.365122 ], [ -84.983466, 32.363186 ], [ -84.986778, 32.359058 ], [ -85.002713152277295, 32.3466510644312 ], [ -85.004582, 32.345196 ], [ -85.008096, 32.336677 ], [ -85.007103, 32.328362 ], [ -85.001874, 32.322015 ], [ -84.989514, 32.319316 ], [ -84.955721292973493, 32.306946037133599 ], [ -84.93868, 32.300708 ], [ -84.9338, 32.29826 ], [ -84.922872, 32.285333 ], [ -84.911127, 32.276949 ], [ -84.904023, 32.273749 ], [ -84.893959, 32.265846 ], [ -84.891841, 32.263398 ], [ -84.88908, 32.260911 ], [ -84.8891466552477, 32.259720423819701 ], [ -84.889174, 32.259232 ], [ -84.892296, 32.258272 ], [ -84.898139, 32.258608 ], [ -84.901454, 32.257424 ], [ -84.90251, 32.255233 ], [ -84.904087, 32.250838 ], [ -84.907227, 32.24905 ], [ -84.910098, 32.248333 ], [ -84.917327, 32.249049 ], [ -84.923015, 32.250822 ], [ -84.924427, 32.249797 ], [ -84.924127, 32.245649 ], [ -84.923027, 32.244549 ], [ -84.920327, 32.24405 ], [ -84.917227, 32.24595 ], [ -84.913927, 32.24515 ], [ -84.912727, 32.24335 ], [ -84.916327, 32.236551 ], [ -84.920627, 32.233951 ], [ -84.922627, 32.231751 ], [ -84.923031158004207, 32.230852871101902 ], [ -84.923527, 32.229751 ], [ -84.922927, 32.224751 ], [ -84.924855411158305, 32.222282633717398 ], [ -84.925427, 32.221551 ], [ -84.928227, 32.219851 ], [ -84.930127, 32.219051 ], [ -84.939328, 32.217951 ], [ -84.949451, 32.218511 ], [ -84.956328, 32.217851 ], [ -84.9582235136984, 32.217925333870497 ], [ -84.961428, 32.218051 ], [ -84.967428, 32.219351 ], [ -84.972128, 32.218251 ], [ -84.978729, 32.21255 ], [ -84.980229, 32.210051 ], [ -84.980229, 32.207751 ], [ -84.977128, 32.205751 ], [ -84.974628, 32.203651 ], [ -84.972328, 32.20355 ], [ -84.969428, 32.204451 ], [ -84.966928, 32.204451 ], [ -84.963228, 32.20225 ], [ -84.962228, 32.200051 ], [ -84.961728, 32.19865 ], [ -84.964628, 32.195152 ], [ -84.966828, 32.193952 ], [ -84.973728, 32.191552 ], [ -84.995929, 32.184852 ], [ -85.008531, 32.181903 ], [ -85.011267, 32.180493 ], [ -85.013065, 32.179112 ], [ -85.014648, 32.176882 ], [ -85.026583, 32.166104 ], [ -85.030336, 32.161727 ], [ -85.033989, 32.156348 ], [ -85.045593, 32.143758 ], [ -85.047865, 32.142033 ], [ -85.058749, 32.136018 ], [ -85.061144, 32.134065 ], [ -85.06206, 32.132486 ], [ -85.06154, 32.129673 ], [ -85.05918, 32.125153 ], [ -85.055045, 32.113671 ], [ -85.053777, 32.107684 ], [ -85.04955, 32.095362 ], [ -85.047063, 32.090433 ], [ -85.045511, 32.086867 ], [ -85.047077, 32.084347 ], [ -85.051161, 32.082527 ], [ -85.053232, 32.080604 ], [ -85.055813, 32.074439 ], [ -85.055491, 32.072657 ], [ -85.054084, 32.07021 ], [ -85.054179, 32.067985 ], [ -85.056029, 32.063055 ], [ -85.05683, 32.059755 ], [ -85.05643, 32.058055 ], [ -85.05663, 32.054155 ], [ -85.05883, 32.046656 ], [ -85.05803, 32.043756 ], [ -85.055333, 32.04058 ], [ -85.054839, 32.038814 ], [ -85.054627, 32.036694 ], [ -85.055474, 32.034221 ], [ -85.056464, 32.031819 ], [ -85.056253, 32.028336 ], [ -85.055217, 32.027213 ], [ -85.0544436067118, 32.026652024344003 ], [ -85.052814, 32.02547 ], [ -85.050601, 32.023906 ], [ -85.04931, 32.022694 ], [ -85.05014, 32.021092 ], [ -85.053669, 32.020662 ], [ -85.054768, 32.017407 ], [ -85.053815, 32.013502 ], [ -85.055075, 32.010714 ], [ -85.063441, 32.00414 ], [ -85.064544, 32.002489 ], [ -85.06803, 31.993357 ], [ -85.0680981818182, 31.991857 ], [ -85.06833, 31.986757 ], [ -85.07093, 31.981658 ], [ -85.06993, 31.978358 ], [ -85.066829, 31.974758 ], [ -85.065929, 31.972458 ], [ -85.065929, 31.971158 ], [ -85.067829, 31.967358 ], [ -85.07023, 31.965658 ], [ -85.07393, 31.964158 ], [ -85.08323, 31.962458 ], [ -85.08573, 31.960758 ], [ -85.08673, 31.959158 ], [ -85.08683, 31.957758 ], [ -85.08243, 31.945358 ], [ -85.07893, 31.941459 ], [ -85.07893, 31.940159 ], [ -85.08473, 31.937359 ], [ -85.08643, 31.935959 ], [ -85.09183, 31.928859 ], [ -85.09823, 31.926259 ], [ -85.09953, 31.925259 ], [ -85.10023, 31.924059 ], [ -85.10133, 31.918659 ], [ -85.10243, 31.917359 ], [ -85.10913, 31.914359 ], [ -85.113131, 31.911859 ], [ -85.112731, 31.909859 ], [ -85.10983, 31.90806 ], [ -85.109775, 31.904143 ], [ -85.111558, 31.901254 ], [ -85.11063, 31.89686 ], [ -85.11203, 31.89476 ], [ -85.114031, 31.89336 ], [ -85.117031, 31.89286 ], [ -85.121131, 31.89326 ], [ -85.132931, 31.89306 ], [ -85.134131, 31.89216 ], [ -85.134331, 31.89146 ], [ -85.134316068010094, 31.891412715365199 ], [ -85.133731, 31.88956 ], [ -85.131631, 31.88676 ], [ -85.1297857547641, 31.8833101936895 ], [ -85.129331, 31.88246 ], [ -85.128431, 31.87966 ], [ -85.128431, 31.87756 ], [ -85.1284798, 31.8774136 ], [ -85.128831, 31.87636 ], [ -85.133731, 31.870061 ], [ -85.135831, 31.862461 ], [ -85.137431, 31.860661 ], [ -85.140131, 31.858761 ], [ -85.140731, 31.857461 ], [ -85.140231, 31.855261 ], [ -85.138031, 31.851262 ], [ -85.137731, 31.845861 ], [ -85.138331, 31.844161 ], [ -85.141331, 31.841061 ], [ -85.141831, 31.839261 ], [ -85.139231, 31.834161 ], [ -85.135931, 31.830462 ], [ -85.133083, 31.828666 ], [ -85.13262, 31.826833 ], [ -85.134315, 31.824608 ], [ -85.133647, 31.822306 ], [ -85.131761981986003, 31.8184448059333 ], [ -85.131331, 31.817562 ], [ -85.131531, 31.813062 ], [ -85.132931, 31.808062 ], [ -85.132847391661599, 31.800370032866201 ], [ -85.132831, 31.798862 ], [ -85.132231, 31.795162 ], [ -85.132931, 31.792363 ], [ -85.137131, 31.788363 ], [ -85.14180656, 31.78212892 ], [ -85.141931, 31.781963 ], [ -85.140950960203796, 31.780460272312499 ], [ -85.140431, 31.779663 ], [ -85.130731, 31.772263 ], [ -85.12633, 31.768863 ], [ -85.12523, 31.767063 ], [ -85.12563, 31.764463 ], [ -85.126954136467603, 31.762330261451702 ], [ -85.129231, 31.758663 ], [ -85.12663, 31.752463 ], [ -85.12393, 31.747564 ], [ -85.11893, 31.732664 ], [ -85.11913, 31.730964 ], [ -85.12223, 31.722764 ], [ -85.12573, 31.718864 ], [ -85.12653, 31.716764 ], [ -85.12683, 31.708965 ], [ -85.126136063426301, 31.7014918368987 ], [ -85.12553, 31.694965 ], [ -85.12233, 31.691265 ], [ -85.11393, 31.686865 ], [ -85.11263, 31.685165 ], [ -85.10943, 31.677465 ], [ -85.092429, 31.659966 ], [ -85.087829, 31.657866 ], [ -85.08546, 31.657028 ], [ -85.083161, 31.656403 ], [ -85.079925, 31.655287 ], [ -85.078632, 31.653309 ], [ -85.078513, 31.651685 ], [ -85.080301, 31.650772 ], [ -85.082267, 31.650366 ], [ -85.083053708455694, 31.648669947530902 ], [ -85.085173, 31.644101 ], [ -85.085365, 31.642186 ], [ -85.085173, 31.640749 ], [ -85.084503, 31.639026 ], [ -85.082829, 31.637967 ], [ -85.080029, 31.636867 ], [ -85.073829, 31.629567 ], [ -85.067628, 31.625267 ], [ -85.065236, 31.624351 ], [ -85.059534, 31.621717 ], [ -85.058169, 31.620227 ], [ -85.057473, 31.618624 ], [ -85.057505908653795, 31.617563000625001 ], [ -85.057527, 31.616883 ], [ -85.05833, 31.614546 ], [ -85.060418, 31.611271 ], [ -85.060552, 31.608224 ], [ -85.059696, 31.607262 ], [ -85.057314, 31.606713 ], [ -85.055976, 31.605178 ], [ -85.056065296544404, 31.6043006458404 ], [ -85.056066147067696, 31.604292289299998 ], [ -85.056405, 31.600963 ], [ -85.058109, 31.593343 ], [ -85.058338739786805, 31.5866430659763 ], [ -85.05844, 31.58369 ], [ -85.055417, 31.578696 ], [ -85.055284, 31.577092 ], [ -85.057719, 31.573062 ], [ -85.05796, 31.57084 ], [ -85.052931, 31.56289 ], [ -85.051873, 31.557871 ], [ -85.050838, 31.555551 ], [ -85.045698, 31.548707 ], [ -85.042547, 31.545953 ], [ -85.041881, 31.544684 ], [ -85.041305, 31.540987 ], [ -85.041813, 31.537754 ], [ -85.042983, 31.5352 ], [ -85.047196, 31.528671 ], [ -85.048263, 31.526012 ], [ -85.047649, 31.523751 ], [ -85.044556, 31.520908 ], [ -85.044986, 31.51823 ], [ -85.045495582903996, 31.5171292698553 ], [ -85.045642, 31.516813 ], [ -85.047925713295399, 31.5142636818047 ], [ -85.048445, 31.513684 ], [ -85.052951, 31.506518 ], [ -85.058923, 31.495989 ], [ -85.062105, 31.488017 ], [ -85.065687, 31.484122 ], [ -85.071621, 31.468384 ], [ -85.069268, 31.453472 ], [ -85.066703, 31.447286 ], [ -85.065955, 31.442979 ], [ -85.065554, 31.439543 ], [ -85.065875, 31.430586 ], [ -85.06697, 31.428594 ], [ -85.069083, 31.427619 ], [ -85.072689, 31.428278 ], [ -85.073978, 31.427179 ], [ -85.075523, 31.424761 ], [ -85.075827, 31.421506 ], [ -85.076746, 31.415971 ], [ -85.079818, 31.411732 ], [ -85.079978, 31.410472 ], [ -85.077387, 31.402844 ], [ -85.077626, 31.39888 ], [ -85.078641, 31.39636 ], [ -85.080403, 31.393932 ], [ -85.082431, 31.38454 ], [ -85.08691, 31.374474 ], [ -85.087144412461498, 31.3740326428487 ], [ -85.092167, 31.364576 ], [ -85.092487, 31.362881 ], [ -85.092619, 31.357474 ], [ -85.091791, 31.355207 ], [ -85.09099, 31.354428 ], [ -85.087413, 31.354428 ], [ -85.085918, 31.353146 ], [ -85.085864, 31.35019 ], [ -85.085945820843406, 31.349516257558999 ], [ -85.087063, 31.340317 ], [ -85.08781, 31.337981 ], [ -85.089411, 31.336033 ], [ -85.088983, 31.334292 ], [ -85.084152, 31.328313 ], [ -85.083776, 31.31821 ], [ -85.084469, 31.316194 ], [ -85.087404, 31.311223 ], [ -85.087651, 31.308677 ], [ -85.087695, 31.304053 ], [ -85.089774, 31.295026 ], [ -85.09316, 31.289688 ], [ -85.099107, 31.284165 ], [ -85.099815189507297, 31.2840112491625 ], [ -85.110309, 31.281733 ], [ -85.112762, 31.280037 ], [ -85.114601, 31.277333 ], [ -85.114548, 31.276302 ], [ -85.112546, 31.274378 ], [ -85.111905, 31.272477 ], [ -85.111983, 31.267987 ], [ -85.113261, 31.264343 ], [ -85.112352, 31.25958 ], [ -85.111711, 31.258022 ], [ -85.109149, 31.254609 ], [ -85.106182, 31.248077 ], [ -85.10426, 31.241869 ], [ -85.102472, 31.23786 ], [ -85.100765, 31.234813 ], [ -85.098844, 31.232524 ], [ -85.096763, 31.225651 ], [ -85.098707, 31.219511 ], [ -85.098704, 31.211286 ], [ -85.09977, 31.209751 ], [ -85.105631, 31.204595 ], [ -85.106963, 31.202693 ], [ -85.108133, 31.195637 ], [ -85.107744625536995, 31.189854815531 ], [ -85.107516, 31.186451 ], [ -85.106503, 31.185305 ], [ -85.104424, 31.18565 ], [ -85.102052, 31.184734 ], [ -85.098507, 31.180153 ], [ -85.098426, 31.17777 ], [ -85.100447, 31.166727 ], [ -85.100207, 31.16549 ], [ -85.092106, 31.160293 ], [ -85.083582, 31.15963 ], [ -85.082617452320804, 31.1593395178154 ], [ -85.077801, 31.157889 ], [ -85.076628, 31.156927 ], [ -85.075729376537197, 31.155777481201 ], [ -85.070181, 31.14868 ], [ -85.064028, 31.142495 ], [ -85.06243, 31.139518 ], [ -85.061072, 31.134225 ], [ -85.055931029819902, 31.123447050476301 ], [ -85.055901290393294, 31.123384702314802 ], [ -85.054677, 31.120818 ], [ -85.052867, 31.119489 ], [ -85.050178, 31.118916 ], [ -85.047061466866694, 31.116551433267801 ], [ -85.040513, 31.111583 ], [ -85.037079, 31.109751 ], [ -85.035615, 31.108192 ], [ -85.032832, 31.10057 ], [ -85.029736, 31.096163 ], [ -85.026068, 31.08418 ], [ -85.028333, 31.076851 ], [ -85.028473194945306, 31.075526157766902 ], [ -85.028573, 31.074583 ], [ -85.018148, 31.059253 ], [ -85.012642, 31.055402 ], [ -85.011392, 31.053546 ], [ -85.010579613952203, 31.0510315768793 ], [ -85.008816, 31.045573 ], [ -85.008552, 31.042824 ], [ -85.009409, 31.032378 ], [ -85.005051, 31.024701 ], [ -85.004549, 31.01918 ], [ -85.00006, 31.014983 ], [ -84.999428, 31.013843 ], [ -84.999626, 31.009079 ], [ -85.001366, 31.005044 ], [ -85.002499, 31.000682 ], [ -85.024108, 31.000681 ], [ -85.027512, 31.00067 ], [ -85.030107, 31.000653 ], [ -85.031155, 31.000647 ], [ -85.040800399162706, 31.000618431961598 ], [ -85.052088, 31.000585 ], [ -85.054802, 31.000585 ], [ -85.057534, 31.000585 ], [ -85.117204774536106, 31.000659334211399 ], [ -85.128033175869007, 31.0006728235733 ], [ -85.145835, 31.000695 ], [ -85.152085, 31.000888 ], [ -85.152218, 31.000834 ], [ -85.154452, 31.000835 ], [ -85.203409978626397, 31.000861899988202 ], [ -85.240092001068703, 31.000882054945599 ], [ -85.243632, 31.000884 ], [ -85.312942178642899, 30.999807220755901 ], [ -85.328920402131004, 30.999558988537402 ], [ -85.329057530752607, 30.999556858154001 ], [ -85.3817482781607, 30.998738272712799 ], [ -85.407543768733603, 30.998337522788599 ], [ -85.488298006080399, 30.997082952560302 ], [ -85.492648176637303, 30.997015369797399 ], [ -85.4979920209678, 30.996932349658501 ], [ -85.498272, 30.996928 ], [ -85.583289048238797, 30.996374629993898 ], [ -85.583399314232906, 30.996373912280301 ], [ -85.631437147116799, 30.996061237394201 ], [ -85.646255053867407, 30.995964788678101 ], [ -85.652469024130497, 30.995924342381301 ], [ -85.692207603291607, 30.9956656867558 ], [ -85.727091, 30.995438633172501 ], [ -85.741628028959298, 30.995344012670198 ], [ -85.749619, 30.995292 ], [ -85.749932, 30.994837 ], [ -85.760655939874098, 30.9947346972681 ], [ -85.772671867106993, 30.994620069417099 ], [ -85.831122451190694, 30.994062470763801 ], [ -85.831124986615606, 30.994062446576699 ], [ -85.893543, 30.993467 ], [ -85.935836981580493, 30.993226757307301 ], [ -85.935841289711803, 30.993226732835801 ], [ -85.965662509490301, 30.9930573392277 ], [ -85.997289979836296, 30.992877685566501 ], [ -85.998643, 30.99287 ], [ -86.035039, 30.99332 ], [ -86.052462, 30.993247 ], [ -86.056213, 30.993133 ], [ -86.116918, 30.992917 ], [ -86.132739514373398, 30.993180301829401 ], [ -86.162886, 30.993682 ], [ -86.168979, 30.993706 ], [ -86.175204, 30.993798 ], [ -86.180232, 30.994005 ], [ -86.187247257862794, 30.994049069482099 ], [ -86.238335, 30.99437 ], [ -86.256448, 30.993853 ], [ -86.271193419920905, 30.993828273694401 ], [ -86.288849162099197, 30.993798667126502 ], [ -86.289065798864399, 30.9937983038526 ], [ -86.289247, 30.993798 ], [ -86.297148668496007, 30.9939169188496 ], [ -86.304596, 30.994029 ], [ -86.3091205623614, 30.99406095874 ], [ -86.322545927182603, 30.994155787302098 ], [ -86.334042459178306, 30.994236991769501 ], [ -86.348506316753301, 30.994339155609001 ], [ -86.350230280185997, 30.994351332631801 ], [ -86.364907, 30.994455 ], [ -86.36927, 30.994477 ], [ -86.374545, 30.994474 ], [ -86.388646000431507, 30.994181020768199 ], [ -86.388647, 30.994181 ], [ -86.391937, 30.994172 ], [ -86.404912, 30.994049 ], [ -86.454704, 30.993791 ], [ -86.458319, 30.993998 ], [ -86.49995, 30.99334 ], [ -86.512834, 30.9937 ], [ -86.519938, 30.993245 ], [ -86.542487980751901, 30.994270423282199 ], [ -86.563436, 30.995223 ], [ -86.567586, 30.995109 ], [ -86.627754382217603, 30.994752680727402 ], [ -86.664681, 30.994534 ], [ -86.678383, 30.994537 ], [ -86.688313001544898, 30.9945961283541 ], [ -86.706261, 30.994703 ], [ -86.725379, 30.996872 ], [ -86.727293, 30.996882 ], [ -86.728392, 30.996739 ], [ -86.74524, 30.99629 ], [ -86.785692460563993, 30.9969741853795 ], [ -86.785918, 30.996978 ], [ -86.809975174391298, 30.997206273060598 ], [ -86.830497, 30.997401 ], [ -86.831934, 30.997378 ], [ -86.872989, 30.997631 ], [ -86.888135, 30.997577 ], [ -86.906257846315199, 30.997635011379501 ], [ -86.92781, 30.997704 ], [ -86.998477, 30.998661 ], [ -87.004359, 30.999316 ], [ -87.024172240118205, 30.999262869718301 ], [ -87.027107, 30.999255 ], [ -87.036366, 30.999348 ], [ -87.036458530344802, 30.999354282767001 ], [ -87.039989, 30.999594 ], [ -87.053737, 30.999131 ], [ -87.064063, 30.999191 ], [ -87.068633, 30.999143 ], [ -87.070992992421097, 30.999156340721498 ], [ -87.076107992904895, 30.999185255135099 ], [ -87.096911709754707, 30.999302855763801 ], [ -87.115072985760193, 30.9994055190278 ], [ -87.118873, 30.999427 ], [ -87.124969, 30.998802 ], [ -87.140755, 30.999532 ], [ -87.1505897595909, 30.999317389069699 ], [ -87.162614, 30.999055 ], [ -87.163647241462698, 30.999023636235702 ], [ -87.163652832033193, 30.999023466535501 ], [ -87.174800272482202, 30.998685089005601 ], [ -87.224746, 30.997169 ], [ -87.237685, 30.996393 ], [ -87.238316740844098, 30.996462109781799 ], [ -87.239969751636096, 30.9966429421853 ], [ -87.249928930249496, 30.997732434289201 ], [ -87.25498, 30.998285 ], [ -87.255592, 30.998216 ], [ -87.257002, 30.998194 ], [ -87.25796, 30.998263 ], [ -87.259689, 30.998172 ], [ -87.26054, 30.998195 ], [ -87.265564, 30.998267 ], [ -87.266484285425705, 30.998270075372201 ], [ -87.276274006531096, 30.998302790262201 ], [ -87.288905, 30.998345 ], [ -87.290995, 30.998352 ], [ -87.297720967664802, 30.998404168875201 ], [ -87.301567, 30.998434 ], [ -87.30403, 30.998191 ], [ -87.312183, 30.998435 ], [ -87.333973, 30.998272 ], [ -87.347877255972804, 30.998254044958401 ], [ -87.355656, 30.998244 ], [ -87.363872734364094, 30.9982184302701 ], [ -87.364011, 30.998218 ], [ -87.367842, 30.998292 ], [ -87.425774, 30.99809 ], [ -87.432292, 30.998205 ], [ -87.449811, 30.998272 ], [ -87.455705, 30.998318 ], [ -87.458658, 30.998386 ], [ -87.461638, 30.998202 ], [ -87.461783, 30.998201 ], [ -87.466827, 30.998178 ], [ -87.466879, 30.998178 ], [ -87.477800865650906, 30.998210321408401 ], [ -87.478706, 30.998213 ], [ -87.479703, 30.998197 ], [ -87.480243, 30.998202 ], [ -87.483773621498202, 30.9981466275723 ], [ -87.488422203262203, 30.998073721638399 ], [ -87.498375680315604, 30.9979176164912 ], [ -87.514910818752995, 30.9976582879967 ], [ -87.51952, 30.997586 ], [ -87.548543, 30.997927 ], [ -87.571281, 30.99787 ], [ -87.598928, 30.997457 ], [ -87.599172, 30.995722 ], [ -87.596722, 30.98761 ], [ -87.593395, 30.982959 ], [ -87.592676, 30.98014 ], [ -87.594164, 30.977572 ], [ -87.594126677631905, 30.976700910013001 ], [ -87.594111, 30.976335 ], [ -87.593046, 30.972966 ], [ -87.590917, 30.969414 ], [ -87.589187, 30.964464 ], [ -87.592055, 30.951492 ], [ -87.59689, 30.941131 ], [ -87.598299, 30.938793 ], [ -87.600691, 30.937074 ], [ -87.602684, 30.934277 ], [ -87.607811, 30.92449 ], [ -87.608262, 30.9219 ], [ -87.6102, 30.916628 ], [ -87.611847, 30.914541 ], [ -87.614209, 30.908536 ], [ -87.614951, 30.904226 ], [ -87.616013, 30.901453 ], [ -87.620715, 30.89893 ], [ -87.622203, 30.897508 ], [ -87.622519, 30.89368 ], [ -87.620922, 30.889923 ], [ -87.620788, 30.887494 ], [ -87.622062, 30.885408 ], [ -87.6244, 30.884696 ], [ -87.629454, 30.880115 ], [ -87.629987, 30.877686 ], [ -87.634844288786496, 30.866109347266999 ], [ -87.634938, 30.865886 ], [ -87.628245, 30.860131 ], [ -87.626228, 30.857127 ], [ -87.62538, 30.854355 ], [ -87.626497, 30.85188 ], [ -87.627323, 30.847961 ], [ -87.626075, 30.846494 ], [ -87.624137, 30.845713 ], [ -87.617281, 30.840353 ], [ -87.615367, 30.837031 ], [ -87.615923, 30.834693 ], [ -87.610982, 30.832632 ], [ -87.605776, 30.831304 ], [ -87.60357, 30.828624 ], [ -87.60163, 30.82514 ], [ -87.600486, 30.820627 ], [ -87.594297, 30.816984 ], [ -87.58787, 30.815037 ], [ -87.581869, 30.812403 ], [ -87.576849, 30.808163 ], [ -87.572043, 30.800532 ], [ -87.56814, 30.799088 ], [ -87.564209, 30.796246 ], [ -87.560068, 30.792258 ], [ -87.559484, 30.790447 ], [ -87.554838, 30.787125 ], [ -87.552954, 30.786941 ], [ -87.552051, 30.786254 ], [ -87.545044, 30.778666 ], [ -87.545364, 30.774105 ], [ -87.54616, 30.77202 ], [ -87.54226, 30.767504 ], [ -87.537085, 30.76253 ], [ -87.536528, 30.761383 ], [ -87.535416, 30.75476 ], [ -87.535365, 30.749775 ], [ -87.532607, 30.743489 ], [ -87.523613, 30.738306 ], [ -87.511729, 30.733535 ], [ -87.505153, 30.726313 ], [ -87.502317, 30.72159 ], [ -87.498482281573999, 30.720418502305101 ], [ -87.497515, 30.720123 ], [ -87.496772, 30.720353 ], [ -87.487036, 30.7185 ], [ -87.481225, 30.716508 ], [ -87.479819, 30.71495 ], [ -87.479579, 30.712865 ], [ -87.474429, 30.706586 ], [ -87.470397, 30.705281 ], [ -87.467717, 30.701683 ], [ -87.466338, 30.700835 ], [ -87.456948, 30.69756 ], [ -87.451404, 30.699806 ], [ -87.449362, 30.698913 ], [ -87.44358, 30.694604 ], [ -87.44228, 30.692679 ], [ -87.4401022024296, 30.690736114900702 ], [ -87.439814, 30.690479 ], [ -87.436021, 30.688668 ], [ -87.430372, 30.688645 ], [ -87.424883, 30.683374 ], [ -87.419527, 30.679981 ], [ -87.412739, 30.678055 ], [ -87.406958, 30.675165 ], [ -87.406561, 30.674019 ], [ -87.407118, 30.671796 ], [ -87.405874, 30.666616 ], [ -87.400707, 30.657148 ], [ -87.400177, 30.657217 ], [ -87.397262, 30.654351 ], [ -87.396177, 30.650454 ], [ -87.397185, 30.648117 ], [ -87.395941, 30.643968 ], [ -87.393588, 30.63088 ], [ -87.393615991986906, 30.6303001018331 ], [ -87.393746078386201, 30.627605156855498 ], [ -87.393775, 30.627006 ], [ -87.394479, 30.625192 ], [ -87.395659, 30.623372 ], [ -87.39643, 30.617734 ], [ -87.39643, 30.616909 ], [ -87.395053, 30.6159 ], [ -87.395026, 30.615281 ], [ -87.397308, 30.608728 ], [ -87.39927, 30.605611 ], [ -87.401178, 30.604397 ], [ -87.404597, 30.603389 ], [ -87.406558, 30.599928 ], [ -87.408736, 30.583701 ], [ -87.412464599041996, 30.5738787297872 ], [ -87.412471038069697, 30.573861767419 ], [ -87.412712, 30.573227 ], [ -87.414513, 30.573456 ], [ -87.416261, 30.572448 ], [ -87.418354, 30.570043 ], [ -87.418513, 30.569561 ], [ -87.416951, 30.568003 ], [ -87.41666, 30.566306 ], [ -87.418647, 30.561837 ], [ -87.420925, 30.560668 ], [ -87.422408, 30.560439 ], [ -87.422805, 30.561379 ], [ -87.423362, 30.561425 ], [ -87.426037, 30.560073 ], [ -87.427891, 30.554159 ], [ -87.431441, 30.550263 ], [ -87.434963, 30.549599 ], [ -87.43544, 30.54914 ], [ -87.446586, 30.527068 ], [ -87.446472100487497, 30.5222240471467 ], [ -87.446427, 30.520306 ], [ -87.444944, 30.514943 ], [ -87.445182, 30.51398 ], [ -87.446499, 30.513569 ], [ -87.447305, 30.512629 ], [ -87.447782, 30.511913 ], [ -87.447702, 30.510458 ], [ -87.444714, 30.507494 ], [ -87.44322, 30.506782 ], [ -87.43969, 30.506649 ], [ -87.438269, 30.505357 ], [ -87.431178, 30.495795 ], [ -87.430578, 30.491096 ], [ -87.432978, 30.484896 ], [ -87.434765430321605, 30.481871117917301 ], [ -87.435578, 30.480496 ], [ -87.434678, 30.479196 ], [ -87.431578, 30.477696 ], [ -87.430578, 30.476596 ], [ -87.429578, 30.470596 ], [ -87.425078, 30.465596 ], [ -87.414677, 30.457296 ], [ -87.407877, 30.456396 ], [ -87.404677, 30.452897 ], [ -87.399877, 30.450997 ], [ -87.396877, 30.450597 ], [ -87.391976, 30.451597 ], [ -87.381176, 30.450097 ], [ -87.378268635846098, 30.449194175159001 ], [ -87.370768, 30.446865 ], [ -87.36868, 30.444631 ], [ -87.366939, 30.44048 ], [ -87.366591, 30.436648 ], [ -87.367612166111897, 30.434579500394602 ], [ -87.368191, 30.433407 ], [ -87.371169, 30.43049 ], [ -87.382076, 30.422897 ], [ -87.384354769484503, 30.421625128659802 ], [ -87.386376, 30.420497 ], [ -87.395676, 30.417597 ], [ -87.398776, 30.415098 ], [ -87.401777, 30.411398 ], [ -87.403477, 30.410198 ], [ -87.404773350191803, 30.4098619092095 ], [ -87.408877, 30.408798 ], [ -87.413177, 30.408998 ], [ -87.419177, 30.410198 ], [ -87.422677, 30.410098 ], [ -87.426177, 30.409198 ], [ -87.429578, 30.406498 ], [ -87.430680166418995, 30.404844750371499 ], [ -87.430685538461503, 30.4048366923077 ], [ -87.431778, 30.403198 ], [ -87.434278, 30.397498 ], [ -87.437278, 30.395898 ], [ -87.438393006468303, 30.394455050452802 ], [ -87.440678, 30.391498 ], [ -87.441178, 30.388598 ], [ -87.440878, 30.386698 ], [ -87.438678, 30.382098 ], [ -87.438678, 30.380798 ], [ -87.441823, 30.376304 ], [ -87.449078, 30.370399 ], [ -87.451378, 30.367199 ], [ -87.451878, 30.364999 ], [ -87.451978, 30.360299 ], [ -87.450962, 30.346262 ], [ -87.452278, 30.344099 ], [ -87.459978, 30.3363 ], [ -87.462978, 30.334 ], [ -87.464878, 30.3333 ], [ -87.467269587425207, 30.332875365282899 ], [ -87.475579, 30.3314 ], [ -87.491879, 30.3309 ], [ -87.492042320451802, 30.3308608280906 ], [ -87.49998, 30.328957 ], [ -87.502572, 30.327405 ], [ -87.504701, 30.324039 ], [ -87.505943, 30.319396 ], [ -87.5058411579151, 30.315087392532501 ], [ -87.50578, 30.3125 ], [ -87.505002245578396, 30.309955328942401 ], [ -87.50468, 30.308901 ], [ -87.50278, 30.307301 ], [ -87.502301549966305, 30.307161722050701 ], [ -87.494879, 30.305001 ], [ -87.483679, 30.304801 ], [ -87.481879, 30.306001 ], [ -87.475879, 30.3079 ], [ -87.468678, 30.3082 ], [ -87.465778, 30.3076 ], [ -87.462978, 30.3078 ], [ -87.459578, 30.3083 ], [ -87.455578, 30.3102 ], [ -87.450078, 30.3111 ], [ -87.452378, 30.300201 ], [ -87.49998, 30.287901 ], [ -87.50548, 30.287101 ], [ -87.51838, 30.283901 ], [ -87.518364380564606, 30.282934268519401 ], [ -87.518342375047794, 30.2815722842093 ], [ -87.518324, 30.280435 ], [ -87.524184943339307, 30.279146 ], [ -87.543923, 30.274805 ], [ -87.548838685354198, 30.2736369328588 ], [ -87.552735217906402, 30.2727110372184 ], [ -87.558665, 30.271302 ], [ -87.565044, 30.271745 ], [ -87.574075, 30.27088 ], [ -87.581362, 30.269257 ], [ -87.582209207990005, 30.269050141770801 ], [ -87.638170245345293, 30.255386435541499 ], [ -87.641641, 30.254539 ], [ -87.659984, 30.250594 ], [ -87.681806, 30.248265 ], [ -87.689212074905001, 30.2470504419917 ], [ -87.702703, 30.244838 ], [ -87.73553, 30.240679 ], [ -87.736472447707996, 30.240515031779701 ], [ -87.795534932077601, 30.230239267545301 ], [ -87.80056, 30.229365 ], [ -87.828234030066696, 30.227773279627801 ], [ -87.831480769354101, 30.227586537723798 ], [ -87.838462, 30.227185 ], [ -87.926119, 30.230373 ], [ -87.962253, 30.229522 ], [ -87.999996, 30.225753 ], [ -88.013607, 30.22349 ], [ -88.021364, 30.223334 ], [ -88.027678, 30.223645 ], [ -88.02858, 30.226763 ], [ -88.023991, 30.23039 ], [ -88.011734, 30.232448 ], [ -87.966847, 30.235618 ], [ -87.948979, 30.256564 ], [ -87.936041, 30.261469 ], [ -87.918247, 30.253308 ], [ -87.913762, 30.247837 ], [ -87.90046, 30.241531 ], [ -87.893201, 30.239237 ], [ -87.879343, 30.23859 ], [ -87.860085, 30.240289 ], [ -87.822935724489895, 30.252574704618802 ], [ -87.817743, 30.254292 ], [ -87.802087, 30.253054 ], [ -87.78775, 30.254244 ], [ -87.786099346064404, 30.254930358407101 ], [ -87.780364143591996, 30.257315112926801 ], [ -87.771641561006405, 30.2609420499608 ], [ -87.768003, 30.262455 ], [ -87.755959, 30.277661 ], [ -87.752316, 30.281576 ], [ -87.752166558366, 30.281755852788699 ], [ -87.751866596138399, 30.282116856892301 ], [ -87.747171, 30.287768 ], [ -87.747207, 30.290848 ], [ -87.749739623446104, 30.292125861145902 ], [ -87.750277, 30.292397 ], [ -87.756143, 30.292328 ], [ -87.772758, 30.311701 ], [ -87.796717, 30.324198 ], [ -87.809266, 30.332702 ], [ -87.82988, 30.353809 ], [ -87.831697355686501, 30.356778387595899 ], [ -87.83454, 30.361423 ], [ -87.837479, 30.368144 ], [ -87.83774, 30.370548 ], [ -87.837353, 30.371802 ], [ -87.837107, 30.375086 ], [ -87.837193133756102, 30.375497857960099 ], [ -87.837368, 30.376334 ], [ -87.839609, 30.377227 ], [ -87.843861, 30.378169 ], [ -87.849378, 30.378069 ], [ -87.853806, 30.378481 ], [ -87.865017, 30.38345 ], [ -87.906343, 30.40938 ], [ -87.908908, 30.41424 ], [ -87.9100506889949, 30.4212132880055 ], [ -87.914136, 30.446144 ], [ -87.917682737535301, 30.460885071476302 ], [ -87.919543, 30.468616757760799 ], [ -87.920031, 30.470645 ], [ -87.920722510114899, 30.472421188370401 ], [ -87.921278, 30.473848 ], [ -87.925159, 30.477434 ], [ -87.93203, 30.48165 ], [ -87.936969, 30.483105 ], [ -87.933983860690006, 30.486493908537302 ], [ -87.933716, 30.486798 ], [ -87.926565, 30.496724 ], [ -87.925026, 30.503019 ], [ -87.921715, 30.509245 ], [ -87.921681, 30.50945 ], [ -87.921682104069902, 30.509606514340199 ], [ -87.921522, 30.511366 ], [ -87.920862, 30.512460494015201 ], [ -87.920603, 30.51289 ], [ -87.91595, 30.517517 ], [ -87.912118592515597, 30.524154441412499 ], [ -87.911811167487102, 30.5246870173976 ], [ -87.911141, 30.525848 ], [ -87.908750620134498, 30.530679057479102 ], [ -87.908589880798999, 30.531003918385199 ], [ -87.906161104823397, 30.535912576005298 ], [ -87.905343, 30.537566 ], [ -87.9043798413513, 30.5410964325688 ], [ -87.904059982343199, 30.542268867308401 ], [ -87.9039181137165, 30.542788883010001 ], [ -87.902172247705096, 30.5491883087284 ], [ -87.901711, 30.550879 ], [ -87.902270445348407, 30.554318552882901 ], [ -87.902325164313595, 30.5546549731875 ], [ -87.902422108433697, 30.555251 ], [ -87.902590372262793, 30.5562855109489 ], [ -87.904168, 30.565985 ], [ -87.907891, 30.573114 ], [ -87.911431, 30.576261 ], [ -87.912575506496296, 30.579388343708501 ], [ -87.914590351308206, 30.584893871432602 ], [ -87.914956, 30.585893 ], [ -87.9138098132658, 30.600020483811299 ], [ -87.912852048350302, 30.6118255483224 ], [ -87.91253, 30.615795 ], [ -87.913976, 30.620094 ], [ -87.917748, 30.624142 ], [ -87.920875918945896, 30.6264720410039 ], [ -87.921437, 30.62689 ], [ -87.921326, 30.629379 ], [ -87.918832517600094, 30.630602661780301 ], [ -87.918571, 30.630731 ], [ -87.919120021973001, 30.634506145927698 ], [ -87.919346, 30.63606 ], [ -87.924664, 30.641537 ], [ -87.925375, 30.648894 ], [ -87.929841, 30.650341 ], [ -87.93107, 30.652694 ], [ -87.931705, 30.654362 ], [ -87.936717, 30.657432 ], [ -87.955989, 30.658862 ], [ -87.960496426152503, 30.661704407016099 ], [ -87.970897781530994, 30.6682635572949 ], [ -87.985559, 30.677509 ], [ -87.986132434436797, 30.677571953252599 ], [ -87.990578, 30.67806 ], [ -88.003405056987802, 30.681222749835701 ], [ -88.005812172041999, 30.681816268890799 ], [ -88.006898, 30.682084 ], [ -88.008901275000895, 30.6834340138575 ], [ -88.011412, 30.685126 ], [ -88.020105, 30.675666 ], [ -88.021801, 30.668625 ], [ -88.023981, 30.660006 ], [ -88.026036, 30.65856 ], [ -88.02919, 30.65904 ], [ -88.034588, 30.653715 ], [ -88.038407, 30.647898 ], [ -88.044716, 30.649917 ], [ -88.0504871600114, 30.647089289799599 ], [ -88.051647, 30.646521 ], [ -88.058066, 30.645538 ], [ -88.061877, 30.643586 ], [ -88.059681, 30.640198 ], [ -88.056013, 30.637547 ], [ -88.054693, 30.63376 ], [ -88.058507, 30.629973 ], [ -88.060293, 30.626562 ], [ -88.059598, 30.619091 ], [ -88.053998, 30.612491 ], [ -88.0589078939134, 30.608411562920601 ], [ -88.059053, 30.608291 ], [ -88.059104, 30.603961 ], [ -88.060500695196694, 30.598990604259502 ], [ -88.0612, 30.596502 ], [ -88.064898, 30.588292 ], [ -88.074898, 30.578892 ], [ -88.083106, 30.572842 ], [ -88.085625, 30.569915 ], [ -88.087267072183707, 30.565449049001799 ], [ -88.087411921359205, 30.565055102056998 ], [ -88.087655, 30.564394 ], [ -88.087127681706804, 30.564116926188198 ], [ -88.085493, 30.563258 ], [ -88.085288993034595, 30.562366337976901 ], [ -88.0849284846215, 30.560790648342 ], [ -88.081617, 30.546317 ], [ -88.082792, 30.528713 ], [ -88.089760827536793, 30.5242001971768 ], [ -88.090734, 30.52357 ], [ -88.091567656870396, 30.522433793101701 ], [ -88.100874, 30.50975 ], [ -88.103768, 30.500903 ], [ -88.103698261620494, 30.500199 ], [ -88.102988, 30.493029 ], [ -88.100301647738206, 30.483384288792099 ], [ -88.096867, 30.471053 ], [ -88.100646, 30.46122 ], [ -88.106437, 30.452738 ], [ -88.106376871201107, 30.4520917995834 ], [ -88.10407, 30.4273 ], [ -88.107274, 30.377246 ], [ -88.115432, 30.35657 ], [ -88.124611, 30.341623 ], [ -88.128052, 30.338509 ], [ -88.131387, 30.334312 ], [ -88.134468, 30.327865 ], [ -88.137269, 30.320048 ], [ -88.138267, 30.313257 ], [ -88.139037, 30.312793 ], [ -88.13998, 30.31322 ], [ -88.144676, 30.321196 ], [ -88.145386, 30.324339 ], [ -88.144519, 30.326856 ], [ -88.146318, 30.330989 ], [ -88.152087, 30.33049 ], [ -88.156248, 30.327574 ], [ -88.173386, 30.326002 ], [ -88.191583, 30.318684 ], [ -88.195664, 30.321242 ], [ -88.195561, 30.323819 ], [ -88.193224, 30.326038 ], [ -88.194042, 30.330475 ], [ -88.195776, 30.33271 ], [ -88.196613, 30.337433 ], [ -88.198361, 30.338819 ], [ -88.196353, 30.343586 ], [ -88.188532, 30.345053 ], [ -88.188527, 30.348124 ], [ -88.18718, 30.352616 ], [ -88.188023, 30.356193 ], [ -88.187858, 30.358829 ], [ -88.187104, 30.362699 ], [ -88.189796250077293, 30.362952668325601 ], [ -88.193663, 30.363317 ], [ -88.196264, 30.36348 ], [ -88.200065, 30.362378 ] ] ], [ [ [ -88.026748, 30.491105 ], [ -88.045043, 30.501189 ], [ -88.052349, 30.505591 ], [ -88.053375, 30.506987 ], [ -88.051088, 30.508857 ], [ -88.045647, 30.513306 ], [ -88.041966, 30.517376 ], [ -88.03867, 30.520405 ], [ -88.035099, 30.521967 ], [ -88.032407, 30.521447 ], [ -88.029165, 30.519648 ], [ -88.026222, 30.516609 ], [ -88.023506, 30.492573 ], [ -88.02433, 30.490774 ], [ -88.026748, 30.491105 ] ] ] ] } }
]
}
