{
"type": "FeatureCollection",
"name": "state-21-outline",
"crs": { "type": "name", "properties": { "name": "urn:ogc:def:crs:OGC:1.3:CRS84" } },
"features": [
{ "type": "Feature", "properties": { "state_fips": "21", "state_abbr": "KY", "state_name": "Kentucky" }, "geometry": { "type": "MultiPolygon", "coordinates": [ [ [ [ -89.527583, 36.581147 ], [ -89.525804819365007, 36.580819163837198 ], [ -89.522338, 36.58018 ], [ -89.518702, 36.578698 ], [ -89.518181079645203, 36.578587885753997 ], [ -89.514468, 36.577803 ], [ -89.500076, 36.576305 ], [ -89.484836, 36.571821 ], [ -89.480893, 36.569771 ], [ -89.480813447512602, 36.569701833531802 ], [ -89.479093, 36.568206 ], [ -89.473341, 36.559918 ], [ -89.467761, 36.546847 ], [ -89.465445, 36.536163 ], [ -89.465888, 36.529946 ], [ -89.468668, 36.521291 ], [ -89.47246, 36.513741 ], [ -89.477186, 36.50707 ], [ -89.482474, 36.502131 ], [ -89.485427, 36.497491 ], [ -89.492537, 36.497775 ], [ -89.498036, 36.497887 ], [ -89.539232, 36.497934 ], [ -89.542955, 36.504957 ], [ -89.554321, 36.517022 ], [ -89.558349, 36.522099 ], [ -89.560344, 36.525436 ], [ -89.564049577980498, 36.533276080005699 ], [ -89.565804, 36.536988 ], [ -89.570071, 36.544387 ], [ -89.571241, 36.547343 ], [ -89.571509, 36.552569 ], [ -89.570114323204393, 36.557116859116 ], [ -89.569807, 36.558119 ], [ -89.566817, 36.564216 ], [ -89.563185, 36.568749 ], [ -89.558089, 36.573514 ], [ -89.553727168495499, 36.5764469694683 ], [ -89.55264, 36.577178 ], [ -89.546113, 36.579989 ], [ -89.542459, 36.580566 ], [ -89.527583, 36.581147 ] ] ], [ [ [ -88.874725, 36.502446 ], [ -88.875789037470099, 36.502365699369101 ], [ -88.884557, 36.501704 ], [ -88.886277001623498, 36.501763123977398 ], [ -88.894555085905296, 36.502047677934499 ], [ -88.899344944978395, 36.502212326337101 ], [ -88.89951, 36.502218 ], [ -88.919841441582903, 36.502209549561698 ], [ -88.964166028731398, 36.502191126756401 ], [ -88.964471, 36.502191 ], [ -89.000063, 36.502633 ], [ -89.006825, 36.502684 ], [ -89.010439, 36.50271 ], [ -89.034649, 36.502964 ], [ -89.058871, 36.503157 ], [ -89.072118, 36.503249 ], [ -89.072406998235607, 36.503251292364503 ], [ -89.090146, 36.503392 ], [ -89.117537, 36.503603 ], [ -89.119805, 36.503647 ], [ -89.120002076277004, 36.5036509715733 ], [ -89.160257025451102, 36.5044622081409 ], [ -89.163224, 36.504522 ], [ -89.163429, 36.504526 ], [ -89.211409, 36.50563 ], [ -89.256343231665696, 36.506214897876802 ], [ -89.279091, 36.506511 ], [ -89.282298, 36.506782 ], [ -89.300284, 36.507147 ], [ -89.346053, 36.50321 ], [ -89.356593, 36.502195 ], [ -89.380085, 36.500416 ], [ -89.381792, 36.500062 ], [ -89.391044, 36.499079 ], [ -89.403913, 36.499141 ], [ -89.417275, 36.499011 ], [ -89.405654, 36.528165 ], [ -89.398685, 36.542329 ], [ -89.396811, 36.551975 ], [ -89.396627, 36.556429 ], [ -89.395909, 36.559649 ], [ -89.382762, 36.583603 ], [ -89.380643, 36.59113 ], [ -89.378012, 36.608096 ], [ -89.376367, 36.613868 ], [ -89.375453, 36.615719 ], [ -89.371002, 36.62084 ], [ -89.365548, 36.625059 ], [ -89.35651, 36.628439 ], [ -89.343753, 36.630991 ], [ -89.334046, 36.63225 ], [ -89.327588721766602, 36.632193504332598 ], [ -89.326731, 36.632186 ], [ -89.318154, 36.625059 ], [ -89.313405, 36.62012 ], [ -89.301502, 36.604138 ], [ -89.294637, 36.593729 ], [ -89.278935, 36.577699 ], [ -89.27171, 36.571387 ], [ -89.268057, 36.568908 ], [ -89.259994, 36.565149 ], [ -89.258318, 36.564948 ], [ -89.236542, 36.566824 ], [ -89.227319, 36.569375 ], [ -89.220184617765597, 36.5742777197202 ], [ -89.217447, 36.576159 ], [ -89.213563, 36.580119 ], [ -89.202607, 36.601576 ], [ -89.200902, 36.618177 ], [ -89.199136, 36.625649 ], [ -89.197654, 36.628936 ], [ -89.192542, 36.635997 ], [ -89.187749, 36.641115 ], [ -89.183321, 36.644694 ], [ -89.174741, 36.650416 ], [ -89.174681875252801, 36.650472652469801 ], [ -89.165505036639701, 36.659265765286797 ], [ -89.164601, 36.660132 ], [ -89.15908, 36.666352 ], [ -89.168723, 36.671892 ], [ -89.171882, 36.672526 ], [ -89.169467, 36.674596 ], [ -89.167961, 36.678189 ], [ -89.168016, 36.685514 ], [ -89.169522, 36.688878 ], [ -89.174836, 36.69396 ], [ -89.184356, 36.701238 ], [ -89.19604, 36.712017 ], [ -89.19948, 36.716045 ], [ -89.200732, 36.720141 ], [ -89.201047, 36.725772 ], [ -89.199798, 36.734217 ], [ -89.197808, 36.739412 ], [ -89.191553, 36.747217 ], [ -89.184523, 36.753638 ], [ -89.179545, 36.756132 ], [ -89.174956161658102, 36.757600656854201 ], [ -89.174830763580104, 36.757640790485603 ], [ -89.169106, 36.759473 ], [ -89.166888, 36.759633 ], [ -89.15699, 36.755968 ], [ -89.151756, 36.756264 ], [ -89.142313, 36.755369 ], [ -89.135518, 36.751956 ], [ -89.130399, 36.751702 ], [ -89.126134, 36.751735 ], [ -89.12243, 36.754844 ], [ -89.119198, 36.759802 ], [ -89.116563, 36.767557 ], [ -89.116067, 36.772423 ], [ -89.116847, 36.775607 ], [ -89.120437, 36.782071 ], [ -89.123480977107505, 36.785257678911698 ], [ -89.12353, 36.785309 ], [ -89.128923, 36.787677 ], [ -89.13321, 36.788228 ], [ -89.144208, 36.788353 ], [ -89.155891, 36.789126 ], [ -89.160877, 36.790914 ], [ -89.168458, 36.795571 ], [ -89.171069, 36.798119 ], [ -89.175059463937103, 36.803870850192901 ], [ -89.176305953645397, 36.805667539044698 ], [ -89.177417, 36.807269 ], [ -89.178749, 36.809928 ], [ -89.179229, 36.812915 ], [ -89.178574, 36.816554 ], [ -89.178888, 36.831368 ], [ -89.178153, 36.834586 ], [ -89.177177, 36.835779 ], [ -89.173419, 36.839806 ], [ -89.1704, 36.841522 ], [ -89.166841, 36.842529 ], [ -89.159466, 36.842505 ], [ -89.15733, 36.843305 ], [ -89.153513, 36.8466 ], [ -89.147674, 36.847148 ], [ -89.137969, 36.847349 ], [ -89.131944, 36.857437 ], [ -89.126702, 36.872073 ], [ -89.124903225968495, 36.874871818238297 ], [ -89.122227802612699, 36.8790346666852 ], [ -89.119813, 36.882792 ], [ -89.117567, 36.887356 ], [ -89.109377, 36.920066 ], [ -89.102137, 36.939154 ], [ -89.100766, 36.943973 ], [ -89.100762006684704, 36.944001817075097 ], [ -89.098843, 36.95785 ], [ -89.099007, 36.961389 ], [ -89.099237386960496, 36.962626888370501 ], [ -89.099594, 36.964543 ], [ -89.102879, 36.9697 ], [ -89.109498, 36.976563 ], [ -89.11503, 36.980335 ], [ -89.1183, 36.981879 ], [ -89.125069, 36.983499 ], [ -89.128868, 36.983265 ], [ -89.132685, 36.9822 ], [ -89.138437, 36.985089 ], [ -89.148142380450096, 36.991621249315997 ], [ -89.160667, 37.000051 ], [ -89.166447, 37.003337 ], [ -89.17112, 37.008072 ], [ -89.172851252981403, 37.010406218666297 ], [ -89.173595, 37.011409 ], [ -89.178975, 37.020928 ], [ -89.1794500540786, 37.022427436966403 ], [ -89.180639341914102, 37.026181245689401 ], [ -89.180849, 37.026843 ], [ -89.182509, 37.037275 ], [ -89.181369, 37.046305 ], [ -89.179384, 37.053012 ], [ -89.175725, 37.062069 ], [ -89.171880551089004, 37.068183979028497 ], [ -89.168087, 37.074218 ], [ -89.167031408179696, 37.075365208903101 ], [ -89.155655, 37.087729 ], [ -89.154168878061895, 37.088794277335801 ], [ -89.152438, 37.090035 ], [ -89.14967, 37.090013 ], [ -89.147111, 37.091628 ], [ -89.150553, 37.09376 ], [ -89.14746, 37.098906 ], [ -89.142852, 37.099019 ], [ -89.125072, 37.108813 ], [ -89.121149429236496, 37.112792617049799 ], [ -89.120465, 37.113487 ], [ -89.11069, 37.122049 ], [ -89.103592, 37.132123 ], [ -89.099047, 37.140967 ], [ -89.097330163040596, 37.144745052064202 ], [ -89.096669, 37.1462 ], [ -89.095753, 37.150391 ], [ -89.092934, 37.156439 ], [ -89.0872194256509, 37.164610448932699 ], [ -89.086526, 37.165602 ], [ -89.085239498632006, 37.166790874578098 ], [ -89.076221, 37.175125 ], [ -89.064340577931603, 37.184037439805202 ], [ -89.062751111588994, 37.185229823629498 ], [ -89.058036, 37.188767 ], [ -89.043721741464395, 37.200812039347298 ], [ -89.041263, 37.202881 ], [ -89.037568, 37.203932 ], [ -89.029981, 37.211144 ], [ -89.014003, 37.21609 ], [ -89.005934, 37.22188 ], [ -89.000968, 37.224401 ], [ -88.992355403877596, 37.226484598474599 ], [ -88.98326, 37.228685 ], [ -88.974711, 37.229708 ], [ -88.96946, 37.228279 ], [ -88.966022, 37.226343 ], [ -88.953154, 37.224811 ], [ -88.934405, 37.224789 ], [ -88.9343702089934, 37.225087063302297 ], [ -88.934063, 37.227719 ], [ -88.927941153959793, 37.226163657432203 ], [ -88.922991, 37.224906 ], [ -88.91618, 37.223991 ], [ -88.903906, 37.220073 ], [ -88.86953, 37.209711 ], [ -88.850021718564804, 37.202228270745103 ], [ -88.840118085174893, 37.198429565690397 ], [ -88.835051, 37.196486 ], [ -88.830348371775202, 37.195059154102701 ], [ -88.821636890937398, 37.192415963933499 ], [ -88.820935, 37.192203 ], [ -88.80572, 37.188595 ], [ -88.797373, 37.184854 ], [ -88.789660308362798, 37.180215732537398 ], [ -88.786947, 37.178584 ], [ -88.783699623534105, 37.175940867357198 ], [ -88.779466, 37.172495 ], [ -88.77595, 37.16878 ], [ -88.765357, 37.162662 ], [ -88.753068, 37.154701 ], [ -88.747892179536095, 37.152382486677801 ], [ -88.746065, 37.151564 ], [ -88.742447323147204, 37.149315859524698 ], [ -88.740178002067694, 37.147905630590998 ], [ -88.737937, 37.146513 ], [ -88.737903630587695, 37.146498369412299 ], [ -88.7337685391864, 37.144685367232398 ], [ -88.732105, 37.143956 ], [ -88.726791667490005, 37.142262356100098 ], [ -88.72344, 37.141194 ], [ -88.720553811162205, 37.1406977119318 ], [ -88.720224, 37.140641 ], [ -88.713673978475299, 37.141384183360103 ], [ -88.702553, 37.142646 ], [ -88.693983, 37.141155 ], [ -88.687767, 37.139378 ], [ -88.685392937299696, 37.138462910766101 ], [ -88.676300515035194, 37.134958210691003 ], [ -88.644872, 37.122844 ], [ -88.637977, 37.121309 ], [ -88.630892264582499, 37.121014923896098 ], [ -88.630812494616293, 37.121011612771703 ], [ -88.630784092585699, 37.121010433848497 ], [ -88.630605, 37.121003 ], [ -88.627351729010201, 37.119937201934 ], [ -88.627348863749603, 37.119936263251297 ], [ -88.625889, 37.119458 ], [ -88.621400292259906, 37.117372548061503 ], [ -88.61144, 37.112745 ], [ -88.605587804625898, 37.1095256104702 ], [ -88.601144, 37.107081 ], [ -88.600555146530894, 37.106647228128601 ], [ -88.593922, 37.101761 ], [ -88.589453, 37.099 ], [ -88.584566937576199, 37.092958234063502 ], [ -88.584010557825593, 37.092270253449797 ], [ -88.583792, 37.092 ], [ -88.574245, 37.084158 ], [ -88.5739458397627, 37.0829093964796 ], [ -88.573249, 37.080001 ], [ -88.566839, 37.0755 ], [ -88.566474558698104, 37.075778390376001 ], [ -88.564624, 37.077192 ], [ -88.545869, 37.070567 ], [ -88.531576, 37.067192 ], [ -88.521436, 37.065584 ], [ -88.514356, 37.065231 ], [ -88.504295, 37.06558 ], [ -88.490473296154306, 37.068247637682198 ], [ -88.490145, 37.068311 ], [ -88.48218, 37.067368 ], [ -88.460594, 37.074298 ], [ -88.454110986229793, 37.0819927488213 ], [ -88.44938, 37.087608 ], [ -88.444767, 37.095256 ], [ -88.444659, 37.100512 ], [ -88.440912, 37.107637 ], [ -88.443538, 37.109192 ], [ -88.435829, 37.125055 ], [ -88.434701, 37.126424 ], [ -88.424776, 37.149901 ], [ -88.424618631831393, 37.150967137699901 ], [ -88.424403, 37.152428 ], [ -88.428097, 37.157758 ], [ -88.429906, 37.158668 ], [ -88.431488, 37.160298 ], [ -88.433782, 37.16407 ], [ -88.433454, 37.165871 ], [ -88.437781, 37.180007 ], [ -88.439527, 37.18174 ], [ -88.441956, 37.189036 ], [ -88.447764, 37.203527 ], [ -88.450653, 37.207046 ], [ -88.458763, 37.213536 ], [ -88.466981, 37.217026 ], [ -88.471753, 37.220155 ], [ -88.478179, 37.227251 ], [ -88.47973, 37.229606 ], [ -88.484982, 37.240774 ], [ -88.487277, 37.244077 ], [ -88.492383, 37.248445 ], [ -88.500777, 37.253579 ], [ -88.508031, 37.260261 ], [ -88.509328, 37.26213 ], [ -88.506942, 37.266656 ], [ -88.509587, 37.273398 ], [ -88.515939, 37.284043 ], [ -88.514661, 37.290948 ], [ -88.511497, 37.298527 ], [ -88.508657, 37.303353 ], [ -88.505087, 37.307858 ], [ -88.500566, 37.317822 ], [ -88.494137, 37.327689 ], [ -88.49031, 37.335042 ], [ -88.486947, 37.339596 ], [ -88.484462, 37.345609 ], [ -88.482903806474994, 37.353447134564398 ], [ -88.482612, 37.354915 ], [ -88.482113, 37.364615 ], [ -88.480984359854205, 37.367896230418403 ], [ -88.480064295434502, 37.3705710806545 ], [ -88.478523, 37.375052 ], [ -88.476592, 37.386875 ], [ -88.470224, 37.396255 ], [ -88.465861, 37.400547 ], [ -88.456, 37.408482 ], [ -88.450127, 37.411717 ], [ -88.439333, 37.416416 ], [ -88.433182, 37.418169 ], [ -88.425981, 37.419441 ], [ -88.418594, 37.421987 ], [ -88.415263708820603, 37.423493097779101 ], [ -88.413108, 37.424468 ], [ -88.408808, 37.425216 ], [ -88.404127, 37.424146 ], [ -88.39734, 37.421644 ], [ -88.396374869316801, 37.421128851143997 ], [ -88.387669, 37.416482 ], [ -88.377507, 37.409825 ], [ -88.373445, 37.404342 ], [ -88.371214, 37.40273 ], [ -88.365471, 37.401663 ], [ -88.361557, 37.402931 ], [ -88.360633757724997, 37.403501629397098 ], [ -88.358504906825502, 37.404817410680401 ], [ -88.358436, 37.40486 ], [ -88.348405, 37.410726 ], [ -88.342154310898295, 37.4174949107313 ], [ -88.334878627162695, 37.425373794629401 ], [ -88.333183, 37.42721 ], [ -88.330622, 37.429316 ], [ -88.321306177381203, 37.434643705411503 ], [ -88.321199, 37.434705 ], [ -88.317525, 37.436178 ], [ -88.313392209305803, 37.439869903913603 ], [ -88.312585, 37.440591 ], [ -88.297821, 37.446816 ], [ -88.281667, 37.452596 ], [ -88.255193, 37.456748 ], [ -88.237784, 37.456811 ], [ -88.225012, 37.45739 ], [ -88.222893403454705, 37.457717703749999 ], [ -88.206923, 37.460188 ], [ -88.188615, 37.461896 ], [ -88.175283, 37.46379 ], [ -88.172122943694305, 37.465426153051702 ], [ -88.171764, 37.465612 ], [ -88.159990984830102, 37.466672956614303 ], [ -88.157061, 37.466937 ], [ -88.153938359863702, 37.467605007646299 ], [ -88.135142, 37.471626 ], [ -88.132628, 37.471555 ], [ -88.12801, 37.470507 ], [ -88.109417, 37.472369 ], [ -88.099802, 37.473573 ], [ -88.092621, 37.473658 ], [ -88.090005, 37.472037 ], [ -88.089072, 37.471631 ], [ -88.085229, 37.47154 ], [ -88.081765, 37.473021 ], [ -88.079597524768502, 37.4758799191303 ], [ -88.076599, 37.479835 ], [ -88.07452, 37.481275 ], [ -88.07343, 37.483606 ], [ -88.073462, 37.485294 ], [ -88.071463, 37.485945 ], [ -88.069309, 37.485185 ], [ -88.067844, 37.485867 ], [ -88.066474, 37.487822 ], [ -88.065218, 37.489422 ], [ -88.064115, 37.492013 ], [ -88.062563, 37.495951 ], [ -88.061292, 37.505232 ], [ -88.0613347550442, 37.505312471896303 ], [ -88.062828, 37.508123 ], [ -88.062568, 37.513563 ], [ -88.063311, 37.515755 ], [ -88.069018, 37.525297 ], [ -88.072242, 37.528826 ], [ -88.078046, 37.532029 ], [ -88.086194, 37.534186 ], [ -88.088049, 37.535124 ], [ -88.092814, 37.539637 ], [ -88.09647, 37.544891 ], [ -88.103138, 37.553935 ], [ -88.106047250638696, 37.556199219815298 ], [ -88.122938, 37.569345 ], [ -88.125907199037201, 37.570729997981601 ], [ -88.134281, 37.574636 ], [ -88.136489, 37.577307 ], [ -88.140783, 37.585217 ], [ -88.142383, 37.592432 ], [ -88.141623, 37.597648 ], [ -88.141671788091003, 37.599692771844701 ], [ -88.141747, 37.602845 ], [ -88.152691, 37.622827 ], [ -88.156827, 37.632801 ], [ -88.158374, 37.639948 ], [ -88.15864, 37.649097 ], [ -88.160062, 37.654332 ], [ -88.160187, 37.657592 ], [ -88.159372, 37.661847 ], [ -88.158207, 37.664542 ], [ -88.151646, 37.675098 ], [ -88.145434, 37.68259 ], [ -88.137442212323094, 37.688973684059 ], [ -88.134282, 37.691498 ], [ -88.132943996185503, 37.695388620056001 ], [ -88.132341, 37.697142 ], [ -88.130091467302194, 37.700205403039 ], [ -88.125033, 37.707094 ], [ -88.122412, 37.709685 ], [ -88.120617663075194, 37.710813224866101 ], [ -88.117803, 37.712583 ], [ -88.114884437257501, 37.713490573593802 ], [ -88.107088, 37.715915 ], [ -88.101844, 37.718036 ], [ -88.095759, 37.723205 ], [ -88.085901, 37.728587 ], [ -88.081925, 37.730389 ], [ -88.072538, 37.733286 ], [ -88.071580851850399, 37.733873151663602 ], [ -88.063802, 37.738645 ], [ -88.059588, 37.742608 ], [ -88.049942, 37.754078 ], [ -88.043391244253797, 37.7657176398423 ], [ -88.042602, 37.76712 ], [ -88.040873, 37.772082 ], [ -88.040206000616806, 37.775957507347897 ], [ -88.038769, 37.784307 ], [ -88.035827, 37.791917 ], [ -88.032438, 37.796361 ], [ -88.02803, 37.799224 ], [ -88.021021, 37.801409 ], [ -88.015144, 37.80193 ], [ -88.004706, 37.800145 ], [ -87.997102, 37.797672 ], [ -87.993099, 37.795756 ], [ -87.991168, 37.794049 ], [ -87.987157, 37.792202 ], [ -87.984358, 37.7918 ], [ -87.976389, 37.788004 ], [ -87.971805, 37.784648 ], [ -87.970262, 37.781856 ], [ -87.96003, 37.773223 ], [ -87.95259, 37.771742 ], [ -87.948594, 37.772344 ], [ -87.946463, 37.773477 ], [ -87.944506, 37.775256 ], [ -87.938598, 37.787914 ], [ -87.935861, 37.789703 ], [ -87.934698, 37.791827 ], [ -87.934936, 37.79522 ], [ -87.932554, 37.797672 ], [ -87.927543, 37.799851 ], [ -87.919138, 37.802128 ], [ -87.911087, 37.805158 ], [ -87.90681, 37.807624 ], [ -87.904595, 37.812526 ], [ -87.903804, 37.817762 ], [ -87.907773, 37.837611 ], [ -87.910276, 37.843416 ], [ -87.914892, 37.849618 ], [ -87.927303, 37.858709 ], [ -87.936228, 37.867937 ], [ -87.938128, 37.870651 ], [ -87.940005, 37.875044 ], [ -87.941021, 37.879168 ], [ -87.940839, 37.883338 ], [ -87.940069, 37.88767 ], [ -87.938365, 37.890802 ], [ -87.9371701527905, 37.892151021042999 ], [ -87.936784, 37.892587 ], [ -87.932129, 37.89732 ], [ -87.927769, 37.900924 ], [ -87.927093720334696, 37.901704186182599 ], [ -87.921744, 37.907885 ], [ -87.906535671207095, 37.9231399718538 ], [ -87.904789, 37.924892 ], [ -87.898062, 37.927514 ], [ -87.894362927725496, 37.927789230560897 ], [ -87.892471, 37.92793 ], [ -87.888444582385105, 37.927185442775503 ], [ -87.883321, 37.926238 ], [ -87.877325, 37.924034 ], [ -87.87254, 37.920999 ], [ -87.871586501851198, 37.920136916970101 ], [ -87.866094, 37.915171 ], [ -87.861659, 37.909475 ], [ -87.857243, 37.900649 ], [ -87.846489, 37.893534 ], [ -87.846443, 37.887992 ], [ -87.83886, 37.880171 ], [ -87.829773, 37.876425 ], [ -87.815732405560297, 37.875672825297897 ], [ -87.807541, 37.875234 ], [ -87.795185, 37.875273 ], [ -87.786407, 37.876556 ], [ -87.781728, 37.878815 ], [ -87.762591, 37.890739 ], [ -87.755916948623096, 37.891818970955697 ], [ -87.738125, 37.894698 ], [ -87.7333, 37.894346 ], [ -87.7278121481949, 37.8930468582587 ], [ -87.723635, 37.892058 ], [ -87.710675, 37.893898 ], [ -87.700711938900895, 37.897757389451399 ], [ -87.687049, 37.90305 ], [ -87.684636740585603, 37.9034129296844 ], [ -87.6834, 37.903599 ], [ -87.679131, 37.902951 ], [ -87.671762, 37.899802 ], [ -87.66684, 37.895763 ], [ -87.665259, 37.892851 ], [ -87.664331, 37.88907 ], [ -87.664382, 37.886736 ], [ -87.666817, 37.879851 ], [ -87.6754, 37.865946 ], [ -87.681633, 37.855917 ], [ -87.6819, 37.84641 ], [ -87.680689, 37.84062 ], [ -87.679188, 37.836321 ], [ -87.675538, 37.831732 ], [ -87.672397, 37.829127 ], [ -87.666522, 37.827455 ], [ -87.655171, 37.826037 ], [ -87.645858, 37.825899 ], [ -87.637402648384295, 37.826837735814102 ], [ -87.636339029921103, 37.826955821588498 ], [ -87.635806, 37.827015 ], [ -87.625014, 37.829077 ], [ -87.615399, 37.831974 ], [ -87.615004146984006, 37.832221829037302 ], [ -87.612426, 37.83384 ], [ -87.607176168878595, 37.838190683797002 ], [ -87.606599, 37.838669 ], [ -87.6009, 37.845293 ], [ -87.599210903482501, 37.846650498154801 ], [ -87.597859, 37.847737 ], [ -87.596083, 37.85116 ], [ -87.590274, 37.85858 ], [ -87.591457, 37.860369 ], [ -87.590468, 37.863126 ], [ -87.589202, 37.863745 ], [ -87.588036, 37.868984 ], [ -87.586392, 37.870542 ], [ -87.586304, 37.872493 ], [ -87.583925, 37.872485 ], [ -87.583737, 37.87808 ], [ -87.584231650249507, 37.879064941066801 ], [ -87.587141, 37.884858 ], [ -87.588973429962905, 37.886242102656098 ], [ -87.597118, 37.892394 ], [ -87.601967, 37.895722 ], [ -87.607707, 37.899361 ], [ -87.61179, 37.901404 ], [ -87.620795, 37.907676 ], [ -87.622445, 37.912115 ], [ -87.625592, 37.916028 ], [ -87.627892, 37.922253 ], [ -87.625274, 37.929621 ], [ -87.623389596501497, 37.930447347275802 ], [ -87.621411, 37.931315 ], [ -87.618734, 37.933928 ], [ -87.617615, 37.937062 ], [ -87.619049, 37.938517 ], [ -87.615228, 37.941166 ], [ -87.610606868306604, 37.944831100761299 ], [ -87.607905, 37.946974 ], [ -87.60559, 37.950144 ], [ -87.603446, 37.960281 ], [ -87.603305548280503, 37.966929680722998 ], [ -87.603298, 37.967287 ], [ -87.601573, 37.971304 ], [ -87.600705720150003, 37.971874908394398 ], [ -87.596171, 37.97486 ], [ -87.590023, 37.975472 ], [ -87.588144833995599, 37.975192572235599 ], [ -87.584545, 37.974657 ], [ -87.579181, 37.971533 ], [ -87.575729, 37.967778 ], [ -87.575330706564003, 37.966391674780802 ], [ -87.5741, 37.962108 ], [ -87.574494, 37.957212 ], [ -87.576988, 37.952287 ], [ -87.573605, 37.951642 ], [ -87.5731926441876, 37.950226593620002 ], [ -87.573121525549297, 37.9499824797469 ], [ -87.572146, 37.946634 ], [ -87.568297, 37.940633 ], [ -87.56207, 37.933291 ], [ -87.556567, 37.928606 ], [ -87.551277, 37.925418 ], [ -87.548474813287399, 37.924123700541003 ], [ -87.548147654748405, 37.923972589582498 ], [ -87.531532, 37.916298 ], [ -87.520284, 37.912618 ], [ -87.511499, 37.906426 ], [ -87.507483, 37.90673 ], [ -87.505363230790394, 37.907617889736898 ], [ -87.49689, 37.911167 ], [ -87.482446, 37.922261 ], [ -87.480680431064997, 37.923452748603701 ], [ -87.469653857981498, 37.930895620312398 ], [ -87.465514, 37.93369 ], [ -87.451170598101598, 37.941083673096003 ], [ -87.450458, 37.941451 ], [ -87.447786, 37.942427 ], [ -87.437801, 37.944223 ], [ -87.428307, 37.945047 ], [ -87.424151, 37.944318 ], [ -87.423211866568295, 37.944352352192801 ], [ -87.414074095626603, 37.944686599125397 ], [ -87.413325, 37.944714 ], [ -87.404376042445605, 37.943074662686698 ], [ -87.403421914848593, 37.9428998784214 ], [ -87.402238, 37.942683 ], [ -87.396826875473096, 37.940584500629299 ], [ -87.395789, 37.940182 ], [ -87.391425860537595, 37.939123554193102 ], [ -87.391170985866395, 37.939061724625397 ], [ -87.385434, 37.93767 ], [ -87.373453, 37.932237 ], [ -87.373442013905404, 37.931961325673797 ], [ -87.37341, 37.931158 ], [ -87.370522, 37.928234 ], [ -87.363674, 37.922241 ], [ -87.361368, 37.920816 ], [ -87.357765, 37.920367 ], [ -87.356336, 37.919722 ], [ -87.352738, 37.916091 ], [ -87.344933, 37.911164 ], [ -87.335856, 37.907403 ], [ -87.333539, 37.908338 ], [ -87.319754, 37.905524 ], [ -87.304398, 37.898267 ], [ -87.3029438543916, 37.897706665081998 ], [ -87.298315, 37.895923 ], [ -87.280416, 37.885642 ], [ -87.27317, 37.880118 ], [ -87.269021858297293, 37.877974034598502 ], [ -87.267977, 37.877434 ], [ -87.256469, 37.868398 ], [ -87.249479, 37.864989 ], [ -87.234595, 37.857223 ], [ -87.220342, 37.849081 ], [ -87.211752, 37.846599 ], [ -87.203869, 37.844489 ], [ -87.175836, 37.841017 ], [ -87.17036, 37.842197 ], [ -87.164747, 37.841353 ], [ -87.162319, 37.840159 ], [ -87.156263, 37.835927 ], [ -87.153486, 37.832384 ], [ -87.152163798068997, 37.830610726341803 ], [ -87.148030394652096, 37.8250672044136 ], [ -87.1435192873831, 37.819017124239103 ], [ -87.141506, 37.816317 ], [ -87.137041, 37.807187 ], [ -87.135476, 37.801878 ], [ -87.135388, 37.797845 ], [ -87.13398, 37.795116 ], [ -87.134204, 37.792943 ], [ -87.129629, 37.786608 ], [ -87.128922910537099, 37.786237507420999 ], [ -87.128094240745099, 37.785802695652102 ], [ -87.126088, 37.78475 ], [ -87.122707403658296, 37.783877558937199 ], [ -87.118594, 37.782816 ], [ -87.111008, 37.782354 ], [ -87.1096552982481, 37.7826164281147 ], [ -87.109648529993095, 37.782617741176097 ], [ -87.099222783560094, 37.7846403666193 ], [ -87.098618095771798, 37.784757677827102 ], [ -87.096034, 37.785259 ], [ -87.089279, 37.787862 ], [ -87.079044, 37.794098 ], [ -87.077132267478603, 37.795611021309199 ], [ -87.069675, 37.801513 ], [ -87.068050840178799, 37.804217228237597 ], [ -87.062069, 37.814177 ], [ -87.05958, 37.822203 ], [ -87.056664, 37.827531 ], [ -87.054463996597505, 37.835317780490897 ], [ -87.051555, 37.845614 ], [ -87.04751, 37.858753 ], [ -87.043285, 37.868552 ], [ -87.042944, 37.87181 ], [ -87.043049, 37.875049 ], [ -87.043084784028906, 37.875537881803098 ], [ -87.043407, 37.87994 ], [ -87.04422, 37.883581 ], [ -87.045641358613494, 37.886971373323597 ], [ -87.045894, 37.887574 ], [ -87.045961031400694, 37.8886289465676 ], [ -87.046146, 37.89154 ], [ -87.045205, 37.894332 ], [ -87.040163, 37.901215 ], [ -87.036684768809806, 37.904143975739601 ], [ -87.034166, 37.906265 ], [ -87.018056338731, 37.915463022996803 ], [ -87.012373, 37.918708 ], [ -87.003301, 37.922395 ], [ -86.978957, 37.9302 ], [ -86.978833920353594, 37.9302314188525 ], [ -86.968004, 37.932996 ], [ -86.964785, 37.932384 ], [ -86.944633, 37.933534 ], [ -86.933357, 37.934939 ], [ -86.925825, 37.935109 ], [ -86.917949, 37.93724 ], [ -86.909318, 37.94211 ], [ -86.907260602392498, 37.9433267676648 ], [ -86.901983, 37.946448 ], [ -86.89029, 37.957426 ], [ -86.88648, 37.963069 ], [ -86.879364, 37.969268 ], [ -86.875874, 37.97077 ], [ -86.869029, 37.976894 ], [ -86.863224, 37.982495 ], [ -86.85595, 37.987292 ], [ -86.849027, 37.99002 ], [ -86.835161, 37.99375 ], [ -86.823491, 37.998939 ], [ -86.820071, 37.999392 ], [ -86.815267, 37.998877 ], [ -86.8146776831273, 37.9986432493709 ], [ -86.813484707474601, 37.998170059441598 ], [ -86.810913, 37.99715 ], [ -86.805059501408905, 37.9936351919374 ], [ -86.804925484785699, 37.993554719942701 ], [ -86.803134, 37.992479 ], [ -86.800136486467807, 37.991289273354099 ], [ -86.79551, 37.989453 ], [ -86.7938, 37.986541 ], [ -86.790509, 37.980046 ], [ -86.787168, 37.968801 ], [ -86.781335, 37.96162 ], [ -86.779260200608903, 37.958378032187802 ], [ -86.778569, 37.957298 ], [ -86.779915, 37.955462 ], [ -86.777174619827903, 37.9516987186745 ], [ -86.776187359209203, 37.950342943484003 ], [ -86.775508, 37.94941 ], [ -86.774705790886799, 37.948144216175599 ], [ -86.774029847500898, 37.947077663589702 ], [ -86.765411488335104, 37.933478990319003 ], [ -86.764734, 37.93241 ], [ -86.756630779295406, 37.920903120016597 ], [ -86.755265062103803, 37.918963749933098 ], [ -86.75099, 37.912893 ], [ -86.745607294932995, 37.907499047884599 ], [ -86.737672361357397, 37.899547534432998 ], [ -86.734718, 37.896587 ], [ -86.73146, 37.89434 ], [ -86.722247, 37.892648 ], [ -86.720339536111297, 37.892887377898802 ], [ -86.718462, 37.893123 ], [ -86.716138, 37.894073 ], [ -86.712103297332405, 37.896154832883298 ], [ -86.707816, 37.898367 ], [ -86.703457805895795, 37.901166138445603 ], [ -86.691994, 37.908529 ], [ -86.686015, 37.913084 ], [ -86.680929, 37.91501 ], [ -86.673038, 37.914903 ], [ -86.672371805034302, 37.914801891891599 ], [ -86.660888, 37.913059 ], [ -86.650087, 37.910616 ], [ -86.647081, 37.908621 ], [ -86.645513, 37.906529 ], [ -86.644143, 37.902366 ], [ -86.644039, 37.898202 ], [ -86.644754, 37.894806 ], [ -86.648727, 37.886036 ], [ -86.658374, 37.869376 ], [ -86.661233, 37.862761 ], [ -86.662495, 37.856951 ], [ -86.661637, 37.849714 ], [ -86.658268, 37.844144 ], [ -86.655296, 37.842508 ], [ -86.652516, 37.841636 ], [ -86.648028, 37.841425 ], [ -86.638265, 37.842718 ], [ -86.634271, 37.843845 ], [ -86.633506378941405, 37.844152448124298 ], [ -86.625763, 37.847266 ], [ -86.615215, 37.852857 ], [ -86.609163, 37.855408 ], [ -86.604624, 37.858272 ], [ -86.603814896758095, 37.8594032048087 ], [ -86.598108, 37.867382 ], [ -86.59732, 37.870162 ], [ -86.597476, 37.871478 ], [ -86.59939, 37.874753 ], [ -86.598317, 37.88042 ], [ -86.598151, 37.884553 ], [ -86.600096, 37.901218 ], [ -86.599848, 37.906754 ], [ -86.598452, 37.910965 ], [ -86.596125, 37.914289 ], [ -86.588581, 37.921159 ], [ -86.586542, 37.922285 ], [ -86.580322, 37.923145 ], [ -86.566256, 37.922164 ], [ -86.548507, 37.917842 ], [ -86.540722, 37.916871 ], [ -86.534156, 37.917007 ], [ -86.528279, 37.918618 ], [ -86.5261487431668, 37.919453464152397 ], [ -86.51924, 37.922163 ], [ -86.511005, 37.92612 ], [ -86.507831, 37.928829 ], [ -86.50662, 37.930719 ], [ -86.507043, 37.936439 ], [ -86.50939, 37.942492 ], [ -86.512588, 37.94695 ], [ -86.518575, 37.951798 ], [ -86.520503, 37.954438 ], [ -86.523831, 37.962169 ], [ -86.525174, 37.968228 ], [ -86.524888, 37.981834 ], [ -86.525844, 37.998385 ], [ -86.525671, 38.007145 ], [ -86.524656, 38.012894 ], [ -86.524385, 38.018609 ], [ -86.524969, 38.027879 ], [ -86.524873082380097, 38.028197749138897 ], [ -86.524684678127102, 38.028823845715102 ], [ -86.521825, 38.038327 ], [ -86.519404, 38.041241 ], [ -86.517289, 38.042634 ], [ -86.51176, 38.044448 ], [ -86.500051, 38.045757 ], [ -86.490769378739103, 38.045672484270703 ], [ -86.480393, 38.045578 ], [ -86.471903, 38.046218 ], [ -86.462085, 38.047532 ], [ -86.452192, 38.05049 ], [ -86.438236, 38.060426 ], [ -86.433235971709905, 38.066617516580997 ], [ -86.432789, 38.067171 ], [ -86.430091, 38.078638 ], [ -86.431354, 38.083466 ], [ -86.434046, 38.086763 ], [ -86.447455, 38.091794 ], [ -86.449994, 38.092031 ], [ -86.458833, 38.096006 ], [ -86.463858, 38.101177 ], [ -86.466217, 38.106781 ], [ -86.466081, 38.114437 ], [ -86.463248, 38.119278 ], [ -86.4610337136873, 38.121174567096098 ], [ -86.457115, 38.124531 ], [ -86.449793, 38.127223 ], [ -86.439688, 38.127412 ], [ -86.429541, 38.125281 ], [ -86.426541006139701, 38.123114602317301 ], [ -86.418201, 38.117092 ], [ -86.4173328959006, 38.116345653895799 ], [ -86.405068, 38.105801 ], [ -86.401879, 38.104329 ], [ -86.396146, 38.107152 ], [ -86.39184, 38.117148 ], [ -86.387808, 38.124392 ], [ -86.379775, 38.129274 ], [ -86.375324, 38.130629 ], [ -86.352466, 38.128459 ], [ -86.340556, 38.127737 ], [ -86.333665, 38.129235 ], [ -86.329111, 38.131999 ], [ -86.323847, 38.138412 ], [ -86.321191, 38.147005 ], [ -86.323933, 38.152374 ], [ -86.328028, 38.154786 ], [ -86.344856, 38.158967 ], [ -86.357551, 38.159907 ], [ -86.366055, 38.161531 ], [ -86.37174, 38.164183 ], [ -86.377434, 38.171379 ], [ -86.378579, 38.178572 ], [ -86.378151, 38.185845 ], [ -86.375246184833898, 38.190857976425697 ], [ -86.373801, 38.193352 ], [ -86.367504, 38.197305 ], [ -86.358005289197806, 38.198762756577601 ], [ -86.357717, 38.198807 ], [ -86.347736, 38.195363 ], [ -86.342660640169996, 38.191450661883202 ], [ -86.333479, 38.184373 ], [ -86.329672384454994, 38.181701846154297 ], [ -86.317139, 38.172907 ], [ -86.29574, 38.164069 ], [ -86.28711, 38.157939 ], [ -86.277128855507797, 38.145969744205601 ], [ -86.272847, 38.140835 ], [ -86.270605, 38.135779 ], [ -86.270269, 38.129783 ], [ -86.275362, 38.114106 ], [ -86.277907300633501, 38.1050142787429 ], [ -86.2791, 38.100754 ], [ -86.279025086484097, 38.099773416421399 ], [ -86.277704, 38.082481 ], [ -86.273584, 38.067443 ], [ -86.272628094341997, 38.065060401890101 ], [ -86.271383, 38.061957 ], [ -86.267203, 38.056798 ], [ -86.259256, 38.051215 ], [ -86.252728859713699, 38.0477539105216 ], [ -86.24693, 38.044679 ], [ -86.233339, 38.039625 ], [ -86.233448, 38.03818 ], [ -86.223328, 38.031516 ], [ -86.220711, 38.028178 ], [ -86.206110992845595, 38.022423095219203 ], [ -86.2013240218796, 38.020536208328899 ], [ -86.196463775153006, 38.0186204382318 ], [ -86.190927, 38.016438 ], [ -86.188476805801898, 38.015379488825197 ], [ -86.176557, 38.01023 ], [ -86.169367286962597, 38.009997888133 ], [ -86.165313, 38.009867 ], [ -86.152485, 38.013016 ], [ -86.147897, 38.014749 ], [ -86.133309527498298, 38.015823129857601 ], [ -86.1283, 38.016192 ], [ -86.117523, 38.015441 ], [ -86.104167, 38.012627 ], [ -86.099063718423395, 38.010423765678603 ], [ -86.086341, 38.004931 ], [ -86.079404269421701, 38.000634457728701 ], [ -86.079389, 38.000625 ], [ -86.075463, 37.997183 ], [ -86.075932, 37.995493 ], [ -86.069899, 37.98371 ], [ -86.068000479110793, 37.980661819239003 ], [ -86.064859, 37.975618 ], [ -86.057997, 37.967671 ], [ -86.050029, 37.9605 ], [ -86.046736, 37.958995 ], [ -86.042307, 37.958171 ], [ -86.03819, 37.959588 ], [ -86.036013, 37.961703 ], [ -86.034355, 37.964621 ], [ -86.034267266697796, 37.965254441216402 ], [ -86.033578, 37.970231 ], [ -86.035432, 37.98136 ], [ -86.035103, 37.984358 ], [ -86.032468, 37.9901 ], [ -86.030712712461394, 37.9916067355012 ], [ -86.029509, 37.99264 ], [ -86.025561, 37.994505 ], [ -86.018451, 37.996528 ], [ -86.004045, 37.999188 ], [ -85.999007096630706, 37.999982801072498 ], [ -85.977423, 38.003388 ], [ -85.972918, 38.002574 ], [ -85.954638, 38.004657 ], [ -85.947114, 38.005085 ], [ -85.942216, 38.007267 ], [ -85.939609, 38.009821 ], [ -85.931221, 38.016018 ], [ -85.925654, 38.021784 ], [ -85.921275, 38.03032 ], [ -85.918912, 38.041195 ], [ -85.916315, 38.060926 ], [ -85.915365780527594, 38.065156467236697 ], [ -85.913839, 38.071961 ], [ -85.912006, 38.0734 ], [ -85.907719627870307, 38.0832783706662 ], [ -85.906411119935598, 38.086293957275899 ], [ -85.905266, 38.088933 ], [ -85.904226, 38.099802 ], [ -85.905164, 38.11107 ], [ -85.906082305164702, 38.116885676771801 ], [ -85.908752, 38.133793 ], [ -85.909133, 38.144387 ], [ -85.907965, 38.161473 ], [ -85.903873, 38.174142 ], [ -85.899547448542293, 38.180370475828198 ], [ -85.894892066637695, 38.187073883231399 ], [ -85.893544, 38.189015 ], [ -85.880264, 38.203369 ], [ -85.871945, 38.209591 ], [ -85.865840447196803, 38.213440355780499 ], [ -85.856202918928503, 38.219517504483299 ], [ -85.852358, 38.221942 ], [ -85.845355110511306, 38.229936021773099 ], [ -85.844381, 38.231048 ], [ -85.842902183640007, 38.233474768397201 ], [ -85.839091, 38.239729 ], [ -85.838253551661396, 38.2447956612043 ], [ -85.837395, 38.24999 ], [ -85.8374185010925, 38.250907633373799 ], [ -85.837625729528796, 38.2589991605902 ], [ -85.837632, 38.259244 ], [ -85.836627525855604, 38.263392258659103 ], [ -85.836168, 38.26529 ], [ -85.834033404041804, 38.268734461659697 ], [ -85.8321249854001, 38.271813955376999 ], [ -85.829216, 38.276508 ], [ -85.824532, 38.279904 ], [ -85.823708271932205, 38.280190740052198 ], [ -85.817810283974495, 38.282243831892799 ], [ -85.817399, 38.282387 ], [ -85.803809, 38.284565 ], [ -85.802410897711297, 38.284807032694701 ], [ -85.802395005260095, 38.284809783918902 ], [ -85.79727, 38.285697 ], [ -85.793231, 38.287364 ], [ -85.791078502945695, 38.287761703343797 ], [ -85.786904, 38.288533 ], [ -85.781027, 38.288476 ], [ -85.779514667033695, 38.287676547076103 ], [ -85.777392451960907, 38.286554696873402 ], [ -85.777376, 38.286546 ], [ -85.772268, 38.285587 ], [ -85.771407, 38.284105 ], [ -85.765991, 38.280344 ], [ -85.765898, 38.279082 ], [ -85.767162, 38.277324 ], [ -85.761395868757802, 38.272374328503403 ], [ -85.760933, 38.271977 ], [ -85.751475, 38.267998 ], [ -85.751199552946602, 38.267963213938899 ], [ -85.750655458497107, 38.267894500541701 ], [ -85.745077, 38.26719 ], [ -85.744696922449805, 38.267250884460601 ], [ -85.744680958900105, 38.267253441654802 ], [ -85.740857, 38.267866 ], [ -85.735436471603606, 38.270477401237898 ], [ -85.732533023048703, 38.271876170619002 ], [ -85.716014533283399, 38.2798341410357 ], [ -85.7051206290256, 38.2850824033791 ], [ -85.704659855237097, 38.285304386395097 ], [ -85.703989579280105, 38.285627299464799 ], [ -85.699373072391694, 38.287851354191801 ], [ -85.683561, 38.295469 ], [ -85.676951673305197, 38.300003074826797 ], [ -85.675796660187203, 38.300795427232003 ], [ -85.673567, 38.302325 ], [ -85.667925, 38.31063 ], [ -85.666871923961196, 38.3117798834773 ], [ -85.659897, 38.319396 ], [ -85.659387878926793, 38.319895144900698 ], [ -85.655355, 38.323849 ], [ -85.654097831323298, 38.326020301349999 ], [ -85.651364, 38.330742 ], [ -85.650965024103598, 38.331605957586802 ], [ -85.646307669102399, 38.341691171315802 ], [ -85.645030385221105, 38.344457050432098 ], [ -85.644351246150606, 38.345927684016097 ], [ -85.64431, 38.346017 ], [ -85.642310317355594, 38.352383532226099 ], [ -85.638678, 38.363948 ], [ -85.638671912450505, 38.364202160054901 ], [ -85.638424648670295, 38.3745256203729 ], [ -85.638396735052694, 38.375691036200699 ], [ -85.638387015609197, 38.376096830731797 ], [ -85.638365, 38.377016 ], [ -85.637863602476898, 38.380246233645899 ], [ -85.637861, 38.380263 ], [ -85.637683964627001, 38.380816792821101 ], [ -85.637232434948501, 38.382229244412599 ], [ -85.636928603228696, 38.3831796749528 ], [ -85.635664696619102, 38.387133361692698 ], [ -85.635089934985004, 38.388931301061199 ], [ -85.633684546676193, 38.393327563473903 ], [ -85.632940701180601, 38.395654422159801 ], [ -85.632937, 38.395666 ], [ -85.629961, 38.402306 ], [ -85.624063, 38.412327 ], [ -85.622113323087504, 38.416814026326101 ], [ -85.620543, 38.420428 ], [ -85.620724, 38.422327 ], [ -85.6205635829144, 38.422591363154503 ], [ -85.618281, 38.426353 ], [ -85.609712, 38.434817 ], [ -85.604457, 38.44082 ], [ -85.597104, 38.445102 ], [ -85.586033, 38.450092 ], [ -85.574912, 38.452575 ], [ -85.566225, 38.452794 ], [ -85.56251, 38.453325 ], [ -85.552407, 38.453606 ], [ -85.541960670551404, 38.454788936461497 ], [ -85.538207, 38.455214 ], [ -85.524787, 38.457636 ], [ -85.515641098169496, 38.461115851934203 ], [ -85.509396, 38.463492 ], [ -85.498866, 38.468242 ], [ -85.491422, 38.474702 ], [ -85.488837494054096, 38.478036543214003 ], [ -85.482897, 38.485701 ], [ -85.481246, 38.488374 ], [ -85.479472, 38.494533 ], [ -85.475124, 38.503689 ], [ -85.473200140815706, 38.505354558962097 ], [ -85.467150877096003, 38.510591639453502 ], [ -85.466864, 38.51084 ], [ -85.458554, 38.514678 ], [ -85.438436, 38.521931 ], [ -85.433248944954101, 38.524682375804197 ], [ -85.428742, 38.527073 ], [ -85.422441, 38.532931 ], [ -85.417047, 38.541726 ], [ -85.415745, 38.546723 ], [ -85.415817867811199, 38.562864178975097 ], [ -85.415821, 38.563558 ], [ -85.418971, 38.571322 ], [ -85.428593496857701, 38.586352396730597 ], [ -85.433993330013095, 38.594786967903197 ], [ -85.4363, 38.59839 ], [ -85.439284, 38.607406 ], [ -85.439729, 38.611493 ], [ -85.439463, 38.635807 ], [ -85.438142299920102, 38.6458297737653 ], [ -85.437738, 38.648898 ], [ -85.438376356002195, 38.6555238046803 ], [ -85.438742, 38.659319 ], [ -85.444815, 38.670083 ], [ -85.454439686173799, 38.680912688584897 ], [ -85.455486, 38.68209 ], [ -85.456481, 38.685069 ], [ -85.456755, 38.692252 ], [ -85.452361, 38.708194 ], [ -85.452051628224694, 38.708344316229798 ], [ -85.450945, 38.708882 ], [ -85.450184, 38.711931 ], [ -85.443182121430098, 38.7189381877157 ], [ -85.442271, 38.71985 ], [ -85.436299, 38.728484 ], [ -85.425351, 38.732983 ], [ -85.423418, 38.733835 ], [ -85.41954, 38.735513 ], [ -85.410238, 38.737135 ], [ -85.397834, 38.735623 ], [ -85.397450760370901, 38.735545464757998 ], [ -85.384338657543296, 38.732892685692498 ], [ -85.372265, 38.73045 ], [ -85.369902606522501, 38.730701117016601 ], [ -85.369853214601093, 38.730706367264702 ], [ -85.367025, 38.731007 ], [ -85.365216, 38.730468 ], [ -85.363381780178401, 38.7306749601779 ], [ -85.348953, 38.732303 ], [ -85.337036282328896, 38.734795540548703 ], [ -85.336403, 38.734928 ], [ -85.33375, 38.736075 ], [ -85.333090533900403, 38.736201928374001 ], [ -85.305325, 38.741546 ], [ -85.295900927164496, 38.742021957346502 ], [ -85.289267, 38.742357 ], [ -85.278764, 38.741645 ], [ -85.268495, 38.740165 ], [ -85.258946, 38.73777 ], [ -85.248743275648394, 38.732891291924503 ], [ -85.246505, 38.731821 ], [ -85.246264696819196, 38.731530165383099 ], [ -85.235087, 38.718002 ], [ -85.22623, 38.705867 ], [ -85.221124, 38.700957 ], [ -85.213257, 38.695446 ], [ -85.2045, 38.691692 ], [ -85.201451687015293, 38.691052361258897 ], [ -85.192114, 38.689093 ], [ -85.18864, 38.687583 ], [ -85.180124048735706, 38.688203727003398 ], [ -85.178634337324198, 38.688312311948501 ], [ -85.176567, 38.688463 ], [ -85.173048, 38.688022 ], [ -85.156158, 38.692251 ], [ -85.136697, 38.700236 ], [ -85.13199, 38.702916 ], [ -85.127917341279399, 38.706503703505597 ], [ -85.125238, 38.708864 ], [ -85.113772913394797, 38.716320433124302 ], [ -85.106902, 38.720789 ], [ -85.106979, 38.72163 ], [ -85.101405, 38.726551 ], [ -85.097728, 38.727513 ], [ -85.094422774356502, 38.729218940496203 ], [ -85.079537, 38.736902 ], [ -85.071928, 38.741567 ], [ -85.063656275386606, 38.744113132847701 ], [ -85.059677, 38.745338 ], [ -85.055776283393101, 38.746839966185597 ], [ -85.0524, 38.74814 ], [ -85.040938, 38.755163 ], [ -85.033173125239102, 38.7582399664308 ], [ -85.023425377020899, 38.762102680894003 ], [ -85.010986, 38.767032 ], [ -84.999949, 38.774715 ], [ -84.993085581367396, 38.7779850057359 ], [ -84.991927, 38.778537 ], [ -84.990109559485006, 38.778696475378702 ], [ -84.979995, 38.779584 ], [ -84.962255, 38.778177 ], [ -84.947953, 38.775489 ], [ -84.943641, 38.775427 ], [ -84.932977, 38.777519 ], [ -84.926422, 38.780479 ], [ -84.915234, 38.784086 ], [ -84.908147082795097, 38.7876483786713 ], [ -84.903435, 38.790017 ], [ -84.896437935835195, 38.792731168918998 ], [ -84.89393, 38.793704 ], [ -84.887285, 38.794776 ], [ -84.877221, 38.792503 ], [ -84.876832593807507, 38.792466867412401 ], [ -84.861989, 38.791086 ], [ -84.852866, 38.789382 ], [ -84.837808, 38.784906 ], [ -84.828857, 38.783271 ], [ -84.821378, 38.783111 ], [ -84.814641, 38.784488 ], [ -84.813162623446203, 38.785828093032599 ], [ -84.812877, 38.786087 ], [ -84.811752, 38.789169 ], [ -84.811645, 38.792766 ], [ -84.816506, 38.80532 ], [ -84.827098, 38.818634 ], [ -84.829886, 38.825405 ], [ -84.829955135609794, 38.830424053230601 ], [ -84.829958, 38.830632 ], [ -84.827488, 38.834909 ], [ -84.823363, 38.839196 ], [ -84.822702837774401, 38.8396461978109 ], [ -84.817169, 38.84342 ], [ -84.803247, 38.850723 ], [ -84.798459, 38.855281 ], [ -84.794833214254894, 38.857196668042803 ], [ -84.793714, 38.857788 ], [ -84.791002, 38.860572 ], [ -84.788302, 38.864325 ], [ -84.785799, 38.869496 ], [ -84.784579, 38.87532 ], [ -84.785234, 38.880439 ], [ -84.786406, 38.88222 ], [ -84.792482, 38.886743 ], [ -84.800247, 38.89107 ], [ -84.8010842885177, 38.891342107045297 ], [ -84.812746, 38.895132 ], [ -84.816938, 38.895069 ], [ -84.8286487953104, 38.896961382839102 ], [ -84.830472, 38.897256 ], [ -84.860056963539407, 38.897644774572903 ], [ -84.860759, 38.897654 ], [ -84.867778, 38.899133 ], [ -84.870124, 38.900389 ], [ -84.870571071042093, 38.900947563632101 ], [ -84.871158644496802, 38.901681668801402 ], [ -84.877029, 38.909016 ], [ -84.878817, 38.913405 ], [ -84.879231753269806, 38.915898117770297 ], [ -84.879268, 38.916116 ], [ -84.877762, 38.920357 ], [ -84.870759, 38.929231 ], [ -84.864731, 38.934893 ], [ -84.856610373368099, 38.940840293032402 ], [ -84.853742, 38.942941 ], [ -84.853011868273498, 38.943819468093103 ], [ -84.849317, 38.948265 ], [ -84.844161, 38.950973 ], [ -84.841538940506894, 38.953330953025798 ], [ -84.841053542261605, 38.953767459620799 ], [ -84.84016, 38.954571 ], [ -84.83516, 38.957961 ], [ -84.833676978968299, 38.960001538965699 ], [ -84.832851209731203, 38.961137742882599 ], [ -84.832617, 38.96146 ], [ -84.829857, 38.969385 ], [ -84.8305258740629, 38.974224242400098 ], [ -84.830619, 38.974898 ], [ -84.833473, 38.981522 ], [ -84.83712, 38.988059 ], [ -84.837736441128598, 38.988793952504302 ], [ -84.83983, 38.99129 ], [ -84.847736, 38.998008 ], [ -84.850607, 39.004693 ], [ -84.864509167167995, 39.019804734995297 ], [ -84.871824, 39.027756 ], [ -84.877364666868701, 39.031600247183498 ], [ -84.877912, 39.03198 ], [ -84.879115, 39.033695 ], [ -84.885659, 39.037494 ], [ -84.889102150840998, 39.042791543339199 ], [ -84.889186592967803, 39.042921463824001 ], [ -84.893164, 39.049041 ], [ -84.896726, 39.053304 ], [ -84.896754807891796, 39.053953345453202 ], [ -84.896777257734996, 39.054459377054897 ], [ -84.896869008154297, 39.056527481099799 ], [ -84.896881429942994, 39.056807474930601 ], [ -84.896911, 39.057474 ], [ -84.893203, 39.06248 ], [ -84.888873, 39.066376 ], [ -84.880662, 39.06997 ], [ -84.872978, 39.07207 ], [ -84.868026850170594, 39.074515559399799 ], [ -84.860689, 39.07814 ], [ -84.851644168681503, 39.085094296392001 ], [ -84.849825, 39.086493 ], [ -84.845762922810195, 39.090728623878803 ], [ -84.844582, 39.09196 ], [ -84.837255415717195, 39.097104351473398 ], [ -84.832435, 39.100489 ], [ -84.825259993528903, 39.103405636039803 ], [ -84.820157, 39.10548 ], [ -84.813767, 39.106492 ], [ -84.812241, 39.107102 ], [ -84.810753, 39.109142 ], [ -84.79382, 39.112939 ], [ -84.78768, 39.115297 ], [ -84.783991, 39.11806 ], [ -84.766749, 39.138558 ], [ -84.758935352697094, 39.1437035726141 ], [ -84.754449, 39.146658 ], [ -84.750749, 39.147358 ], [ -84.744149, 39.147458 ], [ -84.732048, 39.144458 ], [ -84.726421130053595, 39.142073733073602 ], [ -84.726148, 39.141958 ], [ -84.723298748117998, 39.140121357240801 ], [ -84.718548, 39.137059 ], [ -84.714048, 39.132659 ], [ -84.712234480881605, 39.130605846382799 ], [ -84.701947, 39.118959 ], [ -84.697000123239604, 39.112957870815301 ], [ -84.692482528650601, 39.107477510166298 ], [ -84.689747, 39.104159 ], [ -84.684847, 39.100459 ], [ -84.677247, 39.09826 ], [ -84.666147, 39.09796 ], [ -84.657246, 39.09546 ], [ -84.650346, 39.09166 ], [ -84.635771693774998, 39.079528314930002 ], [ -84.632446, 39.07676 ], [ -84.623484899152203, 39.074360250032399 ], [ -84.620112, 39.073457 ], [ -84.607928, 39.073238 ], [ -84.604381348900503, 39.073735984792499 ], [ -84.601682, 39.074115 ], [ -84.592408, 39.078088 ], [ -84.572144, 39.08206 ], [ -84.571839312618593, 39.082256932088001 ], [ -84.5652688909326, 39.086503668055798 ], [ -84.563944, 39.08736 ], [ -84.563926390312005, 39.087380636353103 ], [ -84.562956249768504, 39.088517519802501 ], [ -84.557544, 39.09486 ], [ -84.554444, 39.09766 ], [ -84.553157176025195, 39.098267666877 ], [ -84.551019810411901, 39.099276978416597 ], [ -84.550844, 39.09936 ], [ -84.543544, 39.09966 ], [ -84.541545469634301, 39.099205788553199 ], [ -84.541344, 39.09916 ], [ -84.537243522048797, 39.097441236786899 ], [ -84.524644, 39.09216 ], [ -84.522576350024707, 39.092119465791498 ], [ -84.522573677839503, 39.092119413406003 ], [ -84.519543, 39.09206 ], [ -84.509743, 39.09366 ], [ -84.506082232525301, 39.095080745715599 ], [ -84.502062, 39.096641 ], [ -84.5019963180453, 39.096684069939101 ], [ -84.498600555628599, 39.098910789305997 ], [ -84.496543, 39.10026 ], [ -84.495832268138798, 39.100818432176702 ], [ -84.493743, 39.10246 ], [ -84.4935544922307, 39.102720769080797 ], [ -84.492429218324006, 39.104277397985101 ], [ -84.487743, 39.11076 ], [ -84.484812110270198, 39.113346079173297 ], [ -84.480943, 39.11676 ], [ -84.476243, 39.11916 ], [ -84.476142837607298, 39.119200409314701 ], [ -84.470542, 39.12146 ], [ -84.463101803012293, 39.121722595187798 ], [ -84.462042, 39.12176 ], [ -84.455342, 39.12036 ], [ -84.449793, 39.117754 ], [ -84.445671912415193, 39.114772074836999 ], [ -84.445242, 39.114461 ], [ -84.440749902262397, 39.109773593665103 ], [ -84.440642, 39.109661 ], [ -84.440240116144906, 39.109077988722298 ], [ -84.435859272882894, 39.102722717179702 ], [ -84.435541, 39.102261 ], [ -84.432841, 39.094261 ], [ -84.433941, 39.092461 ], [ -84.434632507692299, 39.086928938461497 ], [ -84.434641, 39.086861 ], [ -84.432941, 39.083961 ], [ -84.432641, 39.078261 ], [ -84.432673462070895, 39.077916902048699 ], [ -84.433141, 39.072961 ], [ -84.433131791946295, 39.072898845637603 ], [ -84.432341, 39.067561 ], [ -84.429841, 39.058262 ], [ -84.429450330639497, 39.057593323189998 ], [ -84.428739325716407, 39.056376354182603 ], [ -84.427913, 39.054962 ], [ -84.42573, 39.053059 ], [ -84.424566128068406, 39.052479930713901 ], [ -84.423944375796196, 39.052170585987298 ], [ -84.421608393192002, 39.0510083483369 ], [ -84.421479212350604, 39.050944076095597 ], [ -84.421467, 39.050938 ], [ -84.406941, 39.045662 ], [ -84.40254, 39.045662 ], [ -84.40094, 39.046362 ], [ -84.396686983350904, 39.045674012012597 ], [ -84.39414, 39.045262 ], [ -84.3894199816135, 39.045197342213903 ], [ -84.38684, 39.045162 ], [ -84.371206525210297, 39.042911812348002 ], [ -84.361359730094094, 39.041494524311901 ], [ -84.360439, 39.041362 ], [ -84.346039, 39.036963 ], [ -84.336377406402093, 39.032879233633899 ], [ -84.336339, 39.032863 ], [ -84.3350945583163, 39.032177287235498 ], [ -84.326539, 39.027463 ], [ -84.319936470923196, 39.022080955534399 ], [ -84.31368, 39.016981 ], [ -84.304698, 39.006455 ], [ -84.302821851606694, 39.002773726821999 ], [ -84.299362, 38.995985 ], [ -84.297707639789493, 38.991045474568303 ], [ -84.297255, 38.989694 ], [ -84.296466, 38.985306 ], [ -84.296207583112803, 38.982143460670997 ], [ -84.295327865999496, 38.971377368717903 ], [ -84.295076, 38.968295 ], [ -84.288164, 38.955789 ], [ -84.284183678209203, 38.950663515308001 ], [ -84.279916, 38.945168 ], [ -84.278764654089997, 38.944326914903499 ], [ -84.27491, 38.941511 ], [ -84.261910812759893, 38.927770344203999 ], [ -84.260797, 38.926593 ], [ -84.25701, 38.923208 ], [ -84.245647, 38.907035 ], [ -84.242689, 38.903187 ], [ -84.240155, 38.900912 ], [ -84.234453, 38.893226 ], [ -84.232343, 38.884325 ], [ -84.232132, 38.880483 ], [ -84.231912945771896, 38.874829915801598 ], [ -84.231837, 38.87287 ], [ -84.231934916865697, 38.8718704190441 ], [ -84.232486781734806, 38.866236725506901 ], [ -84.233198331580994, 38.858972893373398 ], [ -84.233459375663102, 38.856308033839298 ], [ -84.233659630625397, 38.854263737943498 ], [ -84.233692020541596, 38.853933086598097 ], [ -84.233727, 38.853576 ], [ -84.233265, 38.842671 ], [ -84.231306, 38.830552 ], [ -84.230421592089897, 38.827403507839897 ], [ -84.230181, 38.826547 ], [ -84.227319957831696, 38.821340735599598 ], [ -84.2253, 38.817665 ], [ -84.222059, 38.813753 ], [ -84.219569497451801, 38.811565065810697 ], [ -84.212904, 38.805707 ], [ -84.211048972122398, 38.804915721013401 ], [ -84.205592, 38.802588 ], [ -84.198358, 38.80092 ], [ -84.188633255417798, 38.799542828071303 ], [ -84.155912, 38.794909 ], [ -84.151896785959593, 38.793863162458898 ], [ -84.144032508537293, 38.791814764421197 ], [ -84.135088, 38.789485 ], [ -84.131787252509994, 38.788336116347303 ], [ -84.115655, 38.782721 ], [ -84.111883676978394, 38.780799666054101 ], [ -84.108836, 38.779247 ], [ -84.094334, 38.775246 ], [ -84.071491, 38.770475 ], [ -84.06341, 38.771151 ], [ -84.052669945103304, 38.771375511684603 ], [ -84.051642, 38.771397 ], [ -84.044486, 38.770572 ], [ -84.035853016338805, 38.772385197195298 ], [ -84.028585474693102, 38.773911608763498 ], [ -84.023113, 38.775061 ], [ -84.020352001306406, 38.775888049699802 ], [ -84.006104, 38.780156 ], [ -83.996452501497501, 38.781746319167702 ], [ -83.995447, 38.781912 ], [ -83.978814, 38.787104 ], [ -83.975126240005594, 38.787165864046401 ], [ -83.962123, 38.787384 ], [ -83.960487977793093, 38.787152958037197 ], [ -83.959052900439204, 38.786950169911599 ], [ -83.953546, 38.786172 ], [ -83.943978, 38.783616 ], [ -83.928454, 38.774583 ], [ -83.928591, 38.772203 ], [ -83.926986, 38.771562 ], [ -83.917217, 38.769665 ], [ -83.915855924908996, 38.769696055962498 ], [ -83.912922, 38.769763 ], [ -83.903971, 38.76816 ], [ -83.903916944484905, 38.768151794229198 ], [ -83.887107, 38.7656 ], [ -83.873168, 38.762418 ], [ -83.86653, 38.7602 ], [ -83.859028, 38.756793 ], [ -83.853814741182006, 38.752768361188998 ], [ -83.852085, 38.751433 ], [ -83.848734, 38.747178 ], [ -83.847486925906907, 38.744765772787098 ], [ -83.846207, 38.74229 ], [ -83.844676, 38.737439 ], [ -83.84274, 38.730365 ], [ -83.842506, 38.727019 ], [ -83.841689, 38.724264 ], [ -83.840595, 38.721912 ], [ -83.839153874814599, 38.720413215022703 ], [ -83.836696, 38.717857 ], [ -83.834015, 38.716008 ], [ -83.833263884519695, 38.715610670349101 ], [ -83.825712747690204, 38.711616223903597 ], [ -83.822725326763603, 38.710035919749203 ], [ -83.821854, 38.709575 ], [ -83.81388, 38.707446 ], [ -83.806317, 38.706613 ], [ -83.805833601366302, 38.7064919636531 ], [ -83.798549, 38.704668 ], [ -83.790676, 38.701676 ], [ -83.787113, 38.699489 ], [ -83.783794725356898, 38.695833483015598 ], [ -83.78362, 38.695641 ], [ -83.779961, 38.684907 ], [ -83.777141, 38.671205 ], [ -83.775761, 38.666748 ], [ -83.7732693470806, 38.660798754845601 ], [ -83.77216, 38.65815 ], [ -83.769347, 38.65522 ], [ -83.76509, 38.652881 ], [ -83.762445, 38.652103 ], [ -83.758773640192601, 38.651373124876599 ], [ -83.74992, 38.649613 ], [ -83.749821709768298, 38.6495988938035 ], [ -83.749554166140797, 38.649560497078703 ], [ -83.738207, 38.647932 ], [ -83.720779, 38.646704 ], [ -83.717915, 38.645247 ], [ -83.717811016323296, 38.645078635391002 ], [ -83.716933, 38.643657 ], [ -83.713405, 38.641591 ], [ -83.712171877956195, 38.641179724034998 ], [ -83.708164, 38.639843 ], [ -83.7053141053281, 38.639761437357897 ], [ -83.704006, 38.639724 ], [ -83.686037, 38.631867 ], [ -83.671443, 38.627381 ], [ -83.664143, 38.626754 ], [ -83.657142, 38.62791 ], [ -83.653039, 38.629366 ], [ -83.648301, 38.631861 ], [ -83.645124792046602, 38.636464959683899 ], [ -83.644181, 38.637833 ], [ -83.640478, 38.648277 ], [ -83.63696, 38.666023 ], [ -83.634212, 38.671371 ], [ -83.629281, 38.676273 ], [ -83.626922, 38.679387 ], [ -83.626536469361497, 38.679525189184702 ], [ -83.620464819064395, 38.681701504945103 ], [ -83.614136, 38.68397 ], [ -83.609095, 38.685013 ], [ -83.60491, 38.684848 ], [ -83.601572, 38.683938 ], [ -83.595889, 38.687088 ], [ -83.591912, 38.688783 ], [ -83.591184078109094, 38.688911451704101 ], [ -83.588005917752497, 38.689472281263797 ], [ -83.575121, 38.691746 ], [ -83.575002372223906, 38.691767586591801 ], [ -83.569098, 38.692842 ], [ -83.56187, 38.695371 ], [ -83.549298, 38.698787 ], [ -83.533339, 38.702105 ], [ -83.520953, 38.703045 ], [ -83.512571, 38.701716 ], [ -83.504365, 38.699256 ], [ -83.493342, 38.694187 ], [ -83.486477, 38.690099 ], [ -83.47642, 38.682261 ], [ -83.472157, 38.678123 ], [ -83.468059, 38.67547 ], [ -83.459809, 38.673617 ], [ -83.457055, 38.673965 ], [ -83.456694386391703, 38.673828077169603 ], [ -83.446989, 38.670143 ], [ -83.440404, 38.669361 ], [ -83.437481534487702, 38.669226083605999 ], [ -83.420194, 38.668428 ], [ -83.412039, 38.666499 ], [ -83.384870096519506, 38.663185039041799 ], [ -83.384755, 38.663171 ], [ -83.376302, 38.661473 ], [ -83.375924468821594, 38.661358029401498 ], [ -83.366661, 38.658537 ], [ -83.356445, 38.654009 ], [ -83.340004, 38.645674 ], [ -83.327636, 38.637489 ], [ -83.322383, 38.630615 ], [ -83.320531, 38.622713 ], [ -83.320099, 38.616043 ], [ -83.319101, 38.612233 ], [ -83.317652844920701, 38.609454660139697 ], [ -83.317542, 38.609242 ], [ -83.311448, 38.603314 ], [ -83.307832, 38.600824 ], [ -83.305404374038702, 38.599731754073503 ], [ -83.301951, 38.598178 ], [ -83.294193, 38.596588 ], [ -83.288885, 38.597977 ], [ -83.2867152235238, 38.599133726050603 ], [ -83.286514, 38.599241 ], [ -83.26851, 38.615104 ], [ -83.267066888155796, 38.618177596567101 ], [ -83.266392, 38.619615 ], [ -83.261126, 38.622723 ], [ -83.254558, 38.623403 ], [ -83.251103, 38.626224 ], [ -83.245664, 38.628564 ], [ -83.239515, 38.628588 ], [ -83.232404, 38.627569 ], [ -83.226189, 38.625307 ], [ -83.213113, 38.618888 ], [ -83.203728, 38.61673 ], [ -83.199082602255899, 38.617139381218003 ], [ -83.175961, 38.619177 ], [ -83.156338018007901, 38.618867321773898 ], [ -83.153783, 38.618827 ], [ -83.153508921504596, 38.618983455331801 ], [ -83.142836, 38.625076 ], [ -83.135046, 38.631719 ], [ -83.128973, 38.640231 ], [ -83.126311, 38.645244 ], [ -83.122547, 38.6592 ], [ -83.11786, 38.666073 ], [ -83.112372, 38.671685 ], [ -83.107436, 38.67522 ], [ -83.102746, 38.677316 ], [ -83.084226, 38.68109 ], [ -83.079826546470599, 38.682832808586603 ], [ -83.064319, 38.688976 ], [ -83.053104, 38.695831 ], [ -83.042338, 38.708319 ], [ -83.038442, 38.716377 ], [ -83.0382745077073, 38.716632158759097 ], [ -83.035964, 38.720152 ], [ -83.033014, 38.723805 ], [ -83.0308858850033, 38.725567690406002 ], [ -83.030702, 38.72572 ], [ -83.027917, 38.727143 ], [ -83.021752, 38.72879 ], [ -83.013288344617905, 38.729869252352003 ], [ -83.011816, 38.730057 ], [ -83.011573771136199, 38.730043824452402 ], [ -82.999296, 38.729376 ], [ -82.997037919596195, 38.7290351576749 ], [ -82.997026833472503, 38.729033484297702 ], [ -82.993996, 38.728576 ], [ -82.986095, 38.726276 ], [ -82.979395, 38.725976 ], [ -82.974881249652597, 38.727157168315202 ], [ -82.969290442008401, 38.728620183399698 ], [ -82.968695, 38.728776 ], [ -82.964642190399999, 38.731340022399998 ], [ -82.958895, 38.734976 ], [ -82.958114797191001, 38.735387404884797 ], [ -82.947871393610299, 38.740788803369298 ], [ -82.943147, 38.74328 ], [ -82.931396510489805, 38.747385090562503 ], [ -82.928257725618593, 38.748481640296902 ], [ -82.923694, 38.750076 ], [ -82.917584388614898, 38.751422139927598 ], [ -82.894193, 38.756576 ], [ -82.889193, 38.756076 ], [ -82.884845798313705, 38.754014652947397 ], [ -82.879492, 38.751476 ], [ -82.875492, 38.747276 ], [ -82.874334386557393, 38.745399867868898 ], [ -82.873941308196706, 38.744762809836097 ], [ -82.872592, 38.742576 ], [ -82.871292, 38.739376 ], [ -82.870017321491801, 38.729179482419099 ], [ -82.869892, 38.728177 ], [ -82.869922194874505, 38.727808622530702 ], [ -82.870392, 38.722077 ], [ -82.871192, 38.718377 ], [ -82.875292, 38.704977 ], [ -82.876892, 38.697377 ], [ -82.877592, 38.690177 ], [ -82.874892, 38.682827 ], [ -82.874664263917495, 38.682627193814398 ], [ -82.869592, 38.678177 ], [ -82.863291, 38.669277 ], [ -82.859391, 38.660378 ], [ -82.856532181737506, 38.647190548014898 ], [ -82.856291, 38.646078 ], [ -82.856397230281104, 38.643273520578099 ], [ -82.856791, 38.632878 ], [ -82.855795, 38.620814 ], [ -82.854919035354996, 38.616527364503 ], [ -82.854291, 38.613454 ], [ -82.851314, 38.604334 ], [ -82.847186, 38.595166 ], [ -82.847055575128095, 38.5949710872748 ], [ -82.844306, 38.590862 ], [ -82.839538, 38.586159 ], [ -82.836768832143406, 38.584236002493803 ], [ -82.820161, 38.572703 ], [ -82.815981323846302, 38.570718336576199 ], [ -82.811821419733505, 38.568743061642103 ], [ -82.800112, 38.563183 ], [ -82.789776, 38.559951 ], [ -82.779472, 38.559023 ], [ -82.763695, 38.560399 ], [ -82.751070539257199, 38.559661835784603 ], [ -82.745143976594804, 38.559315773485103 ], [ -82.739582, 38.558991 ], [ -82.730958, 38.559264 ], [ -82.724846, 38.5576 ], [ -82.719662, 38.553664 ], [ -82.716774544412601, 38.552031959885397 ], [ -82.714142, 38.550544 ], [ -82.708290633494499, 38.547967190518101 ], [ -82.706138882124307, 38.547019607876003 ], [ -82.700045, 38.544336 ], [ -82.699458658338003, 38.543955151911099 ], [ -82.696621, 38.542112 ], [ -82.692115657431401, 38.5379207317932 ], [ -82.692019580605603, 38.537831352630697 ], [ -82.689965, 38.53592 ], [ -82.689286764776597, 38.534947677106899 ], [ -82.684593987193793, 38.528220077420798 ], [ -82.681628745168695, 38.523969085131903 ], [ -82.675724, 38.515504 ], [ -82.673994331389594, 38.513855919531601 ], [ -82.665548, 38.505808 ], [ -82.665480912601197, 38.505737004367397 ], [ -82.660919813466805, 38.500910194503199 ], [ -82.660172380218896, 38.500119218892301 ], [ -82.657051, 38.496816 ], [ -82.648395, 38.490368 ], [ -82.639245731648998, 38.4853011475141 ], [ -82.637707, 38.484449 ], [ -82.629741237889405, 38.481665873645298 ], [ -82.624106, 38.479697 ], [ -82.618474, 38.477089 ], [ -82.613802, 38.474529 ], [ -82.613313170489107, 38.474079931741201 ], [ -82.611345954023307, 38.472272728097998 ], [ -82.610458, 38.471457 ], [ -82.608202, 38.468049 ], [ -82.604089, 38.459841 ], [ -82.604058958452995, 38.4596386528492 ], [ -82.601585491920204, 38.442978428751303 ], [ -82.600941340421699, 38.438639696782502 ], [ -82.600761, 38.437425 ], [ -82.597934814017705, 38.429535230799601 ], [ -82.597739819348405, 38.428990870681098 ], [ -82.596921, 38.426705 ], [ -82.594417019675504, 38.4231509634104 ], [ -82.59348, 38.421821 ], [ -82.596281, 38.417681 ], [ -82.597113, 38.412881 ], [ -82.597033, 38.409937 ], [ -82.595001, 38.40133 ], [ -82.594867250029495, 38.399543592347797 ], [ -82.594765635857101, 38.398186400757702 ], [ -82.59474, 38.397844 ], [ -82.599241, 38.39317 ], [ -82.599737, 38.39037 ], [ -82.599273, 38.388738 ], [ -82.594295286667105, 38.381488262210297 ], [ -82.593465, 38.380279 ], [ -82.592815, 38.377606 ], [ -82.592903666946697, 38.376446438478901 ], [ -82.593008, 38.375082 ], [ -82.593952, 38.371847 ], [ -82.595202298049699, 38.369760547777098 ], [ -82.596654, 38.367338 ], [ -82.597524, 38.364843 ], [ -82.598189, 38.357885 ], [ -82.598173999838295, 38.356958132863298 ], [ -82.597979, 38.344909 ], [ -82.596525, 38.342849 ], [ -82.592543, 38.34166 ], [ -82.589545, 38.34054 ], [ -82.587951, 38.338595 ], [ -82.584588, 38.333733 ], [ -82.576496, 38.328123 ], [ -82.576062754978594, 38.326099222393204 ], [ -82.575395, 38.32298 ], [ -82.571756, 38.317195 ], [ -82.571923, 38.313347 ], [ -82.576156, 38.308639 ], [ -82.578352, 38.305458 ], [ -82.58146, 38.300445 ], [ -82.583056, 38.296829 ], [ -82.582823, 38.295478 ], [ -82.579743, 38.291726 ], [ -82.57948, 38.284928 ], [ -82.578782, 38.281747 ], [ -82.57672, 38.277513 ], [ -82.5746, 38.274721 ], [ -82.574656, 38.263873 ], [ -82.578254, 38.254809 ], [ -82.581796, 38.248592 ], [ -82.584001, 38.246371 ], [ -82.586061, 38.245616 ], [ -82.586104835799603, 38.245615197975603 ], [ -82.59497, 38.245453 ], [ -82.60423, 38.247303 ], [ -82.604625, 38.247303 ], [ -82.605333, 38.247303 ], [ -82.607131, 38.245975 ], [ -82.61226, 38.236087 ], [ -82.61252, 38.234553 ], [ -82.610367, 38.226772 ], [ -82.608944, 38.22366 ], [ -82.60575, 38.221144 ], [ -82.604330233299393, 38.220566570333901 ], [ -82.600353, 38.218949 ], [ -82.598437, 38.217393 ], [ -82.598864, 38.201007 ], [ -82.599326, 38.197231 ], [ -82.601529468908595, 38.192938621086199 ], [ -82.60425, 38.187639 ], [ -82.611343, 38.171548 ], [ -82.613487, 38.170242 ], [ -82.619429, 38.169027 ], [ -82.625457, 38.170491 ], [ -82.639054, 38.171114 ], [ -82.642997, 38.16956 ], [ -82.643198103667899, 38.169089796073699 ], [ -82.644739, 38.165487 ], [ -82.638947, 38.156742 ], [ -82.638398, 38.152157 ], [ -82.638288, 38.143491 ], [ -82.637306, 38.13905 ], [ -82.636466, 38.13786 ], [ -82.634265, 38.136669 ], [ -82.628584908379196, 38.135380210190199 ], [ -82.626182, 38.134835 ], [ -82.622125, 38.133414 ], [ -82.621167, 38.131996 ], [ -82.621164, 38.123239 ], [ -82.620351, 38.121477 ], [ -82.619452, 38.120745 ], [ -82.616149, 38.120221 ], [ -82.614337835365006, 38.1203388393727 ], [ -82.613352982024793, 38.120402916650697 ], [ -82.606589, 38.120843 ], [ -82.606329527340705, 38.120680102659399 ], [ -82.602618, 38.11835 ], [ -82.601439895395998, 38.117895500391597 ], [ -82.600127, 38.117389 ], [ -82.598011, 38.115925 ], [ -82.594678518610607, 38.1121008906253 ], [ -82.593605, 38.110869 ], [ -82.59178, 38.109908 ], [ -82.587782, 38.108879 ], [ -82.585696, 38.107003 ], [ -82.585142, 38.098055 ], [ -82.585488, 38.094256 ], [ -82.584039, 38.090663 ], [ -82.574075, 38.082104 ], [ -82.565736, 38.08064 ], [ -82.559598, 38.072837 ], [ -82.551259, 38.070799 ], [ -82.550707616968694, 38.070069952752 ], [ -82.54958, 38.068579 ], [ -82.549407, 38.063063 ], [ -82.547284, 38.061094 ], [ -82.54485, 38.058521 ], [ -82.544779, 38.054262 ], [ -82.543916, 38.052133 ], [ -82.541245, 38.048444 ], [ -82.537293, 38.045204 ], [ -82.53747, 38.042701 ], [ -82.539071, 38.039788 ], [ -82.538639, 38.037381 ], [ -82.537319184623598, 38.035532249605097 ], [ -82.534976, 38.03225 ], [ -82.530371, 38.028792 ], [ -82.527068, 38.027586 ], [ -82.525817, 38.026406 ], [ -82.525831, 38.019564 ], [ -82.522591, 38.012968 ], [ -82.519755, 38.008375 ], [ -82.518, 38.007291 ], [ -82.51565, 38.00669 ], [ -82.515583, 38.004749 ], [ -82.519131, 38.001957 ], [ -82.519193, 38.001131 ], [ -82.514417, 37.999228 ], [ -82.512993, 37.999264 ], [ -82.509812, 38.001249 ], [ -82.507197, 38.001512 ], [ -82.500768, 37.99903 ], [ -82.489236, 37.99898 ], [ -82.487732, 37.99833 ], [ -82.485967, 37.995705 ], [ -82.486115, 37.990511 ], [ -82.483968, 37.984093 ], [ -82.482173, 37.983695 ], [ -82.473074, 37.98665 ], [ -82.471009, 37.98652 ], [ -82.465539, 37.98472 ], [ -82.464257, 37.983412 ], [ -82.464067, 37.980295 ], [ -82.464987, 37.976859 ], [ -82.46938, 37.973059 ], [ -82.481894, 37.972958 ], [ -82.48426, 37.971383 ], [ -82.484981, 37.964401 ], [ -82.483987, 37.963343 ], [ -82.479031, 37.962 ], [ -82.472669, 37.960721 ], [ -82.471657, 37.959988 ], [ -82.471555, 37.959055 ], [ -82.475096, 37.954906 ], [ -82.48096, 37.949136 ], [ -82.48512, 37.946044 ], [ -82.487836, 37.945288 ], [ -82.495294, 37.946612 ], [ -82.496681, 37.946405 ], [ -82.497719, 37.94566 ], [ -82.497710631815707, 37.945492258802901 ], [ -82.497586, 37.942994 ], [ -82.496716, 37.941621 ], [ -82.489917, 37.939231 ], [ -82.489514, 37.937935 ], [ -82.490666, 37.935951 ], [ -82.491902, 37.935742 ], [ -82.498107, 37.936962 ], [ -82.500386, 37.936518 ], [ -82.502263, 37.934698 ], [ -82.502198, 37.933052 ], [ -82.497271, 37.927621 ], [ -82.494669, 37.926792 ], [ -82.481889, 37.926788 ], [ -82.480338, 37.925836 ], [ -82.481001, 37.924303 ], [ -82.488093, 37.91956 ], [ -82.488346, 37.917724 ], [ -82.48739, 37.916678 ], [ -82.480223715871205, 37.915034283528797 ], [ -82.47932, 37.914827 ], [ -82.475534, 37.911945 ], [ -82.474666, 37.910388 ], [ -82.474232, 37.908054 ], [ -82.474635, 37.905902 ], [ -82.476324, 37.903145 ], [ -82.47614, 37.902124 ], [ -82.474407, 37.899955 ], [ -82.472393, 37.898963 ], [ -82.471055, 37.899366 ], [ -82.470969413725399, 37.899493093651301 ], [ -82.468226, 37.903567 ], [ -82.468947, 37.910962 ], [ -82.467679, 37.914204 ], [ -82.464297, 37.915038 ], [ -82.462881, 37.914832 ], [ -82.461493, 37.913093 ], [ -82.460895, 37.910807 ], [ -82.459994, 37.909536 ], [ -82.458823273493806, 37.909318099602899 ], [ -82.456996, 37.908978 ], [ -82.452326, 37.908703 ], [ -82.449083, 37.906146 ], [ -82.447331, 37.903857 ], [ -82.442963694541604, 37.902129608152599 ], [ -82.438118, 37.900213 ], [ -82.43532, 37.89683 ], [ -82.432113, 37.88991 ], [ -82.429023, 37.888285 ], [ -82.422643, 37.886665 ], [ -82.419929, 37.88487 ], [ -82.419204, 37.882081 ], [ -82.419337, 37.875095 ], [ -82.419046, 37.87284 ], [ -82.418197, 37.871213 ], [ -82.416835, 37.869625 ], [ -82.414417, 37.869033 ], [ -82.409673, 37.868931 ], [ -82.407935, 37.868143 ], [ -82.407513, 37.867297 ], [ -82.407985, 37.86651 ], [ -82.408991, 37.86577 ], [ -82.416185, 37.864943 ], [ -82.422444, 37.863926 ], [ -82.424012, 37.863172 ], [ -82.424674, 37.861897 ], [ -82.42391, 37.860241 ], [ -82.416889, 37.856992 ], [ -82.414878, 37.85624 ], [ -82.414757, 37.855509 ], [ -82.4199425924661, 37.8487068535158 ], [ -82.420592, 37.847855 ], [ -82.420616, 37.846663 ], [ -82.419546, 37.845797 ], [ -82.417428443998006, 37.845560177666698 ], [ -82.413734, 37.845147 ], [ -82.413585970669104, 37.8450318762603 ], [ -82.412119, 37.843891 ], [ -82.411379965796499, 37.842205732261498 ], [ -82.408941, 37.836644 ], [ -82.407874, 37.835499 ], [ -82.405505079101601, 37.833890423495397 ], [ -82.39968, 37.829935 ], [ -82.398444, 37.821648 ], [ -82.402199, 37.812678 ], [ -82.402228, 37.810984 ], [ -82.401652, 37.810091 ], [ -82.39871, 37.808785 ], [ -82.396978, 37.809014 ], [ -82.393746, 37.811668 ], [ -82.389212, 37.817206 ], [ -82.387769, 37.818212 ], [ -82.386586, 37.818212 ], [ -82.385259, 37.81741 ], [ -82.37958, 37.810907 ], [ -82.378514, 37.80832 ], [ -82.378479140959101, 37.807958914662201 ], [ -82.378129, 37.804332 ], [ -82.376352758925293, 37.802245822982698 ], [ -82.376169, 37.80203 ], [ -82.369973, 37.801749 ], [ -82.36778, 37.800628 ], [ -82.365557, 37.798318 ], [ -82.365286, 37.796795 ], [ -82.363889, 37.795002 ], [ -82.361105, 37.794194 ], [ -82.356122, 37.793859 ], [ -82.354275, 37.793104 ], [ -82.351412698177199, 37.789968838608999 ], [ -82.348495, 37.786773 ], [ -82.340455, 37.786058 ], [ -82.339705, 37.785509 ], [ -82.338377, 37.780428 ], [ -82.339097, 37.778276 ], [ -82.338895, 37.776857 ], [ -82.337596, 37.775369 ], [ -82.335981, 37.7745 ], [ -82.332607, 37.774249 ], [ -82.32972, 37.775697 ], [ -82.32624, 37.775906 ], [ -82.323696, 37.775028 ], [ -82.323004, 37.773907 ], [ -82.323506, 37.772231 ], [ -82.331654, 37.768161 ], [ -82.334057, 37.766571 ], [ -82.333994, 37.76508 ], [ -82.331162, 37.763125 ], [ -82.32946, 37.762393 ], [ -82.327356, 37.762233 ], [ -82.319654, 37.764812 ], [ -82.315197, 37.765524 ], [ -82.312363, 37.764774 ], [ -82.310777, 37.762692 ], [ -82.311268, 37.761331 ], [ -82.312968, 37.760677 ], [ -82.315291958692299, 37.7604202711684 ], [ -82.317304, 37.760198 ], [ -82.318258153006596, 37.759606836067 ], [ -82.319951, 37.758558 ], [ -82.321005, 37.756878 ], [ -82.321415, 37.751269 ], [ -82.327477, 37.749373 ], [ -82.334035, 37.743227 ], [ -82.33379, 37.741553 ], [ -82.333036196484201, 37.740979086339898 ], [ -82.326834, 37.736257 ], [ -82.319686, 37.734404 ], [ -82.318879, 37.733763 ], [ -82.318302, 37.733053 ], [ -82.317869, 37.72772 ], [ -82.316197, 37.721541 ], [ -82.311702, 37.718771 ], [ -82.311097, 37.717329 ], [ -82.310665, 37.7133 ], [ -82.307235, 37.707669 ], [ -82.306224141073599, 37.707044684172097 ], [ -82.305679, 37.706708 ], [ -82.300954, 37.706135 ], [ -82.298074, 37.704143 ], [ -82.297536921665497, 37.703494030345801 ], [ -82.296634, 37.702403 ], [ -82.296971618848204, 37.701139494440902 ], [ -82.297325, 37.699817 ], [ -82.301964, 37.696223 ], [ -82.302886, 37.693683 ], [ -82.301504, 37.690775 ], [ -82.297788, 37.687753 ], [ -82.296262, 37.687067 ], [ -82.296118, 37.686174 ], [ -82.297126, 37.684228 ], [ -82.303867, 37.678392 ], [ -82.304501, 37.677157 ], [ -82.303953, 37.67576 ], [ -82.303468744220496, 37.675699209816798 ], [ -82.302312, 37.675554 ], [ -82.302160953026601, 37.675622036011397 ], [ -82.300176675344105, 37.676515813199501 ], [ -82.296724, 37.678071 ], [ -82.294737, 37.678277 ], [ -82.294392, 37.677957 ], [ -82.294134, 37.673378 ], [ -82.29471, 37.672257 ], [ -82.294393, 37.670448 ], [ -82.291773, 37.669143 ], [ -82.288174, 37.668227 ], [ -82.286446, 37.670127 ], [ -82.284687, 37.675277 ], [ -82.283506, 37.676078 ], [ -82.282297, 37.675826 ], [ -82.281765582842496, 37.6751254573187 ], [ -82.277876, 37.669998 ], [ -82.276880306966305, 37.668940915816002 ], [ -82.272021, 37.663782 ], [ -82.271929583703894, 37.663751032420002 ], [ -82.267962, 37.662407 ], [ -82.257111, 37.656749 ], [ -82.251901, 37.656847 ], [ -82.249497589298898, 37.658006243821497 ], [ -82.243722, 37.660792 ], [ -82.24041, 37.661567 ], [ -82.234384, 37.657917 ], [ -82.23417, 37.656263 ], [ -82.232421, 37.655251 ], [ -82.231024, 37.655318 ], [ -82.226111, 37.653092 ], [ -82.225535, 37.651947 ], [ -82.224868, 37.646392 ], [ -82.223554, 37.644333 ], [ -82.21934, 37.642931 ], [ -82.216848, 37.641598 ], [ -82.216944, 37.640125 ], [ -82.218705, 37.636826 ], [ -82.220224, 37.635359 ], [ -82.2202, 37.633912 ], [ -82.214815, 37.627572 ], [ -82.215953, 37.626209 ], [ -82.213443, 37.62522 ], [ -82.207712, 37.625483 ], [ -82.205862, 37.625065 ], [ -82.202698, 37.62628 ], [ -82.202467, 37.627483 ], [ -82.201201, 37.627895 ], [ -82.200684863202397, 37.627760852488898 ], [ -82.192394, 37.625606 ], [ -82.187298, 37.626935 ], [ -82.186008, 37.628414 ], [ -82.186839, 37.634672 ], [ -82.187984, 37.639495 ], [ -82.190141, 37.641267 ], [ -82.191169, 37.644012 ], [ -82.190756, 37.645137 ], [ -82.187989, 37.647582 ], [ -82.185456, 37.648933 ], [ -82.182716482149203, 37.648941046087401 ], [ -82.177625, 37.648956 ], [ -82.175264, 37.647971 ], [ -82.174631, 37.647422 ], [ -82.174688, 37.646529 ], [ -82.174734282186293, 37.646445045860602 ], [ -82.175775914257599, 37.64455556459 ], [ -82.177338, 37.641722 ], [ -82.177511, 37.640417 ], [ -82.175956, 37.637396 ], [ -82.172762, 37.634008 ], [ -82.172446, 37.632589 ], [ -82.173482, 37.631055 ], [ -82.181691, 37.627147 ], [ -82.182009811468006, 37.626283254198398 ], [ -82.182716, 37.62437 ], [ -82.181634192612705, 37.622243398852902 ], [ -82.18143, 37.621842 ], [ -82.177302634456794, 37.6186778023215 ], [ -82.177111287568195, 37.618531108413698 ], [ -82.176682, 37.618202 ], [ -82.17271, 37.61985 ], [ -82.169515, 37.621978 ], [ -82.167126, 37.621818 ], [ -82.1649280091154, 37.620600305560998 ], [ -82.164191, 37.620192 ], [ -82.165075, 37.61845 ], [ -82.169284881907203, 37.613450943298197 ], [ -82.169508, 37.613186 ], [ -82.169479841274196, 37.613056076679797 ], [ -82.168534, 37.608692 ], [ -82.167276, 37.60795 ], [ -82.165228, 37.607732 ], [ -82.163394533593006, 37.608230338037501 ], [ -82.158554, 37.609546 ], [ -82.156741, 37.609202 ], [ -82.15611, 37.604945 ], [ -82.157609, 37.596773 ], [ -82.156718, 37.59279 ], [ -82.148065, 37.590779 ], [ -82.146419, 37.59265 ], [ -82.141555, 37.595166 ], [ -82.132284, 37.593327 ], [ -82.129859, 37.590273 ], [ -82.127321, 37.586667 ], [ -82.125601, 37.579021 ], [ -82.124307, 37.577806 ], [ -82.124372, 37.57641 ], [ -82.127303, 37.572681 ], [ -82.129604, 37.571972 ], [ -82.141828, 37.570946 ], [ -82.142820307240797, 37.570600507661901 ], [ -82.143468, 37.570375 ], [ -82.144648, 37.568315 ], [ -82.144563, 37.566941 ], [ -82.143730265662896, 37.566236192966798 ], [ -82.143183, 37.565773 ], [ -82.13611, 37.563865 ], [ -82.134424, 37.562928 ], [ -82.133526, 37.560345 ], [ -82.134587914174801, 37.5585767179981 ], [ -82.135324, 37.557351 ], [ -82.134231, 37.554422 ], [ -82.133247, 37.552832 ], [ -82.130472, 37.551849 ], [ -82.127089, 37.551345 ], [ -82.123824, 37.551389 ], [ -82.121985, 37.552763 ], [ -82.120722, 37.556369 ], [ -82.117304, 37.559226 ], [ -82.110667, 37.558744 ], [ -82.104808, 37.560191 ], [ -82.102263, 37.559456 ], [ -82.101946, 37.558106 ], [ -82.104303, 37.555655 ], [ -82.105355, 37.554262 ], [ -82.10478, 37.553061 ], [ -82.103710605660297, 37.552874705753801 ], [ -82.103144, 37.552776 ], [ -82.100028, 37.552804 ], [ -82.089178, 37.556004 ], [ -82.084605, 37.55541 ], [ -82.07503, 37.555824 ], [ -82.073246, 37.555023 ], [ -82.065822541120497, 37.546187671222597 ], [ -82.064418, 37.544516 ], [ -82.063671, 37.541929 ], [ -82.064792, 37.539021 ], [ -82.064418, 37.53687 ], [ -82.063326, 37.536206 ], [ -82.061256, 37.536001 ], [ -82.05746, 37.536893 ], [ -82.054787, 37.536756 ], [ -82.049584, 37.535222 ], [ -82.048463, 37.533962 ], [ -82.048205, 37.528972 ], [ -82.046653, 37.528193 ], [ -82.044382, 37.529017 ], [ -82.042397, 37.533916 ], [ -82.042396, 37.53577 ], [ -82.04481, 37.541814 ], [ -82.045155, 37.544516 ], [ -82.04478, 37.546713 ], [ -82.042825, 37.548361 ], [ -82.038972, 37.547926 ], [ -82.038024, 37.546918 ], [ -82.036932, 37.542729 ], [ -82.028826, 37.537667 ], [ -82.025261, 37.538261 ], [ -82.021006, 37.540526 ], [ -82.018878, 37.540572 ], [ -82.016925, 37.538556 ], [ -82.01592, 37.534321 ], [ -82.013966, 37.533564 ], [ -82.009194, 37.533243 ], [ -82.007412, 37.533677 ], [ -81.999844, 37.542579 ], [ -81.998177, 37.543082 ], [ -81.996912, 37.542808 ], [ -81.996909, 37.538572 ], [ -81.994033, 37.537612 ], [ -81.992597, 37.538323 ], [ -81.989092, 37.542514 ], [ -81.987511, 37.542835 ], [ -81.982479, 37.541807 ], [ -81.980841, 37.542357 ], [ -81.976386, 37.545426 ], [ -81.970147, 37.546504 ], [ -81.966245615685395, 37.543882474759201 ], [ -81.964971, 37.543026 ], [ -81.965401, 37.541171 ], [ -81.968012, 37.538035 ], [ -82.050888, 37.480527 ], [ -82.062809, 37.470911 ], [ -82.111198429050901, 37.436876568629998 ], [ -82.124854, 37.427272 ], [ -82.136758238196194, 37.419195987446301 ], [ -82.149825815226706, 37.4103307484948 ], [ -82.201745, 37.375108 ], [ -82.202688, 37.374041 ], [ -82.218640143578796, 37.362833989251001 ], [ -82.218703425143801, 37.362789531452798 ], [ -82.254352, 37.337745 ], [ -82.254462432197897, 37.337668244976498 ], [ -82.286452505296594, 37.315433798334297 ], [ -82.290564317551002, 37.312575915831403 ], [ -82.291908, 37.311642 ], [ -82.296930713076094, 37.308320875503 ], [ -82.3068922261848, 37.301734111594499 ], [ -82.309415, 37.300066 ], [ -82.314312390153304, 37.296224662827001 ], [ -82.314716919228303, 37.295907364730503 ], [ -82.316028, 37.294879 ], [ -82.317083, 37.293635 ], [ -82.317395, 37.290975 ], [ -82.318957, 37.287524 ], [ -82.324619, 37.28318 ], [ -82.33157, 37.282211 ], [ -82.336942, 37.279737 ], [ -82.341849, 37.280886 ], [ -82.342068, 37.274109 ], [ -82.350948, 37.267077 ], [ -82.355343, 37.26522 ], [ -82.364535, 37.264415 ], [ -82.376595, 37.2599 ], [ -82.379458776628795, 37.260008729336903 ], [ -82.383285, 37.260154 ], [ -82.385663, 37.259631 ], [ -82.386098341495199, 37.259519553006903 ], [ -82.418085, 37.251331 ], [ -82.431022, 37.246773 ], [ -82.435728, 37.246491 ], [ -82.449164, 37.243908 ], [ -82.451998, 37.242559 ], [ -82.457016, 37.238288 ], [ -82.463073, 37.238292 ], [ -82.473275, 37.235569 ], [ -82.486439, 37.231204 ], [ -82.487317, 37.230578 ], [ -82.487219, 37.227799 ], [ -82.490593839774505, 37.2256532441274 ], [ -82.491486, 37.225086 ], [ -82.495243, 37.225606 ], [ -82.496308, 37.227562 ], [ -82.498858, 37.227044 ], [ -82.507895, 37.222727 ], [ -82.508342, 37.222385 ], [ -82.508249981302399, 37.221918005109501 ], [ -82.508062, 37.220964 ], [ -82.509431, 37.218924 ], [ -82.513405291744107, 37.2166858109942 ], [ -82.520117, 37.212906 ], [ -82.524464, 37.214957 ], [ -82.528746, 37.213742 ], [ -82.531787, 37.212097 ], [ -82.532051, 37.210808 ], [ -82.531576, 37.209163 ], [ -82.534004252930899, 37.208084684552702 ], [ -82.536627, 37.20692 ], [ -82.541302, 37.20653 ], [ -82.545804, 37.20307 ], [ -82.550372, 37.204458 ], [ -82.553835, 37.202841 ], [ -82.553864329285503, 37.202819153295302 ], [ -82.558178, 37.199606 ], [ -82.565329, 37.196118 ], [ -82.565375216082103, 37.196092217252698 ], [ -82.578988, 37.188498 ], [ -82.586291379867404, 37.185781671782799 ], [ -82.586718, 37.185623 ], [ -82.592451, 37.182847 ], [ -82.593232, 37.18206 ], [ -82.592766, 37.180391 ], [ -82.597447, 37.177088 ], [ -82.604333865852297, 37.174521383297098 ], [ -82.60829, 37.173047 ], [ -82.617423, 37.168129 ], [ -82.624878, 37.162932 ], [ -82.632852730630205, 37.154908208345603 ], [ -82.632872324606396, 37.1548884938261 ], [ -82.633493, 37.154264 ], [ -82.635849453756293, 37.153958165975297 ], [ -82.651646, 37.151908 ], [ -82.653268, 37.151314 ], [ -82.653564084327797, 37.151172506618202 ], [ -82.65476, 37.150601 ], [ -82.657468, 37.145024 ], [ -82.662449, 37.143865 ], [ -82.667717, 37.141949 ], [ -82.67153, 37.138444 ], [ -82.674355072257896, 37.136566554654202 ], [ -82.676765, 37.134965 ], [ -82.679428, 37.135575 ], [ -82.684601, 37.135835 ], [ -82.695667, 37.131514 ], [ -82.70787, 37.125488 ], [ -82.716334, 37.122093 ], [ -82.718334, 37.122267 ], [ -82.722097, 37.120168 ], [ -82.726201, 37.115882 ], [ -82.726449, 37.114985 ], [ -82.726440157213503, 37.1148062616125 ], [ -82.726294, 37.111852 ], [ -82.721941, 37.105689 ], [ -82.721617, 37.101276 ], [ -82.722179, 37.094309 ], [ -82.724358, 37.09299 ], [ -82.724954, 37.091905 ], [ -82.72304, 37.084992 ], [ -82.720597, 37.081833 ], [ -82.718183, 37.080679 ], [ -82.717204, 37.079544 ], [ -82.71674, 37.07722 ], [ -82.718353, 37.075706 ], [ -82.721676, 37.07519 ], [ -82.721690345549007, 37.0751923205016 ], [ -82.723747, 37.075525 ], [ -82.724857546405701, 37.074675220063298 ], [ -82.727022, 37.073019 ], [ -82.726312, 37.06687 ], [ -82.723904, 37.062542 ], [ -82.722254, 37.057948 ], [ -82.723128, 37.052436 ], [ -82.723279, 37.047616 ], [ -82.722472, 37.045101 ], [ -82.724714, 37.042758 ], [ -82.725095172497504, 37.042597249937202 ], [ -82.726279, 37.042098 ], [ -82.731722, 37.043447 ], [ -82.733603, 37.044525 ], [ -82.742454, 37.04298 ], [ -82.743684, 37.041397 ], [ -82.745562, 37.029839 ], [ -82.747981, 37.025214 ], [ -82.750715, 37.024107 ], [ -82.751852, 37.025624 ], [ -82.754051, 37.026587 ], [ -82.759175, 37.027333 ], [ -82.766408, 37.023106 ], [ -82.767083, 37.020935 ], [ -82.771795, 37.015716 ], [ -82.774356247120096, 37.015515162929901 ], [ -82.777368, 37.015279 ], [ -82.778386, 37.012521 ], [ -82.782144, 37.008242 ], [ -82.788897, 37.00816 ], [ -82.789092, 37.007995 ], [ -82.789465245510598, 37.0077955724717 ], [ -82.790462, 37.007263 ], [ -82.79089, 37.00676 ], [ -82.793441, 37.005491 ], [ -82.794824, 37.005899 ], [ -82.795695, 37.006702 ], [ -82.796187, 37.008502 ], [ -82.797487, 37.009654 ], [ -82.800531, 37.007944 ], [ -82.813579, 37.00532 ], [ -82.815748, 37.007196 ], [ -82.818006, 37.006161 ], [ -82.819715, 37.006212 ], [ -82.821798, 37.00438 ], [ -82.822684, 37.004128 ], [ -82.825224, 37.006279 ], [ -82.828592, 37.005707 ], [ -82.829961, 37.003555 ], [ -82.830588, 37.000945 ], [ -82.829125, 36.997541 ], [ -82.830802, 36.993445 ], [ -82.833843, 36.991973 ], [ -82.836008, 36.988837 ], [ -82.838549, 36.987027 ], [ -82.840051, 36.987113 ], [ -82.841252, 36.986858 ], [ -82.845002, 36.983812 ], [ -82.849429, 36.983479 ], [ -82.851397, 36.984497 ], [ -82.852614, 36.984963 ], [ -82.853729, 36.985178 ], [ -82.856417, 36.982216 ], [ -82.856768, 36.979095 ], [ -82.857936, 36.978276 ], [ -82.860561, 36.978265 ], [ -82.862926, 36.979975 ], [ -82.864909, 36.97901 ], [ -82.866019, 36.978272 ], [ -82.866689, 36.978052 ], [ -82.867535, 36.977518 ], [ -82.868455, 36.976481 ], [ -82.869183, 36.974182 ], [ -82.869463084717793, 36.972079695917301 ], [ -82.870274, 36.965993 ], [ -82.87023, 36.965498 ], [ -82.867358, 36.963182 ], [ -82.865404, 36.958084 ], [ -82.864211, 36.957983 ], [ -82.862866, 36.957765 ], [ -82.860534, 36.956015 ], [ -82.858443, 36.954036 ], [ -82.855705, 36.953808 ], [ -82.856099, 36.952471 ], [ -82.859969, 36.949074 ], [ -82.860633, 36.94584 ], [ -82.861282, 36.944848 ], [ -82.861684, 36.939316 ], [ -82.860537, 36.937439 ], [ -82.858784, 36.933065 ], [ -82.858461, 36.932717 ], [ -82.857965, 36.929529 ], [ -82.858635, 36.927785 ], [ -82.860032, 36.925241 ], [ -82.861943, 36.924236 ], [ -82.863468, 36.922308 ], [ -82.865192, 36.920923 ], [ -82.867116, 36.917965 ], [ -82.872136, 36.913456 ], [ -82.873777, 36.912299 ], [ -82.874462357649904, 36.911714000299597 ], [ -82.876215, 36.910218 ], [ -82.877473, 36.90796 ], [ -82.872561, 36.903376 ], [ -82.870068, 36.901735 ], [ -82.873213, 36.897263 ], [ -82.876438, 36.896238 ], [ -82.878639, 36.893981 ], [ -82.878208165546695, 36.892795512147899 ], [ -82.877862, 36.891843 ], [ -82.878569, 36.889585 ], [ -82.879492, 36.889085 ], [ -82.884626, 36.888477 ], [ -82.887627, 36.88689 ], [ -82.890028, 36.884287 ], [ -82.895161345492895, 36.882257163181499 ], [ -82.895445, 36.882145 ], [ -82.906325, 36.87974 ], [ -82.907981, 36.878749 ], [ -82.908004, 36.877233 ], [ -82.907276, 36.875643 ], [ -82.907774, 36.874706 ], [ -82.910315, 36.874055 ], [ -82.91169, 36.874248 ], [ -82.911824, 36.874243 ], [ -82.92241, 36.873925 ], [ -82.937573, 36.867275 ], [ -82.949137133290407, 36.866354753281897 ], [ -82.951685, 36.866152 ], [ -82.960955, 36.862536 ], [ -82.970253, 36.857686 ], [ -82.971934, 36.857767 ], [ -82.973395, 36.859097 ], [ -82.979227, 36.859693 ], [ -82.988707, 36.859137 ], [ -82.998376, 36.85663 ], [ -83.003252952467903, 36.852265983937599 ], [ -83.003786, 36.851789 ], [ -83.006086, 36.847889 ], [ -83.009222, 36.847295 ], [ -83.012587, 36.847289 ], [ -83.021887, 36.849989 ], [ -83.024387, 36.851689 ], [ -83.025887, 36.855289 ], [ -83.026887, 36.855489 ], [ -83.042188, 36.854389 ], [ -83.044288, 36.852989 ], [ -83.047589, 36.851789 ], [ -83.052489, 36.851989 ], [ -83.060489, 36.853789 ], [ -83.063989, 36.851689 ], [ -83.066189, 36.851889 ], [ -83.06929, 36.853589 ], [ -83.07259, 36.854589 ], [ -83.07274192, 36.85438644 ], [ -83.07559, 36.850589 ], [ -83.07379, 36.844889 ], [ -83.07519, 36.840889 ], [ -83.07969, 36.840589 ], [ -83.086991, 36.838189 ], [ -83.088991, 36.835989 ], [ -83.0909314089172, 36.834639150318502 ], [ -83.091291, 36.834389 ], [ -83.098892, 36.831789 ], [ -83.101792, 36.829089 ], [ -83.102092, 36.828189 ], [ -83.102050060419998, 36.828031726575098 ], [ -83.101692, 36.826689 ], [ -83.099792, 36.824889 ], [ -83.098892, 36.822989 ], [ -83.098492, 36.814289 ], [ -83.103092, 36.806689 ], [ -83.108029, 36.802181 ], [ -83.110793, 36.800388 ], [ -83.114693, 36.796088 ], [ -83.119144, 36.789531 ], [ -83.123341, 36.786654 ], [ -83.129127, 36.785496 ], [ -83.131782, 36.785391 ], [ -83.133231, 36.784585 ], [ -83.133244, 36.783213 ], [ -83.132253, 36.781611 ], [ -83.13118, 36.778835 ], [ -83.128987, 36.775784 ], [ -83.130119, 36.773866 ], [ -83.131701, 36.773596 ], [ -83.132685, 36.771528 ], [ -83.131127, 36.771169 ], [ -83.128894, 36.769888 ], [ -83.131088, 36.768379 ], [ -83.131245, 36.767105 ], [ -83.132286, 36.76561 ], [ -83.132477, 36.764398 ], [ -83.128816258304099, 36.762793004630304 ], [ -83.126251214840394, 36.761668401141598 ], [ -83.125665653902701, 36.761411671038303 ], [ -83.125655, 36.761407 ], [ -83.125728, 36.761276 ], [ -83.126719, 36.761 ], [ -83.128813, 36.757864 ], [ -83.128272, 36.75637 ], [ -83.127833, 36.750828 ], [ -83.130994, 36.749788 ], [ -83.134294, 36.746588 ], [ -83.136259809013296, 36.743313211067701 ], [ -83.136395, 36.743088 ], [ -83.146095, 36.741788 ], [ -83.156696, 36.742187 ], [ -83.161496, 36.739887 ], [ -83.167396, 36.739187 ], [ -83.175696, 36.739587 ], [ -83.194597, 36.739487 ], [ -83.195938447648302, 36.7389610452271 ], [ -83.199698, 36.737487 ], [ -83.219999, 36.731287 ], [ -83.228437739370094, 36.729022947973903 ], [ -83.236399, 36.726887 ], [ -83.238499, 36.727087 ], [ -83.2463, 36.725287 ], [ -83.2555, 36.721787 ], [ -83.263601, 36.720987 ], [ -83.269301, 36.718487 ], [ -83.272501, 36.717787 ], [ -83.275501, 36.717987 ], [ -83.285702, 36.715187 ], [ -83.286823, 36.714066 ], [ -83.286902, 36.713987 ], [ -83.287095338238004, 36.713944035947101 ], [ -83.287802, 36.713787 ], [ -83.307103, 36.711387 ], [ -83.311403, 36.710287 ], [ -83.313003, 36.709087 ], [ -83.315703, 36.708187 ], [ -83.342804, 36.701286 ], [ -83.347742825324403, 36.699210562608201 ], [ -83.349705, 36.698386 ], [ -83.350468678732994, 36.697691746606303 ], [ -83.350805, 36.697386 ], [ -83.353613, 36.696699 ], [ -83.354606, 36.696153 ], [ -83.356405, 36.694686 ], [ -83.359205, 36.693586 ], [ -83.360205, 36.693586 ], [ -83.362105, 36.694786 ], [ -83.364005, 36.694586 ], [ -83.367505, 36.692686 ], [ -83.386099, 36.686589 ], [ -83.389306, 36.684986 ], [ -83.395306, 36.679486 ], [ -83.395607, 36.678987 ], [ -83.394906, 36.677586 ], [ -83.395806, 36.676786 ], [ -83.411807, 36.670786 ], [ -83.419507, 36.668486 ], [ -83.423707, 36.667385 ], [ -83.431708, 36.666485 ], [ -83.436508, 36.666185 ], [ -83.440808, 36.666885 ], [ -83.448108, 36.665285 ], [ -83.454709, 36.664785 ], [ -83.458009, 36.665785 ], [ -83.460808, 36.664885 ], [ -83.4610151191699, 36.664878248097502 ], [ -83.466483, 36.6647 ], [ -83.48261, 36.666185 ], [ -83.48891, 36.667685 ], [ -83.493911, 36.670085 ], [ -83.498011, 36.670485 ], [ -83.499911, 36.670185 ], [ -83.501411, 36.669085 ], [ -83.506911, 36.668685 ], [ -83.511711, 36.669085 ], [ -83.516011, 36.667585 ], [ -83.527112, 36.665985 ], [ -83.529612, 36.666184 ], [ -83.531912, 36.664984 ], [ -83.533012, 36.663284 ], [ -83.533112, 36.661884 ], [ -83.541812, 36.656584 ], [ -83.547312, 36.654484 ], [ -83.554112, 36.653784 ], [ -83.562612, 36.651284 ], [ -83.565406, 36.647782 ], [ -83.569175, 36.645661 ], [ -83.574749, 36.644218 ], [ -83.577312, 36.641784 ], [ -83.584227267692299, 36.641399818461501 ], [ -83.584512, 36.641384 ], [ -83.585956, 36.643756 ], [ -83.587295, 36.642997 ], [ -83.589856, 36.641378 ], [ -83.594297, 36.640746 ], [ -83.600432, 36.637849 ], [ -83.603013, 36.636883 ], [ -83.604313, 36.637683 ], [ -83.605613, 36.637783 ], [ -83.607913, 36.637083 ], [ -83.614513, 36.633983 ], [ -83.616413, 36.631383 ], [ -83.619913, 36.627983 ], [ -83.625013, 36.625183 ], [ -83.628913, 36.624083 ], [ -83.635013, 36.622883 ], [ -83.639813, 36.624783 ], [ -83.645213, 36.624183 ], [ -83.648314, 36.622683 ], [ -83.649513, 36.616683 ], [ -83.657714, 36.611782 ], [ -83.663614, 36.606782 ], [ -83.665614, 36.605782 ], [ -83.673114, 36.604682 ], [ -83.673897835758794, 36.603845908523901 ], [ -83.674614, 36.603082 ], [ -83.675395, 36.600784 ], [ -83.675614, 36.598582 ], [ -83.676138239699796, 36.5978830137336 ], [ -83.677114, 36.596582 ], [ -83.679514, 36.594082 ], [ -83.683014, 36.592182 ], [ -83.687514, 36.587182 ], [ -83.688814, 36.584382 ], [ -83.690714, 36.582581 ], [ -83.690798043373505, 36.582582111424699 ], [ -83.789017, 36.583881 ], [ -83.840463400786206, 36.5851500281398 ], [ -83.894421, 36.586481 ], [ -83.930760783943896, 36.5876942581124 ], [ -83.987610950682793, 36.589592286072502 ], [ -83.987842, 36.5896 ], [ -84.021218327885606, 36.590033272584797 ], [ -84.024288585068504, 36.590073128924601 ], [ -84.050945551834403, 36.590419174569 ], [ -84.104061616248302, 36.591108697232997 ], [ -84.104643234129895, 36.5911162474669 ], [ -84.126121479887303, 36.591395065888399 ], [ -84.127503, 36.591413 ], [ -84.144732281314802, 36.591545547536803 ], [ -84.149108398289997, 36.591579213684298 ], [ -84.197614173938604, 36.591952376149003 ], [ -84.201315855392707, 36.591980853759303 ], [ -84.226830952612602, 36.592177145364602 ], [ -84.227193653463104, 36.592179935678601 ], [ -84.227332, 36.592181 ], [ -84.261333, 36.591981 ], [ -84.271176, 36.591882 ], [ -84.417993868254896, 36.595471601558103 ], [ -84.434914331808699, 36.595885295906498 ], [ -84.435935769235499, 36.595910269388398 ], [ -84.439101181486905, 36.595987661662797 ], [ -84.439102667516295, 36.595987697995298 ], [ -84.442837, 36.596079 ], [ -84.450109053187504, 36.596155285176401 ], [ -84.499938, 36.596678 ], [ -84.5209215590057, 36.596483222056399 ], [ -84.543138, 36.596277 ], [ -84.562402412903296, 36.597053690184197 ], [ -84.605190883728596, 36.598778808175197 ], [ -84.624939, 36.599575 ], [ -84.642216464834505, 36.599983988254401 ], [ -84.778455916990794, 36.603209017866398 ], [ -84.785341, 36.603372 ], [ -84.785399556603906, 36.6033748414415 ], [ -84.803744, 36.604265 ], [ -84.843091, 36.605127 ], [ -84.859759, 36.606428 ], [ -84.859738, 36.606495 ], [ -84.912583936758594, 36.610306735184302 ], [ -84.943948, 36.612569 ], [ -84.974875057622199, 36.615551823745697 ], [ -84.986448, 36.616668 ], [ -85.024627, 36.619354 ], [ -85.086415, 36.621913 ], [ -85.096128, 36.622483 ], [ -85.170138781001498, 36.624731423126001 ], [ -85.186269590730902, 36.6252214718074 ], [ -85.188166800321298, 36.625279108409302 ], [ -85.195372, 36.625498 ], [ -85.203827139469794, 36.6256038498991 ], [ -85.213285333275095, 36.625722257036301 ], [ -85.276289, 36.626511 ], [ -85.276372894246194, 36.6265106430779 ], [ -85.290627, 36.62645 ], [ -85.2959488756198, 36.6258382676941 ], [ -85.296073, 36.625824 ], [ -85.300402, 36.624437 ], [ -85.324654, 36.62455 ], [ -85.334124, 36.622951 ], [ -85.413352567413796, 36.619650600609503 ], [ -85.430123, 36.618952 ], [ -85.436433034201599, 36.618523095391197 ], [ -85.488353, 36.614994 ], [ -85.502290658021494, 36.615155829610799 ], [ -85.508590271723804, 36.615228974182997 ], [ -85.551483, 36.615727 ], [ -85.552017, 36.615782 ], [ -85.587060838849098, 36.6164437459949 ], [ -85.665347626840102, 36.617922064869298 ], [ -85.665916026051093, 36.617932798165498 ], [ -85.677789, 36.618157 ], [ -85.731862, 36.620429 ], [ -85.745219237935899, 36.620762325223303 ], [ -85.788612995121497, 36.6218452013294 ], [ -85.788645, 36.621846 ], [ -85.80149, 36.622418 ], [ -85.831973362359307, 36.622048408356797 ], [ -85.832172, 36.622046 ], [ -85.873857, 36.623642 ], [ -85.9194944925774, 36.6260154421213 ], [ -85.920728016658501, 36.626079593279599 ], [ -85.959981, 36.628121 ], [ -85.972921448646701, 36.628520294504099 ], [ -85.975845622259101, 36.628610523713697 ], [ -85.9764138326519, 36.628628056590102 ], [ -85.979124477302193, 36.628711697083702 ], [ -86.002972858981707, 36.629447570158597 ], [ -86.03277, 36.630367 ], [ -86.033139, 36.630413 ], [ -86.038366, 36.630804 ], [ -86.080666, 36.63394 ], [ -86.081944, 36.633848 ], [ -86.094334870060095, 36.634438990568 ], [ -86.128116321959993, 36.6360502187826 ], [ -86.1650459242246, 36.637811600066598 ], [ -86.197573, 36.639363 ], [ -86.204859, 36.639741 ], [ -86.205468610001205, 36.6397833130926 ], [ -86.216183, 36.640527 ], [ -86.21641, 36.640595 ], [ -86.219081, 36.640824 ], [ -86.222151, 36.640891 ], [ -86.264420106921904, 36.643541500834303 ], [ -86.293357, 36.645356 ], [ -86.296185476125203, 36.645599841520102 ], [ -86.333051, 36.648778 ], [ -86.359073, 36.649845 ], [ -86.373784, 36.650126 ], [ -86.374991, 36.649803 ], [ -86.411052400762301, 36.6505889723948 ], [ -86.411386143517404, 36.650596246449297 ], [ -86.459672989408503, 36.651648677223001 ], [ -86.468497, 36.651841 ], [ -86.47219, 36.651763 ], [ -86.473413, 36.651676 ], [ -86.473497, 36.651671 ], [ -86.473917841255698, 36.651680503738497 ], [ -86.507771, 36.652445 ], [ -86.536280306142999, 36.643015534720398 ], [ -86.543777, 36.640536 ], [ -86.543388, 36.64389 ], [ -86.545724561589395, 36.644214931382102 ], [ -86.550054, 36.644817 ], [ -86.550056796240995, 36.644801568724802 ], [ -86.550317910604804, 36.6433605886495 ], [ -86.551292, 36.637985 ], [ -86.555438587112903, 36.636528806113098 ], [ -86.563893568476402, 36.633559595087199 ], [ -86.563915748419106, 36.633551805959399 ], [ -86.564143, 36.633472 ], [ -86.567263542641001, 36.635775070208297 ], [ -86.571186186594204, 36.638670119392202 ], [ -86.571188058507204, 36.638671500929803 ], [ -86.571446816719799, 36.6388624735904 ], [ -86.577933437101706, 36.643649827545403 ], [ -86.589906, 36.652486 ], [ -86.594227832915394, 36.652382922457498 ], [ -86.605042, 36.652125 ], [ -86.606394, 36.652107 ], [ -86.653017764919099, 36.6509061532538 ], [ -86.679072830645097, 36.6502350761549 ], [ -86.699117566017094, 36.649718801776601 ], [ -86.713786, 36.649341 ], [ -86.75892, 36.649018 ], [ -86.763294813570297, 36.648907168479298 ], [ -86.813037, 36.647647 ], [ -86.816186, 36.647722 ], [ -86.818405, 36.647639 ], [ -86.833155, 36.64721 ], [ -86.854025529846098, 36.646887743914697 ], [ -86.854038171026602, 36.646887548725701 ], [ -86.854268, 36.646884 ], [ -86.906023, 36.646302 ], [ -86.906583, 36.646255 ], [ -86.919790961598196, 36.645964759389301 ], [ -86.980887541619595, 36.644622182144097 ], [ -86.987465090576407, 36.644477642669798 ], [ -87.011522, 36.643949 ], [ -87.060845815014204, 36.643217157286799 ], [ -87.114976, 36.642414 ], [ -87.150957155725195, 36.6422523939992 ], [ -87.167997511386304, 36.642175858832999 ], [ -87.1743840726663, 36.642147174189397 ], [ -87.197758821623196, 36.642042188687299 ], [ -87.197961253189604, 36.6420412794849 ], [ -87.2035604632039, 36.642016131155998 ], [ -87.23053, 36.641895 ], [ -87.231037, 36.641888 ], [ -87.247655, 36.641841 ], [ -87.248362452781294, 36.641838169544499 ], [ -87.275215625728094, 36.641730732395501 ], [ -87.278398, 36.641718 ], [ -87.281506, 36.641761 ], [ -87.285586998948503, 36.641744643421397 ], [ -87.314949244438694, 36.641626960010299 ], [ -87.335979533754994, 36.6415426709465 ], [ -87.339230640562405, 36.641529640562297 ], [ -87.344131, 36.64151 ], [ -87.347662254283904, 36.6414425544884 ], [ -87.347796, 36.64144 ], [ -87.355869150924406, 36.641392298824101 ], [ -87.362762613948604, 36.641351567975001 ], [ -87.386283459220607, 36.641212592253098 ], [ -87.393494051530197, 36.641169987607697 ], [ -87.398353641194007, 36.6411412741421 ], [ -87.409447832502195, 36.641075722788401 ], [ -87.414295970911795, 36.641047076983902 ], [ -87.414309, 36.641047 ], [ -87.425009, 36.641047 ], [ -87.426206949977299, 36.641015749131 ], [ -87.436321544959895, 36.640751890131497 ], [ -87.436325649311797, 36.640751783061503 ], [ -87.436509, 36.640747 ], [ -87.451628421677199, 36.640551768853101 ], [ -87.460898206074404, 36.640432071772203 ], [ -87.475463704721307, 36.640243993215599 ], [ -87.475676001798703, 36.6402412519069 ], [ -87.563052, 36.639113 ], [ -87.564928, 36.639113 ], [ -87.64115, 36.638036 ], [ -87.694191328388996, 36.637071081703802 ], [ -87.744768, 36.636151 ], [ -87.796763907071494, 36.634758509368297 ], [ -87.797501077985302, 36.634738767360702 ], [ -87.801843072862098, 36.634622485377598 ], [ -87.802098080796199, 36.634615656067801 ], [ -87.853204, 36.633247 ], [ -87.849567, 36.663701 ], [ -87.872062, 36.665089 ], [ -87.902003759245801, 36.667646681516899 ], [ -87.911941277302802, 36.6684955630422 ], [ -87.912313069972797, 36.668527322272901 ], [ -88.011792, 36.677025 ], [ -88.044772, 36.677983 ], [ -88.070532, 36.678118 ], [ -88.068208, 36.659747 ], [ -88.064401, 36.650854 ], [ -88.05858, 36.643315 ], [ -88.057042, 36.64054 ], [ -88.055604, 36.63571 ], [ -88.055653776285894, 36.633765381666102 ], [ -88.055738, 36.630475 ], [ -88.045127, 36.602939 ], [ -88.041196, 36.584123 ], [ -88.039625, 36.572783 ], [ -88.035625, 36.561736 ], [ -88.033802, 36.551733 ], [ -88.032489, 36.540662 ], [ -88.034132, 36.53112 ], [ -88.035854, 36.525912 ], [ -88.03727, 36.523783 ], [ -88.03783, 36.521015 ], [ -88.037329, 36.51783 ], [ -88.037822, 36.51385 ], [ -88.039481, 36.510408 ], [ -88.045304, 36.504081 ], [ -88.050466, 36.500053 ], [ -88.053205, 36.497129 ], [ -88.053291618015095, 36.497130647742701 ], [ -88.088223546029795, 36.497795161115903 ], [ -88.127378, 36.49854 ], [ -88.1377328246476, 36.498641291145702 ], [ -88.176057926660604, 36.499016188222498 ], [ -88.309323960596799, 36.5003197997965 ], [ -88.320794, 36.500432 ], [ -88.320928046588804, 36.500433340203102 ], [ -88.325895, 36.500483 ], [ -88.326057632053804, 36.500484591830897 ], [ -88.330391663655206, 36.500527013021099 ], [ -88.330799, 36.500531 ], [ -88.41636, 36.500756 ], [ -88.430106425818295, 36.500896307 ], [ -88.450161, 36.501101 ], [ -88.452543, 36.500872 ], [ -88.472564, 36.501028 ], [ -88.489075214643506, 36.5010676761135 ], [ -88.48921, 36.501068 ], [ -88.51192, 36.501457 ], [ -88.51227, 36.501506 ], [ -88.516345685948806, 36.5014314866172 ], [ -88.516427, 36.50143 ], [ -88.5448912453585, 36.501809985058799 ], [ -88.545192, 36.501814 ], [ -88.577283, 36.50194 ], [ -88.661133, 36.502243 ], [ -88.661464692362699, 36.502245567885502 ], [ -88.700548936607106, 36.502548149060203 ], [ -88.715255, 36.502662 ], [ -88.715266736637702, 36.502662062560503 ], [ -88.728360505038694, 36.502731857036899 ], [ -88.747523, 36.502834 ], [ -88.799594, 36.502757 ], [ -88.816765186036505, 36.502815243500699 ], [ -88.827012, 36.50285 ], [ -88.827301155561699, 36.502852430516903 ], [ -88.834626, 36.502914 ], [ -88.834865800811002, 36.502911201257398 ], [ -88.836544810724902, 36.502891605341297 ], [ -88.843562125468296, 36.502809705460997 ], [ -88.855256076357094, 36.502673224027099 ], [ -88.859294, 36.50262609696 ], [ -88.871545016716794, 36.502483113947399 ], [ -88.871609927974305, 36.502482356360701 ], [ -88.874725, 36.502446 ] ] ] ] } }
]
}
