{
"type": "FeatureCollection",
"name": "state-18-outline",
"crs": { "type": "name", "properties": { "name": "urn:ogc:def:crs:OGC:1.3:CRS84" } },
"features": [
{ "type": "Feature", "properties": { "state_fips": "18", "state_abbr": "IN", "state_name": "Indiana" }, "geometry": { "type": "Polygon", "coordinates": [ [ [ -88.020284, 37.888051 ], [ -88.015155, 37.890792 ], [ -88.014478611554395, 37.892318383259003 ], [ -88.013355, 37.894854 ], [ -88.017816, 37.902696 ], [ -88.019977, 37.909771 ], [ -88.02006, 37.9129 ], [ -88.022513, 37.914756 ], [ -88.031846, 37.913751 ], [ -88.036382, 37.914897 ], [ -88.051921, 37.91589 ], [ -88.063023, 37.918196 ], [ -88.068225, 37.922705 ], [ -88.069613, 37.926848 ], [ -88.067561, 37.930214 ], [ -88.059767, 37.933856 ], [ -88.054757, 37.933487 ], [ -88.052793, 37.930488 ], [ -88.048661, 37.926757 ], [ -88.041296, 37.92429 ], [ -88.035345, 37.925528 ], [ -88.030415, 37.930104 ], [ -88.036124, 37.942746 ], [ -88.036793, 37.956793 ], [ -88.031989, 37.95859 ], [ -88.020868, 37.959351 ], [ -88.016311, 37.961574 ], [ -88.012929, 37.966544 ], [ -88.012574, 37.977062 ], [ -88.022864, 37.997983 ], [ -88.025831, 38.007245 ], [ -88.025223145253307, 38.010631619302899 ], [ -88.025131, 38.011145 ], [ -88.022431, 38.017145 ], [ -88.0209347650609, 38.0190220947417 ], [ -88.016931, 38.024045 ], [ -88.008631, 38.027545 ], [ -88.007631, 38.029145 ], [ -88.008931, 38.031945 ], [ -88.012131, 38.033845 ], [ -88.017631, 38.034745 ], [ -88.027731, 38.031745 ], [ -88.034132, 38.032045 ], [ -88.040232, 38.035645 ], [ -88.041576052976097, 38.038021799564397 ], [ -88.041698923093506, 38.038239080911801 ], [ -88.042136, 38.039012 ], [ -88.042132, 38.046345 ], [ -88.037832, 38.050245 ], [ -88.032632, 38.051745 ], [ -88.020631, 38.051845 ], [ -88.00133, 38.051545 ], [ -87.978735, 38.059815 ], [ -87.967226, 38.067105 ], [ -87.9579697080854, 38.083841168026296 ], [ -87.956664, 38.086202 ], [ -87.957463344890499, 38.088912913284801 ], [ -87.9575138257932, 38.089084115166997 ], [ -87.9598181630233, 38.096899087757997 ], [ -87.960463, 38.099086 ], [ -87.96221, 38.100054 ], [ -87.968031, 38.096276 ], [ -88.004697, 38.083965 ], [ -88.01139, 38.084691 ], [ -88.014633, 38.090398 ], [ -88.016729, 38.097257 ], [ -88.013118, 38.103527 ], [ -87.99831, 38.108488 ], [ -87.983068, 38.107139 ], [ -87.975299, 38.110053 ], [ -87.973774, 38.114447 ], [ -87.974272, 38.121981 ], [ -87.9709761714455, 38.127987935445603 ], [ -87.969464, 38.130744 ], [ -87.965755, 38.132621 ], [ -87.960482, 38.132095 ], [ -87.955872, 38.132897 ], [ -87.950692, 38.130241 ], [ -87.947468, 38.127221 ], [ -87.945472, 38.126616 ], [ -87.940438, 38.133713 ], [ -87.935135, 38.139428 ], [ -87.929423, 38.140727 ], [ -87.926627, 38.142546 ], [ -87.9255, 38.146251 ], [ -87.926895, 38.149182 ], [ -87.92827, 38.150893 ], [ -87.925891, 38.152912 ], [ -87.923653, 38.153119 ], [ -87.916844278040799, 38.156872680815603 ], [ -87.915184, 38.157788 ], [ -87.911428, 38.16174 ], [ -87.910623, 38.166604 ], [ -87.912553, 38.170759 ], [ -87.915666, 38.173322 ], [ -87.919059, 38.173986 ], [ -87.920651565092498, 38.173697912353099 ], [ -87.922901, 38.173291 ], [ -87.925289, 38.170316 ], [ -87.925896, 38.166473 ], [ -87.924513, 38.162025 ], [ -87.926388, 38.15884 ], [ -87.931211, 38.156348 ], [ -87.934299, 38.156459 ], [ -87.935251, 38.158735 ], [ -87.933759, 38.164351 ], [ -87.936443, 38.171355 ], [ -87.940491, 38.174902 ], [ -87.958923, 38.184046 ], [ -87.969865, 38.191786 ], [ -87.975819, 38.197834 ], [ -87.978196093517894, 38.201120359483298 ], [ -87.983973, 38.209107 ], [ -87.985164163749502, 38.215506444424697 ], [ -87.985627, 38.217993 ], [ -87.98487, 38.228523 ], [ -87.983700608383799, 38.2303534791738 ], [ -87.980469, 38.235412 ], [ -87.979629, 38.24055 ], [ -87.9824, 38.248696 ], [ -87.983520758468302, 38.250046 ], [ -87.988037, 38.255486 ], [ -87.987721036939305, 38.256914997613499 ], [ -87.987618, 38.257381 ], [ -87.984705, 38.257953 ], [ -87.981868, 38.256444 ], [ -87.972259, 38.247039 ], [ -87.969947, 38.243354 ], [ -87.970643, 38.24065 ], [ -87.968968, 38.237389 ], [ -87.964279, 38.236297 ], [ -87.960225, 38.237118 ], [ -87.957992, 38.240096 ], [ -87.958883, 38.246666 ], [ -87.95761, 38.250046 ], [ -87.954032, 38.253032 ], [ -87.946065, 38.255319 ], [ -87.94303, 38.25779 ], [ -87.942067, 38.260301 ], [ -87.946614, 38.262749 ], [ -87.950651, 38.266819 ], [ -87.952198, 38.273102 ], [ -87.950298, 38.276792 ], [ -87.942333, 38.279402 ], [ -87.939212, 38.282923 ], [ -87.937519, 38.292046 ], [ -87.933556, 38.295896 ], [ -87.922833, 38.299198 ], [ -87.916489, 38.299372 ], [ -87.909536, 38.296061 ], [ -87.907994, 38.292331 ], [ -87.917086, 38.280078 ], [ -87.91947, 38.274547 ], [ -87.917615, 38.270078 ], [ -87.91111, 38.268031 ], [ -87.906841, 38.269634 ], [ -87.897803, 38.279482 ], [ -87.892328900353306, 38.282680999160597 ], [ -87.887849, 38.285299 ], [ -87.883587, 38.295221 ], [ -87.880083, 38.305353 ], [ -87.875664, 38.309931 ], [ -87.870537, 38.31222 ], [ -87.864271, 38.310703 ], [ -87.86112, 38.307826 ], [ -87.860453, 38.303113 ], [ -87.864812, 38.295389 ], [ -87.866248, 38.28998 ], [ -87.863032, 38.280172 ], [ -87.859651, 38.276711 ], [ -87.85113, 38.27512 ], [ -87.84345, 38.278172 ], [ -87.838979, 38.282327 ], [ -87.833934, 38.290614 ], [ -87.830953, 38.299365 ], [ -87.830849, 38.305608 ], [ -87.833402, 38.31665 ], [ -87.831982, 38.326973 ], [ -87.827684, 38.334026 ], [ -87.823411, 38.345968 ], [ -87.813791, 38.353792 ], [ -87.808890162656198, 38.3597313118198 ], [ -87.806701205997697, 38.362384102607002 ], [ -87.806075, 38.363143 ], [ -87.790251, 38.366702 ], [ -87.783079, 38.368862 ], [ -87.769721, 38.380695 ], [ -87.762592535826997, 38.388940500656403 ], [ -87.7593748371483, 38.3926624154929 ], [ -87.756792755494004, 38.395649111569199 ], [ -87.752700724237798, 38.400382367652199 ], [ -87.752697541117996, 38.400386049569697 ], [ -87.745254, 38.408996 ], [ -87.743772, 38.413115 ], [ -87.743687480268903, 38.414388167982501 ], [ -87.743492898432507, 38.4173192630183 ], [ -87.742828, 38.427335 ], [ -87.739767, 38.437977 ], [ -87.730699, 38.442908 ], [ -87.730369, 38.447884 ], [ -87.731974, 38.45078 ], [ -87.740525, 38.454716 ], [ -87.750797, 38.454197 ], [ -87.755931, 38.455876 ], [ -87.756714, 38.460299 ], [ -87.755355, 38.46396 ], [ -87.753840099051402, 38.465841922511601 ], [ -87.744644, 38.477266 ], [ -87.743215440220794, 38.477667791368198 ], [ -87.734854216736196, 38.480019437741298 ], [ -87.734646, 38.480078 ], [ -87.714047, 38.47988 ], [ -87.685921, 38.491843 ], [ -87.678374, 38.498438 ], [ -87.672382, 38.507396 ], [ -87.669811, 38.507178 ], [ -87.663701, 38.502931 ], [ -87.656741, 38.501757 ], [ -87.650092, 38.504606 ], [ -87.645345, 38.510159 ], [ -87.646226, 38.51509 ], [ -87.650124569842205, 38.517547859533998 ], [ -87.655283, 38.5208 ], [ -87.659476, 38.526711 ], [ -87.660978, 38.532145 ], [ -87.669232, 38.541742 ], [ -87.670071, 38.545237 ], [ -87.66845, 38.547741 ], [ -87.665435, 38.549946 ], [ -87.657271809312903, 38.553275389829999 ], [ -87.656395, 38.553633 ], [ -87.650704, 38.55624 ], [ -87.650214, 38.558421 ], [ -87.652745, 38.564459 ], [ -87.651529, 38.568166 ], [ -87.650181, 38.570059 ], [ -87.647248, 38.571474 ], [ -87.642937, 38.572283 ], [ -87.639567, 38.574163 ], [ -87.638073, 38.577828 ], [ -87.639775, 38.581998 ], [ -87.639951269680594, 38.585157482068603 ], [ -87.64021, 38.589795 ], [ -87.637782159869801, 38.5924822609107 ], [ -87.637627, 38.592654 ], [ -87.634823, 38.592692 ], [ -87.628157, 38.588101 ], [ -87.622897, 38.586198 ], [ -87.614508, 38.58751 ], [ -87.61196, 38.589248 ], [ -87.610907, 38.591405 ], [ -87.61135, 38.593611 ], [ -87.613461, 38.595042 ], [ -87.619443, 38.594824 ], [ -87.624143, 38.596955 ], [ -87.627293547453206, 38.605295840917499 ], [ -87.627348, 38.60544 ], [ -87.626602, 38.60832 ], [ -87.620532, 38.612165 ], [ -87.620352, 38.612786 ], [ -87.622759, 38.617084 ], [ -87.621794, 38.619597 ], [ -87.616152, 38.623215 ], [ -87.615736, 38.627292 ], [ -87.618924, 38.631382 ], [ -87.6209, 38.636128 ], [ -87.62012, 38.639489 ], [ -87.617315, 38.642157 ], [ -87.611479700908603, 38.643908395109001 ], [ -87.607896, 38.644984 ], [ -87.605817, 38.646518 ], [ -87.60295, 38.651236 ], [ -87.602863, 38.656363 ], [ -87.60018, 38.662462 ], [ -87.597247, 38.665314 ], [ -87.587684, 38.66998 ], [ -87.579397, 38.672475 ], [ -87.564392048456497, 38.674751955640502 ], [ -87.545538, 38.677613 ], [ -87.540051, 38.679143 ], [ -87.535409663428695, 38.681717836716899 ], [ -87.535340946031198, 38.681755958511197 ], [ -87.531231, 38.684036 ], [ -87.528708232067402, 38.686592251144901 ], [ -87.522039, 38.69335 ], [ -87.521131874445004, 38.695216846860298 ], [ -87.519038, 38.699526 ], [ -87.519187812066093, 38.702929941934002 ], [ -87.519519, 38.710455 ], [ -87.516707, 38.716332 ], [ -87.508515, 38.725768 ], [ -87.505833317615497, 38.733537786304197 ], [ -87.505339, 38.73497 ], [ -87.49652, 38.739336 ], [ -87.496241782291094, 38.741076113913302 ], [ -87.496076, 38.742113 ], [ -87.503318, 38.74708 ], [ -87.504006, 38.74971 ], [ -87.498948, 38.757774 ], [ -87.497701657374705, 38.762588078283997 ], [ -87.496998, 38.765306 ], [ -87.497881356473201, 38.767482480111802 ], [ -87.498216, 38.768307 ], [ -87.502516, 38.769173 ], [ -87.508183, 38.767312 ], [ -87.511969, 38.767538 ], [ -87.514373, 38.769172 ], [ -87.514548, 38.771821 ], [ -87.511798, 38.773558 ], [ -87.504301, 38.773846 ], [ -87.49743, 38.777438 ], [ -87.495199, 38.781979 ], [ -87.495905, 38.785434 ], [ -87.503129, 38.792874 ], [ -87.508211, 38.795716 ], [ -87.521595, 38.813013 ], [ -87.527342, 38.818121 ], [ -87.526463, 38.820538 ], [ -87.52391, 38.82228 ], [ -87.521681, 38.826576 ], [ -87.522212, 38.830483 ], [ -87.524035, 38.832914 ], [ -87.526695, 38.838578 ], [ -87.525893, 38.848795 ], [ -87.528194, 38.851691 ], [ -87.532063529266594, 38.852503455835603 ], [ -87.537248, 38.853592 ], [ -87.552028, 38.860318 ], [ -87.553394, 38.86241 ], [ -87.552066, 38.864511 ], [ -87.545719, 38.86303 ], [ -87.543188, 38.864214 ], [ -87.542606, 38.866641 ], [ -87.547611, 38.872516 ], [ -87.54737, 38.875614 ], [ -87.545203, 38.87673 ], [ -87.536816, 38.877408 ], [ -87.534919, 38.878874 ], [ -87.535536, 38.881555 ], [ -87.53828, 38.885799 ], [ -87.544292, 38.888953 ], [ -87.54513, 38.891467 ], [ -87.544919, 38.89345 ], [ -87.544089, 38.895093 ], [ -87.541628, 38.896381 ], [ -87.539122, 38.896119 ], [ -87.53859, 38.89553 ], [ -87.538411, 38.892582 ], [ -87.537718, 38.890925 ], [ -87.537596, 38.889551 ], [ -87.536264, 38.887425 ], [ -87.535703, 38.887207 ], [ -87.535172, 38.887926 ], [ -87.534363, 38.890376 ], [ -87.534472, 38.892339 ], [ -87.536398, 38.894562 ], [ -87.536591, 38.895566 ], [ -87.533695, 38.900957 ], [ -87.531337, 38.901786 ], [ -87.5225092886878, 38.902394647812699 ], [ -87.518008, 38.902705 ], [ -87.516728, 38.904123 ], [ -87.517732, 38.905672 ], [ -87.524314, 38.905194 ], [ -87.527295, 38.907215 ], [ -87.527887, 38.909201 ], [ -87.526033, 38.913606 ], [ -87.527702, 38.918449 ], [ -87.526058, 38.921355 ], [ -87.520634, 38.921665 ], [ -87.518826, 38.923205 ], [ -87.518789, 38.927844 ], [ -87.517976765576705, 38.929780057156101 ], [ -87.516628, 38.932995 ], [ -87.517355, 38.934943 ], [ -87.521851, 38.940069 ], [ -87.521284, 38.941836 ], [ -87.519575795026199, 38.943122771688401 ], [ -87.516343, 38.945558 ], [ -87.512927, 38.950133 ], [ -87.512187, 38.954417 ], [ -87.513346, 38.956 ], [ -87.517422439575896, 38.958155442665102 ], [ -87.520614, 38.959843 ], [ -87.524964, 38.963845 ], [ -87.527002, 38.96883 ], [ -87.529496, 38.971925 ], [ -87.542437, 38.975587 ], [ -87.548034, 38.978504 ], [ -87.560279, 38.981366 ], [ -87.576531, 38.986711 ], [ -87.578493, 38.989749 ], [ -87.576984, 38.99127 ], [ -87.573402, 38.991429 ], [ -87.565193, 38.988795 ], [ -87.562043, 38.989469 ], [ -87.560427, 38.992425 ], [ -87.562888, 38.994429 ], [ -87.567085, 38.993544 ], [ -87.575422, 38.996478 ], [ -87.578654, 38.999502 ], [ -87.578889, 39.002413 ], [ -87.573761, 39.008684 ], [ -87.569696, 39.019413 ], [ -87.569875, 39.023105 ], [ -87.575027, 39.034062 ], [ -87.580252, 39.039377 ], [ -87.580207, 39.04194 ], [ -87.572555, 39.050056 ], [ -87.572588, 39.057286 ], [ -87.578702, 39.061698 ], [ -87.583546, 39.067947 ], [ -87.590133122816397, 39.072273389863398 ], [ -87.591515, 39.073181 ], [ -87.595559, 39.078978 ], [ -87.601101, 39.081405 ], [ -87.610696, 39.081234 ], [ -87.615964, 39.082566 ], [ -87.618187968823705, 39.0850188415627 ], [ -87.620978, 39.088096 ], [ -87.620387, 39.091522 ], [ -87.615465, 39.095771 ], [ -87.613946, 39.099536 ], [ -87.614881, 39.102655 ], [ -87.618385, 39.104284 ], [ -87.632655, 39.104908 ], [ -87.638585, 39.105894 ], [ -87.644609, 39.104432 ], [ -87.649166, 39.104803 ], [ -87.652796, 39.106839 ], [ -87.654839328118001, 39.1105526533294 ], [ -87.655042, 39.110921 ], [ -87.654182, 39.113382 ], [ -87.651022, 39.116439 ], [ -87.641588, 39.114542 ], [ -87.635903, 39.118329 ], [ -87.634971, 39.120089 ], [ -87.6351, 39.122298 ], [ -87.637987, 39.123428 ], [ -87.64089, 39.122774 ], [ -87.64217, 39.123212 ], [ -87.642055, 39.12504 ], [ -87.643145, 39.128562 ], [ -87.646168, 39.129886 ], [ -87.6515, 39.130817 ], [ -87.655239, 39.132283 ], [ -87.658745, 39.135997 ], [ -87.658201, 39.138404 ], [ -87.653201, 39.143993 ], [ -87.653263, 39.147714 ], [ -87.651719, 39.150602 ], [ -87.64497, 39.154301 ], [ -87.642175, 39.157097 ], [ -87.637443, 39.156773 ], [ -87.634379, 39.153419 ], [ -87.631571, 39.152986 ], [ -87.628743, 39.153917 ], [ -87.627742, 39.15623 ], [ -87.629366247610704, 39.157531618860098 ], [ -87.630375, 39.15834 ], [ -87.637426, 39.159025 ], [ -87.641412, 39.160351 ], [ -87.642065, 39.162477 ], [ -87.640434, 39.166727 ], [ -87.63649, 39.168833 ], [ -87.625024, 39.169296 ], [ -87.620521, 39.17033 ], [ -87.619404, 39.172066 ], [ -87.619414562006597, 39.172086668754297 ], [ -87.620796, 39.17479 ], [ -87.621397, 39.178868 ], [ -87.6204269845597, 39.1850237549559 ], [ -87.6204, 39.185195 ], [ -87.618551, 39.186404 ], [ -87.611045, 39.18409 ], [ -87.605173, 39.185897 ], [ -87.603045, 39.191304 ], [ -87.600099, 39.193441 ], [ -87.594151, 39.194932 ], [ -87.58659, 39.199626 ], [ -87.584977, 39.205276 ], [ -87.577029, 39.211123 ], [ -87.574558, 39.218404 ], [ -87.577609, 39.239184 ], [ -87.579319, 39.243552 ], [ -87.578224, 39.244794 ], [ -87.573074, 39.246693 ], [ -87.571333, 39.251381 ], [ -87.573439, 39.254582 ], [ -87.580652, 39.255237 ], [ -87.58518, 39.253138 ], [ -87.587158, 39.249616 ], [ -87.59111, 39.247261 ], [ -87.593486, 39.247452 ], [ -87.598135, 39.254093 ], [ -87.604107897719103, 39.259458261471401 ], [ -87.604126087814194, 39.259474601047501 ], [ -87.604947, 39.260212 ], [ -87.605574, 39.262398 ], [ -87.601501, 39.272242 ], [ -87.601948, 39.275165 ], [ -87.607342, 39.276206 ], [ -87.609438, 39.278535 ], [ -87.609915, 39.281415 ], [ -87.608753, 39.286689 ], [ -87.599907, 39.293583 ], [ -87.597323, 39.296957 ], [ -87.598416, 39.300086 ], [ -87.605348, 39.303217 ], [ -87.614997, 39.300901 ], [ -87.618964, 39.301691 ], [ -87.621176, 39.304162 ], [ -87.620485, 39.307133 ], [ -87.612606, 39.308566 ], [ -87.60592, 39.311076 ], [ -87.600656, 39.318529 ], [ -87.596729, 39.322029 ], [ -87.590227316810697, 39.332066 ], [ -87.589084, 39.333831 ], [ -87.584852, 39.337329 ], [ -87.57408, 39.341423 ], [ -87.560692, 39.338851 ], [ -87.5544, 39.340488 ], [ -87.55026, 39.343348 ], [ -87.5496863199904, 39.346569998212303 ], [ -87.549478, 39.34774 ], [ -87.545882, 39.352147 ], [ -87.544013, 39.352907 ], [ -87.540378, 39.352949 ], [ -87.537271, 39.352089 ], [ -87.532424, 39.347927 ], [ -87.531675310274593, 39.348056914026898 ], [ -87.531646, 39.348062 ], [ -87.531668, 39.359712 ], [ -87.531691, 39.371042 ], [ -87.531423, 39.375037 ], [ -87.531368, 39.410584 ], [ -87.531411812635795, 39.436660907907601 ], [ -87.531413217222095, 39.437496905747899 ], [ -87.531415, 39.438558 ], [ -87.531657878999894, 39.477109015604199 ], [ -87.531677, 39.480144 ], [ -87.531715897779904, 39.486437864742399 ], [ -87.531925545873094, 39.520360025511003 ], [ -87.531944, 39.523346 ], [ -87.531965080972597, 39.535059733501598 ], [ -87.531983698174002, 39.545404461939597 ], [ -87.532025, 39.568354 ], [ -87.532068372844094, 39.578430002699598 ], [ -87.532131, 39.592979 ], [ -87.532187476139697, 39.607306 ], [ -87.532301, 39.636105 ], [ -87.532672279185604, 39.664909911363502 ], [ -87.532672292670497, 39.6649109575593 ], [ -87.532675, 39.665121 ], [ -87.532784075875298, 39.694465092646297 ], [ -87.5328374387732, 39.708821024388897 ], [ -87.532919, 39.730763 ], [ -87.533148, 39.780663 ], [ -87.533141094178305, 39.796256345360199 ], [ -87.533134573523895, 39.810979983023003 ], [ -87.533129103631495, 39.823331 ], [ -87.533125, 39.832597 ], [ -87.533194126502494, 39.853379803813802 ], [ -87.533256, 39.871982 ], [ -87.533186420584201, 39.882999737416903 ], [ -87.533013653596598, 39.910356984986002 ], [ -87.533, 39.912519 ], [ -87.532745, 39.945007 ], [ -87.532735510755799, 39.946998450750499 ], [ -87.532727074671101, 39.948768881230997 ], [ -87.532692000507396, 39.956129685512998 ], [ -87.53262, 39.97124 ], [ -87.532431003982396, 39.986047111070903 ], [ -87.53236, 39.99161 ], [ -87.532357603794395, 39.999984019917001 ], [ -87.532354212844595, 40.011834372049002 ], [ -87.53235, 40.026557 ], [ -87.532188, 40.05615 ], [ -87.532168439779397, 40.058801981116602 ], [ -87.531946704383401, 40.088864938813998 ], [ -87.531883, 40.097502 ], [ -87.531833533716707, 40.103391987685598 ], [ -87.531712361961695, 40.11782 ], [ -87.531710346353407, 40.11806 ], [ -87.531647722605697, 40.125516656902597 ], [ -87.531502782611398, 40.142774771418402 ], [ -87.531459, 40.147988 ], [ -87.531456918213706, 40.1481271184891 ], [ -87.531454443253693, 40.148292511396797 ], [ -87.531129806901802, 40.169986822056103 ], [ -87.531021971873002, 40.177193059435602 ], [ -87.530825, 40.190356 ], [ -87.530779728734601, 40.193958106207397 ], [ -87.530711186178095, 40.199411843050001 ], [ -87.530557, 40.21168 ], [ -87.530512514152306, 40.2147779514085 ], [ -87.530208011455002, 40.235983224737303 ], [ -87.530207891544606, 40.235991575183803 ], [ -87.529978, 40.252001 ], [ -87.529713241156301, 40.272289785957597 ], [ -87.529526502253304, 40.286599810811403 ], [ -87.529433, 40.293765 ], [ -87.529277134197002, 40.303595303385002 ], [ -87.528849443185095, 40.330569356198602 ], [ -87.528158, 40.374178 ], [ -87.527945654308198, 40.388507046445199 ], [ -87.527938946692899, 40.3889596750343 ], [ -87.527290752858704, 40.432699670314101 ], [ -87.527118, 40.444357 ], [ -87.526596488574597, 40.476876120094801 ], [ -87.526366182194707, 40.4912369959331 ], [ -87.526322, 40.493992 ], [ -87.526367, 40.520248 ], [ -87.526245043736793, 40.564223019534403 ], [ -87.526236596444704, 40.567268946188001 ], [ -87.526206164848304, 40.578241978723703 ], [ -87.526205, 40.578662 ], [ -87.526211789085707, 40.607907951764297 ], [ -87.526221508761097, 40.649778267271898 ], [ -87.526224, 40.66051 ], [ -87.526156103450305, 40.690075825707098 ], [ -87.52605, 40.736279 ], [ -87.526048232163902, 40.736885050265897 ], [ -87.526010727422999, 40.749742440082002 ], [ -87.525929278187306, 40.777664898717198 ], [ -87.525884791160394, 40.792915958553102 ], [ -87.525844, 40.8069 ], [ -87.525841562455795, 40.8172500342815 ], [ -87.525841547183504, 40.817314881900202 ], [ -87.525833427449399, 40.851792010934197 ], [ -87.525833, 40.853607 ], [ -87.526002682030693, 40.865016779932802 ], [ -87.526436, 40.894154 ], [ -87.525968, 40.894366 ], [ -87.5260478246215, 40.906441538428503 ], [ -87.526083493783304, 40.911837421627602 ], [ -87.526084, 40.911914 ], [ -87.526060659547994, 40.937593943338896 ], [ -87.526054, 40.944921 ], [ -87.526283520407006, 40.999757976894301 ], [ -87.526291, 41.001545 ], [ -87.526297831717898, 41.002683004627698 ], [ -87.526343790220693, 41.010338617715398 ], [ -87.526428, 41.024366 ], [ -87.526429, 41.055146 ], [ -87.526513, 41.06679 ], [ -87.526558239164501, 41.087167895128502 ], [ -87.526574432199496, 41.094462016800598 ], [ -87.526634351973499, 41.121452764386397 ], [ -87.526696, 41.149222 ], [ -87.5265867699935, 41.166090092002598 ], [ -87.526586, 41.166209 ], [ -87.526616633290004, 41.1944785996725 ], [ -87.526632518259603, 41.209137871649602 ], [ -87.526712519182098, 41.2829658558069 ], [ -87.526728866718202, 41.2980520023116 ], [ -87.526729, 41.298175 ], [ -87.526520645246094, 41.3415869071072 ], [ -87.526488075501803, 41.348373 ], [ -87.526476, 41.350889 ], [ -87.526229779922602, 41.385289912043199 ], [ -87.526129311265606, 41.3993270022278 ], [ -87.526085, 41.405518 ], [ -87.5259294298029, 41.426184191429499 ], [ -87.525923287722804, 41.427000115082301 ], [ -87.5258586600972, 41.435585351246203 ], [ -87.525858653208303, 41.435586266373697 ], [ -87.525782, 41.445769 ], [ -87.525757100544794, 41.453696081109598 ], [ -87.525730177578595, 41.462267374529503 ], [ -87.525722843863207, 41.464602162844798 ], [ -87.525705, 41.470283 ], [ -87.525684567817706, 41.471815780717201 ], [ -87.5256356127815, 41.4754882878619 ], [ -87.525584130617602, 41.479350374985103 ], [ -87.525538, 41.482811 ], [ -87.525562917934195, 41.494629951682001 ], [ -87.525562927452597, 41.494634466386898 ], [ -87.525571870035407, 41.498876068184401 ], [ -87.525592252730803, 41.5085438877271 ], [ -87.525611, 41.517436 ], [ -87.525575739866596, 41.522651099658603 ], [ -87.525561624348498, 41.524738835192302 ], [ -87.525537252433793, 41.528343528425403 ], [ -87.525407874645694, 41.547478965346599 ], [ -87.525405548787603, 41.5478229680662 ], [ -87.525399823841198, 41.548669708078997 ], [ -87.5253975843533, 41.549000936339297 ], [ -87.525388835809693, 41.550294877189003 ], [ -87.525345014273697, 41.556776238858099 ], [ -87.525339833605003, 41.557542478265503 ], [ -87.525331, 41.558849 ], [ -87.525340657924801, 41.563469799635897 ], [ -87.525354503061294, 41.570093955734002 ], [ -87.525354885419503, 41.570276893644497 ], [ -87.525369160627093, 41.577106815735597 ], [ -87.525369209472203, 41.577130185493701 ], [ -87.525372169389797, 41.578546347535301 ], [ -87.525378051957503, 41.581360841043903 ], [ -87.525378093655206, 41.581380791174901 ], [ -87.525387, 41.585642 ], [ -87.525371660038303, 41.587440504964597 ], [ -87.525332903071401, 41.5919844926552 ], [ -87.525312701161695, 41.594353027560103 ], [ -87.525258120600697, 41.60075222279 ], [ -87.525255529124195, 41.601056055576699 ], [ -87.525198861837694, 41.6076999049994 ], [ -87.525183832690004, 41.6094619691536 ], [ -87.525169, 41.611201 ], [ -87.525157842051499, 41.613834088320097 ], [ -87.525150693611593, 41.615521 ], [ -87.525135264559907, 41.619161996883498 ], [ -87.525120659568202, 41.622608529457601 ], [ -87.525118775370103, 41.623053168551699 ], [ -87.525106524663798, 41.625944129350998 ], [ -87.525088457635803, 41.6302076443083 ], [ -87.525076685064704, 41.632985773216497 ], [ -87.525066170691005, 41.635466988705801 ], [ -87.52505, 41.639283 ], [ -87.525014657719893, 41.644635955745102 ], [ -87.524978468311105, 41.650117217930998 ], [ -87.524977720779304, 41.650230439389098 ], [ -87.524848, 41.669878 ], [ -87.524629399750907, 41.691801694886202 ], [ -87.524557267465099, 41.699035932870203 ], [ -87.524539, 41.700868 ], [ -87.524448019050794, 41.702679347988898 ], [ -87.524165, 41.708314 ], [ -87.521308, 41.710031 ], [ -87.514948, 41.704562 ], [ -87.517098, 41.702962 ], [ -87.516147, 41.701517 ], [ -87.511153, 41.697524 ], [ -87.510862, 41.696136 ], [ -87.507999, 41.694107 ], [ -87.507939175586799, 41.694161192919999 ], [ -87.506533, 41.695435 ], [ -87.505379324083904, 41.694657725867501 ], [ -87.50394, 41.693688 ], [ -87.504186904200196, 41.6923185313589 ], [ -87.504187, 41.692318 ], [ -87.504514, 41.691569 ], [ -87.500282851251299, 41.689200918226199 ], [ -87.498423, 41.68816 ], [ -87.490945, 41.684905 ], [ -87.488894, 41.684422 ], [ -87.485109, 41.683585 ], [ -87.485051226140598, 41.683536081598298 ], [ -87.484026, 41.682668 ], [ -87.485376, 41.681234 ], [ -87.482559, 41.679438 ], [ -87.479917, 41.678809 ], [ -87.478746, 41.679787 ], [ -87.475801, 41.677861 ], [ -87.475485, 41.677037 ], [ -87.476309, 41.675234 ], [ -87.470742, 41.672835 ], [ -87.468013, 41.672432 ], [ -87.464178, 41.676876 ], [ -87.462655, 41.678177 ], [ -87.462222044514107, 41.678381125547702 ], [ -87.449914, 41.684184 ], [ -87.446803, 41.683212 ], [ -87.442558, 41.672508 ], [ -87.442767, 41.66783 ], [ -87.441558599742706, 41.666996065982097 ], [ -87.438033, 41.664563 ], [ -87.433639, 41.668144 ], [ -87.436267, 41.67131 ], [ -87.439336, 41.680131 ], [ -87.424877, 41.690073 ], [ -87.415816, 41.688183 ], [ -87.410873, 41.683992 ], [ -87.407927, 41.68027 ], [ -87.414493, 41.675749 ], [ -87.408736, 41.670285 ], [ -87.421152, 41.659516 ], [ -87.432354780601301, 41.656442483528799 ], [ -87.433799441804695, 41.656046136393002 ], [ -87.437033, 41.655159 ], [ -87.437104334008694, 41.654429246778697 ], [ -87.437146, 41.654003 ], [ -87.436416406403097, 41.653818568791898 ], [ -87.435172, 41.653504 ], [ -87.433114063004297, 41.649036018856997 ], [ -87.433103, 41.649012 ], [ -87.42984, 41.646035 ], [ -87.428139568858398, 41.645093626330002 ], [ -87.420828832050205, 41.641046337985699 ], [ -87.420765, 41.641011 ], [ -87.418548, 41.641869 ], [ -87.416725, 41.640903 ], [ -87.41154, 41.643695 ], [ -87.410326, 41.642515 ], [ -87.408392, 41.642637 ], [ -87.405822695828107, 41.641634856842302 ], [ -87.4057, 41.641587 ], [ -87.401692, 41.639324 ], [ -87.401554795773293, 41.639283930151002 ], [ -87.394771994815002, 41.637303045039701 ], [ -87.394539, 41.637235 ], [ -87.36886, 41.630039 ], [ -87.367032131794502, 41.629626471946303 ], [ -87.362865, 41.628686 ], [ -87.361887983156095, 41.628553031715498 ], [ -87.357787401701103, 41.627994958141898 ], [ -87.347398, 41.626581 ], [ -87.327913, 41.624945 ], [ -87.325609347586095, 41.624612283362502 ], [ -87.318649, 41.623607 ], [ -87.318574, 41.621175 ], [ -87.312105, 41.620692 ], [ -87.311047, 41.622086 ], [ -87.305976, 41.622281 ], [ -87.304431, 41.619494 ], [ -87.299023, 41.619093 ], [ -87.297774, 41.623273 ], [ -87.293491, 41.623677 ], [ -87.290709, 41.622992 ], [ -87.288969, 41.622457 ], [ -87.288813661912897, 41.621276577083798 ], [ -87.288757, 41.620846 ], [ -87.278402582994502, 41.620166115556302 ], [ -87.278081, 41.620145 ], [ -87.261634, 41.620523 ], [ -87.261479211968407, 41.620537479975702 ], [ -87.253970437899198, 41.621239904220502 ], [ -87.222642979727397, 41.6241704979427 ], [ -87.22066, 41.624356 ], [ -87.202784419724395, 41.627224519153003 ], [ -87.187651, 41.629653 ], [ -87.183540589616399, 41.630319870205 ], [ -87.179595, 41.63096 ], [ -87.177096, 41.631839 ], [ -87.176019, 41.633871 ], [ -87.175701, 41.634177 ], [ -87.174632, 41.634067 ], [ -87.162094, 41.635394 ], [ -87.161696, 41.635056 ], [ -87.161754, 41.631486 ], [ -87.158673, 41.631399 ], [ -87.158529, 41.640237 ], [ -87.158097, 41.641591 ], [ -87.150469, 41.641418 ], [ -87.150497, 41.63589 ], [ -87.147446, 41.635919 ], [ -87.147503, 41.645563 ], [ -87.146978883940605, 41.646142689608602 ], [ -87.146956, 41.646168 ], [ -87.144537624228903, 41.645863632096102 ], [ -87.144512648220996, 41.645860488707399 ], [ -87.142150159232699, 41.645563154508999 ], [ -87.141847, 41.645525 ], [ -87.130147, 41.64837 ], [ -87.128436638381004, 41.646383147705201 ], [ -87.128384, 41.646322 ], [ -87.120393, 41.647102 ], [ -87.120370195441595, 41.647106987662397 ], [ -87.09905, 41.65177 ], [ -87.077062851840694, 41.658479286661603 ], [ -87.067471873504303, 41.661405933744497 ], [ -87.066033, 41.661845 ], [ -87.027888, 41.674661 ], [ -87.009639742699605, 41.681520993022197 ], [ -86.994408, 41.687247 ], [ -86.963138, 41.699583 ], [ -86.943383, 41.7066 ], [ -86.933491, 41.709277 ], [ -86.932720325947798, 41.709524068823498 ], [ -86.922742, 41.712723 ], [ -86.9221945828575, 41.7139528638467 ], [ -86.921842, 41.714745 ], [ -86.916394, 41.716385 ], [ -86.913338, 41.722563 ], [ -86.910624, 41.724353 ], [ -86.910273803341198, 41.724958929292498 ], [ -86.90913, 41.726938 ], [ -86.890743, 41.732116 ], [ -86.875454937529895, 41.737929137505802 ], [ -86.875429, 41.737939 ], [ -86.858562690997204, 41.745372362128599 ], [ -86.858118361706801, 41.745568188051102 ], [ -86.844531798887701, 41.751556092191997 ], [ -86.837558828565406, 41.754629237212001 ], [ -86.824828, 41.76024 ], [ -86.824281702247205, 41.76024 ], [ -86.823628, 41.76024 ], [ -86.81607, 41.76024 ], [ -86.810592666666693, 41.76024 ], [ -86.804504, 41.76024 ], [ -86.804427, 41.76024 ], [ -86.801578, 41.76024 ], [ -86.800707, 41.76024 ], [ -86.800611, 41.760251 ], [ -86.800461766882705, 41.760250192950501 ], [ -86.780175565003603, 41.760140485603401 ], [ -86.748096, 41.759967 ], [ -86.746521, 41.759982 ], [ -86.746172681137196, 41.759980845936497 ], [ -86.722297795431501, 41.759901742740801 ], [ -86.699680881361203, 41.759826807505497 ], [ -86.668753496010396, 41.759724337694998 ], [ -86.641363820453904, 41.759633589161602 ], [ -86.641186, 41.759633 ], [ -86.640044, 41.759671 ], [ -86.583250926480403, 41.759565623788802 ], [ -86.572402000938396, 41.759545494244897 ], [ -86.524222859982004, 41.7594561006795 ], [ -86.519318, 41.759447 ], [ -86.501773, 41.759553 ], [ -86.474407130140705, 41.759628747020997 ], [ -86.455233752119099, 41.759681817735597 ], [ -86.426179310669497, 41.759762238617498 ], [ -86.414578214099194, 41.759794349729297 ], [ -86.360728102516106, 41.759943403479603 ], [ -86.350786703317695, 41.759970920652599 ], [ -86.341045998391607, 41.759997882316299 ], [ -86.331994795021004, 41.760022935482702 ], [ -86.323642125382193, 41.760046055151399 ], [ -86.313039433687507, 41.760075402740704 ], [ -86.303823452680604, 41.760100912001398 ], [ -86.272494406633996, 41.7601876288469 ], [ -86.272426803389493, 41.7601878159685 ], [ -86.265496, 41.760207 ], [ -86.246185940462098, 41.7601134520526 ], [ -86.241114628404404, 41.760088883985802 ], [ -86.226096888731306, 41.760016130262997 ], [ -86.22607, 41.760016 ], [ -86.21759, 41.760016 ], [ -86.217536802357699, 41.760016341428503 ], [ -86.178753691729, 41.760265255828301 ], [ -86.178673714895595, 41.760265769128701 ], [ -86.171810978332303, 41.7603098149498 ], [ -86.157226160453504, 41.760403421964 ], [ -86.127844, 41.760592 ], [ -86.12546, 41.76056 ], [ -86.12506, 41.760576 ], [ -86.108465101779998, 41.760563361233203 ], [ -86.108464460043393, 41.760563360744499 ], [ -86.088419807950999, 41.760548094626003 ], [ -86.062574988262796, 41.760528411067703 ], [ -86.041131697758104, 41.760512079738398 ], [ -86.041080952749198, 41.760512041090699 ], [ -86.041027, 41.760512 ], [ -86.004553173953695, 41.760099033402398 ], [ -85.995751324408602, 41.759999376463398 ], [ -85.991379405361201, 41.759949876404598 ], [ -85.991302, 41.759949 ], [ -85.97498, 41.759849 ], [ -85.974901, 41.759849 ], [ -85.974838724204105, 41.759848691066402 ], [ -85.942324478494797, 41.759687396595098 ], [ -85.926132694138005, 41.759607073486201 ], [ -85.897441135217903, 41.759464742340903 ], [ -85.888825, 41.759422 ], [ -85.888769075125495, 41.759421672409999 ], [ -85.878013779044494, 41.759358671326503 ], [ -85.874997, 41.759341 ], [ -85.872041, 41.759365 ], [ -85.8479128364486, 41.7592710928214 ], [ -85.819082186777507, 41.759158883495502 ], [ -85.791363, 41.759051 ], [ -85.791334842189201, 41.759051165593597 ], [ -85.790925732969797, 41.759053571528703 ], [ -85.775039, 41.759147 ], [ -85.774032873180502, 41.759144665884101 ], [ -85.750469, 41.75909 ], [ -85.749992, 41.759091 ], [ -85.737922986765099, 41.759088155547197 ], [ -85.728152395467205, 41.759085852791799 ], [ -85.724534, 41.759085 ], [ -85.718545009137301, 41.759086460808703 ], [ -85.682571, 41.759095235432802 ], [ -85.677241013058094, 41.759096535500099 ], [ -85.662640587666004, 41.759100096772499 ], [ -85.659750008000898, 41.759100801830101 ], [ -85.650738, 41.759103 ], [ -85.647683, 41.759125 ], [ -85.632714, 41.759164 ], [ -85.624987, 41.759093 ], [ -85.622608, 41.759049 ], [ -85.622241385628101, 41.759052692814002 ], [ -85.608312, 41.759193 ], [ -85.607548, 41.759079 ], [ -85.525756012581795, 41.7594765242454 ], [ -85.518449009409395, 41.759512037637499 ], [ -85.518251, 41.759513 ], [ -85.516001978161199, 41.759355018972101 ], [ -85.515959, 41.759352 ], [ -85.486638805644205, 41.759468595253502 ], [ -85.432471, 41.759684 ], [ -85.427553, 41.759706 ], [ -85.425605762801993, 41.7597127964289 ], [ -85.420612835045304, 41.759730223211001 ], [ -85.408749973497905, 41.759771628076798 ], [ -85.408748729964401, 41.759771632417099 ], [ -85.379133, 41.759875 ], [ -85.368309019753198, 41.759887334381297 ], [ -85.355024046120903, 41.759902473168196 ], [ -85.350174, 41.759908 ], [ -85.330623, 41.759982 ], [ -85.318129, 41.759983 ], [ -85.30814, 41.760097 ], [ -85.298365, 41.760028 ], [ -85.292177881350597, 41.759962830860097 ], [ -85.292099, 41.759962 ], [ -85.273713, 41.75977 ], [ -85.272951, 41.759911 ], [ -85.272216, 41.759999 ], [ -85.232835, 41.759839 ], [ -85.196773737420401, 41.759735392858502 ], [ -85.196637, 41.759735 ], [ -85.174892278521597, 41.759630762182397 ], [ -85.17223, 41.759618 ], [ -85.123102, 41.759743 ], [ -85.117267, 41.7597 ], [ -85.083974600200307, 41.759821909444099 ], [ -85.058539938470602, 41.759915045580001 ], [ -85.049166739338403, 41.759949368173203 ], [ -85.039436, 41.759985 ], [ -85.037893712058306, 41.759809718356202 ], [ -85.037817, 41.759801 ], [ -85.034157198648799, 41.759776512757398 ], [ -85.019776607488893, 41.759680294140601 ], [ -84.989844548498994, 41.759480022727402 ], [ -84.972803, 41.759366 ], [ -84.971551, 41.759527 ], [ -84.971377422091095, 41.759527434422601 ], [ -84.961562, 41.759552 ], [ -84.96086, 41.759438 ], [ -84.960603130398496, 41.7594402902456 ], [ -84.942467010250994, 41.759601991627001 ], [ -84.932484, 41.759691 ], [ -84.932383908809996, 41.759691278943301 ], [ -84.932373015924995, 41.759691309300599 ], [ -84.917722796020797, 41.759732137871801 ], [ -84.860134526572594, 41.759892630122202 ], [ -84.825196, 41.75999 ], [ -84.825129909657406, 41.759990721213597 ], [ -84.818873, 41.760059 ], [ -84.805883, 41.760216 ], [ -84.805883660690895, 41.760170986155401 ], [ -84.806134, 41.743115 ], [ -84.806074, 41.737603 ], [ -84.806065, 41.732909 ], [ -84.806042, 41.720544 ], [ -84.806018, 41.707485 ], [ -84.806008813451498, 41.702738477416197 ], [ -84.805996, 41.696118 ], [ -84.805972, 41.696118 ], [ -84.806049840978503, 41.689063906615601 ], [ -84.80621, 41.67455 ], [ -84.805933980494999, 41.652854969708898 ], [ -84.805673, 41.632342 ], [ -84.805696, 41.631398 ], [ -84.805773323094897, 41.619160953651402 ], [ -84.805790522635803, 41.616438978027297 ], [ -84.805812, 41.61304 ], [ -84.805448974317102, 41.585282111012297 ], [ -84.804881309091002, 41.541876949694498 ], [ -84.804729, 41.530231 ], [ -84.804729, 41.530134590664296 ], [ -84.804729, 41.530092 ], [ -84.804626110830696, 41.5129083526733 ], [ -84.804551, 41.500364 ], [ -84.804550872102794, 41.500347482209399 ], [ -84.804457, 41.488224 ], [ -84.804220586252598, 41.465069075106697 ], [ -84.804013529913902, 41.444789484673599 ], [ -84.803919, 41.435531 ], [ -84.803956, 41.426128 ], [ -84.803956340447698, 41.426044486439601 ], [ -84.804015, 41.411655 ], [ -84.804046, 41.408361 ], [ -84.804133, 41.408292 ], [ -84.803963715849804, 41.375307760241498 ], [ -84.803926, 41.367959 ], [ -84.803889667391303, 41.357756382222803 ], [ -84.803825861374094, 41.339838912825698 ], [ -84.803772810704402, 41.324941669684499 ], [ -84.803581690947397, 41.271273026028297 ], [ -84.803581, 41.271079 ], [ -84.803580596363602, 41.271023701818201 ], [ -84.80358, 41.270942 ], [ -84.803492147422403, 41.252561843108701 ], [ -84.803492, 41.252531 ], [ -84.803474842131706, 41.185064546163801 ], [ -84.803472, 41.173889 ], [ -84.803594, 41.173203 ], [ -84.803413, 41.164649 ], [ -84.803422041141403, 41.164054575744402 ], [ -84.803458875388102, 41.161632849483098 ], [ -84.80378, 41.14052 ], [ -84.803648032729498, 41.1359021123275 ], [ -84.803234, 41.121414 ], [ -84.803341019453001, 41.096866795177 ], [ -84.803374, 41.089302 ], [ -84.803366795267095, 41.077479978185202 ], [ -84.803325411866695, 41.009575245394203 ], [ -84.803313112722094, 40.989393962146401 ], [ -84.803313, 40.989209 ], [ -84.802936077902203, 40.922567577662903 ], [ -84.802935, 40.922377 ], [ -84.802808549283796, 40.902248029531201 ], [ -84.802384098106302, 40.834682060126198 ], [ -84.8022611069498, 40.815103797290902 ], [ -84.80217, 40.800601 ], [ -84.8024736320681, 40.771651992549799 ], [ -84.802538, 40.765515 ], [ -84.802323160184301, 40.747177 ], [ -84.802266, 40.742298 ], [ -84.802119, 40.728163 ], [ -84.802119110648704, 40.728145936904703 ], [ -84.802181, 40.718602 ], [ -84.802094, 40.702476 ], [ -84.802127, 40.691405 ], [ -84.802157, 40.689324 ], [ -84.802219937838004, 40.674790354487499 ], [ -84.80222, 40.674776 ], [ -84.802193080635504, 40.660341238556597 ], [ -84.802193, 40.660298 ], [ -84.802182694756894, 40.657554850877901 ], [ -84.802135, 40.644859 ], [ -84.802142830268096, 40.640483446208698 ], [ -84.802220756242804, 40.596938411523702 ], [ -84.802246858015494, 40.582352740947897 ], [ -84.802265, 40.572215 ], [ -84.802360110547795, 40.552944643188802 ], [ -84.802483, 40.528046 ], [ -84.802529020909006, 40.509180303602697 ], [ -84.802547, 40.50181 ], [ -84.8031485216558, 40.484715634393403 ], [ -84.8038280958923, 40.465403128609999 ], [ -84.803928, 40.462564 ], [ -84.804097840332801, 40.447523400112097 ], [ -84.804446097060506, 40.416682727497196 ], [ -84.804504, 40.411555 ], [ -84.804444336198102, 40.4024565026752 ], [ -84.804443777140193, 40.402371248515003 ], [ -84.804408512895904, 40.396993588653601 ], [ -84.804306280085498, 40.381403483370498 ], [ -84.804119, 40.352844 ], [ -84.804118588418405, 40.352756938265301 ], [ -84.8040750898748, 40.3435557042488 ], [ -84.803917, 40.310115 ], [ -84.803917509121803, 40.310093574693603 ], [ -84.804098, 40.302498 ], [ -84.804778166265294, 40.267426954746 ], [ -84.805624636608798, 40.223780862259702 ], [ -84.805627, 40.223659 ], [ -84.805627676217497, 40.223627331303298 ], [ -84.805884771544498, 40.2115870129226 ], [ -84.805944103791504, 40.208808358201303 ], [ -84.806089540353597, 40.201997256140402 ], [ -84.806164175077797, 40.198501954019001 ], [ -84.806175, 40.197995 ], [ -84.806332493883104, 40.192584846489403 ], [ -84.80634, 40.192327 ], [ -84.806347, 40.192252 ], [ -84.806387243132704, 40.1910875423847 ], [ -84.806764565648095, 40.1801695037759 ], [ -84.806766, 40.180128 ], [ -84.806790531311606, 40.179305983899503 ], [ -84.808291, 40.129027 ], [ -84.808305, 40.127018 ], [ -84.808706, 40.107216 ], [ -84.808706448290906, 40.107190656130498 ], [ -84.808885313607405, 40.097078606950603 ], [ -84.808963737892199, 40.092644934510098 ], [ -84.809086613819801, 40.085698213664202 ], [ -84.809737, 40.048929 ], [ -84.810099, 40.034214 ], [ -84.810932938795702, 40.005080089676198 ], [ -84.810932972432497, 40.005078914562702 ], [ -84.811212, 39.995331 ], [ -84.811536425274994, 39.972845781982898 ], [ -84.812189534538405, 39.927580183687503 ], [ -84.812193, 39.92734 ], [ -84.812357, 39.921764 ], [ -84.812411, 39.916916 ], [ -84.812577672680803, 39.902205248512097 ], [ -84.812696946395604, 39.8916779925163 ], [ -84.812698, 39.891585 ], [ -84.812787, 39.89083 ], [ -84.81305, 39.872958 ], [ -84.813464, 39.853261 ], [ -84.813549, 39.850773 ], [ -84.813558485726006, 39.850196267857299 ], [ -84.813558500361594, 39.850195378014902 ], [ -84.813674, 39.843173 ], [ -84.813703, 39.843059 ], [ -84.813755170040096, 39.833617382079098 ], [ -84.813772623864594, 39.830458627710399 ], [ -84.813782592322397, 39.828654558360199 ], [ -84.813793, 39.826771 ], [ -84.813852, 39.824621 ], [ -84.814178108485706, 39.8142403785073 ], [ -84.814179, 39.814212 ], [ -84.814177888819302, 39.814159002331102 ], [ -84.81412, 39.811398 ], [ -84.814209, 39.799755 ], [ -84.814179, 39.786853 ], [ -84.814189, 39.785569 ], [ -84.814188221291701, 39.784803101447501 ], [ -84.814146287515896, 39.743559136219602 ], [ -84.814129065322604, 39.726620248014498 ], [ -84.814129, 39.726556 ], [ -84.81453, 39.680429 ], [ -84.814619, 39.669174 ], [ -84.814323705388801, 39.655845837818397 ], [ -84.814323, 39.655814 ], [ -84.814352057620297, 39.653763231825302 ], [ -84.814578678021803, 39.6377692893522 ], [ -84.814705, 39.628854 ], [ -84.814734982585307, 39.6248317464282 ], [ -84.814801083710506, 39.615964082619897 ], [ -84.814952301554101, 39.595677756260002 ], [ -84.815115787244096, 39.573745661576297 ], [ -84.815121730557195, 39.572948348337803 ], [ -84.815156, 39.568351 ], [ -84.815036190657196, 39.567695326979901 ], [ -84.814955, 39.567251 ], [ -84.814955, 39.566251 ], [ -84.814967098526907, 39.565150034049701 ], [ -84.814971838018494, 39.564718740314397 ], [ -84.815148011832903, 39.548686923207001 ], [ -84.815155, 39.548051 ], [ -84.815355, 39.521951 ], [ -84.815555, 39.511052 ], [ -84.815555, 39.510952 ], [ -84.815570015614696, 39.508416700223101 ], [ -84.815741574605696, 39.479449956022201 ], [ -84.815754, 39.477352 ], [ -84.816634197570806, 39.433005895310401 ], [ -84.817451826443204, 39.3918121261244 ], [ -84.817452144203003, 39.391796116755401 ], [ -84.817453, 39.391753 ], [ -84.818447799509897, 39.348640306549903 ], [ -84.819352, 39.309454 ], [ -84.819451, 39.305152 ], [ -84.819596860439901, 39.276524116475002 ], [ -84.819622, 39.27159 ], [ -84.819623654235201, 39.270126001869201 ], [ -84.819626751514903, 39.267384909323702 ], [ -84.819631560221396, 39.263129204092202 ], [ -84.819633, 39.261855 ], [ -84.819772173243095, 39.255181458249901 ], [ -84.819851632888302, 39.251371262783799 ], [ -84.819856610252202, 39.251132591576699 ], [ -84.819859, 39.251018 ], [ -84.819815997747, 39.248636564889502 ], [ -84.819814281952006, 39.248541545344601 ], [ -84.819801, 39.247806 ], [ -84.819813, 39.244334 ], [ -84.820087208743601, 39.230774932387902 ], [ -84.820159, 39.227225 ], [ -84.820115332284303, 39.2187101624055 ], [ -84.820113749524296, 39.218401537507901 ], [ -84.820101547932595, 39.216022329654898 ], [ -84.819821755834795, 39.161465221774499 ], [ -84.819803752587106, 39.157954739762197 ], [ -84.819802, 39.157613 ], [ -84.819985, 39.149081 ], [ -84.819997601718896, 39.1458865375361 ], [ -84.820049723512398, 39.132673965901901 ], [ -84.820099806996296, 39.1199780939153 ], [ -84.820105636382493, 39.118500378415902 ], [ -84.820131253007006, 39.112006713023 ], [ -84.820157, 39.10548 ], [ -84.825259993528903, 39.103405636039803 ], [ -84.832435, 39.100489 ], [ -84.837255415717195, 39.097104351473398 ], [ -84.844582, 39.09196 ], [ -84.845762922810195, 39.090728623878803 ], [ -84.849825, 39.086493 ], [ -84.851644168681503, 39.085094296392001 ], [ -84.860689, 39.07814 ], [ -84.868026850170594, 39.074515559399799 ], [ -84.872978, 39.07207 ], [ -84.880662, 39.06997 ], [ -84.888873, 39.066376 ], [ -84.893203, 39.06248 ], [ -84.896911, 39.057474 ], [ -84.896881429942994, 39.056807474930601 ], [ -84.896869008154297, 39.056527481099799 ], [ -84.896777257734996, 39.054459377054897 ], [ -84.896754807891796, 39.053953345453202 ], [ -84.896726, 39.053304 ], [ -84.893164, 39.049041 ], [ -84.889186592967803, 39.042921463824001 ], [ -84.889102150840998, 39.042791543339199 ], [ -84.885659, 39.037494 ], [ -84.879115, 39.033695 ], [ -84.877912, 39.03198 ], [ -84.877364666868701, 39.031600247183498 ], [ -84.871824, 39.027756 ], [ -84.864509167167995, 39.019804734995297 ], [ -84.850607, 39.004693 ], [ -84.847736, 38.998008 ], [ -84.83983, 38.99129 ], [ -84.837736441128598, 38.988793952504302 ], [ -84.83712, 38.988059 ], [ -84.833473, 38.981522 ], [ -84.830619, 38.974898 ], [ -84.8305258740629, 38.974224242400098 ], [ -84.829857, 38.969385 ], [ -84.832617, 38.96146 ], [ -84.832851209731203, 38.961137742882599 ], [ -84.833676978968299, 38.960001538965699 ], [ -84.83516, 38.957961 ], [ -84.84016, 38.954571 ], [ -84.841053542261605, 38.953767459620799 ], [ -84.841538940506894, 38.953330953025798 ], [ -84.844161, 38.950973 ], [ -84.849317, 38.948265 ], [ -84.853011868273498, 38.943819468093103 ], [ -84.853742, 38.942941 ], [ -84.856610373368099, 38.940840293032402 ], [ -84.864731, 38.934893 ], [ -84.870759, 38.929231 ], [ -84.877762, 38.920357 ], [ -84.879268, 38.916116 ], [ -84.879231753269806, 38.915898117770297 ], [ -84.878817, 38.913405 ], [ -84.877029, 38.909016 ], [ -84.871158644496802, 38.901681668801402 ], [ -84.870571071042093, 38.900947563632101 ], [ -84.870124, 38.900389 ], [ -84.867778, 38.899133 ], [ -84.860759, 38.897654 ], [ -84.860056963539407, 38.897644774572903 ], [ -84.830472, 38.897256 ], [ -84.8286487953104, 38.896961382839102 ], [ -84.816938, 38.895069 ], [ -84.812746, 38.895132 ], [ -84.8010842885177, 38.891342107045297 ], [ -84.800247, 38.89107 ], [ -84.792482, 38.886743 ], [ -84.786406, 38.88222 ], [ -84.785234, 38.880439 ], [ -84.784579, 38.87532 ], [ -84.785799, 38.869496 ], [ -84.788302, 38.864325 ], [ -84.791002, 38.860572 ], [ -84.793714, 38.857788 ], [ -84.794833214254894, 38.857196668042803 ], [ -84.798459, 38.855281 ], [ -84.803247, 38.850723 ], [ -84.817169, 38.84342 ], [ -84.822702837774401, 38.8396461978109 ], [ -84.823363, 38.839196 ], [ -84.827488, 38.834909 ], [ -84.829958, 38.830632 ], [ -84.829955135609794, 38.830424053230601 ], [ -84.829886, 38.825405 ], [ -84.827098, 38.818634 ], [ -84.816506, 38.80532 ], [ -84.811645, 38.792766 ], [ -84.811752, 38.789169 ], [ -84.812877, 38.786087 ], [ -84.813162623446203, 38.785828093032599 ], [ -84.814641, 38.784488 ], [ -84.821378, 38.783111 ], [ -84.828857, 38.783271 ], [ -84.837808, 38.784906 ], [ -84.852866, 38.789382 ], [ -84.861989, 38.791086 ], [ -84.876832593807507, 38.792466867412401 ], [ -84.877221, 38.792503 ], [ -84.887285, 38.794776 ], [ -84.89393, 38.793704 ], [ -84.896437935835195, 38.792731168918998 ], [ -84.903435, 38.790017 ], [ -84.908147082795097, 38.7876483786713 ], [ -84.915234, 38.784086 ], [ -84.926422, 38.780479 ], [ -84.932977, 38.777519 ], [ -84.943641, 38.775427 ], [ -84.947953, 38.775489 ], [ -84.962255, 38.778177 ], [ -84.979995, 38.779584 ], [ -84.990109559485006, 38.778696475378702 ], [ -84.991927, 38.778537 ], [ -84.993085581367396, 38.7779850057359 ], [ -84.999949, 38.774715 ], [ -85.010986, 38.767032 ], [ -85.023425377020899, 38.762102680894003 ], [ -85.033173125239102, 38.7582399664308 ], [ -85.040938, 38.755163 ], [ -85.0524, 38.74814 ], [ -85.055776283393101, 38.746839966185597 ], [ -85.059677, 38.745338 ], [ -85.063656275386606, 38.744113132847701 ], [ -85.071928, 38.741567 ], [ -85.079537, 38.736902 ], [ -85.094422774356502, 38.729218940496203 ], [ -85.097728, 38.727513 ], [ -85.101405, 38.726551 ], [ -85.106979, 38.72163 ], [ -85.106902, 38.720789 ], [ -85.113772913394797, 38.716320433124302 ], [ -85.125238, 38.708864 ], [ -85.127917341279399, 38.706503703505597 ], [ -85.13199, 38.702916 ], [ -85.136697, 38.700236 ], [ -85.156158, 38.692251 ], [ -85.173048, 38.688022 ], [ -85.176567, 38.688463 ], [ -85.178634337324198, 38.688312311948501 ], [ -85.180124048735706, 38.688203727003398 ], [ -85.18864, 38.687583 ], [ -85.192114, 38.689093 ], [ -85.201451687015293, 38.691052361258897 ], [ -85.2045, 38.691692 ], [ -85.213257, 38.695446 ], [ -85.221124, 38.700957 ], [ -85.22623, 38.705867 ], [ -85.235087, 38.718002 ], [ -85.246264696819196, 38.731530165383099 ], [ -85.246505, 38.731821 ], [ -85.248743275648394, 38.732891291924503 ], [ -85.258946, 38.73777 ], [ -85.268495, 38.740165 ], [ -85.278764, 38.741645 ], [ -85.289267, 38.742357 ], [ -85.295900927164496, 38.742021957346502 ], [ -85.305325, 38.741546 ], [ -85.333090533900403, 38.736201928374001 ], [ -85.33375, 38.736075 ], [ -85.336403, 38.734928 ], [ -85.337036282328896, 38.734795540548703 ], [ -85.348953, 38.732303 ], [ -85.363381780178401, 38.7306749601779 ], [ -85.365216, 38.730468 ], [ -85.367025, 38.731007 ], [ -85.369853214601093, 38.730706367264702 ], [ -85.369902606522501, 38.730701117016601 ], [ -85.372265, 38.73045 ], [ -85.384338657543296, 38.732892685692498 ], [ -85.397450760370901, 38.735545464757998 ], [ -85.397834, 38.735623 ], [ -85.410238, 38.737135 ], [ -85.41954, 38.735513 ], [ -85.423418, 38.733835 ], [ -85.425351, 38.732983 ], [ -85.436299, 38.728484 ], [ -85.442271, 38.71985 ], [ -85.443182121430098, 38.7189381877157 ], [ -85.450184, 38.711931 ], [ -85.450945, 38.708882 ], [ -85.452051628224694, 38.708344316229798 ], [ -85.452361, 38.708194 ], [ -85.456755, 38.692252 ], [ -85.456481, 38.685069 ], [ -85.455486, 38.68209 ], [ -85.454439686173799, 38.680912688584897 ], [ -85.444815, 38.670083 ], [ -85.438742, 38.659319 ], [ -85.438376356002195, 38.6555238046803 ], [ -85.437738, 38.648898 ], [ -85.438142299920102, 38.6458297737653 ], [ -85.439463, 38.635807 ], [ -85.439729, 38.611493 ], [ -85.439284, 38.607406 ], [ -85.4363, 38.59839 ], [ -85.433993330013095, 38.594786967903197 ], [ -85.428593496857701, 38.586352396730597 ], [ -85.418971, 38.571322 ], [ -85.415821, 38.563558 ], [ -85.415817867811199, 38.562864178975097 ], [ -85.415745, 38.546723 ], [ -85.417047, 38.541726 ], [ -85.422441, 38.532931 ], [ -85.428742, 38.527073 ], [ -85.433248944954101, 38.524682375804197 ], [ -85.438436, 38.521931 ], [ -85.458554, 38.514678 ], [ -85.466864, 38.51084 ], [ -85.467150877096003, 38.510591639453502 ], [ -85.473200140815706, 38.505354558962097 ], [ -85.475124, 38.503689 ], [ -85.479472, 38.494533 ], [ -85.481246, 38.488374 ], [ -85.482897, 38.485701 ], [ -85.488837494054096, 38.478036543214003 ], [ -85.491422, 38.474702 ], [ -85.498866, 38.468242 ], [ -85.509396, 38.463492 ], [ -85.515641098169496, 38.461115851934203 ], [ -85.524787, 38.457636 ], [ -85.538207, 38.455214 ], [ -85.541960670551404, 38.454788936461497 ], [ -85.552407, 38.453606 ], [ -85.56251, 38.453325 ], [ -85.566225, 38.452794 ], [ -85.574912, 38.452575 ], [ -85.586033, 38.450092 ], [ -85.597104, 38.445102 ], [ -85.604457, 38.44082 ], [ -85.609712, 38.434817 ], [ -85.618281, 38.426353 ], [ -85.6205635829144, 38.422591363154503 ], [ -85.620724, 38.422327 ], [ -85.620543, 38.420428 ], [ -85.622113323087504, 38.416814026326101 ], [ -85.624063, 38.412327 ], [ -85.629961, 38.402306 ], [ -85.632937, 38.395666 ], [ -85.632940701180601, 38.395654422159801 ], [ -85.633684546676193, 38.393327563473903 ], [ -85.635089934985004, 38.388931301061199 ], [ -85.635664696619102, 38.387133361692698 ], [ -85.636928603228696, 38.3831796749528 ], [ -85.637232434948501, 38.382229244412599 ], [ -85.637683964627001, 38.380816792821101 ], [ -85.637861, 38.380263 ], [ -85.637863602476898, 38.380246233645899 ], [ -85.638365, 38.377016 ], [ -85.638387015609197, 38.376096830731797 ], [ -85.638396735052694, 38.375691036200699 ], [ -85.638424648670295, 38.3745256203729 ], [ -85.638671912450505, 38.364202160054901 ], [ -85.638678, 38.363948 ], [ -85.642310317355594, 38.352383532226099 ], [ -85.64431, 38.346017 ], [ -85.644351246150606, 38.345927684016097 ], [ -85.645030385221105, 38.344457050432098 ], [ -85.646307669102399, 38.341691171315802 ], [ -85.650965024103598, 38.331605957586802 ], [ -85.651364, 38.330742 ], [ -85.654097831323298, 38.326020301349999 ], [ -85.655355, 38.323849 ], [ -85.659387878926793, 38.319895144900698 ], [ -85.659897, 38.319396 ], [ -85.666871923961196, 38.3117798834773 ], [ -85.667925, 38.31063 ], [ -85.673567, 38.302325 ], [ -85.675796660187203, 38.300795427232003 ], [ -85.676951673305197, 38.300003074826797 ], [ -85.683561, 38.295469 ], [ -85.699373072391694, 38.287851354191801 ], [ -85.703989579280105, 38.285627299464799 ], [ -85.704659855237097, 38.285304386395097 ], [ -85.7051206290256, 38.2850824033791 ], [ -85.716014533283399, 38.2798341410357 ], [ -85.732533023048703, 38.271876170619002 ], [ -85.735436471603606, 38.270477401237898 ], [ -85.740857, 38.267866 ], [ -85.744680958900105, 38.267253441654802 ], [ -85.744696922449805, 38.267250884460601 ], [ -85.745077, 38.26719 ], [ -85.750655458497107, 38.267894500541701 ], [ -85.751199552946602, 38.267963213938899 ], [ -85.751475, 38.267998 ], [ -85.760933, 38.271977 ], [ -85.761395868757802, 38.272374328503403 ], [ -85.767162, 38.277324 ], [ -85.765898, 38.279082 ], [ -85.765991, 38.280344 ], [ -85.771407, 38.284105 ], [ -85.772268, 38.285587 ], [ -85.777376, 38.286546 ], [ -85.777392451960907, 38.286554696873402 ], [ -85.779514667033695, 38.287676547076103 ], [ -85.781027, 38.288476 ], [ -85.786904, 38.288533 ], [ -85.791078502945695, 38.287761703343797 ], [ -85.793231, 38.287364 ], [ -85.79727, 38.285697 ], [ -85.802395005260095, 38.284809783918902 ], [ -85.802410897711297, 38.284807032694701 ], [ -85.803809, 38.284565 ], [ -85.817399, 38.282387 ], [ -85.817810283974495, 38.282243831892799 ], [ -85.823708271932205, 38.280190740052198 ], [ -85.824532, 38.279904 ], [ -85.829216, 38.276508 ], [ -85.8321249854001, 38.271813955376999 ], [ -85.834033404041804, 38.268734461659697 ], [ -85.836168, 38.26529 ], [ -85.836627525855604, 38.263392258659103 ], [ -85.837632, 38.259244 ], [ -85.837625729528796, 38.2589991605902 ], [ -85.8374185010925, 38.250907633373799 ], [ -85.837395, 38.24999 ], [ -85.838253551661396, 38.2447956612043 ], [ -85.839091, 38.239729 ], [ -85.842902183640007, 38.233474768397201 ], [ -85.844381, 38.231048 ], [ -85.845355110511306, 38.229936021773099 ], [ -85.852358, 38.221942 ], [ -85.856202918928503, 38.219517504483299 ], [ -85.865840447196803, 38.213440355780499 ], [ -85.871945, 38.209591 ], [ -85.880264, 38.203369 ], [ -85.893544, 38.189015 ], [ -85.894892066637695, 38.187073883231399 ], [ -85.899547448542293, 38.180370475828198 ], [ -85.903873, 38.174142 ], [ -85.907965, 38.161473 ], [ -85.909133, 38.144387 ], [ -85.908752, 38.133793 ], [ -85.906082305164702, 38.116885676771801 ], [ -85.905164, 38.11107 ], [ -85.904226, 38.099802 ], [ -85.905266, 38.088933 ], [ -85.906411119935598, 38.086293957275899 ], [ -85.907719627870307, 38.0832783706662 ], [ -85.912006, 38.0734 ], [ -85.913839, 38.071961 ], [ -85.915365780527594, 38.065156467236697 ], [ -85.916315, 38.060926 ], [ -85.918912, 38.041195 ], [ -85.921275, 38.03032 ], [ -85.925654, 38.021784 ], [ -85.931221, 38.016018 ], [ -85.939609, 38.009821 ], [ -85.942216, 38.007267 ], [ -85.947114, 38.005085 ], [ -85.954638, 38.004657 ], [ -85.972918, 38.002574 ], [ -85.977423, 38.003388 ], [ -85.999007096630706, 37.999982801072498 ], [ -86.004045, 37.999188 ], [ -86.018451, 37.996528 ], [ -86.025561, 37.994505 ], [ -86.029509, 37.99264 ], [ -86.030712712461394, 37.9916067355012 ], [ -86.032468, 37.9901 ], [ -86.035103, 37.984358 ], [ -86.035432, 37.98136 ], [ -86.033578, 37.970231 ], [ -86.034267266697796, 37.965254441216402 ], [ -86.034355, 37.964621 ], [ -86.036013, 37.961703 ], [ -86.03819, 37.959588 ], [ -86.042307, 37.958171 ], [ -86.046736, 37.958995 ], [ -86.050029, 37.9605 ], [ -86.057997, 37.967671 ], [ -86.064859, 37.975618 ], [ -86.068000479110793, 37.980661819239003 ], [ -86.069899, 37.98371 ], [ -86.075932, 37.995493 ], [ -86.075463, 37.997183 ], [ -86.079389, 38.000625 ], [ -86.079404269421701, 38.000634457728701 ], [ -86.086341, 38.004931 ], [ -86.099063718423395, 38.010423765678603 ], [ -86.104167, 38.012627 ], [ -86.117523, 38.015441 ], [ -86.1283, 38.016192 ], [ -86.133309527498298, 38.015823129857601 ], [ -86.147897, 38.014749 ], [ -86.152485, 38.013016 ], [ -86.165313, 38.009867 ], [ -86.169367286962597, 38.009997888133 ], [ -86.176557, 38.01023 ], [ -86.188476805801898, 38.015379488825197 ], [ -86.190927, 38.016438 ], [ -86.196463775153006, 38.0186204382318 ], [ -86.2013240218796, 38.020536208328899 ], [ -86.206110992845595, 38.022423095219203 ], [ -86.220711, 38.028178 ], [ -86.223328, 38.031516 ], [ -86.233448, 38.03818 ], [ -86.233339, 38.039625 ], [ -86.24693, 38.044679 ], [ -86.252728859713699, 38.0477539105216 ], [ -86.259256, 38.051215 ], [ -86.267203, 38.056798 ], [ -86.271383, 38.061957 ], [ -86.272628094341997, 38.065060401890101 ], [ -86.273584, 38.067443 ], [ -86.277704, 38.082481 ], [ -86.279025086484097, 38.099773416421399 ], [ -86.2791, 38.100754 ], [ -86.277907300633501, 38.1050142787429 ], [ -86.275362, 38.114106 ], [ -86.270269, 38.129783 ], [ -86.270605, 38.135779 ], [ -86.272847, 38.140835 ], [ -86.277128855507797, 38.145969744205601 ], [ -86.28711, 38.157939 ], [ -86.29574, 38.164069 ], [ -86.317139, 38.172907 ], [ -86.329672384454994, 38.181701846154297 ], [ -86.333479, 38.184373 ], [ -86.342660640169996, 38.191450661883202 ], [ -86.347736, 38.195363 ], [ -86.357717, 38.198807 ], [ -86.358005289197806, 38.198762756577601 ], [ -86.367504, 38.197305 ], [ -86.373801, 38.193352 ], [ -86.375246184833898, 38.190857976425697 ], [ -86.378151, 38.185845 ], [ -86.378579, 38.178572 ], [ -86.377434, 38.171379 ], [ -86.37174, 38.164183 ], [ -86.366055, 38.161531 ], [ -86.357551, 38.159907 ], [ -86.344856, 38.158967 ], [ -86.328028, 38.154786 ], [ -86.323933, 38.152374 ], [ -86.321191, 38.147005 ], [ -86.323847, 38.138412 ], [ -86.329111, 38.131999 ], [ -86.333665, 38.129235 ], [ -86.340556, 38.127737 ], [ -86.352466, 38.128459 ], [ -86.375324, 38.130629 ], [ -86.379775, 38.129274 ], [ -86.387808, 38.124392 ], [ -86.39184, 38.117148 ], [ -86.396146, 38.107152 ], [ -86.401879, 38.104329 ], [ -86.405068, 38.105801 ], [ -86.4173328959006, 38.116345653895799 ], [ -86.418201, 38.117092 ], [ -86.426541006139701, 38.123114602317301 ], [ -86.429541, 38.125281 ], [ -86.439688, 38.127412 ], [ -86.449793, 38.127223 ], [ -86.457115, 38.124531 ], [ -86.4610337136873, 38.121174567096098 ], [ -86.463248, 38.119278 ], [ -86.466081, 38.114437 ], [ -86.466217, 38.106781 ], [ -86.463858, 38.101177 ], [ -86.458833, 38.096006 ], [ -86.449994, 38.092031 ], [ -86.447455, 38.091794 ], [ -86.434046, 38.086763 ], [ -86.431354, 38.083466 ], [ -86.430091, 38.078638 ], [ -86.432789, 38.067171 ], [ -86.433235971709905, 38.066617516580997 ], [ -86.438236, 38.060426 ], [ -86.452192, 38.05049 ], [ -86.462085, 38.047532 ], [ -86.471903, 38.046218 ], [ -86.480393, 38.045578 ], [ -86.490769378739103, 38.045672484270703 ], [ -86.500051, 38.045757 ], [ -86.51176, 38.044448 ], [ -86.517289, 38.042634 ], [ -86.519404, 38.041241 ], [ -86.521825, 38.038327 ], [ -86.524684678127102, 38.028823845715102 ], [ -86.524873082380097, 38.028197749138897 ], [ -86.524969, 38.027879 ], [ -86.524385, 38.018609 ], [ -86.524656, 38.012894 ], [ -86.525671, 38.007145 ], [ -86.525844, 37.998385 ], [ -86.524888, 37.981834 ], [ -86.525174, 37.968228 ], [ -86.523831, 37.962169 ], [ -86.520503, 37.954438 ], [ -86.518575, 37.951798 ], [ -86.512588, 37.94695 ], [ -86.50939, 37.942492 ], [ -86.507043, 37.936439 ], [ -86.50662, 37.930719 ], [ -86.507831, 37.928829 ], [ -86.511005, 37.92612 ], [ -86.51924, 37.922163 ], [ -86.5261487431668, 37.919453464152397 ], [ -86.528279, 37.918618 ], [ -86.534156, 37.917007 ], [ -86.540722, 37.916871 ], [ -86.548507, 37.917842 ], [ -86.566256, 37.922164 ], [ -86.580322, 37.923145 ], [ -86.586542, 37.922285 ], [ -86.588581, 37.921159 ], [ -86.596125, 37.914289 ], [ -86.598452, 37.910965 ], [ -86.599848, 37.906754 ], [ -86.600096, 37.901218 ], [ -86.598151, 37.884553 ], [ -86.598317, 37.88042 ], [ -86.59939, 37.874753 ], [ -86.597476, 37.871478 ], [ -86.59732, 37.870162 ], [ -86.598108, 37.867382 ], [ -86.603814896758095, 37.8594032048087 ], [ -86.604624, 37.858272 ], [ -86.609163, 37.855408 ], [ -86.615215, 37.852857 ], [ -86.625763, 37.847266 ], [ -86.633506378941405, 37.844152448124298 ], [ -86.634271, 37.843845 ], [ -86.638265, 37.842718 ], [ -86.648028, 37.841425 ], [ -86.652516, 37.841636 ], [ -86.655296, 37.842508 ], [ -86.658268, 37.844144 ], [ -86.661637, 37.849714 ], [ -86.662495, 37.856951 ], [ -86.661233, 37.862761 ], [ -86.658374, 37.869376 ], [ -86.648727, 37.886036 ], [ -86.644754, 37.894806 ], [ -86.644039, 37.898202 ], [ -86.644143, 37.902366 ], [ -86.645513, 37.906529 ], [ -86.647081, 37.908621 ], [ -86.650087, 37.910616 ], [ -86.660888, 37.913059 ], [ -86.672371805034302, 37.914801891891599 ], [ -86.673038, 37.914903 ], [ -86.680929, 37.91501 ], [ -86.686015, 37.913084 ], [ -86.691994, 37.908529 ], [ -86.703457805895795, 37.901166138445603 ], [ -86.707816, 37.898367 ], [ -86.712103297332405, 37.896154832883298 ], [ -86.716138, 37.894073 ], [ -86.718462, 37.893123 ], [ -86.720339536111297, 37.892887377898802 ], [ -86.722247, 37.892648 ], [ -86.73146, 37.89434 ], [ -86.734718, 37.896587 ], [ -86.737672361357397, 37.899547534432998 ], [ -86.745607294932995, 37.907499047884599 ], [ -86.75099, 37.912893 ], [ -86.755265062103803, 37.918963749933098 ], [ -86.756630779295406, 37.920903120016597 ], [ -86.764734, 37.93241 ], [ -86.765411488335104, 37.933478990319003 ], [ -86.774029847500898, 37.947077663589702 ], [ -86.774705790886799, 37.948144216175599 ], [ -86.775508, 37.94941 ], [ -86.776187359209203, 37.950342943484003 ], [ -86.777174619827903, 37.9516987186745 ], [ -86.779915, 37.955462 ], [ -86.778569, 37.957298 ], [ -86.779260200608903, 37.958378032187802 ], [ -86.781335, 37.96162 ], [ -86.787168, 37.968801 ], [ -86.790509, 37.980046 ], [ -86.7938, 37.986541 ], [ -86.79551, 37.989453 ], [ -86.800136486467807, 37.991289273354099 ], [ -86.803134, 37.992479 ], [ -86.804925484785699, 37.993554719942701 ], [ -86.805059501408905, 37.9936351919374 ], [ -86.810913, 37.99715 ], [ -86.813484707474601, 37.998170059441598 ], [ -86.8146776831273, 37.9986432493709 ], [ -86.815267, 37.998877 ], [ -86.820071, 37.999392 ], [ -86.823491, 37.998939 ], [ -86.835161, 37.99375 ], [ -86.849027, 37.99002 ], [ -86.85595, 37.987292 ], [ -86.863224, 37.982495 ], [ -86.869029, 37.976894 ], [ -86.875874, 37.97077 ], [ -86.879364, 37.969268 ], [ -86.88648, 37.963069 ], [ -86.89029, 37.957426 ], [ -86.901983, 37.946448 ], [ -86.907260602392498, 37.9433267676648 ], [ -86.909318, 37.94211 ], [ -86.917949, 37.93724 ], [ -86.925825, 37.935109 ], [ -86.933357, 37.934939 ], [ -86.944633, 37.933534 ], [ -86.964785, 37.932384 ], [ -86.968004, 37.932996 ], [ -86.978833920353594, 37.9302314188525 ], [ -86.978957, 37.9302 ], [ -87.003301, 37.922395 ], [ -87.012373, 37.918708 ], [ -87.018056338731, 37.915463022996803 ], [ -87.034166, 37.906265 ], [ -87.036684768809806, 37.904143975739601 ], [ -87.040163, 37.901215 ], [ -87.045205, 37.894332 ], [ -87.046146, 37.89154 ], [ -87.045961031400694, 37.8886289465676 ], [ -87.045894, 37.887574 ], [ -87.045641358613494, 37.886971373323597 ], [ -87.04422, 37.883581 ], [ -87.043407, 37.87994 ], [ -87.043084784028906, 37.875537881803098 ], [ -87.043049, 37.875049 ], [ -87.042944, 37.87181 ], [ -87.043285, 37.868552 ], [ -87.04751, 37.858753 ], [ -87.051555, 37.845614 ], [ -87.054463996597505, 37.835317780490897 ], [ -87.056664, 37.827531 ], [ -87.05958, 37.822203 ], [ -87.062069, 37.814177 ], [ -87.068050840178799, 37.804217228237597 ], [ -87.069675, 37.801513 ], [ -87.077132267478603, 37.795611021309199 ], [ -87.079044, 37.794098 ], [ -87.089279, 37.787862 ], [ -87.096034, 37.785259 ], [ -87.098618095771798, 37.784757677827102 ], [ -87.099222783560094, 37.7846403666193 ], [ -87.109648529993095, 37.782617741176097 ], [ -87.1096552982481, 37.7826164281147 ], [ -87.111008, 37.782354 ], [ -87.118594, 37.782816 ], [ -87.122707403658296, 37.783877558937199 ], [ -87.126088, 37.78475 ], [ -87.128094240745099, 37.785802695652102 ], [ -87.128922910537099, 37.786237507420999 ], [ -87.129629, 37.786608 ], [ -87.134204, 37.792943 ], [ -87.13398, 37.795116 ], [ -87.135388, 37.797845 ], [ -87.135476, 37.801878 ], [ -87.137041, 37.807187 ], [ -87.141506, 37.816317 ], [ -87.1435192873831, 37.819017124239103 ], [ -87.148030394652096, 37.8250672044136 ], [ -87.152163798068997, 37.830610726341803 ], [ -87.153486, 37.832384 ], [ -87.156263, 37.835927 ], [ -87.162319, 37.840159 ], [ -87.164747, 37.841353 ], [ -87.17036, 37.842197 ], [ -87.175836, 37.841017 ], [ -87.203869, 37.844489 ], [ -87.211752, 37.846599 ], [ -87.220342, 37.849081 ], [ -87.234595, 37.857223 ], [ -87.249479, 37.864989 ], [ -87.256469, 37.868398 ], [ -87.267977, 37.877434 ], [ -87.269021858297293, 37.877974034598502 ], [ -87.27317, 37.880118 ], [ -87.280416, 37.885642 ], [ -87.298315, 37.895923 ], [ -87.3029438543916, 37.897706665081998 ], [ -87.304398, 37.898267 ], [ -87.319754, 37.905524 ], [ -87.333539, 37.908338 ], [ -87.335856, 37.907403 ], [ -87.344933, 37.911164 ], [ -87.352738, 37.916091 ], [ -87.356336, 37.919722 ], [ -87.357765, 37.920367 ], [ -87.361368, 37.920816 ], [ -87.363674, 37.922241 ], [ -87.370522, 37.928234 ], [ -87.37341, 37.931158 ], [ -87.373442013905404, 37.931961325673797 ], [ -87.373453, 37.932237 ], [ -87.385434, 37.93767 ], [ -87.391170985866395, 37.939061724625397 ], [ -87.391425860537595, 37.939123554193102 ], [ -87.395789, 37.940182 ], [ -87.396826875473096, 37.940584500629299 ], [ -87.402238, 37.942683 ], [ -87.403421914848593, 37.9428998784214 ], [ -87.404376042445605, 37.943074662686698 ], [ -87.413325, 37.944714 ], [ -87.414074095626603, 37.944686599125397 ], [ -87.423211866568295, 37.944352352192801 ], [ -87.424151, 37.944318 ], [ -87.428307, 37.945047 ], [ -87.437801, 37.944223 ], [ -87.447786, 37.942427 ], [ -87.450458, 37.941451 ], [ -87.451170598101598, 37.941083673096003 ], [ -87.465514, 37.93369 ], [ -87.469653857981498, 37.930895620312398 ], [ -87.480680431064997, 37.923452748603701 ], [ -87.482446, 37.922261 ], [ -87.49689, 37.911167 ], [ -87.505363230790394, 37.907617889736898 ], [ -87.507483, 37.90673 ], [ -87.511499, 37.906426 ], [ -87.520284, 37.912618 ], [ -87.531532, 37.916298 ], [ -87.548147654748405, 37.923972589582498 ], [ -87.548474813287399, 37.924123700541003 ], [ -87.551277, 37.925418 ], [ -87.556567, 37.928606 ], [ -87.56207, 37.933291 ], [ -87.568297, 37.940633 ], [ -87.572146, 37.946634 ], [ -87.573121525549297, 37.9499824797469 ], [ -87.5731926441876, 37.950226593620002 ], [ -87.573605, 37.951642 ], [ -87.576988, 37.952287 ], [ -87.574494, 37.957212 ], [ -87.5741, 37.962108 ], [ -87.575330706564003, 37.966391674780802 ], [ -87.575729, 37.967778 ], [ -87.579181, 37.971533 ], [ -87.584545, 37.974657 ], [ -87.588144833995599, 37.975192572235599 ], [ -87.590023, 37.975472 ], [ -87.596171, 37.97486 ], [ -87.600705720150003, 37.971874908394398 ], [ -87.601573, 37.971304 ], [ -87.603298, 37.967287 ], [ -87.603305548280503, 37.966929680722998 ], [ -87.603446, 37.960281 ], [ -87.60559, 37.950144 ], [ -87.607905, 37.946974 ], [ -87.610606868306604, 37.944831100761299 ], [ -87.615228, 37.941166 ], [ -87.619049, 37.938517 ], [ -87.617615, 37.937062 ], [ -87.618734, 37.933928 ], [ -87.621411, 37.931315 ], [ -87.623389596501497, 37.930447347275802 ], [ -87.625274, 37.929621 ], [ -87.627892, 37.922253 ], [ -87.625592, 37.916028 ], [ -87.622445, 37.912115 ], [ -87.620795, 37.907676 ], [ -87.61179, 37.901404 ], [ -87.607707, 37.899361 ], [ -87.601967, 37.895722 ], [ -87.597118, 37.892394 ], [ -87.588973429962905, 37.886242102656098 ], [ -87.587141, 37.884858 ], [ -87.584231650249507, 37.879064941066801 ], [ -87.583737, 37.87808 ], [ -87.583925, 37.872485 ], [ -87.586304, 37.872493 ], [ -87.586392, 37.870542 ], [ -87.588036, 37.868984 ], [ -87.589202, 37.863745 ], [ -87.590468, 37.863126 ], [ -87.591457, 37.860369 ], [ -87.590274, 37.85858 ], [ -87.596083, 37.85116 ], [ -87.597859, 37.847737 ], [ -87.599210903482501, 37.846650498154801 ], [ -87.6009, 37.845293 ], [ -87.606599, 37.838669 ], [ -87.607176168878595, 37.838190683797002 ], [ -87.612426, 37.83384 ], [ -87.615004146984006, 37.832221829037302 ], [ -87.615399, 37.831974 ], [ -87.625014, 37.829077 ], [ -87.635806, 37.827015 ], [ -87.636339029921103, 37.826955821588498 ], [ -87.637402648384295, 37.826837735814102 ], [ -87.645858, 37.825899 ], [ -87.655171, 37.826037 ], [ -87.666522, 37.827455 ], [ -87.672397, 37.829127 ], [ -87.675538, 37.831732 ], [ -87.679188, 37.836321 ], [ -87.680689, 37.84062 ], [ -87.6819, 37.84641 ], [ -87.681633, 37.855917 ], [ -87.6754, 37.865946 ], [ -87.666817, 37.879851 ], [ -87.664382, 37.886736 ], [ -87.664331, 37.88907 ], [ -87.665259, 37.892851 ], [ -87.66684, 37.895763 ], [ -87.671762, 37.899802 ], [ -87.679131, 37.902951 ], [ -87.6834, 37.903599 ], [ -87.684636740585603, 37.9034129296844 ], [ -87.687049, 37.90305 ], [ -87.700711938900895, 37.897757389451399 ], [ -87.710675, 37.893898 ], [ -87.723635, 37.892058 ], [ -87.7278121481949, 37.8930468582587 ], [ -87.7333, 37.894346 ], [ -87.738125, 37.894698 ], [ -87.755916948623096, 37.891818970955697 ], [ -87.762591, 37.890739 ], [ -87.781728, 37.878815 ], [ -87.786407, 37.876556 ], [ -87.795185, 37.875273 ], [ -87.807541, 37.875234 ], [ -87.815732405560297, 37.875672825297897 ], [ -87.829773, 37.876425 ], [ -87.83886, 37.880171 ], [ -87.846443, 37.887992 ], [ -87.846489, 37.893534 ], [ -87.857243, 37.900649 ], [ -87.861659, 37.909475 ], [ -87.866094, 37.915171 ], [ -87.871586501851198, 37.920136916970101 ], [ -87.87254, 37.920999 ], [ -87.877325, 37.924034 ], [ -87.883321, 37.926238 ], [ -87.888444582385105, 37.927185442775503 ], [ -87.892471, 37.92793 ], [ -87.894362927725496, 37.927789230560897 ], [ -87.898062, 37.927514 ], [ -87.904789, 37.924892 ], [ -87.906535671207095, 37.9231399718538 ], [ -87.921744, 37.907885 ], [ -87.927093720334696, 37.901704186182599 ], [ -87.927769, 37.900924 ], [ -87.932129, 37.89732 ], [ -87.936784, 37.892587 ], [ -87.9371701527905, 37.892151021042999 ], [ -87.938365, 37.890802 ], [ -87.940069, 37.88767 ], [ -87.940839, 37.883338 ], [ -87.941021, 37.879168 ], [ -87.940005, 37.875044 ], [ -87.938128, 37.870651 ], [ -87.936228, 37.867937 ], [ -87.927303, 37.858709 ], [ -87.914892, 37.849618 ], [ -87.910276, 37.843416 ], [ -87.907773, 37.837611 ], [ -87.903804, 37.817762 ], [ -87.904595, 37.812526 ], [ -87.90681, 37.807624 ], [ -87.911087, 37.805158 ], [ -87.919138, 37.802128 ], [ -87.927543, 37.799851 ], [ -87.932554, 37.797672 ], [ -87.934936, 37.79522 ], [ -87.934698, 37.791827 ], [ -87.935861, 37.789703 ], [ -87.938598, 37.787914 ], [ -87.944506, 37.775256 ], [ -87.946463, 37.773477 ], [ -87.948594, 37.772344 ], [ -87.95259, 37.771742 ], [ -87.96003, 37.773223 ], [ -87.970262, 37.781856 ], [ -87.971805, 37.784648 ], [ -87.976389, 37.788004 ], [ -87.984358, 37.7918 ], [ -87.987157, 37.792202 ], [ -87.991168, 37.794049 ], [ -87.993099, 37.795756 ], [ -87.997102, 37.797672 ], [ -88.004706, 37.800145 ], [ -88.015144, 37.80193 ], [ -88.021021, 37.801409 ], [ -88.02803, 37.799224 ], [ -88.028372, 37.80373 ], [ -88.030036, 37.806508 ], [ -88.03302, 37.80865 ], [ -88.037623, 37.809864 ], [ -88.045753, 37.808129 ], [ -88.059662, 37.801196 ], [ -88.067716, 37.80057 ], [ -88.076404, 37.804635 ], [ -88.077228411536794, 37.805368777661201 ], [ -88.090039, 37.816771 ], [ -88.091848, 37.822108 ], [ -88.090092, 37.825642 ], [ -88.085727, 37.829388 ], [ -88.080854, 37.830902 ], [ -88.076427, 37.830239 ], [ -88.066041, 37.824844 ], [ -88.058055, 37.822449 ], [ -88.043831, 37.821525 ], [ -88.033011, 37.824383 ], [ -88.028693, 37.827109 ], [ -88.025921, 37.832694 ], [ -88.028217, 37.838585 ], [ -88.033309, 37.841917 ], [ -88.048215, 37.844836 ], [ -88.059425, 37.848732 ], [ -88.065036, 37.853172 ], [ -88.068534, 37.858011 ], [ -88.078529, 37.879118 ], [ -88.084385, 37.885582 ], [ -88.091846, 37.890716 ], [ -88.092918129775498, 37.8917409009076 ], [ -88.094956, 37.893689 ], [ -88.097892, 37.901517 ], [ -88.09776, 37.904026 ], [ -88.094476, 37.905962 ], [ -88.086237, 37.905713 ], [ -88.071449, 37.895813 ], [ -88.058156, 37.892753 ], [ -88.055373, 37.891238 ], [ -88.044926, 37.891216 ], [ -88.035992, 37.892777 ], [ -88.029138, 37.892637 ], [ -88.024818, 37.88886 ], [ -88.020284, 37.888051 ] ] ] } }
]
}
